<?xml version="1.0" encoding="UTF-8"?>
<osm version="0.6" generator="Overpass API 0.7.62.8 e802775f">
<note>The data included in this document is from www.openstreetmap.org. The data is made available under ODbL.</note>
<meta osm_base="2025-10-23T17:02:56Z" areas="2025-10-23T14:54:58Z"/>

  <node id="1119831415" lat="52.8735032" lon="-0.9909447" version="1" timestamp="2011-01-25T12:18:37Z" changeset="7083029" uid="20119" user="peter taffs"/>
  <node id="1203890293" lat="52.8540481" lon="-1.0311478" version="6" timestamp="2013-05-14T10:05:13Z" changeset="16123190" uid="1431482" user="JonOrchard"/>
  <node id="1638500833" lat="52.8675331" lon="-1.0294185" version="5" timestamp="2017-07-31T21:49:53Z" changeset="50733060" uid="5296090" user="TR42">
    <tag k="exit_to" v="Kinoulton"/>
    <tag k="highway" v="motorway_junction"/>
    <tag k="name" v="Roehoe"/>
    <tag k="source:name" v="survey"/>
  </node>
  <node id="1638500839" lat="52.8665284" lon="-1.0297119" version="3" timestamp="2017-07-31T21:49:53Z" changeset="50733060" uid="5296090" user="TR42"/>
  <node id="1638514646" lat="52.8680613" lon="-1.0296463" version="3" timestamp="2013-05-13T19:58:25Z" changeset="16116083" uid="1431482" user="JonOrchard"/>
  <node id="1638514652" lat="52.8671588" lon="-1.0287229" version="4" timestamp="2021-03-17T19:42:19Z" changeset="101210705" uid="1983103" user="Jorisbo"/>
  <node id="1638530166" lat="52.8605870" lon="-1.0307464" version="2" timestamp="2014-01-09T10:51:51Z" changeset="19897711" uid="1431482" user="JonOrchard"/>
  <node id="2325439304" lat="52.8585121" lon="-0.9754429" version="5" timestamp="2016-08-28T23:25:59Z" changeset="41766235" uid="207845" user="will_p"/>
  <node id="5005992423" lat="52.8557299" lon="-1.0312392" version="2" timestamp="2021-09-26T16:31:32Z" changeset="111730463" uid="13341565" user="Falsernet">
    <tag k="exit_to" v="Nottingham (A606);Melton Mowbury (A606)"/>
    <tag k="highway" v="motorway_junction"/>
    <tag k="name" v="Widmerpool Interchange"/>
  </node>
  <node id="7843956459" lat="52.8585172" lon="-1.0311288" version="1" timestamp="2020-08-25T17:11:24Z" changeset="89927159" uid="705850" user="Cebderby"/>
  <node id="8529717784" lat="52.8671886" lon="-1.0289784" version="2" timestamp="2025-03-27T18:17:00Z" changeset="164176628" uid="5229644" user="Nathan_A_RF"/>
  <way id="29434533" version="19" timestamp="2020-08-06T07:26:48Z" changeset="89021038" uid="1431482" user="JonOrchard">
    <nd ref="1119831415"/>
    <nd ref="2296724068"/>
    <nd ref="2314363142"/>
    <nd ref="7781379068"/>
    <nd ref="324399724"/>
    <nd ref="7781379067"/>
    <nd ref="2303738855"/>
    <nd ref="7790633928"/>
    <nd ref="7781379066"/>
    <nd ref="460984308"/>
    <nd ref="7781379065"/>
    <nd ref="460982606"/>
    <nd ref="324399726"/>
    <nd ref="2978038252"/>
    <nd ref="2303738854"/>
    <nd ref="324399727"/>
    <nd ref="2303738852"/>
    <nd ref="2978038249"/>
    <nd ref="2303738851"/>
    <nd ref="7781379063"/>
    <nd ref="2303738853"/>
    <nd ref="2303738850"/>
    <nd ref="2372466627"/>
    <nd ref="2372466628"/>
    <nd ref="324399766"/>
    <nd ref="2372466626"/>
    <nd ref="2372466624"/>
    <nd ref="2372466625"/>
    <nd ref="324399767"/>
    <nd ref="2372479842"/>
    <nd ref="324399768"/>
    <nd ref="3133492731"/>
    <nd ref="3133492730"/>
    <nd ref="324399769"/>
    <nd ref="2372467704"/>
    <nd ref="7790614088"/>
    <nd ref="3133492729"/>
    <nd ref="2372990122"/>
    <nd ref="2372990119"/>
    <nd ref="324399770"/>
    <nd ref="2372990117"/>
    <nd ref="2372990115"/>
    <nd ref="364440612"/>
    <tag k="highway" v="tertiary"/>
    <tag k="name" v="Owthorpe Lane"/>
    <tag k="source" v="npe"/>
    <tag k="source:name" v="survey"/>
  </way>
  <way id="35467520" version="13" timestamp="2022-01-19T16:25:01Z" changeset="116349578" uid="1431482" user="JonOrchard">
    <nd ref="324399065"/>
    <nd ref="1119372425"/>
    <nd ref="324400419"/>
    <nd ref="2296724069"/>
    <nd ref="9431400974"/>
    <nd ref="9431400977"/>
    <nd ref="415949448"/>
    <nd ref="1119831415"/>
    <tag k="highway" v="tertiary"/>
    <tag k="maxspeed" v="30 mph"/>
    <tag k="name" v="Owthorpe Lane"/>
    <tag k="source" v="npe"/>
    <tag k="source:name" v="survey"/>
  </way>
  <way id="35467596" version="25" timestamp="2020-08-17T12:43:05Z" changeset="89519662" uid="1431482" user="JonOrchard">
    <nd ref="2966621673"/>
    <nd ref="2296724024"/>
    <nd ref="1144316981"/>
    <nd ref="2296724078"/>
    <nd ref="1144317012"/>
    <nd ref="324399056"/>
    <nd ref="4374788929"/>
    <nd ref="2967460325"/>
    <nd ref="1144317043"/>
    <nd ref="1119394039"/>
    <nd ref="2368356090"/>
    <nd ref="460981494"/>
    <nd ref="1119330338"/>
    <nd ref="7820207707"/>
    <nd ref="7820207705"/>
    <nd ref="2313482353"/>
    <nd ref="7820207703"/>
    <nd ref="7820207701"/>
    <nd ref="7820207697"/>
    <nd ref="7820189483"/>
    <nd ref="324399057"/>
    <nd ref="7820207692"/>
    <nd ref="7820189481"/>
    <nd ref="7820207696"/>
    <nd ref="7820207709"/>
    <nd ref="7820207711"/>
    <nd ref="7820207713"/>
    <nd ref="7820207715"/>
    <nd ref="1119330337"/>
    <nd ref="7820207717"/>
    <nd ref="1536690888"/>
    <nd ref="7820207719"/>
    <nd ref="7820207721"/>
    <nd ref="7820207723"/>
    <nd ref="324399058"/>
    <nd ref="7820207724"/>
    <nd ref="7820207731"/>
    <nd ref="7820207732"/>
    <nd ref="1119330340"/>
    <nd ref="2967602676"/>
    <nd ref="7820207734"/>
    <nd ref="1119330339"/>
    <nd ref="7820207736"/>
    <nd ref="5047772355"/>
    <nd ref="2967602677"/>
    <nd ref="1119330341"/>
    <nd ref="7820207742"/>
    <nd ref="7820207744"/>
    <nd ref="7820207746"/>
    <nd ref="324399059"/>
    <nd ref="330526282"/>
    <nd ref="469208092"/>
    <tag k="highway" v="tertiary"/>
    <tag k="maxspeed" v="30 mph"/>
    <tag k="motor_vehicle" v="yes"/>
    <tag k="name" v="Main Street"/>
    <tag k="oneway" v="no"/>
    <tag k="source" v="npe"/>
    <tag k="source:name" v="NaPTAN"/>
    <tag k="surface" v="asphalt"/>
  </way>
  <way id="35467624" version="6" timestamp="2021-09-18T23:09:06Z" changeset="111391517" uid="242345" user="confusedbuffalo">
    <nd ref="415949445"/>
    <nd ref="1119831420"/>
    <nd ref="2968006385"/>
    <nd ref="2968006383"/>
    <nd ref="2968006384"/>
    <nd ref="415949446"/>
    <tag k="highway" v="residential"/>
    <tag k="name" v="Nevile Drive"/>
    <tag k="postal_code" v="NG12 3EE"/>
    <tag k="source" v="survey"/>
  </way>
  <way id="35467627" version="9" timestamp="2024-01-10T15:40:40Z" changeset="146109002" uid="84681" user="SK53">
    <nd ref="2306297416"/>
    <nd ref="1119294795"/>
    <nd ref="2306297419"/>
    <nd ref="2306297417"/>
    <nd ref="2306297418"/>
    <nd ref="1119294798"/>
    <nd ref="11506198237"/>
    <nd ref="1119294803"/>
    <nd ref="2306297415"/>
    <nd ref="415949483"/>
    <nd ref="2306297412"/>
    <nd ref="1119294818"/>
    <nd ref="2306297410"/>
    <nd ref="2306297411"/>
    <nd ref="9431400967"/>
    <nd ref="415949448"/>
    <tag k="highway" v="residential"/>
    <tag k="name" v="Gardner Drive"/>
    <tag k="postal_code" v="NG12 3RB"/>
    <tag k="source" v="survey"/>
  </way>
  <way id="39170953" version="6" timestamp="2022-03-02T09:52:56Z" changeset="118011932" uid="1431482" user="JonOrchard">
    <nd ref="469208092"/>
    <nd ref="9549242121"/>
    <nd ref="469207999"/>
    <tag k="bridge" v="yes"/>
    <tag k="bridge_ref" v="Bridge 28"/>
    <tag k="highway" v="tertiary"/>
    <tag k="layer" v="1"/>
    <tag k="maxspeed" v="30 mph"/>
    <tag k="name" v="Main Street"/>
    <tag k="source" v="npe"/>
  </way>
  <way id="39170955" version="28" timestamp="2024-01-08T09:10:47Z" changeset="146020412" uid="1431482" user="JonOrchard">
    <nd ref="469207999"/>
    <nd ref="324399060"/>
    <nd ref="8324039919"/>
    <nd ref="1119831416"/>
    <nd ref="7990503037"/>
    <nd ref="1119377474"/>
    <nd ref="7820373455"/>
    <nd ref="2296977534"/>
    <nd ref="2303749974"/>
    <nd ref="2296977535"/>
    <nd ref="324399061"/>
    <nd ref="4336037975"/>
    <nd ref="4336038205"/>
    <nd ref="460981504"/>
    <nd ref="1119269516"/>
    <nd ref="8382608592"/>
    <nd ref="1119367825"/>
    <nd ref="2296977536"/>
    <nd ref="1119819168"/>
    <nd ref="2374035668"/>
    <nd ref="11499581464"/>
    <nd ref="11499588876"/>
    <nd ref="11499581465"/>
    <nd ref="11499581466"/>
    <nd ref="8382608595"/>
    <nd ref="324399063"/>
    <nd ref="2296977537"/>
    <nd ref="2296977538"/>
    <nd ref="324399064"/>
    <nd ref="2296977539"/>
    <nd ref="1119270187"/>
    <nd ref="2296977540"/>
    <nd ref="7790640083"/>
    <nd ref="4374788952"/>
    <nd ref="460981517"/>
    <nd ref="1119372133"/>
    <nd ref="2296977541"/>
    <nd ref="2296977542"/>
    <nd ref="4374788956"/>
    <tag k="highway" v="tertiary"/>
    <tag k="maxspeed" v="30 mph"/>
    <tag k="name" v="Main Street"/>
    <tag k="source" v="gps"/>
    <tag k="source:name" v="NaPTAN"/>
  </way>
  <way id="39197165" version="10" timestamp="2024-01-19T19:32:09Z" changeset="146455440" uid="242345" user="confusedbuffalo">
    <nd ref="469488735"/>
    <nd ref="469488725"/>
    <nd ref="2373141944"/>
    <nd ref="2968006404"/>
    <nd ref="2373141943"/>
    <tag k="highway" v="tertiary"/>
    <tag k="maxspeed" v="60 mph"/>
    <tag k="maxspeed:type" v="GB:nsl_single"/>
    <tag k="name" v="Hickling Lane"/>
    <tag k="not:name" v="Hickling Road"/>
    <tag k="not:name:note" v="street sign"/>
    <tag k="source:name" v="survey"/>
  </way>
  <way id="39197166" version="5" timestamp="2024-01-19T19:32:09Z" changeset="146455440" uid="242345" user="confusedbuffalo">
    <nd ref="469488727"/>
    <nd ref="469488728"/>
    <tag k="bridge" v="yes"/>
    <tag k="highway" v="tertiary"/>
    <tag k="layer" v="0"/>
    <tag k="maxspeed" v="60 mph"/>
    <tag k="maxspeed:type" v="GB:nsl_single"/>
    <tag k="name" v="Hickling Lane"/>
    <tag k="not:name" v="Hickling Road"/>
    <tag k="not:name:note" v="street sign"/>
    <tag k="source" v="GPS"/>
    <tag k="source:name" v="survey"/>
  </way>
  <way id="39197167" version="10" timestamp="2024-01-19T19:32:09Z" changeset="146455440" uid="242345" user="confusedbuffalo">
    <nd ref="469488728"/>
    <nd ref="469488729"/>
    <nd ref="2968006408"/>
    <nd ref="469488730"/>
    <nd ref="2373141940"/>
    <nd ref="324399718"/>
    <nd ref="2968006407"/>
    <nd ref="324399719"/>
    <nd ref="2373141941"/>
    <nd ref="469488731"/>
    <nd ref="2313499788"/>
    <nd ref="324399720"/>
    <nd ref="2313499787"/>
    <nd ref="469488732"/>
    <nd ref="324399721"/>
    <nd ref="2302874033"/>
    <nd ref="2373141942"/>
    <nd ref="2968006406"/>
    <nd ref="2306306845"/>
    <nd ref="469488734"/>
    <nd ref="469488735"/>
    <tag k="highway" v="tertiary"/>
    <tag k="maxspeed" v="60 mph"/>
    <tag k="maxspeed:type" v="GB:nsl_single"/>
    <tag k="name" v="Hickling Lane"/>
    <tag k="not:name" v="Hickling Road"/>
    <tag k="not:name:note" v="street sign"/>
    <tag k="source" v="GPS"/>
    <tag k="source:name" v="survey"/>
  </way>
  <way id="47312289" version="13" timestamp="2024-02-08T13:55:34Z" changeset="147219082" uid="1431482" user="JonOrchard">
    <nd ref="602655228"/>
    <nd ref="2351194268"/>
    <nd ref="2968006412"/>
    <nd ref="2351194270"/>
    <nd ref="469488714"/>
    <nd ref="11598332930"/>
    <nd ref="324399715"/>
    <nd ref="2388334590"/>
    <nd ref="469488807"/>
    <nd ref="2388334591"/>
    <nd ref="324399716"/>
    <nd ref="2388334592"/>
    <nd ref="469488736"/>
    <nd ref="2968006411"/>
    <nd ref="2325252473"/>
    <nd ref="2968006410"/>
    <nd ref="2325252475"/>
    <nd ref="4428543320"/>
    <nd ref="2388334593"/>
    <nd ref="324399717"/>
    <nd ref="4374788922"/>
    <nd ref="469488818"/>
    <nd ref="11598352860"/>
    <nd ref="2968006409"/>
    <nd ref="6011172666"/>
    <nd ref="469488727"/>
    <tag k="highway" v="tertiary"/>
    <tag k="maxspeed" v="60 mph"/>
    <tag k="maxspeed:type" v="GB:nsl_single"/>
    <tag k="name" v="Hickling Lane"/>
    <tag k="not:name" v="Hickling Road"/>
    <tag k="not:name:note" v="street sign"/>
    <tag k="source" v="GPS"/>
    <tag k="source:name" v="survey"/>
  </way>
  <way id="96636848" version="3" timestamp="2011-01-25T11:59:26Z" changeset="7082891" uid="20119" user="peter taffs">
    <nd ref="1119270185"/>
    <nd ref="1119330342"/>
    <nd ref="1119270187"/>
    <tag k="highway" v="residential"/>
    <tag k="name" v="Boswell Close"/>
  </way>
  <way id="96639102" version="4" timestamp="2011-12-30T03:35:39Z" changeset="10241930" uid="20119" user="peter taffs">
    <nd ref="1119294795"/>
    <nd ref="1119295101"/>
    <tag k="highway" v="residential"/>
    <tag k="name" v="Gardner Drive"/>
    <tag k="postal_code" v="NG12 3RB"/>
    <tag k="source" v="survey"/>
  </way>
  <way id="96646382" version="8" timestamp="2021-09-18T23:09:06Z" changeset="111391517" uid="242345" user="confusedbuffalo">
    <nd ref="1119367825"/>
    <nd ref="1119369108"/>
    <nd ref="4336039590"/>
    <nd ref="1119369109"/>
    <nd ref="4336039591"/>
    <nd ref="4336039606"/>
    <nd ref="1119369113"/>
    <nd ref="1119369116"/>
    <nd ref="4336039593"/>
    <nd ref="2306301143"/>
    <nd ref="1119369118"/>
    <nd ref="2306301144"/>
    <nd ref="2303661316"/>
    <nd ref="1119369120"/>
    <nd ref="4336039592"/>
    <nd ref="1119369122"/>
    <tag k="highway" v="residential"/>
    <tag k="name" v="Meadow Way"/>
    <tag k="postal_code" v="NG12 3RE"/>
  </way>
  <way id="96646501" version="2" timestamp="2013-05-14T11:32:00Z" changeset="16124149" uid="1431482" user="JonOrchard">
    <nd ref="1119369120"/>
    <nd ref="1119370083"/>
    <nd ref="1119370085"/>
    <nd ref="2303661315"/>
    <nd ref="1119370087"/>
    <nd ref="1119370089"/>
    <nd ref="1119370090"/>
    <nd ref="1119370092"/>
    <nd ref="1119370093"/>
    <nd ref="1119370095"/>
    <tag k="highway" v="residential"/>
    <tag k="name" v="Lindy Close"/>
  </way>
  <way id="96646611" version="6" timestamp="2013-05-16T11:05:46Z" changeset="16151466" uid="1431482" user="JonOrchard">
    <nd ref="1119369109"/>
    <nd ref="1119371448"/>
    <nd ref="1119371449"/>
    <nd ref="2306301141"/>
    <nd ref="1119371450"/>
    <nd ref="2306301139"/>
    <nd ref="1119371451"/>
    <nd ref="1119371453"/>
    <nd ref="1119371455"/>
    <nd ref="1119371836"/>
    <nd ref="2306301135"/>
    <nd ref="1119371464"/>
    <nd ref="2306301137"/>
    <nd ref="1119371466"/>
    <nd ref="1119371468"/>
    <nd ref="2306297414"/>
    <nd ref="1119371469"/>
    <nd ref="2306297413"/>
    <nd ref="1119371471"/>
    <nd ref="415949483"/>
    <tag k="highway" v="residential"/>
    <tag k="name" v="Newbold Way"/>
    <tag k="postal_code" v="NG12 3RF"/>
  </way>
  <way id="96646642" version="2" timestamp="2011-01-25T11:59:26Z" changeset="7082891" uid="20119" user="peter taffs">
    <nd ref="1119371830"/>
    <nd ref="1119371832"/>
    <nd ref="1119371833"/>
    <nd ref="1119371834"/>
    <nd ref="1119371836"/>
    <tag k="highway" v="residential"/>
    <tag k="name" v="Brook Drive"/>
  </way>
  <way id="96646666" version="4" timestamp="2020-08-06T07:33:07Z" changeset="89021551" uid="1431482" user="JonOrchard">
    <nd ref="1119372133"/>
    <nd ref="4374788953"/>
    <nd ref="7790657699"/>
    <nd ref="1119372425"/>
    <tag k="highway" v="unclassified"/>
  </way>
  <way id="96646852" version="6" timestamp="2020-08-17T14:00:23Z" changeset="89522958" uid="1431482" user="JonOrchard">
    <nd ref="324399065"/>
    <nd ref="7820336270"/>
    <nd ref="2968004259"/>
    <nd ref="1119320425"/>
    <nd ref="7781379071"/>
    <nd ref="1119320427"/>
    <nd ref="1119320410"/>
    <tag k="highway" v="residential"/>
    <tag k="name" v="Hall Lane"/>
    <tag k="source" v="gps"/>
    <tag k="source:name" v="NaPTAN; survey"/>
  </way>
  <way id="96646974" version="3" timestamp="2020-08-17T13:56:44Z" changeset="89522806" uid="1431482" user="JonOrchard">
    <nd ref="1119377474"/>
    <nd ref="7820373453"/>
    <nd ref="1119377618"/>
    <nd ref="1119377620"/>
    <tag k="highway" v="residential"/>
    <tag k="name" v="Pinfold Lane"/>
  </way>
  <way id="96646977" version="2" timestamp="2011-01-24T22:02:44Z" changeset="7078662" uid="20119" user="peter taffs">
    <nd ref="1119377618"/>
    <nd ref="1119377835"/>
    <nd ref="1119377837"/>
    <tag k="highway" v="residential"/>
    <tag k="name" v="Pinfold Close"/>
  </way>
  <way id="96646978" version="3" timestamp="2013-05-14T11:29:05Z" changeset="16124107" uid="1431482" user="JonOrchard">
    <nd ref="1119377835"/>
    <nd ref="2303659262"/>
    <nd ref="1119377992"/>
    <tag k="highway" v="residential"/>
  </way>
  <way id="96697455" version="2" timestamp="2016-08-29T21:24:14Z" changeset="41788655" uid="207845" user="will_p">
    <nd ref="1119831416"/>
    <nd ref="4374788948"/>
    <nd ref="4374788947"/>
    <nd ref="1119831417"/>
    <tag k="highway" v="residential"/>
    <tag k="name" v="Gainsborough Close"/>
  </way>
  <way id="96697458" version="4" timestamp="2025-02-15T20:53:56Z" changeset="162550651" uid="95856" user="⇄ john paul jones &amp; gringo">
    <nd ref="1119831420"/>
    <nd ref="1119831421"/>
    <tag k="addr:city" v="Nottingham"/>
    <tag k="addr:country" v="GB"/>
    <tag k="addr:postcode" v="NG12 3EE"/>
    <tag k="addr:suburb" v="Kinoulton"/>
    <tag k="highway" v="residential"/>
    <tag k="name" v="Nevile Drive"/>
    <tag k="source" v="survey"/>
  </way>
  <way id="96697461" version="8" timestamp="2024-01-28T19:22:22Z" changeset="146792398" uid="1431482" user="JonOrchard">
    <nd ref="1119320410"/>
    <nd ref="1119831418"/>
    <nd ref="2968004250"/>
    <nd ref="9433198668"/>
    <nd ref="2306301146"/>
    <nd ref="7781379072"/>
    <nd ref="469465949"/>
    <nd ref="7208455134"/>
    <nd ref="7781379073"/>
    <nd ref="2306301147"/>
    <nd ref="7781379074"/>
    <nd ref="7781379075"/>
    <nd ref="469465950"/>
    <nd ref="7781379076"/>
    <nd ref="2306301149"/>
    <nd ref="2306301148"/>
    <nd ref="5020076007"/>
    <nd ref="324400406"/>
    <nd ref="5020076008"/>
    <nd ref="5020076012"/>
    <nd ref="5020076011"/>
    <nd ref="11560846873"/>
    <nd ref="5020076010"/>
    <nd ref="5020076009"/>
    <nd ref="324400429"/>
    <tag k="highway" v="unclassified"/>
    <tag k="name" v="Hall Lane"/>
    <tag k="source:name" v="survey"/>
  </way>
  <way id="96697462" version="7" timestamp="2019-08-27T19:26:23Z" changeset="73812188" uid="162917" user="DLMatthews">
    <nd ref="2373141943"/>
    <nd ref="2967583370"/>
    <nd ref="1119831426"/>
    <nd ref="469488741"/>
    <nd ref="2968006386"/>
    <nd ref="2968006388"/>
    <nd ref="415949446"/>
    <nd ref="2968006382"/>
    <nd ref="2968006393"/>
    <nd ref="2968006396"/>
    <nd ref="2968006381"/>
    <nd ref="469488726"/>
    <nd ref="4374788956"/>
    <tag k="highway" v="tertiary"/>
    <tag k="maxspeed" v="30 mph"/>
    <tag k="name" v="Hickling Lane"/>
    <tag k="not:name" v="Hickling Road"/>
    <tag k="not:name:note" v="street sign"/>
    <tag k="source:name" v="survey"/>
  </way>
  <way id="98911838" version="1" timestamp="2011-02-09T19:33:20Z" changeset="7239326" uid="84075" user="kevjs1982">
    <nd ref="1144317058"/>
    <nd ref="1144317092"/>
    <nd ref="1144317040"/>
    <tag k="highway" v="residential"/>
    <tag k="name" v="West End"/>
    <tag k="source" v="bing"/>
    <tag k="source:name" v="OS OpenData Locator"/>
  </way>
  <way id="98911846" version="2" timestamp="2014-07-17T11:41:15Z" changeset="24199504" uid="1431482" user="JonOrchard">
    <nd ref="1144317080"/>
    <nd ref="1144317007"/>
    <nd ref="1144316983"/>
    <nd ref="1144317040"/>
    <nd ref="1144317015"/>
    <nd ref="1144317077"/>
    <nd ref="1144317071"/>
    <nd ref="1144317018"/>
    <nd ref="1144316981"/>
    <tag k="highway" v="residential"/>
    <tag k="name" v="West End"/>
    <tag k="source" v="bing"/>
    <tag k="source:name" v="OS OpenData Locator"/>
  </way>
  <way id="150997459" version="21" timestamp="2023-09-05T21:09:03Z" changeset="140868858" uid="13341565" user="Falsernet">
    <nd ref="5005992423"/>
    <nd ref="762629220"/>
    <nd ref="5005992437"/>
    <nd ref="5005992424"/>
    <nd ref="1203890292"/>
    <nd ref="26955517"/>
    <nd ref="5006011208"/>
    <nd ref="1203890284"/>
    <nd ref="26955514"/>
    <nd ref="27030307"/>
    <nd ref="11170575527"/>
    <tag k="expressway" v="yes"/>
    <tag k="highway" v="trunk"/>
    <tag k="lanes" v="2"/>
    <tag k="lit" v="no"/>
    <tag k="maxheight" v="default"/>
    <tag k="maxspeed" v="70 mph"/>
    <tag k="maxspeed:type" v="GB:nsl_dual"/>
    <tag k="national_highways:area" v="7"/>
    <tag k="oneway" v="yes"/>
    <tag k="operator" v="National Highways"/>
    <tag k="operator:wikidata" v="Q5760006"/>
    <tag k="ref" v="A46"/>
    <tag k="shoulder" v="no"/>
    <tag k="source:maxspeed" v="Stats19"/>
  </way>
  <way id="150999934" version="8" timestamp="2025-03-27T18:17:00Z" changeset="164176628" uid="5229644" user="Nathan_A_RF">
    <nd ref="8529717784"/>
    <nd ref="1638536557"/>
    <nd ref="8529717787"/>
    <nd ref="8529717786"/>
    <nd ref="8529717785"/>
    <nd ref="1638514653"/>
    <nd ref="1638514655"/>
    <tag k="expressway" v="yes"/>
    <tag k="highway" v="trunk_link"/>
    <tag k="lit" v="no"/>
    <tag k="maxspeed" v="70 mph"/>
    <tag k="maxspeed:type" v="GB:nsl_dual"/>
    <tag k="national_highways:area" v="7"/>
    <tag k="oneway" v="yes"/>
    <tag k="operator" v="National Highways"/>
    <tag k="operator:wikidata" v="Q5760006"/>
    <tag k="ref" v="A46"/>
  </way>
  <way id="150999936" version="7" timestamp="2025-03-27T18:17:00Z" changeset="164176628" uid="5229644" user="Nathan_A_RF">
    <nd ref="1638500833"/>
    <nd ref="5005977661"/>
    <nd ref="1638514661"/>
    <nd ref="8529717783"/>
    <nd ref="1638514659"/>
    <nd ref="8529717784"/>
    <tag k="expressway" v="yes"/>
    <tag k="highway" v="trunk_link"/>
    <tag k="lane_markings" v="no"/>
    <tag k="lit" v="no"/>
    <tag k="maxspeed" v="70 mph"/>
    <tag k="maxspeed:type" v="GB:nsl_dual"/>
    <tag k="national_highways:area" v="7"/>
    <tag k="oneway" v="yes"/>
    <tag k="operator" v="National Highways"/>
    <tag k="operator:wikidata" v="Q5760006"/>
    <tag k="ref" v="A46"/>
  </way>
  <way id="151000358" version="11" timestamp="2025-03-27T18:17:00Z" changeset="164176628" uid="5229644" user="Nathan_A_RF">
    <nd ref="1638514647"/>
    <nd ref="1638514648"/>
    <nd ref="8529717776"/>
    <nd ref="2302897164"/>
    <nd ref="1638514649"/>
    <nd ref="8529717777"/>
    <nd ref="2302897163"/>
    <nd ref="1638514650"/>
    <nd ref="2302897162"/>
    <nd ref="1638514662"/>
    <nd ref="2302897161"/>
    <nd ref="1638514651"/>
    <nd ref="9549469823"/>
    <nd ref="2302897160"/>
    <nd ref="1638514652"/>
    <tag k="highway" v="tertiary"/>
    <tag k="lit" v="no"/>
    <tag k="maxspeed" v="60 mph"/>
    <tag k="maxspeed:type" v="GB:nsl_single"/>
  </way>
  <way id="151000359" version="7" timestamp="2025-03-27T18:17:00Z" changeset="164176628" uid="5229644" user="Nathan_A_RF">
    <nd ref="1638514646"/>
    <nd ref="1638514647"/>
    <tag k="bridge" v="yes"/>
    <tag k="highway" v="tertiary"/>
    <tag k="layer" v="1"/>
    <tag k="lit" v="no"/>
    <tag k="maxspeed" v="60 mph"/>
    <tag k="maxspeed:type" v="GB:nsl_single"/>
  </way>
  <way id="151000417" version="11" timestamp="2025-03-27T18:17:00Z" changeset="164176628" uid="5229644" user="Nathan_A_RF">
    <nd ref="1638514652"/>
    <nd ref="1638536563"/>
    <nd ref="1638530174"/>
    <nd ref="1638530172"/>
    <nd ref="2302897201"/>
    <nd ref="8529717790"/>
    <nd ref="1638530171"/>
    <nd ref="5005992426"/>
    <nd ref="2303453745"/>
    <nd ref="1638530170"/>
    <tag k="highway" v="tertiary"/>
    <tag k="lit" v="no"/>
    <tag k="maxspeed" v="60 mph"/>
    <tag k="maxspeed:type" v="GB:nsl_single"/>
    <tag k="source" v="GPS Survey"/>
  </way>
  <way id="170147807" version="9" timestamp="2024-02-13T16:29:32Z" changeset="147416753" uid="1431482" user="JonOrchard">
    <nd ref="2325439304"/>
    <nd ref="11619036616"/>
    <nd ref="11597683022"/>
    <nd ref="2349835777"/>
    <nd ref="11619036619"/>
    <nd ref="11619036621"/>
    <nd ref="324400974"/>
    <nd ref="602655228"/>
    <tag k="highway" v="tertiary"/>
    <tag k="maxspeed" v="30 mph"/>
    <tag k="name" v="Hickling Lane"/>
    <tag k="not:name" v="Hickling Road"/>
    <tag k="not:name:note" v="street sign"/>
    <tag k="source" v="GPS"/>
    <tag k="source:maxspeed" v="GPS"/>
    <tag k="source:name" v="survey"/>
  </way>
  <way id="170368301" version="11" timestamp="2025-02-15T20:53:56Z" changeset="162550651" uid="95856" user="⇄ john paul jones &amp; gringo">
    <nd ref="1536689146"/>
    <nd ref="1815211505"/>
    <nd ref="1815211508"/>
    <nd ref="4374788931"/>
    <nd ref="4374788932"/>
    <nd ref="1815211511"/>
    <nd ref="1815211514"/>
    <nd ref="5047762731"/>
    <nd ref="5047762737"/>
    <nd ref="1815211517"/>
    <nd ref="5047762733"/>
    <nd ref="1815211519"/>
    <nd ref="1536689146"/>
    <tag k="addr:city" v="Nottingham"/>
    <tag k="addr:country" v="GB"/>
    <tag k="addr:postcode" v="NG12 3EL"/>
    <tag k="addr:street" v="Main Street"/>
    <tag k="addr:suburb" v="Kinoulton"/>
    <tag k="amenity" v="community_centre"/>
    <tag k="building" v="public"/>
    <tag k="community_centre" v="village_hall"/>
    <tag k="name" v="Kinoulton Village Hall"/>
    <tag k="old_fhrs:id" v="265884;265574"/>
    <tag k="source" v="Bing"/>
  </way>
  <way id="172406264" version="18" timestamp="2024-02-14T13:02:32Z" changeset="147450323" uid="1431482" user="JonOrchard">
    <nd ref="1638530166"/>
    <nd ref="2381275293"/>
    <nd ref="1833121810"/>
    <nd ref="2381275297"/>
    <nd ref="2359359956"/>
    <nd ref="2359360947"/>
    <nd ref="1833121812"/>
    <nd ref="2359359960"/>
    <nd ref="1833121815"/>
    <nd ref="1833121830"/>
    <nd ref="2616059081"/>
    <nd ref="2303571424"/>
    <nd ref="2966604334"/>
    <nd ref="1833121833"/>
    <nd ref="2966604335"/>
    <nd ref="9549232588"/>
    <nd ref="11622589201"/>
    <nd ref="4374788910"/>
    <nd ref="324399046"/>
    <tag k="highway" v="tertiary"/>
    <tag k="lit" v="no"/>
    <tag k="maxspeed" v="40 mph"/>
    <tag k="name" v="Kinoulton Lane"/>
    <tag k="postal_code" v="NG12 3EQ"/>
    <tag k="source" v="Local knowledge"/>
    <tag k="source:name" v="OS OpenData Streetview"/>
    <tag k="surface" v="asphalt"/>
  </way>
  <way id="220556274" version="6" timestamp="2017-04-13T14:51:42Z" changeset="47745473" uid="1431482" user="JonOrchard">
    <nd ref="2296664391"/>
    <nd ref="2296664405"/>
    <nd ref="2381274428"/>
    <nd ref="2381274433"/>
    <nd ref="2381274435"/>
    <nd ref="2381274431"/>
    <nd ref="2296664408"/>
    <nd ref="2296664410"/>
    <nd ref="2296664412"/>
    <nd ref="2394282830"/>
    <nd ref="2296664391"/>
    <tag k="addr:city" v="Nottingham"/>
    <tag k="addr:housename" v="The Stables"/>
    <tag k="addr:housenumber" v="1"/>
    <tag k="addr:postcode" v="NG12 3EQ"/>
    <tag k="addr:street" v="Kinoulton Lane"/>
    <tag k="building" v="house"/>
    <tag k="building:levels" v="1"/>
    <tag k="name" v="The Stables"/>
  </way>
  <way id="220556501" version="2" timestamp="2024-01-31T16:30:24Z" changeset="146911973" uid="1431482" user="JonOrchard">
    <nd ref="2296665989"/>
    <nd ref="2296665990"/>
    <nd ref="2296665991"/>
    <nd ref="2296665992"/>
    <nd ref="2296665993"/>
    <nd ref="2296665994"/>
    <nd ref="2296665989"/>
    <tag k="building" v="yes"/>
    <tag k="name" v="The New Bungalow"/>
  </way>
  <way id="220556879" version="2" timestamp="2013-07-11T13:08:20Z" changeset="16913234" uid="1431482" user="JonOrchard">
    <nd ref="2296665199"/>
    <nd ref="2296668111"/>
    <nd ref="2381274443"/>
    <nd ref="2296668112"/>
    <nd ref="2296668110"/>
    <nd ref="2296665199"/>
    <tag k="addr:city" v="Nottingham"/>
    <tag k="addr:housename" v="The Barns"/>
    <tag k="addr:housenumber" v="2"/>
    <tag k="addr:postcode" v="NG12 3EQ"/>
    <tag k="addr:street" v="Kinoulton Lane"/>
    <tag k="building" v="yes"/>
    <tag k="building:levels" v="2"/>
    <tag k="name" v="2 The Barns"/>
  </way>
  <way id="220556986" version="2" timestamp="2013-05-14T12:38:39Z" changeset="16124937" uid="1431482" user="JonOrchard">
    <nd ref="2296668110"/>
    <nd ref="2296668912"/>
    <nd ref="2296668913"/>
    <nd ref="2303738742"/>
    <nd ref="2303738738"/>
    <nd ref="2303738737"/>
    <nd ref="2296668112"/>
    <nd ref="2296668110"/>
    <tag k="addr:city" v="Nottingham"/>
    <tag k="addr:housename" v="The Barns"/>
    <tag k="addr:housenumber" v="3"/>
    <tag k="addr:postcode" v="NG12 3EQ"/>
    <tag k="addr:street" v="Kinoulton Lane"/>
    <tag k="building" v="yes"/>
    <tag k="building:levels" v="2"/>
    <tag k="name" v="3 The Barns"/>
  </way>
  <way id="220556987" version="6" timestamp="2017-04-13T14:51:42Z" changeset="47745473" uid="1431482" user="JonOrchard">
    <nd ref="2296668912"/>
    <nd ref="2296668914"/>
    <nd ref="2296668915"/>
    <nd ref="2296668920"/>
    <nd ref="2966621680"/>
    <nd ref="2966621679"/>
    <nd ref="2381274447"/>
    <nd ref="2381274448"/>
    <nd ref="2381274450"/>
    <nd ref="2381274445"/>
    <nd ref="2966621681"/>
    <nd ref="2296668913"/>
    <nd ref="2296668912"/>
    <tag k="addr:city" v="Nottingham"/>
    <tag k="addr:housename" v="Paddock View"/>
    <tag k="addr:housenumber" v="4"/>
    <tag k="addr:postcode" v="NG12 3EQ"/>
    <tag k="addr:street" v="Kinoulton Lane"/>
    <tag k="building" v="house"/>
    <tag k="building:levels" v="2"/>
    <tag k="name" v="Paddock View"/>
  </way>
  <way id="220556988" version="4" timestamp="2014-07-16T19:57:12Z" changeset="24188964" uid="1431482" user="JonOrchard">
    <nd ref="2296668915"/>
    <nd ref="2966621678"/>
    <nd ref="2296668918"/>
    <nd ref="2381274437"/>
    <nd ref="2296668919"/>
    <nd ref="2296668920"/>
    <nd ref="2296668915"/>
    <tag k="addr:city" v="Nottingham"/>
    <tag k="addr:postcode" v="NG12 3EQ"/>
    <tag k="addr:street" v="Kinoulton Lane"/>
    <tag k="building" v="yes"/>
    <tag k="building:levels" v="2"/>
    <tag k="name" v="The Barns"/>
  </way>
  <way id="220557491" version="4" timestamp="2018-12-03T14:27:56Z" changeset="65127334" uid="1431482" user="JonOrchard">
    <nd ref="2296673322"/>
    <nd ref="2296673323"/>
    <nd ref="2296673324"/>
    <nd ref="2323249298"/>
    <nd ref="2296673325"/>
    <nd ref="2296673322"/>
    <tag k="building" v="yes"/>
    <tag k="building:levels" v="2"/>
    <tag k="name" v="Kinross"/>
  </way>
  <way id="220560419" version="4" timestamp="2018-12-20T07:18:43Z" changeset="65632098" uid="364" user="Edward">
    <nd ref="2296702877"/>
    <nd ref="2296702878"/>
    <nd ref="2296702879"/>
    <nd ref="2296702880"/>
    <nd ref="2296702877"/>
    <tag k="addr:city" v="Nottingham"/>
    <tag k="addr:housename" v="Wolds Farmhouse"/>
    <tag k="addr:postcode" v="NG12 3EQ"/>
    <tag k="addr:street" v="Kinoulton Lane"/>
    <tag k="building" v="residential"/>
    <tag k="name" v="Wold Farmhouse"/>
    <tag k="wikidata" v="Q26521577"/>
  </way>
  <way id="220563646" version="3" timestamp="2024-01-31T16:30:24Z" changeset="146911973" uid="1431482" user="JonOrchard">
    <nd ref="2296733782"/>
    <nd ref="2296733783"/>
    <nd ref="2296733784"/>
    <nd ref="2296733786"/>
    <nd ref="2296733782"/>
    <tag k="building" v="yes"/>
    <tag k="name" v="The Ruffets"/>
  </way>
  <way id="220563648" version="3" timestamp="2024-01-31T16:30:24Z" changeset="146911973" uid="1431482" user="JonOrchard">
    <nd ref="2296733792"/>
    <nd ref="2296733793"/>
    <nd ref="2296733794"/>
    <nd ref="2296733795"/>
    <nd ref="2967442153"/>
    <nd ref="2967442154"/>
    <nd ref="2296733792"/>
    <tag k="building" v="yes"/>
    <tag k="name" v="Hunters Way"/>
  </way>
  <way id="220563649" version="3" timestamp="2014-07-17T11:29:01Z" changeset="24199279" uid="1431482" user="JonOrchard">
    <nd ref="2296733796"/>
    <nd ref="2296733797"/>
    <nd ref="2296733798"/>
    <nd ref="2967442151"/>
    <nd ref="2967442152"/>
    <nd ref="2296733799"/>
    <nd ref="2296733796"/>
    <tag k="building" v="yes"/>
    <tag k="name" v="Cherry Tree Cottage"/>
  </way>
  <way id="220563650" version="3" timestamp="2024-01-31T16:30:24Z" changeset="146911973" uid="1431482" user="JonOrchard">
    <nd ref="2296733800"/>
    <nd ref="2296733801"/>
    <nd ref="2296733802"/>
    <nd ref="2967442145"/>
    <nd ref="2967442146"/>
    <nd ref="2296733803"/>
    <nd ref="2296733800"/>
    <tag k="building" v="yes"/>
    <tag k="name" v="Wrendene"/>
  </way>
  <way id="220563654" version="4" timestamp="2024-01-31T16:30:24Z" changeset="146911973" uid="1431482" user="JonOrchard">
    <nd ref="2296733822"/>
    <nd ref="2296733823"/>
    <nd ref="2967434278"/>
    <nd ref="2967434279"/>
    <nd ref="2296733824"/>
    <nd ref="2296733825"/>
    <nd ref="2296733822"/>
    <tag k="building" v="yes"/>
    <tag k="name" v="The Jays"/>
  </way>
  <way id="220563662" version="3" timestamp="2024-02-02T10:32:38Z" changeset="146979122" uid="1431482" user="JonOrchard">
    <nd ref="2296733854"/>
    <nd ref="2296733855"/>
    <nd ref="4087037733"/>
    <nd ref="4087037738"/>
    <nd ref="4087037734"/>
    <nd ref="4087037735"/>
    <nd ref="2296733856"/>
    <nd ref="4087037736"/>
    <nd ref="4087037737"/>
    <nd ref="2296733857"/>
    <nd ref="2296733854"/>
    <tag k="building" v="yes"/>
    <tag k="name" v="The Lodge"/>
  </way>
  <way id="220563663" version="2" timestamp="2013-05-14T07:07:39Z" changeset="16121088" uid="1431482" user="JonOrchard">
    <nd ref="2296733858"/>
    <nd ref="2303437777"/>
    <nd ref="2296733859"/>
    <nd ref="2296733860"/>
    <nd ref="2296733861"/>
    <nd ref="2296733862"/>
    <nd ref="2296733863"/>
    <nd ref="2296733864"/>
    <nd ref="2296733865"/>
    <nd ref="2296733858"/>
    <tag k="building" v="yes"/>
    <tag k="name" v="Lodge Farm"/>
  </way>
  <way id="220563666" version="2" timestamp="2013-05-09T11:51:02Z" changeset="16046547" uid="1431482" user="JonOrchard">
    <nd ref="2296733874"/>
    <nd ref="2296733875"/>
    <nd ref="2296733876"/>
    <nd ref="2296733877"/>
    <nd ref="2296733874"/>
    <tag k="addr:city" v="Nottingham"/>
    <tag k="addr:postcode" v="NG12 3EQ"/>
    <tag k="addr:street" v="Kinoulton Lane"/>
    <tag k="building" v="yes"/>
    <tag k="name" v="Orchard House"/>
  </way>
  <way id="220563667" version="3" timestamp="2014-07-17T11:31:22Z" changeset="24199318" uid="1431482" user="JonOrchard">
    <nd ref="2296733878"/>
    <nd ref="2967446742"/>
    <nd ref="2296733879"/>
    <nd ref="2967446751"/>
    <nd ref="2967446750"/>
    <nd ref="2296733880"/>
    <nd ref="2967446749"/>
    <nd ref="2967446748"/>
    <nd ref="2967446747"/>
    <nd ref="2967446746"/>
    <nd ref="2296733881"/>
    <nd ref="2967446745"/>
    <nd ref="2967446744"/>
    <nd ref="2967446743"/>
    <nd ref="2296733878"/>
    <tag k="addr:city" v="Nottingham"/>
    <tag k="addr:postcode" v="NG12 3EQ"/>
    <tag k="addr:street" v="Kinoulton Lane"/>
    <tag k="building" v="yes"/>
    <tag k="name" v="The White House"/>
  </way>
  <way id="220563668" version="3" timestamp="2024-01-31T16:27:53Z" changeset="146911870" uid="1431482" user="JonOrchard">
    <nd ref="2296733882"/>
    <nd ref="2296733883"/>
    <nd ref="2296932816"/>
    <nd ref="2296932818"/>
    <nd ref="2296733884"/>
    <nd ref="2296733885"/>
    <nd ref="2296733882"/>
    <tag k="building" v="yes"/>
    <tag k="name" v="Brookswood"/>
  </way>
  <way id="220563670" version="2" timestamp="2024-01-31T16:27:53Z" changeset="146911870" uid="1431482" user="JonOrchard">
    <nd ref="2296733891"/>
    <nd ref="2296733892"/>
    <nd ref="2296733893"/>
    <nd ref="2296733894"/>
    <nd ref="2296733891"/>
    <tag k="building" v="yes"/>
    <tag k="name" v="Kinoulton Lodge"/>
  </way>
  <way id="220563673" version="2" timestamp="2024-01-31T16:27:53Z" changeset="146911870" uid="1431482" user="JonOrchard">
    <nd ref="2296733903"/>
    <nd ref="2296733904"/>
    <nd ref="2296733905"/>
    <nd ref="2296733906"/>
    <nd ref="2296733903"/>
    <tag k="building" v="yes"/>
    <tag k="name" v="Brentwood"/>
  </way>
  <way id="220563675" version="3" timestamp="2014-07-17T11:36:40Z" changeset="24199426" uid="1431482" user="JonOrchard">
    <nd ref="2296733911"/>
    <nd ref="2296733912"/>
    <nd ref="2296733913"/>
    <nd ref="2296733914"/>
    <nd ref="2296733916"/>
    <nd ref="2967453008"/>
    <nd ref="2296733917"/>
    <nd ref="2967453007"/>
    <nd ref="2967453006"/>
    <nd ref="2967453005"/>
    <nd ref="2967453004"/>
    <nd ref="2296733918"/>
    <nd ref="2296733911"/>
    <tag k="building" v="yes"/>
    <tag k="name" v="Soulac"/>
  </way>
  <way id="220563676" version="2" timestamp="2013-05-13T19:14:56Z" changeset="16115265" uid="1431482" user="JonOrchard">
    <nd ref="2296733919"/>
    <nd ref="2296733920"/>
    <nd ref="2296733921"/>
    <nd ref="2296733922"/>
    <nd ref="2296733923"/>
    <nd ref="2296733924"/>
    <nd ref="2296733925"/>
    <nd ref="2296733926"/>
    <nd ref="2296733919"/>
    <tag k="building" v="yes"/>
    <tag k="name" v="Brolay"/>
  </way>
  <way id="220563677" version="2" timestamp="2024-01-31T16:27:53Z" changeset="146911870" uid="1431482" user="JonOrchard">
    <nd ref="2296733927"/>
    <nd ref="2296733928"/>
    <nd ref="2296733929"/>
    <nd ref="2296733930"/>
    <nd ref="2296733927"/>
    <tag k="building" v="yes"/>
    <tag k="name" v="Garden House"/>
  </way>
  <way id="220563678" version="2" timestamp="2024-01-31T16:27:53Z" changeset="146911870" uid="1431482" user="JonOrchard">
    <nd ref="2296733931"/>
    <nd ref="2296733932"/>
    <nd ref="2296733933"/>
    <nd ref="2296733934"/>
    <nd ref="2296733931"/>
    <tag k="building" v="yes"/>
    <tag k="name" v="Rosedene"/>
  </way>
  <way id="220563679" version="2" timestamp="2024-01-31T16:27:53Z" changeset="146911870" uid="1431482" user="JonOrchard">
    <nd ref="2296733935"/>
    <nd ref="2296733936"/>
    <nd ref="2296733937"/>
    <nd ref="2296733938"/>
    <nd ref="2296733935"/>
    <tag k="building" v="yes"/>
    <tag k="name" v="Westlands"/>
  </way>
  <way id="220563681" version="3" timestamp="2024-01-31T16:27:53Z" changeset="146911870" uid="1431482" user="JonOrchard">
    <nd ref="2296733943"/>
    <nd ref="2296733944"/>
    <nd ref="2296733945"/>
    <nd ref="2296733946"/>
    <nd ref="2967453012"/>
    <nd ref="2967453011"/>
    <nd ref="2967453010"/>
    <nd ref="2967453009"/>
    <nd ref="2296733943"/>
    <tag k="building" v="yes"/>
    <tag k="name" v="West Winds"/>
  </way>
  <way id="220563683" version="2" timestamp="2024-01-31T16:27:53Z" changeset="146911870" uid="1431482" user="JonOrchard">
    <nd ref="2296733951"/>
    <nd ref="2296733952"/>
    <nd ref="2296733953"/>
    <nd ref="2296733954"/>
    <nd ref="2296733955"/>
    <nd ref="2296733956"/>
    <nd ref="2296733951"/>
    <tag k="building" v="yes"/>
    <tag k="name" v="Tansy"/>
  </way>
  <way id="220563684" version="2" timestamp="2024-01-31T16:27:53Z" changeset="146911870" uid="1431482" user="JonOrchard">
    <nd ref="2296733957"/>
    <nd ref="2296733958"/>
    <nd ref="2296733959"/>
    <nd ref="2296733960"/>
    <nd ref="2296733957"/>
    <tag k="building" v="yes"/>
    <tag k="name" v="Bram;eigh"/>
  </way>
  <way id="220563685" version="2" timestamp="2024-01-31T16:27:53Z" changeset="146911870" uid="1431482" user="JonOrchard">
    <nd ref="2296733961"/>
    <nd ref="2296733962"/>
    <nd ref="2296733963"/>
    <nd ref="2296733964"/>
    <nd ref="2296733961"/>
    <tag k="building" v="yes"/>
    <tag k="name" v="Gorseway"/>
  </way>
  <way id="220563686" version="1" timestamp="2013-05-09T08:31:47Z" changeset="16043456" uid="1431482" user="JonOrchard">
    <nd ref="2296733965"/>
    <nd ref="2296733966"/>
    <nd ref="2296733967"/>
    <nd ref="2296733968"/>
    <nd ref="2296733969"/>
    <nd ref="2296733970"/>
    <nd ref="2296733971"/>
    <nd ref="2296733965"/>
    <tag k="building" v="yes"/>
    <tag k="name" v="Harwood Farm"/>
  </way>
  <way id="220563687" version="2" timestamp="2014-07-17T11:33:12Z" changeset="24199365" uid="1431482" user="JonOrchard">
    <nd ref="2296733972"/>
    <nd ref="2967443332"/>
    <nd ref="2967443331"/>
    <nd ref="2967443330"/>
    <nd ref="2967443329"/>
    <nd ref="2296733973"/>
    <nd ref="2296733974"/>
    <nd ref="2296733975"/>
    <nd ref="2296733976"/>
    <nd ref="2296733977"/>
    <nd ref="2296733972"/>
    <tag k="building" v="yes"/>
    <tag k="name" v="Harwood Farm"/>
  </way>
  <way id="220563690" version="4" timestamp="2024-02-14T13:05:34Z" changeset="147450445" uid="1431482" user="JonOrchard">
    <nd ref="2296733986"/>
    <nd ref="2967449020"/>
    <nd ref="2967449021"/>
    <nd ref="2967449022"/>
    <nd ref="2967449023"/>
    <nd ref="2296733987"/>
    <nd ref="11622587945"/>
    <nd ref="11622587946"/>
    <nd ref="11622587947"/>
    <nd ref="11622587948"/>
    <nd ref="2296733988"/>
    <nd ref="11622587949"/>
    <nd ref="11622587950"/>
    <nd ref="2296733989"/>
    <nd ref="2296733986"/>
    <tag k="building" v="yes"/>
    <tag k="name" v="Nutwood"/>
  </way>
  <way id="220563692" version="2" timestamp="2014-07-17T11:34:33Z" changeset="24199388" uid="1431482" user="JonOrchard">
    <nd ref="2296733994"/>
    <nd ref="2296733995"/>
    <nd ref="2296733996"/>
    <nd ref="2967449025"/>
    <nd ref="2967449026"/>
    <nd ref="2967449024"/>
    <nd ref="2296733997"/>
    <nd ref="2967449027"/>
    <nd ref="2967449028"/>
    <nd ref="2967449029"/>
    <nd ref="2296733994"/>
    <tag k="building" v="yes"/>
    <tag k="name" v="Fossways"/>
  </way>
  <way id="220563697" version="1" timestamp="2013-05-09T08:31:48Z" changeset="16043456" uid="1431482" user="JonOrchard">
    <nd ref="2296734014"/>
    <nd ref="2296734015"/>
    <nd ref="2296734016"/>
    <nd ref="2296734017"/>
    <nd ref="2296734014"/>
    <tag k="building" v="yes"/>
    <tag k="name" v="Vale View"/>
  </way>
  <way id="220563702" version="3" timestamp="2014-07-16T19:50:21Z" changeset="24188782" uid="1431482" user="JonOrchard">
    <nd ref="2296734036"/>
    <nd ref="2296734037"/>
    <nd ref="2296734038"/>
    <nd ref="2296734039"/>
    <nd ref="2966604348"/>
    <nd ref="2966604347"/>
    <nd ref="2296734036"/>
    <tag k="building" v="yes"/>
    <tag k="name" v="Blacks Farm"/>
  </way>
  <way id="220564617" version="7" timestamp="2025-08-06T08:02:43Z" changeset="170042854" uid="1431482" user="JonOrchard">
    <nd ref="2296740834"/>
    <nd ref="7820187116"/>
    <nd ref="7820187118"/>
    <nd ref="7820187119"/>
    <nd ref="7820187117"/>
    <nd ref="7820187120"/>
    <nd ref="7820187121"/>
    <nd ref="7820187122"/>
    <nd ref="7820187123"/>
    <nd ref="2296740837"/>
    <nd ref="7820187124"/>
    <nd ref="7820187125"/>
    <nd ref="2296740839"/>
    <nd ref="2296740841"/>
    <nd ref="2967602055"/>
    <nd ref="7820187126"/>
    <nd ref="7820187127"/>
    <nd ref="7820187128"/>
    <nd ref="7820187129"/>
    <nd ref="7820187133"/>
    <nd ref="7820187132"/>
    <nd ref="7820187131"/>
    <nd ref="7820187130"/>
    <nd ref="2967602054"/>
    <nd ref="7820174336"/>
    <nd ref="2296740843"/>
    <nd ref="13051663932"/>
    <nd ref="2296740844"/>
    <nd ref="2967602053"/>
    <nd ref="2967602052"/>
    <nd ref="2296740846"/>
    <nd ref="2967602050"/>
    <nd ref="2967602051"/>
    <nd ref="2967602049"/>
    <nd ref="2967602048"/>
    <nd ref="2967602047"/>
    <nd ref="2967602046"/>
    <nd ref="7820187115"/>
    <nd ref="2296740848"/>
    <nd ref="7820187114"/>
    <nd ref="2296740834"/>
    <tag k="building" v="school"/>
    <tag k="building:levels" v="1"/>
    <tag k="name" v="Kinoulton Primary School"/>
  </way>
  <way id="220564621" version="2" timestamp="2024-02-02T10:32:38Z" changeset="146979122" uid="1431482" user="JonOrchard">
    <nd ref="2296740865"/>
    <nd ref="2296740867"/>
    <nd ref="2296740868"/>
    <nd ref="2296740870"/>
    <nd ref="2296740865"/>
    <tag k="building" v="yes"/>
    <tag k="name" v="Ivy Farm"/>
  </way>
  <way id="220568938" version="2" timestamp="2013-05-09T10:11:22Z" changeset="16044807" uid="1431482" user="JonOrchard">
    <nd ref="2296784148"/>
    <nd ref="2296784151"/>
    <nd ref="2296784153"/>
    <nd ref="2296784155"/>
    <nd ref="2296784148"/>
    <tag k="building" v="yes"/>
    <tag k="name" v="Kinoulton Cricket Club Pavilion"/>
  </way>
  <way id="220568939" version="1" timestamp="2013-05-09T09:43:10Z" changeset="16044368" uid="1431482" user="JonOrchard">
    <nd ref="2296784191"/>
    <nd ref="2296784193"/>
    <nd ref="2296784195"/>
    <nd ref="2296784197"/>
    <nd ref="2296784191"/>
    <tag k="building" v="yes"/>
    <tag k="name" v="Manor Farm"/>
  </way>
  <way id="220568945" version="4" timestamp="2021-12-17T09:58:34Z" changeset="115046549" uid="322785" user="BCNorwich">
    <nd ref="2296784240"/>
    <nd ref="2296784242"/>
    <nd ref="2296784245"/>
    <nd ref="2296784246"/>
    <nd ref="2296784248"/>
    <nd ref="2296784250"/>
    <nd ref="2296784252"/>
    <nd ref="2296784254"/>
    <nd ref="2296784240"/>
    <tag k="building" v="yes"/>
    <tag k="name" v="Hollowhill Farm"/>
  </way>
  <way id="220569499" version="3" timestamp="2018-12-20T07:18:57Z" changeset="65632098" uid="364" user="Edward">
    <nd ref="2296789890"/>
    <nd ref="2296789892"/>
    <nd ref="2296789894"/>
    <nd ref="2296789896"/>
    <nd ref="2296789898"/>
    <nd ref="2296789900"/>
    <nd ref="2296789902"/>
    <nd ref="2296789904"/>
    <nd ref="2296789906"/>
    <nd ref="2296789908"/>
    <nd ref="2967461048"/>
    <nd ref="2967461049"/>
    <nd ref="2967461047"/>
    <nd ref="2967461046"/>
    <nd ref="2296789890"/>
    <tag k="building" v="yes"/>
    <tag k="name" v="Elm Farm"/>
    <tag k="wikidata" v="Q26555494"/>
  </way>
  <way id="220569517" version="3" timestamp="2021-01-08T13:05:33Z" changeset="97171977" uid="1431482" user="JonOrchard">
    <nd ref="2296789984"/>
    <nd ref="2296789985"/>
    <nd ref="2296789986"/>
    <nd ref="5918071985"/>
    <nd ref="5918071986"/>
    <nd ref="5918071987"/>
    <nd ref="5918071384"/>
    <nd ref="2296789987"/>
    <nd ref="5918071380"/>
    <nd ref="5918071381"/>
    <nd ref="5918071382"/>
    <nd ref="5918071383"/>
    <nd ref="2296789984"/>
    <tag k="building" v="farm"/>
    <tag k="name" v="Vimy Ridge Farm (dissused)"/>
  </way>
  <way id="220570775" version="10" timestamp="2025-02-15T20:53:56Z" changeset="162550651" uid="95856" user="⇄ john paul jones &amp; gringo">
    <nd ref="2296799879"/>
    <nd ref="2296799880"/>
    <nd ref="2342974881"/>
    <nd ref="2342974882"/>
    <nd ref="7790657698"/>
    <nd ref="7790657697"/>
    <nd ref="2296799882"/>
    <nd ref="469488686"/>
    <nd ref="2342373176"/>
    <nd ref="2296799879"/>
    <tag k="addr:city" v="Nottingham"/>
    <tag k="addr:country" v="GB"/>
    <tag k="addr:postcode" v="NG12 3EH"/>
    <tag k="addr:street" v="Owthorpe Lane"/>
    <tag k="addr:suburb" v="Kinoulton"/>
    <tag k="building" v="yes"/>
    <tag k="disused:amenity" v="pub"/>
    <tag k="name" v="Nevile Arms"/>
  </way>
  <way id="220570777" version="3" timestamp="2014-07-24T19:41:38Z" changeset="24336744" uid="1431482" user="JonOrchard">
    <nd ref="2296799896"/>
    <nd ref="2978047537"/>
    <nd ref="2978047536"/>
    <nd ref="2978047535"/>
    <nd ref="2978047534"/>
    <nd ref="2296799897"/>
    <nd ref="2296799898"/>
    <nd ref="2296799899"/>
    <nd ref="2296799896"/>
    <tag k="building" v="yes"/>
    <tag k="name" v="Maple Copse"/>
  </way>
  <way id="221239754" version="2" timestamp="2024-02-02T10:32:38Z" changeset="146979122" uid="1431482" user="JonOrchard">
    <nd ref="2302865715"/>
    <nd ref="2302865716"/>
    <nd ref="2302865717"/>
    <nd ref="2302865718"/>
    <nd ref="2302865719"/>
    <nd ref="2302865720"/>
    <nd ref="2302865715"/>
    <tag k="building" v="yes"/>
    <tag k="name" v="Pear Tree Farm"/>
  </way>
  <way id="221239756" version="3" timestamp="2024-02-02T10:32:38Z" changeset="146979122" uid="1431482" user="JonOrchard">
    <nd ref="2302865725"/>
    <nd ref="2302865726"/>
    <nd ref="2302865727"/>
    <nd ref="2302865728"/>
    <nd ref="2967595136"/>
    <nd ref="2967595137"/>
    <nd ref="2967595138"/>
    <nd ref="2967595135"/>
    <nd ref="2302865725"/>
    <tag k="building" v="yes"/>
    <tag k="name" v="Rectory"/>
  </way>
  <way id="221239758" version="3" timestamp="2025-02-15T20:53:56Z" changeset="162550651" uid="95856" user="⇄ john paul jones &amp; gringo">
    <nd ref="2302865734"/>
    <nd ref="2302865735"/>
    <nd ref="2302865736"/>
    <nd ref="2302865737"/>
    <nd ref="2302865734"/>
    <tag k="addr:city" v="Nottingham"/>
    <tag k="addr:country" v="GB"/>
    <tag k="addr:housename" v="The Old Vicarage"/>
    <tag k="addr:housenumber" v="39"/>
    <tag k="addr:postcode" v="NG12 3EA"/>
    <tag k="addr:street" v="Main Street"/>
    <tag k="addr:suburb" v="Kinoulton"/>
    <tag k="architect" v="Thomas Chambers Hine"/>
    <tag k="building" v="yes"/>
    <tag k="name" v="The Old Vicarate"/>
    <tag k="note" v="Grade II listed. Listing number 1402404."/>
    <tag k="start_date" v="1849"/>
  </way>
  <way id="221239765" version="4" timestamp="2023-10-12T12:49:25Z" changeset="142478567" uid="1431482" user="JonOrchard">
    <nd ref="2302865763"/>
    <nd ref="2302865764"/>
    <nd ref="11257530053"/>
    <nd ref="11257530054"/>
    <nd ref="2302865765"/>
    <nd ref="2302865766"/>
    <nd ref="2302865767"/>
    <nd ref="2302865769"/>
    <nd ref="11257530050"/>
    <nd ref="11257530049"/>
    <nd ref="2302865770"/>
    <nd ref="2302865771"/>
    <nd ref="11257530051"/>
    <nd ref="11257530052"/>
    <nd ref="2302865772"/>
    <nd ref="11257530060"/>
    <nd ref="11257530059"/>
    <nd ref="11257530058"/>
    <nd ref="11257530057"/>
    <nd ref="11257530056"/>
    <nd ref="11257530055"/>
    <nd ref="2302865773"/>
    <nd ref="2302865763"/>
    <tag k="building" v="yes"/>
    <tag k="name" v="Sausethorpe Farm"/>
    <tag k="wikidata" v="Q26529239"/>
  </way>
  <way id="221306124" version="3" timestamp="2022-01-20T09:14:03Z" changeset="116375672" uid="1431482" user="JonOrchard">
    <nd ref="2303410725"/>
    <nd ref="2303410726"/>
    <nd ref="2303410727"/>
    <nd ref="2967592423"/>
    <nd ref="2967592428"/>
    <nd ref="2967592426"/>
    <nd ref="2967592427"/>
    <nd ref="2967592425"/>
    <nd ref="2967592424"/>
    <nd ref="2967592422"/>
    <nd ref="2303410728"/>
    <nd ref="2303410725"/>
    <tag k="addr:housenumber" v="7"/>
    <tag k="addr:street" v="Main Street"/>
    <tag k="building" v="yes"/>
  </way>
  <way id="221306320" version="4" timestamp="2025-02-15T20:53:56Z" changeset="162550651" uid="95856" user="⇄ john paul jones &amp; gringo">
    <nd ref="2303412097"/>
    <nd ref="2303412098"/>
    <nd ref="2303412099"/>
    <nd ref="2303412100"/>
    <nd ref="2303412097"/>
    <tag k="addr:city" v="Nottingham"/>
    <tag k="addr:country" v="GB"/>
    <tag k="addr:housenumber" v="14"/>
    <tag k="addr:postcode" v="NG12 3EE"/>
    <tag k="addr:street" v="Nevile Drive"/>
    <tag k="addr:suburb" v="Kinoulton"/>
    <tag k="building" v="yes"/>
  </way>
  <way id="221306321" version="3" timestamp="2025-02-15T20:53:56Z" changeset="162550651" uid="95856" user="⇄ john paul jones &amp; gringo">
    <nd ref="2303412101"/>
    <nd ref="2303412102"/>
    <nd ref="2303412103"/>
    <nd ref="2303412104"/>
    <nd ref="2303412101"/>
    <tag k="addr:city" v="Nottingham"/>
    <tag k="addr:country" v="GB"/>
    <tag k="addr:housenumber" v="13"/>
    <tag k="addr:street" v="Nevile Drive"/>
    <tag k="addr:suburb" v="Kinoulton"/>
    <tag k="building" v="yes"/>
  </way>
  <way id="221306322" version="4" timestamp="2025-02-15T20:53:56Z" changeset="162550651" uid="95856" user="⇄ john paul jones &amp; gringo">
    <nd ref="2303412105"/>
    <nd ref="2303412106"/>
    <nd ref="2303412107"/>
    <nd ref="2303412108"/>
    <nd ref="2303412105"/>
    <tag k="addr:city" v="Nottingham"/>
    <tag k="addr:country" v="GB"/>
    <tag k="addr:housenumber" v="12"/>
    <tag k="addr:postcode" v="NG12 3EE"/>
    <tag k="addr:street" v="Nevile Drive"/>
    <tag k="addr:suburb" v="Kinoulton"/>
    <tag k="building" v="yes"/>
  </way>
  <way id="221306323" version="4" timestamp="2025-02-15T20:53:56Z" changeset="162550651" uid="95856" user="⇄ john paul jones &amp; gringo">
    <nd ref="2303412109"/>
    <nd ref="2303412110"/>
    <nd ref="2303412111"/>
    <nd ref="2303412112"/>
    <nd ref="2303412109"/>
    <tag k="addr:city" v="Nottingham"/>
    <tag k="addr:country" v="GB"/>
    <tag k="addr:housenumber" v="11"/>
    <tag k="addr:postcode" v="NG12 3EE"/>
    <tag k="addr:street" v="Nevile Drive"/>
    <tag k="addr:suburb" v="Kinoulton"/>
    <tag k="building" v="yes"/>
  </way>
  <way id="221306324" version="4" timestamp="2025-02-15T20:53:56Z" changeset="162550651" uid="95856" user="⇄ john paul jones &amp; gringo">
    <nd ref="2303412113"/>
    <nd ref="2303412114"/>
    <nd ref="2303412115"/>
    <nd ref="2303412116"/>
    <nd ref="2303412113"/>
    <tag k="addr:city" v="Nottingham"/>
    <tag k="addr:country" v="GB"/>
    <tag k="addr:housenumber" v="10"/>
    <tag k="addr:postcode" v="NG12 3EE"/>
    <tag k="addr:street" v="Nevile Drive"/>
    <tag k="addr:suburb" v="Kinoulton"/>
    <tag k="building" v="yes"/>
  </way>
  <way id="221306325" version="4" timestamp="2025-02-15T20:53:56Z" changeset="162550651" uid="95856" user="⇄ john paul jones &amp; gringo">
    <nd ref="2303412117"/>
    <nd ref="2303412118"/>
    <nd ref="2303412119"/>
    <nd ref="2303412120"/>
    <nd ref="2303412117"/>
    <tag k="addr:city" v="Nottingham"/>
    <tag k="addr:country" v="GB"/>
    <tag k="addr:housenumber" v="9"/>
    <tag k="addr:postcode" v="NG12 3EE"/>
    <tag k="addr:street" v="Nevile Drive"/>
    <tag k="addr:suburb" v="Kinoulton"/>
    <tag k="building" v="yes"/>
  </way>
  <way id="221306776" version="4" timestamp="2025-02-15T20:53:56Z" changeset="162550651" uid="95856" user="⇄ john paul jones &amp; gringo">
    <nd ref="2303416774"/>
    <nd ref="2303416776"/>
    <nd ref="2303416778"/>
    <nd ref="2303416780"/>
    <nd ref="2303416774"/>
    <tag k="addr:city" v="Nottingham"/>
    <tag k="addr:country" v="GB"/>
    <tag k="addr:housenumber" v="8"/>
    <tag k="addr:postcode" v="NG12 3EE"/>
    <tag k="addr:street" v="Nevile Drive"/>
    <tag k="addr:suburb" v="Kinoulton"/>
    <tag k="building" v="yes"/>
  </way>
  <way id="221306777" version="5" timestamp="2025-02-15T20:53:56Z" changeset="162550651" uid="95856" user="⇄ john paul jones &amp; gringo">
    <nd ref="2303416782"/>
    <nd ref="2303416784"/>
    <nd ref="2967584375"/>
    <nd ref="2967584376"/>
    <nd ref="2303416785"/>
    <nd ref="2303416786"/>
    <nd ref="2303416782"/>
    <tag k="addr:city" v="Nottingham"/>
    <tag k="addr:country" v="GB"/>
    <tag k="addr:housenumber" v="7"/>
    <tag k="addr:postcode" v="NG12 3EE"/>
    <tag k="addr:street" v="Nevile Drive"/>
    <tag k="addr:suburb" v="Kinoulton"/>
    <tag k="building" v="yes"/>
  </way>
  <way id="221306778" version="5" timestamp="2025-02-15T20:53:56Z" changeset="162550651" uid="95856" user="⇄ john paul jones &amp; gringo">
    <nd ref="2303416787"/>
    <nd ref="2303416788"/>
    <nd ref="2303416789"/>
    <nd ref="2967584369"/>
    <nd ref="2967584370"/>
    <nd ref="2967584371"/>
    <nd ref="2967584372"/>
    <nd ref="2967584373"/>
    <nd ref="2967584374"/>
    <nd ref="2303416791"/>
    <nd ref="2303416787"/>
    <tag k="addr:city" v="Nottingham"/>
    <tag k="addr:country" v="GB"/>
    <tag k="addr:housenumber" v="6"/>
    <tag k="addr:postcode" v="NG12 3EE"/>
    <tag k="addr:street" v="Nevile Drive"/>
    <tag k="addr:suburb" v="Kinoulton"/>
    <tag k="building" v="yes"/>
  </way>
  <way id="221306779" version="4" timestamp="2025-02-15T20:53:56Z" changeset="162550651" uid="95856" user="⇄ john paul jones &amp; gringo">
    <nd ref="2303416793"/>
    <nd ref="2303416795"/>
    <nd ref="2303416797"/>
    <nd ref="2303416799"/>
    <nd ref="2303416793"/>
    <tag k="addr:city" v="Nottingham"/>
    <tag k="addr:country" v="GB"/>
    <tag k="addr:housenumber" v="5"/>
    <tag k="addr:postcode" v="NG12 3EE"/>
    <tag k="addr:street" v="Nevile Drive"/>
    <tag k="addr:suburb" v="Kinoulton"/>
    <tag k="building" v="yes"/>
  </way>
  <way id="221306780" version="5" timestamp="2025-02-15T20:53:56Z" changeset="162550651" uid="95856" user="⇄ john paul jones &amp; gringo">
    <nd ref="2303416801"/>
    <nd ref="2303416803"/>
    <nd ref="9433066620"/>
    <nd ref="9433066621"/>
    <nd ref="2303416805"/>
    <nd ref="9433066622"/>
    <nd ref="9433066623"/>
    <nd ref="9433066624"/>
    <nd ref="9433066625"/>
    <nd ref="2303416807"/>
    <nd ref="2303416801"/>
    <tag k="addr:city" v="Nottingham"/>
    <tag k="addr:country" v="GB"/>
    <tag k="addr:housenumber" v="4"/>
    <tag k="addr:postcode" v="NG12 3EE"/>
    <tag k="addr:street" v="Nevile Drive"/>
    <tag k="addr:suburb" v="Kinoulton"/>
    <tag k="building" v="yes"/>
  </way>
  <way id="221306781" version="5" timestamp="2025-02-15T20:53:56Z" changeset="162550651" uid="95856" user="⇄ john paul jones &amp; gringo">
    <nd ref="2303416809"/>
    <nd ref="2303416811"/>
    <nd ref="9433066629"/>
    <nd ref="9433066628"/>
    <nd ref="9433066627"/>
    <nd ref="9433066626"/>
    <nd ref="2303416813"/>
    <nd ref="2303416815"/>
    <nd ref="2303416809"/>
    <tag k="addr:city" v="Nottingham"/>
    <tag k="addr:country" v="GB"/>
    <tag k="addr:housenumber" v="3"/>
    <tag k="addr:postcode" v="NG12 3EE"/>
    <tag k="addr:street" v="Nevile Drive"/>
    <tag k="addr:suburb" v="Kinoulton"/>
    <tag k="building" v="yes"/>
  </way>
  <way id="221306782" version="5" timestamp="2025-02-15T20:53:56Z" changeset="162550651" uid="95856" user="⇄ john paul jones &amp; gringo">
    <nd ref="2303416817"/>
    <nd ref="2303416819"/>
    <nd ref="2967584363"/>
    <nd ref="2967584364"/>
    <nd ref="2303416821"/>
    <nd ref="2967584368"/>
    <nd ref="2967584367"/>
    <nd ref="2967584366"/>
    <nd ref="2967584365"/>
    <nd ref="2303416823"/>
    <nd ref="2303416817"/>
    <tag k="addr:city" v="Nottingham"/>
    <tag k="addr:country" v="GB"/>
    <tag k="addr:housenumber" v="2"/>
    <tag k="addr:postcode" v="NG12 3EE"/>
    <tag k="addr:street" v="Nevile Drive"/>
    <tag k="addr:suburb" v="Kinoulton"/>
    <tag k="building" v="yes"/>
  </way>
  <way id="221306783" version="6" timestamp="2025-02-15T20:53:56Z" changeset="162550651" uid="95856" user="⇄ john paul jones &amp; gringo">
    <nd ref="2303416825"/>
    <nd ref="2303416827"/>
    <nd ref="2967583374"/>
    <nd ref="2303416829"/>
    <nd ref="9433066633"/>
    <nd ref="9433066632"/>
    <nd ref="2967583375"/>
    <nd ref="9433066631"/>
    <nd ref="9433066630"/>
    <nd ref="2967583376"/>
    <nd ref="2967583377"/>
    <nd ref="2303416831"/>
    <nd ref="2303416825"/>
    <tag k="addr:city" v="Nottingham"/>
    <tag k="addr:country" v="GB"/>
    <tag k="addr:housenumber" v="1"/>
    <tag k="addr:postcode" v="NG12 3EE"/>
    <tag k="addr:street" v="Nevile Drive"/>
    <tag k="addr:suburb" v="Kinoulton"/>
    <tag k="building" v="residential"/>
  </way>
  <way id="221306784" version="1" timestamp="2013-05-14T06:33:22Z" changeset="16120745" uid="1431482" user="JonOrchard">
    <nd ref="2303416833"/>
    <nd ref="2303416835"/>
    <nd ref="2303416837"/>
    <nd ref="2303416851"/>
    <nd ref="2303416833"/>
    <tag k="building" v="yes"/>
    <tag k="name" v="Telephone Exchange"/>
  </way>
  <way id="221334078" version="8" timestamp="2025-02-15T20:53:56Z" changeset="162550651" uid="95856" user="⇄ john paul jones &amp; gringo">
    <nd ref="2303659367"/>
    <nd ref="2967602681"/>
    <nd ref="2967602680"/>
    <nd ref="2303659371"/>
    <nd ref="2303659373"/>
    <nd ref="2303659375"/>
    <nd ref="2303659376"/>
    <nd ref="2967602685"/>
    <nd ref="2967602686"/>
    <nd ref="2303659378"/>
    <nd ref="2967602684"/>
    <nd ref="2303659380"/>
    <nd ref="2303659382"/>
    <nd ref="2967602683"/>
    <nd ref="2967602682"/>
    <nd ref="2303659367"/>
    <tag k="addr:city" v="Nottingham"/>
    <tag k="addr:country" v="GB"/>
    <tag k="addr:postcode" v="NG12 3EU"/>
    <tag k="addr:street" v="Main Street"/>
    <tag k="addr:suburb" v="Kinoulton"/>
    <tag k="amenity" v="place_of_worship"/>
    <tag k="building" v="church"/>
    <tag k="denomination" v="anglican"/>
    <tag k="name" v="St Luke"/>
    <tag k="ref:dove" v="15582"/>
    <tag k="religion" v="christian"/>
    <tag k="wikidata" v="Q15979394"/>
    <tag k="wikipedia" v="en:St Luke's Church, Kinoulton"/>
  </way>
  <way id="221334485" version="1" timestamp="2013-05-14T11:31:59Z" changeset="16124149" uid="1431482" user="JonOrchard">
    <nd ref="2303661313"/>
    <nd ref="2303661314"/>
    <nd ref="1119370089"/>
    <tag k="highway" v="residential"/>
    <tag k="name" v="Lindy Close"/>
  </way>
  <way id="221345909" version="2" timestamp="2024-01-31T16:24:39Z" changeset="146911745" uid="1431482" user="JonOrchard">
    <nd ref="2303747718"/>
    <nd ref="2303747719"/>
    <nd ref="2303747720"/>
    <nd ref="2303747721"/>
    <nd ref="2303747718"/>
    <tag k="building" v="yes"/>
    <tag k="name" v="Woodlands"/>
  </way>
  <way id="221596287" version="2" timestamp="2021-01-26T13:05:04Z" changeset="98166157" uid="1431482" user="JonOrchard">
    <nd ref="2306301171"/>
    <nd ref="2306301172"/>
    <nd ref="2306301173"/>
    <nd ref="2306301174"/>
    <nd ref="2306301171"/>
    <tag k="building" v="yes"/>
    <tag k="name" v="Hall Farm"/>
  </way>
  <way id="222272972" version="2" timestamp="2022-01-20T09:08:36Z" changeset="116375470" uid="1431482" user="JonOrchard">
    <nd ref="2312575214"/>
    <nd ref="2312575215"/>
    <nd ref="2312575216"/>
    <nd ref="2312575217"/>
    <nd ref="2312575218"/>
    <nd ref="2312575219"/>
    <nd ref="2312575214"/>
    <tag k="addr:housenumber" v="26"/>
    <tag k="addr:street" v="Main Street"/>
    <tag k="building" v="yes"/>
  </way>
  <way id="222273133" version="3" timestamp="2024-02-27T13:39:09Z" changeset="147973804" uid="1431482" user="JonOrchard">
    <nd ref="2312578071"/>
    <nd ref="11669117190"/>
    <nd ref="11669117189"/>
    <nd ref="11669117188"/>
    <nd ref="11669117185"/>
    <nd ref="11669117186"/>
    <nd ref="11669117187"/>
    <nd ref="2312578073"/>
    <nd ref="2312578076"/>
    <nd ref="2312578080"/>
    <nd ref="2312578071"/>
    <tag k="addr:housenumber" v="24"/>
    <tag k="addr:street" v="Main Street"/>
    <tag k="building" v="yes"/>
  </way>
  <way id="222273134" version="2" timestamp="2022-01-20T09:09:12Z" changeset="116375491" uid="1431482" user="JonOrchard">
    <nd ref="2312578083"/>
    <nd ref="2312578086"/>
    <nd ref="2312578089"/>
    <nd ref="2312578092"/>
    <nd ref="2312578083"/>
    <tag k="addr:housenumber" v="22"/>
    <tag k="addr:street" v="Main Street"/>
    <tag k="building" v="yes"/>
  </way>
  <way id="222273135" version="3" timestamp="2024-02-27T13:41:46Z" changeset="147973894" uid="1431482" user="JonOrchard">
    <nd ref="2312578094"/>
    <nd ref="2312578096"/>
    <nd ref="2312578098"/>
    <nd ref="2312578102"/>
    <nd ref="2312578105"/>
    <nd ref="2312578107"/>
    <nd ref="11669117195"/>
    <nd ref="2312578110"/>
    <nd ref="2312578113"/>
    <nd ref="2312578116"/>
    <nd ref="2312578094"/>
    <tag k="addr:housenumber" v="20"/>
    <tag k="addr:street" v="Main Street"/>
    <tag k="building" v="yes"/>
  </way>
  <way id="222273136" version="2" timestamp="2022-01-20T09:10:26Z" changeset="116375537" uid="1431482" user="JonOrchard">
    <nd ref="2312578119"/>
    <nd ref="2312578122"/>
    <nd ref="2312578125"/>
    <nd ref="2312578128"/>
    <nd ref="2312578131"/>
    <nd ref="2312578133"/>
    <nd ref="2312578119"/>
    <tag k="addr:housenumber" v="18"/>
    <tag k="addr:street" v="Main Street"/>
    <tag k="building" v="yes"/>
  </way>
  <way id="222274689" version="2" timestamp="2022-01-20T09:10:26Z" changeset="116375537" uid="1431482" user="JonOrchard">
    <nd ref="2312590454"/>
    <nd ref="2312590456"/>
    <nd ref="2312590457"/>
    <nd ref="2312590459"/>
    <nd ref="2312590461"/>
    <nd ref="2312590463"/>
    <nd ref="2312590465"/>
    <nd ref="2312590467"/>
    <nd ref="2312590454"/>
    <tag k="addr:housenumber" v="16"/>
    <tag k="addr:street" v="Main Street"/>
    <tag k="building" v="yes"/>
  </way>
  <way id="222274902" version="2" timestamp="2022-01-20T09:10:26Z" changeset="116375537" uid="1431482" user="JonOrchard">
    <nd ref="2312593959"/>
    <nd ref="2312593960"/>
    <nd ref="2312593962"/>
    <nd ref="2312593964"/>
    <nd ref="2312593966"/>
    <nd ref="2312593967"/>
    <nd ref="2312593959"/>
    <tag k="addr:housenumber" v="10"/>
    <tag k="addr:street" v="Main Street"/>
    <tag k="building" v="yes"/>
  </way>
  <way id="222274903" version="2" timestamp="2022-01-20T09:10:26Z" changeset="116375537" uid="1431482" user="JonOrchard">
    <nd ref="2312593969"/>
    <nd ref="2312593971"/>
    <nd ref="2312593973"/>
    <nd ref="2312593975"/>
    <nd ref="2312593976"/>
    <nd ref="2312593978"/>
    <nd ref="2312593980"/>
    <nd ref="2312593982"/>
    <nd ref="2312593984"/>
    <nd ref="2312593985"/>
    <nd ref="2312593987"/>
    <nd ref="2312593990"/>
    <nd ref="2312593991"/>
    <nd ref="2312593969"/>
    <tag k="addr:housenumber" v="12"/>
    <tag k="addr:street" v="Main Street"/>
    <tag k="building" v="yes"/>
  </way>
  <way id="222274904" version="3" timestamp="2024-02-27T13:41:46Z" changeset="147973894" uid="1431482" user="JonOrchard">
    <nd ref="2312593993"/>
    <nd ref="2312593995"/>
    <nd ref="2312593999"/>
    <nd ref="11669117198"/>
    <nd ref="2312594001"/>
    <nd ref="2312594003"/>
    <nd ref="11669117197"/>
    <nd ref="11669117196"/>
    <nd ref="2312593993"/>
    <tag k="addr:housenumber" v="14"/>
    <tag k="addr:street" v="Main Street"/>
    <tag k="building" v="yes"/>
  </way>
  <way id="222372945" version="3" timestamp="2022-01-20T09:08:36Z" changeset="116375470" uid="1431482" user="JonOrchard">
    <nd ref="2313456404"/>
    <nd ref="2342374182"/>
    <nd ref="2313456406"/>
    <nd ref="2313456408"/>
    <nd ref="2313456410"/>
    <nd ref="2313456404"/>
    <tag k="addr:housenumber" v="6"/>
    <tag k="addr:street" v="Main Street"/>
    <tag k="building" v="yes"/>
  </way>
  <way id="222373292" version="2" timestamp="2022-01-20T09:10:26Z" changeset="116375537" uid="1431482" user="JonOrchard">
    <nd ref="2313457429"/>
    <nd ref="2313457430"/>
    <nd ref="2313457431"/>
    <nd ref="2313457432"/>
    <nd ref="2313457433"/>
    <nd ref="2313457434"/>
    <nd ref="2313457435"/>
    <nd ref="2313457436"/>
    <nd ref="2313457437"/>
    <nd ref="2313457438"/>
    <nd ref="2313457429"/>
    <tag k="addr:housenumber" v="8"/>
    <tag k="addr:street" v="Main Street"/>
    <tag k="building" v="yes"/>
  </way>
  <way id="222373345" version="3" timestamp="2024-02-02T10:27:43Z" changeset="146978983" uid="1431482" user="JonOrchard">
    <nd ref="2313457877"/>
    <nd ref="2313457878"/>
    <nd ref="2313457879"/>
    <nd ref="9433204877"/>
    <nd ref="9433204878"/>
    <nd ref="9433204879"/>
    <nd ref="9433204880"/>
    <nd ref="2313457880"/>
    <nd ref="2313457877"/>
    <tag k="building" v="yes"/>
    <tag k="name" v="Springfield Farm House"/>
  </way>
  <way id="222373346" version="3" timestamp="2024-02-02T10:27:43Z" changeset="146978983" uid="1431482" user="JonOrchard">
    <nd ref="2313457881"/>
    <nd ref="2313457882"/>
    <nd ref="2313457883"/>
    <nd ref="2313457884"/>
    <nd ref="9433204876"/>
    <nd ref="2313457885"/>
    <nd ref="2313457881"/>
    <tag k="building" v="yes"/>
    <tag k="name" v="Green View"/>
  </way>
  <way id="222373610" version="2" timestamp="2024-02-02T10:27:43Z" changeset="146978983" uid="1431482" user="JonOrchard">
    <nd ref="2313459292"/>
    <nd ref="2313459293"/>
    <nd ref="2313459294"/>
    <nd ref="2313459295"/>
    <nd ref="2313459296"/>
    <nd ref="2313459297"/>
    <nd ref="2313459292"/>
    <tag k="building" v="yes"/>
    <tag k="name" v="Wits End"/>
  </way>
  <way id="222373611" version="2" timestamp="2024-02-02T10:27:43Z" changeset="146978983" uid="1431482" user="JonOrchard">
    <nd ref="2313459298"/>
    <nd ref="2313459299"/>
    <nd ref="2313459300"/>
    <nd ref="2313459301"/>
    <nd ref="2313459302"/>
    <nd ref="2313459303"/>
    <nd ref="2313459304"/>
    <nd ref="2313459305"/>
    <nd ref="2313459298"/>
    <tag k="building" v="yes"/>
    <tag k="name" v="Thorpe End"/>
  </way>
  <way id="222374487" version="2" timestamp="2018-12-03T14:27:55Z" changeset="65127334" uid="1431482" user="JonOrchard">
    <nd ref="2313464383"/>
    <nd ref="2313464385"/>
    <nd ref="2313464386"/>
    <nd ref="2313464387"/>
    <nd ref="2313464388"/>
    <nd ref="2313464389"/>
    <nd ref="2313464390"/>
    <nd ref="2313464392"/>
    <nd ref="2313464393"/>
    <nd ref="2313464394"/>
    <nd ref="2313464395"/>
    <nd ref="2313464396"/>
    <nd ref="2313464383"/>
    <tag k="building" v="yes"/>
    <tag k="name" v="The White Cottage"/>
  </way>
  <way id="222374795" version="2" timestamp="2018-12-03T14:27:55Z" changeset="65127334" uid="1431482" user="JonOrchard">
    <nd ref="2313467034"/>
    <nd ref="2313467036"/>
    <nd ref="2313467038"/>
    <nd ref="2313467040"/>
    <nd ref="2313467042"/>
    <nd ref="2313467044"/>
    <nd ref="2313467046"/>
    <nd ref="2313467048"/>
    <nd ref="2313467034"/>
    <tag k="building" v="yes"/>
    <tag k="name" v="The Old Dairy"/>
  </way>
  <way id="222374799" version="2" timestamp="2018-12-03T14:27:55Z" changeset="65127334" uid="1431482" user="JonOrchard">
    <nd ref="2313467058"/>
    <nd ref="2313467060"/>
    <nd ref="2313467062"/>
    <nd ref="2313467064"/>
    <nd ref="2313467065"/>
    <nd ref="2313467066"/>
    <nd ref="2313467058"/>
    <tag k="building" v="yes"/>
    <tag k="name" v="Field House"/>
  </way>
  <way id="293101846" version="7" timestamp="2024-01-19T19:32:52Z" changeset="146455451" uid="242345" user="confusedbuffalo">
    <nd ref="324399046"/>
    <nd ref="1833121837"/>
    <nd ref="1833121840"/>
    <nd ref="1833121843"/>
    <nd ref="2303571413"/>
    <nd ref="8410508308"/>
    <nd ref="1833121846"/>
    <nd ref="1833121849"/>
    <nd ref="1833121851"/>
    <nd ref="2966604337"/>
    <nd ref="2966604336"/>
    <nd ref="324399048"/>
    <nd ref="2966604338"/>
    <nd ref="1833121853"/>
    <nd ref="2966604339"/>
    <nd ref="1833121855"/>
    <nd ref="2363153173"/>
    <nd ref="1833121857"/>
    <nd ref="324399049"/>
    <nd ref="2363153181"/>
    <nd ref="2363153182"/>
    <nd ref="1833121859"/>
    <nd ref="2363153176"/>
    <nd ref="2966604340"/>
    <nd ref="324399050"/>
    <nd ref="2363153179"/>
    <nd ref="1833121861"/>
    <nd ref="1833121863"/>
    <nd ref="1833121865"/>
    <nd ref="2363155630"/>
    <nd ref="1833121867"/>
    <nd ref="1833121869"/>
    <nd ref="2363155629"/>
    <nd ref="1833121872"/>
    <nd ref="1833121874"/>
    <nd ref="1833121887"/>
    <nd ref="2363155628"/>
    <nd ref="1833121889"/>
    <nd ref="2363155627"/>
    <nd ref="1833121892"/>
    <nd ref="1833121895"/>
    <nd ref="2363155625"/>
    <nd ref="1833121898"/>
    <nd ref="2363160865"/>
    <nd ref="324399053"/>
    <nd ref="2363155626"/>
    <nd ref="1833121901"/>
    <nd ref="460981482"/>
    <nd ref="324399054"/>
    <nd ref="1144316986"/>
    <nd ref="2966604342"/>
    <nd ref="469415852"/>
    <nd ref="2966621673"/>
    <tag k="highway" v="tertiary"/>
    <tag k="maxspeed" v="60 mph"/>
    <tag k="maxspeed:type" v="GB:nsl_single"/>
    <tag k="name" v="Kinoulton Lane"/>
    <tag k="oneway" v="no"/>
    <tag k="postal_code" v="NG12 3EQ"/>
    <tag k="source" v="Local knowledge"/>
    <tag k="source:name" v="OS OpenData Streetview"/>
    <tag k="surface" v="asphalt"/>
  </way>
  <way id="293172760" version="2" timestamp="2024-01-31T16:30:24Z" changeset="146911973" uid="1431482" user="JonOrchard">
    <nd ref="2967442155"/>
    <nd ref="2967442156"/>
    <nd ref="2967442157"/>
    <nd ref="2967442158"/>
    <nd ref="2967442159"/>
    <nd ref="2967442160"/>
    <nd ref="2967442155"/>
    <tag k="building" v="residential"/>
    <tag k="name" v="Fields View"/>
  </way>
  <way id="293188803" version="2" timestamp="2016-08-29T21:24:13Z" changeset="41788655" uid="207845" user="will_p">
    <nd ref="2967583370"/>
    <nd ref="2967583371"/>
    <tag k="highway" v="residential"/>
    <tag k="name" v="Bradshaw Close"/>
    <tag k="source:name" v="survey"/>
  </way>
  <way id="293188804" version="2" timestamp="2016-08-29T21:24:13Z" changeset="41788655" uid="207845" user="will_p">
    <nd ref="2967583372"/>
    <nd ref="2967583371"/>
    <nd ref="2967583373"/>
    <tag k="highway" v="residential"/>
    <tag k="name" v="Bradshaw Close"/>
    <tag k="source:name" v="survey"/>
  </way>
  <way id="334365657" version="9" timestamp="2025-03-27T18:17:00Z" changeset="164176628" uid="5229644" user="Nathan_A_RF">
    <nd ref="7843956459"/>
    <nd ref="7843956443"/>
    <nd ref="1813958451"/>
    <nd ref="7843956450"/>
    <nd ref="1813958452"/>
    <nd ref="1813958453"/>
    <nd ref="1813958454"/>
    <nd ref="1813958455"/>
    <nd ref="1813958456"/>
    <nd ref="1813958457"/>
    <nd ref="1813958458"/>
    <nd ref="1813958459"/>
    <nd ref="2303406941"/>
    <nd ref="1813958460"/>
    <nd ref="2393813044"/>
    <nd ref="1813958461"/>
    <nd ref="2393813046"/>
    <nd ref="2393813045"/>
    <nd ref="2393813047"/>
    <nd ref="1813958462"/>
    <nd ref="1813958463"/>
    <nd ref="2393813049"/>
    <nd ref="1813958464"/>
    <tag k="highway" v="tertiary"/>
    <tag k="lit" v="yes"/>
    <tag k="maxspeed" v="60 mph"/>
    <tag k="maxspeed:type" v="GB:nsl_single"/>
    <tag k="source" v="GPS Survey"/>
  </way>
  <way id="334365660" version="8" timestamp="2023-09-05T21:09:03Z" changeset="140868858" uid="13341565" user="Falsernet">
    <nd ref="1638500839"/>
    <nd ref="5005977662"/>
    <nd ref="1638500840"/>
    <nd ref="2302897218"/>
    <nd ref="1638500832"/>
    <nd ref="1638500835"/>
    <nd ref="1638500834"/>
    <nd ref="2302897217"/>
    <nd ref="1638500836"/>
    <nd ref="2302897215"/>
    <nd ref="1638500818"/>
    <nd ref="1638500831"/>
    <nd ref="1638484976"/>
    <tag k="expressway" v="yes"/>
    <tag k="highway" v="trunk"/>
    <tag k="lanes" v="2"/>
    <tag k="lit" v="no"/>
    <tag k="maxspeed" v="70 mph"/>
    <tag k="maxspeed:type" v="GB:nsl_dual"/>
    <tag k="national_highways:area" v="7"/>
    <tag k="oneway" v="yes"/>
    <tag k="operator" v="National Highways"/>
    <tag k="operator:wikidata" v="Q5760006"/>
    <tag k="ref" v="A46"/>
    <tag k="shoulder" v="no"/>
    <tag k="source" v="GPS Survey"/>
    <tag k="source:maxspeed" v="Stats19"/>
  </way>
  <way id="439801553" version="2" timestamp="2020-08-03T15:45:40Z" changeset="88884712" uid="1431482" user="JonOrchard">
    <nd ref="1119320410"/>
    <nd ref="7781379070"/>
    <nd ref="7781379069"/>
    <nd ref="324400419"/>
    <tag k="highway" v="residential"/>
    <tag k="name" v="Hall Lane"/>
    <tag k="source" v="gps"/>
    <tag k="source:name" v="NaPTAN; survey"/>
  </way>
  <way id="439801554" version="2" timestamp="2019-08-27T19:26:23Z" changeset="73812188" uid="162917" user="DLMatthews">
    <nd ref="4374788956"/>
    <nd ref="324399065"/>
    <tag k="highway" v="tertiary"/>
    <tag k="maxspeed" v="30 mph"/>
    <tag k="name" v="Hickling Lane"/>
    <tag k="not:name" v="Hickling Road"/>
    <tag k="not:name:note" v="street sign"/>
    <tag k="source:name" v="survey"/>
  </way>
  <way id="511848068" version="6" timestamp="2023-09-05T21:09:03Z" changeset="140868858" uid="13341565" user="Falsernet">
    <nd ref="5005992423"/>
    <nd ref="5005992428"/>
    <nd ref="5005992431"/>
    <nd ref="1203890293"/>
    <tag k="expressway" v="yes"/>
    <tag k="highway" v="trunk_link"/>
    <tag k="lane_markings" v="no"/>
    <tag k="lit" v="no"/>
    <tag k="national_highways:area" v="7"/>
    <tag k="oneway" v="yes"/>
    <tag k="operator" v="National Highways"/>
    <tag k="operator:wikidata" v="Q5760006"/>
    <tag k="source" v="survey"/>
  </way>
  <way id="511851399" version="6" timestamp="2023-09-05T21:09:03Z" changeset="140868858" uid="13341565" user="Falsernet">
    <nd ref="1203890293"/>
    <nd ref="2303576548"/>
    <nd ref="7843956471"/>
    <nd ref="7843956464"/>
    <nd ref="1813958470"/>
    <nd ref="5006011205"/>
    <nd ref="26955459"/>
    <tag k="expressway" v="yes"/>
    <tag k="highway" v="trunk_link"/>
    <tag k="lane_markings" v="no"/>
    <tag k="lit" v="yes"/>
    <tag k="national_highways:area" v="7"/>
    <tag k="oneway" v="yes"/>
    <tag k="operator" v="National Highways"/>
    <tag k="operator:wikidata" v="Q5760006"/>
    <tag k="source" v="survey"/>
  </way>
  <way id="626888508" version="1" timestamp="2018-09-20T10:41:32Z" changeset="62758257" uid="1964856" user="DEADB33F">
    <nd ref="5918071374"/>
    <nd ref="5918071375"/>
    <nd ref="5918071376"/>
    <nd ref="5918071377"/>
    <nd ref="5918071378"/>
    <nd ref="5918071379"/>
    <nd ref="5918071374"/>
    <tag k="building" v="hut"/>
    <tag k="height" v="1"/>
    <tag k="name" v="WW2 Pillbox"/>
  </way>
  <way id="1101696594" version="2" timestamp="2022-10-28T19:16:26Z" changeset="128188239" uid="13666626" user="RedAuburn">
    <nd ref="1638484976"/>
    <nd ref="5005992423"/>
    <tag k="expressway" v="yes"/>
    <tag k="highway" v="trunk"/>
    <tag k="lanes" v="2"/>
    <tag k="lit" v="no"/>
    <tag k="maxheight" v="default"/>
    <tag k="maxspeed" v="70 mph"/>
    <tag k="maxspeed:type" v="GB:nsl_dual"/>
    <tag k="national_highways:area" v="7"/>
    <tag k="oneway" v="yes"/>
    <tag k="operator" v="National Highways"/>
    <tag k="operator:wikidata" v="Q5760006"/>
    <tag k="ref" v="A46"/>
    <tag k="shoulder" v="no"/>
    <tag k="source:maxspeed" v="Stats19"/>
  </way>
  <way id="1372131836" version="1" timestamp="2025-03-27T18:17:00Z" changeset="164176628" uid="5229644" user="Nathan_A_RF">
    <nd ref="1638514652"/>
    <nd ref="8529717784"/>
    <tag k="highway" v="trunk_link"/>
    <tag k="lanes" v="3"/>
    <tag k="lit" v="no"/>
    <tag k="maxspeed" v="60 mph"/>
    <tag k="maxspeed:type" v="GB:nsl_single"/>
    <tag k="national_highways:area" v="7"/>
    <tag k="operator" v="National Highways"/>
    <tag k="operator:wikidata" v="Q5760006"/>
    <tag k="ref" v="A46"/>
  </way>

</osm>
