<?xml version="1.0" encoding="UTF-8"?>
<osm version="0.6" generator="Overpass API 0.7.62.8 e802775f">
<note>The data included in this document is from www.openstreetmap.org. The data is made available under ODbL.</note>
<meta osm_base="2025-10-23T16:46:43Z" areas="2025-10-23T12:46:58Z"/>

  <node id="321822896" lat="53.1063475" lon="-1.1254087" version="3" timestamp="2016-01-09T16:01:36Z" changeset="36466014" uid="161875" user="Willumm"/>
  <way id="390457845" version="4" timestamp="2025-04-22T18:59:43Z" changeset="165300280" uid="5229644" user="Nathan_A_RF">
    <nd ref="321822896"/>
    <nd ref="321822897"/>
    <nd ref="321822898"/>
    <nd ref="321822900"/>
    <nd ref="321822901"/>
    <nd ref="333284213"/>
    <nd ref="321822902"/>
    <nd ref="2843787563"/>
    <nd ref="321822903"/>
    <nd ref="2843787524"/>
    <nd ref="321822904"/>
    <nd ref="321822905"/>
    <nd ref="2843787512"/>
    <nd ref="321822906"/>
    <nd ref="2843787533"/>
    <nd ref="321822907"/>
    <nd ref="321822908"/>
    <nd ref="321822909"/>
    <nd ref="321822910"/>
    <nd ref="8086845534"/>
    <nd ref="321822912"/>
    <nd ref="7961003178"/>
    <nd ref="321822913"/>
    <nd ref="1034261038"/>
    <nd ref="321822914"/>
    <nd ref="1034260507"/>
    <nd ref="321822916"/>
    <nd ref="321822917"/>
    <nd ref="321822918"/>
    <nd ref="1034260979"/>
    <tag k="highway" v="tertiary"/>
    <tag k="maxspeed" v="60 mph"/>
    <tag k="maxspeed:type" v="GB:nsl_single"/>
    <tag k="name" v="Blidworth Lane"/>
    <tag k="source:name" v="Sign at E;local_knowledge"/>
  </way>
  <way id="594764269" version="4" timestamp="2025-06-25T08:41:12Z" changeset="168083341" uid="90943" user="chris_debian">
    <nd ref="5670753565"/>
    <nd ref="5670753566"/>
    <nd ref="5670753567"/>
    <nd ref="5670753568"/>
    <nd ref="5670753565"/>
    <tag k="brand" v="National Grid"/>
    <tag k="brand:wikidata" v="Q1465461"/>
    <tag k="building" v="yes"/>
    <tag k="name" v="Lindhurst Wind Farm Substation"/>
    <tag k="operator" v="National Grid Electricity Distribution"/>
    <tag k="operator:old" v="Western Power Distribution"/>
    <tag k="operator:wikidata" v="Q7988183"/>
    <tag k="owner" v="National Grid Electricity Distribution (East Midlands) Plc"/>
    <tag k="owner:wikidata" v="Q114348127"/>
    <tag k="power" v="substation"/>
    <tag k="ref:GB:wpd_site" v="890022"/>
    <tag k="voltage" v="33000"/>
  </way>

</osm>
