<?xml version="1.0" encoding="UTF-8"?>
<osm version="0.6" generator="Overpass API 0.7.62.8 e802775f">
<note>The data included in this document is from www.openstreetmap.org. The data is made available under ODbL.</note>
<meta osm_base="2025-10-23T16:50:45Z" areas="2025-10-23T08:56:18Z"/>

  <node id="324358246" lat="53.0512566" lon="-0.9627041" version="12" timestamp="2024-04-25T09:28:12Z" changeset="150484950" uid="6714692" user="Fingrmouse"/>
  <node id="324358326" lat="53.0420606" lon="-0.9512943" version="6" timestamp="2016-01-24T22:17:04Z" changeset="36785563" uid="1357598" user="Recycler5"/>
  <node id="2193370510" lat="53.0465079" lon="-0.9608435" version="2" timestamp="2024-04-25T09:28:12Z" changeset="150484950" uid="6714692" user="Fingrmouse"/>
  <node id="3934891146" lat="53.0400703" lon="-0.9300469" version="1" timestamp="2016-01-08T23:46:05Z" changeset="36456086" uid="161875" user="Willumm"/>
  <node id="11906676500" lat="53.0372393" lon="-0.9225698" version="1" timestamp="2024-05-15T09:11:58Z" changeset="151348664" uid="6714692" user="Fingrmouse"/>
  <way id="29430548" version="27" timestamp="2025-04-22T15:29:58Z" changeset="165292124" uid="5229644" user="Nathan_A_RF">
    <nd ref="324357477"/>
    <nd ref="3934891136"/>
    <nd ref="11416942830"/>
    <nd ref="11416942831"/>
    <nd ref="658768455"/>
    <nd ref="658768456"/>
    <nd ref="324770561"/>
    <nd ref="11416942857"/>
    <nd ref="324357480"/>
    <nd ref="11416954310"/>
    <nd ref="333276517"/>
    <nd ref="3964924409"/>
    <nd ref="3964924408"/>
    <nd ref="3964924407"/>
    <nd ref="11416954270"/>
    <nd ref="6291169316"/>
    <nd ref="324357484"/>
    <nd ref="333276519"/>
    <nd ref="9358312925"/>
    <nd ref="485625069"/>
    <nd ref="6313264417"/>
    <nd ref="6313264415"/>
    <nd ref="6313264422"/>
    <nd ref="9358312950"/>
    <nd ref="324357488"/>
    <nd ref="6291169318"/>
    <nd ref="485636024"/>
    <nd ref="486586219"/>
    <nd ref="6291169326"/>
    <nd ref="7698786546"/>
    <nd ref="3964924406"/>
    <nd ref="7325398338"/>
    <nd ref="485637199"/>
    <nd ref="480436254"/>
    <tag k="highway" v="tertiary"/>
    <tag k="maxspeed" v="30 mph"/>
    <tag k="name" v="Station Road"/>
  </way>
  <way id="29430608" version="16" timestamp="2025-04-22T12:54:56Z" changeset="165284583" uid="5229644" user="Nathan_A_RF">
    <nd ref="324357923"/>
    <nd ref="3968416152"/>
    <nd ref="480436230"/>
    <nd ref="324357925"/>
    <nd ref="3968416151"/>
    <nd ref="3968416150"/>
    <nd ref="4195095267"/>
    <nd ref="324357926"/>
    <nd ref="324357927"/>
    <nd ref="324357928"/>
    <tag k="highway" v="unclassified"/>
    <tag k="maxspeed" v="60 mph"/>
    <tag k="maxspeed:type" v="GB:nsl_single"/>
  </way>
  <way id="29430651" version="12" timestamp="2025-04-22T12:54:56Z" changeset="165284583" uid="5229644" user="Nathan_A_RF">
    <nd ref="324358174"/>
    <nd ref="2108944971"/>
    <nd ref="485627966"/>
    <nd ref="11906676467"/>
    <nd ref="11906676468"/>
    <nd ref="485627969"/>
    <nd ref="11906676482"/>
    <nd ref="11906676478"/>
    <nd ref="11906676469"/>
    <nd ref="11906676475"/>
    <tag k="highway" v="residential"/>
    <tag k="maxspeed" v="30 mph"/>
    <tag k="name" v="Gypsy Lane"/>
  </way>
  <way id="29430656" version="16" timestamp="2025-04-22T15:29:58Z" changeset="165292124" uid="5229644" user="Nathan_A_RF">
    <nd ref="324358246"/>
    <nd ref="11846778065"/>
    <nd ref="11846778066"/>
    <nd ref="11846778067"/>
    <nd ref="333276960"/>
    <nd ref="11846778068"/>
    <nd ref="2193370512"/>
    <nd ref="2193370523"/>
    <nd ref="324358314"/>
    <nd ref="2193370580"/>
    <nd ref="2193370546"/>
    <nd ref="2193370498"/>
    <nd ref="324358315"/>
    <nd ref="324358316"/>
    <nd ref="6554442788"/>
    <nd ref="324358317"/>
    <nd ref="11846778069"/>
    <nd ref="11846778070"/>
    <nd ref="333276964"/>
    <nd ref="11846778071"/>
    <nd ref="324358318"/>
    <nd ref="475333245"/>
    <nd ref="11846778073"/>
    <nd ref="11846778074"/>
    <nd ref="324358319"/>
    <nd ref="11846778075"/>
    <nd ref="11846778076"/>
    <nd ref="11846778077"/>
    <nd ref="11846778078"/>
    <nd ref="324358320"/>
    <nd ref="11846778079"/>
    <nd ref="333276863"/>
    <tag k="highway" v="unclassified"/>
    <tag k="maxspeed" v="60 mph"/>
    <tag k="maxspeed:type" v="GB:nsl_single"/>
    <tag k="name" v="High Cross"/>
    <tag k="source:name" v="OS_OpenData_Locator"/>
  </way>
  <way id="39989151" version="20" timestamp="2025-04-22T12:54:56Z" changeset="165284583" uid="5229644" user="Nathan_A_RF">
    <nd ref="11906676500"/>
    <nd ref="11906676497"/>
    <nd ref="658766960"/>
    <nd ref="11906676502"/>
    <nd ref="324769920"/>
    <nd ref="11906676503"/>
    <nd ref="658766961"/>
    <nd ref="7174234673"/>
    <nd ref="658766965"/>
    <nd ref="658766967"/>
    <nd ref="658766969"/>
    <nd ref="658766973"/>
    <nd ref="658766977"/>
    <nd ref="324357931"/>
    <nd ref="658766981"/>
    <nd ref="658766984"/>
    <nd ref="658766985"/>
    <nd ref="658766987"/>
    <nd ref="658766990"/>
    <nd ref="324769921"/>
    <nd ref="6782924742"/>
    <nd ref="324357932"/>
    <nd ref="503688496"/>
    <nd ref="658766992"/>
    <nd ref="324357934"/>
    <nd ref="658766995"/>
    <nd ref="324358243"/>
    <nd ref="658766998"/>
    <nd ref="658767000"/>
    <nd ref="324357935"/>
    <nd ref="658767005"/>
    <nd ref="503689452"/>
    <nd ref="494251542"/>
    <nd ref="324357936"/>
    <nd ref="658767007"/>
    <nd ref="658767009"/>
    <nd ref="658767012"/>
    <nd ref="324357938"/>
    <nd ref="324357939"/>
    <nd ref="324357940"/>
    <nd ref="324357941"/>
    <nd ref="480436226"/>
    <nd ref="324357942"/>
    <tag k="highway" v="tertiary"/>
    <tag k="maxspeed" v="60 mph"/>
    <tag k="maxspeed:type" v="GB:nsl_single"/>
    <tag k="name" v="Main Street"/>
    <tag k="source" v="GPS"/>
    <tag k="source:name" v="NaPTAN"/>
  </way>
  <way id="39989170" version="26" timestamp="2025-04-22T12:54:56Z" changeset="165284583" uid="5229644" user="Nathan_A_RF">
    <nd ref="480436254"/>
    <nd ref="8359893648"/>
    <nd ref="333276523"/>
    <nd ref="3964924405"/>
    <nd ref="7950260943"/>
    <nd ref="8164125228"/>
    <nd ref="658768166"/>
    <nd ref="3964924404"/>
    <nd ref="11906676352"/>
    <nd ref="324770568"/>
    <nd ref="11906676353"/>
    <nd ref="3964924403"/>
    <nd ref="485640156"/>
    <nd ref="7325398346"/>
    <nd ref="658768169"/>
    <nd ref="485642419"/>
    <nd ref="324357497"/>
    <nd ref="11906676354"/>
    <nd ref="8975686403"/>
    <nd ref="485626261"/>
    <nd ref="6548125213"/>
    <nd ref="8975686402"/>
    <nd ref="11906676355"/>
    <nd ref="11906676356"/>
    <nd ref="485626190"/>
    <nd ref="4195093101"/>
    <nd ref="11906676357"/>
    <nd ref="324357500"/>
    <nd ref="11906676358"/>
    <nd ref="658768177"/>
    <nd ref="11906676359"/>
    <nd ref="324358174"/>
    <nd ref="658767336"/>
    <nd ref="658767338"/>
    <nd ref="658767339"/>
    <nd ref="658767340"/>
    <nd ref="485632270"/>
    <nd ref="324357502"/>
    <nd ref="6309990015"/>
    <nd ref="324357504"/>
    <nd ref="658767342"/>
    <nd ref="6309990012"/>
    <nd ref="658767343"/>
    <nd ref="6309990001"/>
    <nd ref="324357507"/>
    <nd ref="3934891135"/>
    <tag k="highway" v="tertiary"/>
    <tag k="maxspeed" v="30 mph"/>
    <tag k="name" v="Main Street"/>
    <tag k="source" v="GPS"/>
  </way>
  <way id="39989222" version="10" timestamp="2025-04-22T12:54:56Z" changeset="165284583" uid="5229644" user="Nathan_A_RF">
    <nd ref="324357928"/>
    <nd ref="6583871904"/>
    <nd ref="324357514"/>
    <nd ref="480436241"/>
    <nd ref="324357516"/>
    <nd ref="503684120"/>
    <nd ref="503684086"/>
    <nd ref="324357518"/>
    <nd ref="4195095240"/>
    <nd ref="324357521"/>
    <nd ref="7983377738"/>
    <nd ref="503683445"/>
    <nd ref="324357523"/>
    <nd ref="324357524"/>
    <nd ref="480436235"/>
    <tag k="highway" v="unclassified"/>
    <tag k="maxspeed" v="60 mph"/>
    <tag k="maxspeed:type" v="GB:nsl_single"/>
    <tag k="name" v="Boat Lane"/>
  </way>
  <way id="40269081" version="4" timestamp="2024-05-15T09:11:58Z" changeset="151348664" uid="6714692" user="Fingrmouse">
    <nd ref="11906676362"/>
    <nd ref="485635568"/>
    <nd ref="11906676361"/>
    <nd ref="485635570"/>
    <tag k="highway" v="residential"/>
    <tag k="maxspeed" v="30 mph"/>
    <tag k="name" v="Manor Close"/>
    <tag k="oneway" v="no"/>
    <tag k="source" v="gps"/>
  </way>
  <way id="40269087" version="5" timestamp="2024-05-15T09:11:58Z" changeset="151348664" uid="6714692" user="Fingrmouse">
    <nd ref="485636022"/>
    <nd ref="485635570"/>
    <nd ref="11906676360"/>
    <nd ref="8975686413"/>
    <nd ref="485636024"/>
    <tag k="highway" v="residential"/>
    <tag k="maxspeed" v="30 mph"/>
    <tag k="name" v="Manor Close"/>
    <tag k="oneway" v="no"/>
    <tag k="source" v="gps"/>
  </way>
  <way id="40269120" version="6" timestamp="2016-01-08T23:46:10Z" changeset="36456086" uid="161875" user="Willumm">
    <nd ref="485637199"/>
    <nd ref="485637203"/>
    <nd ref="485636866"/>
    <tag k="foot" v="yes"/>
    <tag k="highway" v="residential"/>
    <tag k="maxspeed" v="30 mph"/>
    <tag k="name" v="Shale Lane"/>
    <tag k="oneway" v="no"/>
    <tag k="source" v="gps"/>
    <tag k="surface" v="gravel"/>
  </way>
  <way id="40269235" version="6" timestamp="2021-08-02T23:08:39Z" changeset="109054240" uid="493595" user="Yorvik Prestigitator">
    <nd ref="485640151"/>
    <nd ref="485640154"/>
    <nd ref="8975686412"/>
    <nd ref="485640156"/>
    <tag k="highway" v="residential"/>
    <tag k="maxspeed" v="30 mph"/>
    <tag k="name" v="Orchard Close"/>
    <tag k="oneway" v="no"/>
    <tag k="source" v="gps"/>
  </way>
  <way id="40269236" version="4" timestamp="2020-09-08T11:52:32Z" changeset="90585761" uid="11676213" user="bommbabu">
    <nd ref="7887105453"/>
    <nd ref="7887105452"/>
    <nd ref="7887105451"/>
    <nd ref="7887105450"/>
    <nd ref="485640235"/>
    <nd ref="485640154"/>
    <tag k="highway" v="residential"/>
    <tag k="name" v="Orchard Close"/>
    <tag k="source" v="gps"/>
  </way>
  <way id="40269274" version="3" timestamp="2016-01-08T23:46:11Z" changeset="36456086" uid="161875" user="Willumm">
    <nd ref="485642399"/>
    <nd ref="485642402"/>
    <nd ref="485642405"/>
    <nd ref="485642407"/>
    <nd ref="485642410"/>
    <nd ref="485642412"/>
    <nd ref="485642417"/>
    <nd ref="485642419"/>
    <tag k="highway" v="residential"/>
    <tag k="maxspeed" v="30 mph"/>
    <tag k="name" v="Elmores Meadow"/>
    <tag k="oneway" v="no"/>
    <tag k="source" v="gps"/>
  </way>
  <way id="40269285" version="5" timestamp="2020-10-16T06:38:03Z" changeset="92560613" uid="11558590" user="gppavani">
    <nd ref="485643404"/>
    <nd ref="8012113208"/>
    <nd ref="485643408"/>
    <nd ref="485643409"/>
    <nd ref="7325324632"/>
    <nd ref="485643411"/>
    <nd ref="485643412"/>
    <nd ref="3934891143"/>
    <nd ref="485643414"/>
    <nd ref="485643416"/>
    <nd ref="485643417"/>
    <nd ref="485643419"/>
    <nd ref="485642407"/>
    <tag k="highway" v="residential"/>
    <tag k="maxspeed" v="30 mph"/>
    <tag k="name" v="Hawthorn Close"/>
    <tag k="oneway" v="no"/>
    <tag k="source" v="gps"/>
  </way>
  <way id="40269321" version="5" timestamp="2020-03-24T12:14:02Z" changeset="82569979" uid="10170570" user="girinj">
    <nd ref="485645681"/>
    <nd ref="485645685"/>
    <nd ref="7325324628"/>
    <nd ref="485626190"/>
    <tag k="highway" v="residential"/>
    <tag k="maxspeed" v="30 mph"/>
    <tag k="name" v="Sycamore Lane"/>
    <tag k="oneway" v="no"/>
    <tag k="source" v="gps"/>
    <tag k="source:name" v="OS_OpenData_Locator"/>
    <tag k="surface" v="asphalt"/>
  </way>
  <way id="40269326" version="5" timestamp="2023-01-20T10:52:48Z" changeset="131503110" uid="11641482" user="Snalla">
    <nd ref="8011692512"/>
    <nd ref="8011692511"/>
    <nd ref="8011692510"/>
    <nd ref="6787345324"/>
    <nd ref="6787345323"/>
    <nd ref="485645969"/>
    <nd ref="485645685"/>
    <tag k="highway" v="residential"/>
    <tag k="name" v="Sycamore Lane"/>
    <tag k="source" v="gps"/>
    <tag k="source:name" v="OS_OpenData_Locator"/>
  </way>
  <way id="40269327" version="5" timestamp="2016-01-08T23:46:11Z" changeset="36456086" uid="161875" user="Willumm">
    <nd ref="485648877"/>
    <nd ref="2108944976"/>
    <nd ref="485646146"/>
    <nd ref="324358174"/>
    <tag k="access" v="private"/>
    <tag k="highway" v="residential"/>
    <tag k="maxspeed" v="30 mph"/>
    <tag k="name" v="Borrow Bread Lane"/>
    <tag k="oneway" v="no"/>
    <tag k="source" v="gps"/>
  </way>
  <way id="40323904" version="12" timestamp="2025-04-22T15:29:58Z" changeset="165292124" uid="5229644" user="Nathan_A_RF">
    <nd ref="324357477"/>
    <nd ref="3934891139"/>
    <nd ref="3934891138"/>
    <nd ref="11416942829"/>
    <nd ref="11416953514"/>
    <nd ref="11416953516"/>
    <nd ref="11416942828"/>
    <nd ref="11416953530"/>
    <nd ref="11416953525"/>
    <nd ref="11416942827"/>
    <nd ref="11416954358"/>
    <nd ref="11416953500"/>
    <nd ref="324358325"/>
    <nd ref="11416953495"/>
    <nd ref="11416942826"/>
    <nd ref="7949524380"/>
    <nd ref="11416953545"/>
    <nd ref="11416942867"/>
    <nd ref="486586442"/>
    <nd ref="324358326"/>
    <tag k="highway" v="tertiary"/>
    <tag k="maxspeed" v="30 mph"/>
    <tag k="name" v="Bleasby Road"/>
    <tag k="source" v="GPS"/>
  </way>
  <way id="227144027" version="6" timestamp="2025-04-22T15:29:58Z" changeset="165292124" uid="5229644" user="Nathan_A_RF">
    <nd ref="333276863"/>
    <nd ref="11846778080"/>
    <nd ref="3964968195"/>
    <nd ref="11846778081"/>
    <nd ref="11846778082"/>
    <nd ref="324358321"/>
    <nd ref="11846778083"/>
    <nd ref="324358322"/>
    <nd ref="11416954152"/>
    <nd ref="11416954151"/>
    <nd ref="11846778084"/>
    <nd ref="324358323"/>
    <nd ref="11846778085"/>
    <nd ref="11416954107"/>
    <nd ref="3964968194"/>
    <nd ref="11846778086"/>
    <nd ref="324358324"/>
    <nd ref="11846778087"/>
    <nd ref="333276864"/>
    <tag k="highway" v="unclassified"/>
    <tag k="maxspeed" v="60 mph"/>
    <tag k="maxspeed:type" v="GB:nsl_single"/>
    <tag k="name" v="Goverton Hill"/>
    <tag k="source:name" v="OS_OpenData_Locator"/>
  </way>
  <way id="227146990" version="2" timestamp="2016-01-08T23:46:10Z" changeset="36456086" uid="161875" user="Willumm">
    <nd ref="485636866"/>
    <nd ref="2108944972"/>
    <nd ref="2108944973"/>
    <nd ref="2108944974"/>
    <tag k="foot" v="yes"/>
    <tag k="highway" v="residential"/>
    <tag k="maxspeed" v="30 mph"/>
    <tag k="name" v="Shale Lane"/>
    <tag k="oneway" v="no"/>
    <tag k="source" v="gps"/>
    <tag k="surface" v="gravel"/>
  </way>
  <way id="334858736" version="11" timestamp="2025-07-11T13:18:01Z" changeset="168796444" uid="5359" user="user_5359">
    <nd ref="2193370510"/>
    <nd ref="2193370513"/>
    <nd ref="2193370477"/>
    <nd ref="2193370495"/>
    <nd ref="2193370534"/>
    <nd ref="11846778063"/>
    <nd ref="157252220"/>
    <nd ref="2193370558"/>
    <nd ref="2193370576"/>
    <nd ref="2193370508"/>
    <nd ref="2193370555"/>
    <nd ref="2193370563"/>
    <nd ref="2193370531"/>
    <nd ref="2193370518"/>
    <nd ref="157252221"/>
    <nd ref="2193370500"/>
    <nd ref="2193370553"/>
    <nd ref="2193370486"/>
    <nd ref="2193370481"/>
    <nd ref="157252223"/>
    <nd ref="11846778064"/>
    <nd ref="2193370549"/>
    <nd ref="324358246"/>
    <tag k="highway" v="primary"/>
    <tag k="lanes" v="2"/>
    <tag k="maxspeed" v="50 mph"/>
    <tag k="name" v="Nottingham Road"/>
    <tag k="oneway" v="no"/>
    <tag k="ref" v="A612"/>
    <tag k="surface" v="asphalt"/>
    <tag k="wikipedia" v="en:A612 road"/>
  </way>
  <way id="390332633" version="2" timestamp="2025-04-22T12:54:56Z" changeset="165284583" uid="5229644" user="Nathan_A_RF">
    <nd ref="3934891135"/>
    <nd ref="485631799"/>
    <nd ref="324357509"/>
    <nd ref="658767345"/>
    <nd ref="333276319"/>
    <nd ref="324357511"/>
    <nd ref="3934795026"/>
    <nd ref="324357928"/>
    <tag k="highway" v="tertiary"/>
    <tag k="maxspeed" v="60 mph"/>
    <tag k="maxspeed:type" v="GB:nsl_single"/>
    <tag k="name" v="Main Street"/>
    <tag k="source" v="GPS"/>
  </way>
  <way id="390332634" version="3" timestamp="2025-04-22T15:29:58Z" changeset="165292124" uid="5229644" user="Nathan_A_RF">
    <nd ref="333276864"/>
    <nd ref="11416953480"/>
    <nd ref="3934891137"/>
    <nd ref="324357477"/>
    <tag k="highway" v="unclassified"/>
    <tag k="maxspeed" v="30 mph"/>
    <tag k="name" v="Goverton Hill"/>
    <tag k="source:name" v="OS_OpenData_Locator"/>
  </way>
  <way id="390332635" version="11" timestamp="2025-04-22T15:29:58Z" changeset="165292124" uid="5229644" user="Nathan_A_RF">
    <nd ref="324358326"/>
    <nd ref="6357845804"/>
    <nd ref="7135744951"/>
    <nd ref="3924178185"/>
    <nd ref="7010849171"/>
    <nd ref="324358327"/>
    <nd ref="11416942822"/>
    <nd ref="658769545"/>
    <nd ref="486589310"/>
    <nd ref="324358328"/>
    <nd ref="324358329"/>
    <nd ref="6287508249"/>
    <nd ref="6357845797"/>
    <nd ref="324358330"/>
    <nd ref="658769551"/>
    <nd ref="658769555"/>
    <nd ref="3966135708"/>
    <nd ref="658769557"/>
    <nd ref="324358331"/>
    <nd ref="658769563"/>
    <nd ref="11910353760"/>
    <nd ref="658769565"/>
    <nd ref="11912310093"/>
    <tag k="highway" v="tertiary"/>
    <tag k="maxspeed" v="60 mph"/>
    <tag k="maxspeed:type" v="GB:nsl_single"/>
    <tag k="name" v="Bleasby Road"/>
    <tag k="source" v="GPS"/>
  </way>
  <way id="390332637" version="6" timestamp="2025-04-22T12:54:56Z" changeset="165284583" uid="5229644" user="Nathan_A_RF">
    <nd ref="3934891146"/>
    <nd ref="6867098022"/>
    <nd ref="3934891147"/>
    <nd ref="3934891149"/>
    <nd ref="324358238"/>
    <nd ref="3934891148"/>
    <nd ref="7174234658"/>
    <nd ref="485627977"/>
    <nd ref="7174234651"/>
    <nd ref="485627985"/>
    <nd ref="11400017751"/>
    <nd ref="485627988"/>
    <nd ref="324358239"/>
    <nd ref="485628883"/>
    <nd ref="485628893"/>
    <nd ref="485628898"/>
    <nd ref="7174234663"/>
    <nd ref="7174234664"/>
    <nd ref="324358240"/>
    <nd ref="485629383"/>
    <nd ref="7174234665"/>
    <nd ref="494252679"/>
    <nd ref="485629385"/>
    <nd ref="485629389"/>
    <nd ref="485629394"/>
    <nd ref="485629398"/>
    <nd ref="324358241"/>
    <nd ref="485629756"/>
    <nd ref="324358242"/>
    <nd ref="485629760"/>
    <nd ref="12775848563"/>
    <nd ref="12775848562"/>
    <nd ref="12775848561"/>
    <nd ref="12775848560"/>
    <nd ref="324358243"/>
    <tag k="highway" v="unclassified"/>
    <tag k="maxspeed" v="60 mph"/>
    <tag k="maxspeed:type" v="GB:nsl_single"/>
    <tag k="name" v="Gypsy Lane"/>
  </way>
  <way id="419450453" version="3" timestamp="2022-06-09T14:04:32Z" changeset="122168314" uid="8775772" user="LakatosVL">
    <nd ref="4195093096"/>
    <nd ref="4195093100"/>
    <nd ref="4195093103"/>
    <nd ref="4195093092"/>
    <nd ref="4195093091"/>
    <nd ref="4195093093"/>
    <nd ref="4195093097"/>
    <nd ref="4195093090"/>
    <nd ref="4195093096"/>
    <tag k="amenity" v="place_of_worship"/>
    <tag k="building" v="church"/>
    <tag k="denomination" v="anglican"/>
    <tag k="name" v="St Mary's Church"/>
    <tag k="religion" v="christian"/>
    <tag k="wikidata" v="Q15979407"/>
    <tag k="wikipedia" v="en:St Mary's Church, Bleasby"/>
  </way>
  <way id="419451011" version="1" timestamp="2016-05-19T11:17:00Z" changeset="39421452" uid="281267" user="smb1001">
    <nd ref="480436243"/>
    <nd ref="324357926"/>
    <tag k="highway" v="residential"/>
  </way>
  <way id="419451014" version="2" timestamp="2019-10-22T11:50:58Z" changeset="76046022" uid="10170569" user="poodoshi">
    <nd ref="6905450826"/>
    <nd ref="4195095264"/>
    <nd ref="4195095276"/>
    <nd ref="4195095267"/>
    <tag k="highway" v="residential"/>
  </way>
  <way id="1283207234" version="1" timestamp="2024-05-15T09:11:58Z" changeset="151348664" uid="6714692" user="Fingrmouse">
    <nd ref="485635568"/>
    <nd ref="11906676363"/>
    <tag k="highway" v="residential"/>
    <tag k="name" v="Manor Close"/>
  </way>
  <way id="1283207254" version="2" timestamp="2025-04-22T12:54:56Z" changeset="165284583" uid="5229644" user="Nathan_A_RF">
    <nd ref="11906676474"/>
    <nd ref="3934891144"/>
    <nd ref="6867098024"/>
    <nd ref="324358237"/>
    <nd ref="3934891145"/>
    <nd ref="3934891146"/>
    <tag k="highway" v="residential"/>
    <tag k="maxspeed" v="30 mph"/>
    <tag k="name" v="Gypsy Lane"/>
  </way>
  <way id="1283207255" version="2" timestamp="2025-04-22T12:54:56Z" changeset="165284583" uid="5229644" user="Nathan_A_RF">
    <nd ref="11906676475"/>
    <nd ref="11906676474"/>
    <tag k="bridge" v="yes"/>
    <tag k="highway" v="residential"/>
    <tag k="layer" v="1"/>
    <tag k="maxspeed" v="30 mph"/>
    <tag k="name" v="Gypsy Lane"/>
  </way>
  <way id="1283207266" version="2" timestamp="2025-04-22T12:54:56Z" changeset="165284583" uid="5229644" user="Nathan_A_RF">
    <nd ref="324357928"/>
    <nd ref="3934795025"/>
    <nd ref="7606018878"/>
    <nd ref="324769950"/>
    <nd ref="333276238"/>
    <nd ref="11906676501"/>
    <nd ref="324357930"/>
    <nd ref="11906676499"/>
    <tag k="highway" v="tertiary"/>
    <tag k="maxspeed" v="60 mph"/>
    <tag k="maxspeed:type" v="GB:nsl_single"/>
    <tag k="name" v="Main Street"/>
    <tag k="source" v="GPS"/>
    <tag k="source:name" v="NaPTAN"/>
  </way>
  <way id="1283207267" version="2" timestamp="2025-04-22T12:54:56Z" changeset="165284583" uid="5229644" user="Nathan_A_RF">
    <nd ref="11906676499"/>
    <nd ref="11906676498"/>
    <nd ref="11906676500"/>
    <tag k="bridge" v="yes"/>
    <tag k="highway" v="tertiary"/>
    <tag k="layer" v="1"/>
    <tag k="maxspeed" v="60 mph"/>
    <tag k="maxspeed:type" v="GB:nsl_single"/>
    <tag k="name" v="Main Street"/>
    <tag k="source" v="GPS"/>
    <tag k="source:name" v="NaPTAN"/>
  </way>

</osm>
