<?xml version="1.0" encoding="UTF-8"?>
<osm version="0.6" generator="Overpass API 0.7.62.8 e802775f">
<note>The data included in this document is from www.openstreetmap.org. The data is made available under ODbL.</note>
<meta osm_base="2025-10-23T16:46:43Z" areas="2025-10-23T12:46:58Z"/>

  <node id="316313436" lat="53.0079942" lon="-0.9563688" version="4" timestamp="2008-12-02T21:50:15Z" changeset="49269" uid="20119" user="peter taffs"/>
  <node id="3934892165" lat="53.0071191" lon="-0.9948978" version="2" timestamp="2016-05-10T19:03:03Z" changeset="39225094" uid="2762871" user="Sam888"/>
  <way id="35335326" version="9" timestamp="2017-04-29T15:20:13Z" changeset="48258464" uid="1778799" user="SomeoneElse_Revert">
    <nd ref="414194106"/>
    <nd ref="279556639"/>
    <tag k="bridge" v="yes"/>
    <tag k="highway" v="tertiary"/>
    <tag k="maxspeed" v="30 mph"/>
    <tag k="oneway" v="no"/>
  </way>
  <way id="35335327" version="15" timestamp="2025-04-22T16:12:22Z" changeset="165293991" uid="5229644" user="Nathan_A_RF">
    <nd ref="279556639"/>
    <nd ref="486559369"/>
    <nd ref="5763546257"/>
    <nd ref="5763546256"/>
    <nd ref="279556640"/>
    <nd ref="5763546075"/>
    <nd ref="5763546255"/>
    <nd ref="279556641"/>
    <nd ref="279556998"/>
    <nd ref="279556999"/>
    <nd ref="3924274595"/>
    <nd ref="6567580706"/>
    <nd ref="279557000"/>
    <nd ref="5763546102"/>
    <nd ref="5763546101"/>
    <nd ref="9022130782"/>
    <nd ref="279557001"/>
    <nd ref="5763546100"/>
    <nd ref="4177033744"/>
    <nd ref="279557002"/>
    <nd ref="279556647"/>
    <nd ref="279556852"/>
    <nd ref="3924274598"/>
    <nd ref="279556853"/>
    <nd ref="279556854"/>
    <nd ref="279556855"/>
    <nd ref="3934892164"/>
    <tag k="highway" v="tertiary"/>
    <tag k="maxspeed" v="30 mph"/>
    <tag k="name" v="Caythorpe Road"/>
    <tag k="source:name" v="OS OpenData StreetView"/>
  </way>
  <way id="40104773" version="7" timestamp="2025-04-22T16:01:45Z" changeset="165293510" uid="5229644" user="Nathan_A_RF">
    <nd ref="482692987"/>
    <nd ref="7385796542"/>
    <nd ref="7385796541"/>
    <nd ref="7385796543"/>
    <nd ref="7385796540"/>
    <nd ref="482692990"/>
    <nd ref="503678690"/>
    <nd ref="4177033749"/>
    <nd ref="4177033748"/>
    <nd ref="279556996"/>
    <tag k="highway" v="residential"/>
    <tag k="name" v="Brackenhill"/>
  </way>
  <way id="40322894" version="14" timestamp="2025-08-06T09:48:55Z" changeset="170047377" uid="22591951" user="Wetyiop">
    <nd ref="316313436"/>
    <nd ref="279556612"/>
    <nd ref="4177033740"/>
    <nd ref="13051905224"/>
    <nd ref="279556613"/>
    <nd ref="4177033737"/>
    <nd ref="279556836"/>
    <nd ref="279556837"/>
    <nd ref="279556838"/>
    <nd ref="279556839"/>
    <nd ref="4177033746"/>
    <nd ref="279556840"/>
    <nd ref="279556621"/>
    <nd ref="279556993"/>
    <nd ref="4177033723"/>
    <nd ref="279556994"/>
    <nd ref="6518451719"/>
    <nd ref="6518451708"/>
    <nd ref="279556995"/>
    <nd ref="503678717"/>
    <nd ref="503680179"/>
    <nd ref="279556996"/>
    <nd ref="279556997"/>
    <tag k="highway" v="tertiary"/>
    <tag k="maxspeed" v="60 mph"/>
    <tag k="maxspeed:type" v="GB:nsl_single"/>
    <tag k="name" v="Hoveringham Road"/>
    <tag k="source:name" v="OS OpenData StreetView"/>
  </way>
  <way id="57687122" version="13" timestamp="2025-04-22T16:01:45Z" changeset="165293510" uid="5229644" user="Nathan_A_RF">
    <nd ref="279556627"/>
    <nd ref="7308375788"/>
    <nd ref="279556628"/>
    <nd ref="4177033719"/>
    <nd ref="7786501640"/>
    <nd ref="5763546098"/>
    <nd ref="279556629"/>
    <nd ref="5763546254"/>
    <nd ref="279556631"/>
    <nd ref="4177033730"/>
    <nd ref="279556632"/>
    <nd ref="5763546061"/>
    <nd ref="7308375794"/>
    <nd ref="279556846"/>
    <nd ref="7308375798"/>
    <nd ref="5763546149"/>
    <nd ref="7308375807"/>
    <nd ref="5763546150"/>
    <nd ref="4177033724"/>
    <nd ref="5763546151"/>
    <nd ref="279556637"/>
    <nd ref="279556638"/>
    <nd ref="8403639018"/>
    <nd ref="5763546152"/>
    <nd ref="414194106"/>
    <tag k="highway" v="tertiary"/>
    <tag k="maxspeed" v="30 mph"/>
    <tag k="name" v="Main Street"/>
    <tag k="source:name" v="OS OpenData StreetView"/>
  </way>
  <way id="390332645" version="4" timestamp="2025-04-22T16:01:45Z" changeset="165293510" uid="5229644" user="Nathan_A_RF">
    <nd ref="279556997"/>
    <nd ref="3924274575"/>
    <nd ref="279556627"/>
    <tag k="highway" v="tertiary"/>
    <tag k="maxspeed" v="30 mph"/>
    <tag k="name" v="Hoveringham Road"/>
    <tag k="source:name" v="OS OpenData StreetView"/>
  </way>
  <way id="390332646" version="7" timestamp="2025-04-22T16:12:22Z" changeset="165293991" uid="5229644" user="Nathan_A_RF">
    <nd ref="3934892164"/>
    <nd ref="279556856"/>
    <nd ref="4881967216"/>
    <nd ref="414178439"/>
    <nd ref="279556653"/>
    <nd ref="4177033726"/>
    <nd ref="279556654"/>
    <nd ref="4177033721"/>
    <nd ref="5763546099"/>
    <nd ref="279556655"/>
    <nd ref="5763546031"/>
    <nd ref="4177033741"/>
    <nd ref="4177033745"/>
    <nd ref="279556656"/>
    <nd ref="486566024"/>
    <nd ref="279556657"/>
    <nd ref="6489949354"/>
    <nd ref="279557003"/>
    <nd ref="279556659"/>
    <nd ref="279556660"/>
    <nd ref="9003081732"/>
    <nd ref="6489949342"/>
    <nd ref="3934892165"/>
    <tag k="highway" v="tertiary"/>
    <tag k="maxspeed" v="60 mph"/>
    <tag k="maxspeed:type" v="GB:nsl_single"/>
    <tag k="name" v="Caythorpe Road"/>
    <tag k="source:name" v="OS OpenData StreetView"/>
  </way>
  <way id="390332647" version="4" timestamp="2025-04-22T16:12:22Z" changeset="165293991" uid="5229644" user="Nathan_A_RF">
    <nd ref="3934892165"/>
    <nd ref="279556661"/>
    <nd ref="279556662"/>
    <nd ref="279556948"/>
    <nd ref="6907776753"/>
    <nd ref="279557004"/>
    <nd ref="279556950"/>
    <tag k="highway" v="tertiary"/>
    <tag k="maxspeed" v="30 mph"/>
    <tag k="name" v="Caythorpe Road"/>
    <tag k="source:name" v="OS OpenData StreetView"/>
  </way>
  <way id="496494345" version="2" timestamp="2023-09-07T11:20:20Z" changeset="140935882" uid="15197552" user="Andrew John Wright">
    <nd ref="4881967209"/>
    <nd ref="4881967207"/>
    <nd ref="4881967212"/>
    <nd ref="4881967217"/>
    <nd ref="4881967213"/>
    <nd ref="279556854"/>
    <tag k="highway" v="residential"/>
    <tag k="name" v="Orchard Lane"/>
  </way>
  <way id="496494347" version="5" timestamp="2024-12-19T22:48:47Z" changeset="160413395" uid="8857" user="philipcullen">
    <nd ref="4881967220"/>
    <nd ref="4881967211"/>
    <nd ref="4881967219"/>
    <nd ref="5763546258"/>
    <nd ref="4881967215"/>
    <nd ref="5763546259"/>
    <nd ref="4881967210"/>
    <nd ref="4881967214"/>
    <nd ref="4881967220"/>
    <tag k="amenity" v="place_of_worship"/>
    <tag k="building" v="church"/>
    <tag k="building:levels" v="1"/>
    <tag k="building:material" v="metal"/>
    <tag k="building:type" v="tin_tabernacle"/>
    <tag k="denomination" v="anglican"/>
    <tag k="name" v="St Aidan"/>
    <tag k="ref:GB:uprn" v="10002309943"/>
    <tag k="religion" v="christian"/>
    <tag k="wikidata" v="Q16890107"/>
    <tag k="wikipedia" v="en:St Aidan's Church, Caythorpe"/>
  </way>
  <way id="608315968" version="3" timestamp="2025-02-01T19:14:07Z" changeset="162022927" uid="95856" user="⇄ john paul jones &amp; gringo">
    <nd ref="5763546040"/>
    <nd ref="5763546036"/>
    <nd ref="5763546037"/>
    <nd ref="5763546038"/>
    <nd ref="5763546039"/>
    <nd ref="414178438"/>
    <nd ref="5763546035"/>
    <nd ref="5763546033"/>
    <nd ref="5763546032"/>
    <nd ref="5763546034"/>
    <nd ref="5763546044"/>
    <nd ref="5763546043"/>
    <nd ref="5763546042"/>
    <nd ref="5763546041"/>
    <nd ref="5763546040"/>
    <tag k="addr:city" v="Nottingham"/>
    <tag k="addr:country" v="GB"/>
    <tag k="addr:housenumber" v="61"/>
    <tag k="addr:postcode" v="NG14 7EB"/>
    <tag k="addr:street" v="Caythorpe Road"/>
    <tag k="addr:suburb" v="Caythorpe"/>
    <tag k="amenity" v="pub"/>
    <tag k="building" v="pub"/>
    <tag k="fhrs:id" v="556260"/>
    <tag k="name" v="The Old Vol"/>
    <tag k="source:addr" v="FHRS Open Data"/>
  </way>
  <way id="608315998" version="4" timestamp="2025-02-01T19:14:07Z" changeset="162022927" uid="95856" user="⇄ john paul jones &amp; gringo">
    <nd ref="5763546065"/>
    <nd ref="5763546063"/>
    <nd ref="5763546064"/>
    <nd ref="5763546069"/>
    <nd ref="5763546068"/>
    <nd ref="5763546062"/>
    <nd ref="414194101"/>
    <nd ref="5763546067"/>
    <nd ref="5763546066"/>
    <nd ref="5763546065"/>
    <tag k="addr:city" v="Nottingham"/>
    <tag k="addr:country" v="GB"/>
    <tag k="addr:housenumber" v="29"/>
    <tag k="addr:postcode" v="NG14 7ED"/>
    <tag k="addr:street" v="Main Street"/>
    <tag k="addr:suburb" v="Caythorpe"/>
    <tag k="amenity" v="pub"/>
    <tag k="building" v="pub"/>
    <tag k="ele" v="8.0"/>
    <tag k="fhrs:id" v="556259"/>
    <tag k="name" v="The Black Horse"/>
    <tag k="opening_hours" v="Tu-Sa 12:00-14:30,18:00-23:30; Su 12:00-17:00,20:00-23:30"/>
    <tag k="operator" v="Caythorpe Brewery"/>
    <tag k="ref:GB:uprn" v="200004243152"/>
  </way>
  <way id="608316004" version="3" timestamp="2024-12-19T22:48:47Z" changeset="160413395" uid="8857" user="philipcullen">
    <nd ref="5761495685"/>
    <nd ref="5763546266"/>
    <nd ref="5763546265"/>
    <nd ref="5763546264"/>
    <nd ref="5763546263"/>
    <nd ref="5763546262"/>
    <nd ref="5763546261"/>
    <nd ref="5763546260"/>
    <nd ref="5761495685"/>
    <tag k="amenity" v="community_centre"/>
    <tag k="building" v="yes"/>
    <tag k="community_centre" v="village_hall"/>
    <tag k="name" v="Caythorpe Memorial Village Hall"/>
    <tag k="ref:GB:uprn" v="200004248089"/>
  </way>
  <way id="691585409" version="1" timestamp="2019-05-22T06:37:06Z" changeset="70502161" uid="9196098" user="flevin">
    <nd ref="6489949342"/>
    <nd ref="6489949343"/>
    <nd ref="6489949344"/>
    <nd ref="6489949345"/>
    <nd ref="6489949346"/>
    <nd ref="6489949347"/>
    <nd ref="6489949348"/>
    <nd ref="6489949349"/>
    <nd ref="6489949350"/>
    <nd ref="6489949351"/>
    <nd ref="6489949352"/>
    <nd ref="6489949353"/>
    <tag k="highway" v="residential"/>
  </way>
  <way id="691585412" version="1" timestamp="2019-05-22T06:37:06Z" changeset="70502161" uid="9196098" user="flevin">
    <nd ref="486566014"/>
    <nd ref="486566024"/>
    <tag k="highway" v="residential"/>
    <tag k="horse" v="yes"/>
  </way>
  <way id="691585415" version="1" timestamp="2019-05-22T06:37:06Z" changeset="70502161" uid="9196098" user="flevin">
    <nd ref="6489949354"/>
    <nd ref="6489949355"/>
    <nd ref="6489949356"/>
    <tag k="highway" v="residential"/>
  </way>

</osm>
