<?xml version="1.0" encoding="UTF-8"?>
<osm version="0.6" generator="Overpass API 0.7.62.8 e802775f">
<note>The data included in this document is from www.openstreetmap.org. The data is made available under ODbL.</note>
<meta osm_base="2025-10-23T16:41:41Z" areas="2025-10-23T08:56:18Z"/>

  <node id="167201395" lat="52.9938454" lon="-1.0258510" version="12" timestamp="2009-09-03T18:32:19Z" changeset="2361889" uid="161875" user="Willumm"/>
  <node id="431342923" lat="52.9931571" lon="-1.0290344" version="4" timestamp="2013-07-17T17:24:26Z" changeset="16989638" uid="1229950" user="geesona"/>
  <node id="3413440059" lat="53.0040366" lon="-1.0088962" version="2" timestamp="2015-12-13T22:16:26Z" changeset="35934807" uid="207845" user="will_p"/>
  <way id="37089693" version="11" timestamp="2021-02-17T08:28:11Z" changeset="99434164" uid="10252543" user="srikmar">
    <nd ref="3890794637"/>
    <nd ref="482677729"/>
    <nd ref="3890794635"/>
    <nd ref="3890794633"/>
    <nd ref="3890794632"/>
    <nd ref="3890794623"/>
    <nd ref="482677730"/>
    <nd ref="3890794617"/>
    <nd ref="482677732"/>
    <nd ref="3890794606"/>
    <nd ref="3891009374"/>
    <nd ref="3890794602"/>
    <nd ref="482677735"/>
    <nd ref="2377795915"/>
    <nd ref="3890794589"/>
    <nd ref="3890794569"/>
    <nd ref="3890794561"/>
    <nd ref="3890794559"/>
    <nd ref="3890794558"/>
    <nd ref="431342994"/>
    <nd ref="3890794555"/>
    <nd ref="3890794554"/>
    <nd ref="482679472"/>
    <nd ref="3425083779"/>
    <nd ref="431342995"/>
    <nd ref="3425083774"/>
    <nd ref="3890794542"/>
    <nd ref="3425083772"/>
    <nd ref="3425083771"/>
    <nd ref="431342996"/>
    <nd ref="3425083769"/>
    <nd ref="431342997"/>
    <nd ref="7387770245"/>
    <nd ref="8431117579"/>
    <nd ref="3425083767"/>
    <nd ref="482683117"/>
    <nd ref="3425083768"/>
    <tag k="highway" v="residential"/>
    <tag k="maxspeed" v="30 mph"/>
    <tag k="name" v="Old Main Road"/>
    <tag k="source" v="gps"/>
    <tag k="source:name" v="survey"/>
  </way>
  <way id="40103467" version="3" timestamp="2015-12-13T19:10:05Z" changeset="35931744" uid="207845" user="will_p">
    <nd ref="482678508"/>
    <nd ref="3890794575"/>
    <nd ref="2377795966"/>
    <nd ref="3890794557"/>
    <nd ref="431342994"/>
    <tag k="highway" v="residential"/>
    <tag k="name" v="Old Main Road"/>
    <tag k="source" v="gps"/>
    <tag k="source:name" v="survey"/>
  </way>
  <way id="40103639" version="2" timestamp="2015-03-29T17:56:13Z" changeset="29833525" uid="207845" user="will_p">
    <nd ref="482682045"/>
    <nd ref="482682049"/>
    <nd ref="482682053"/>
    <nd ref="3425083759"/>
    <nd ref="3425083760"/>
    <nd ref="482682055"/>
    <tag k="highway" v="residential"/>
    <tag k="name" v="The Ridings"/>
  </way>
  <way id="40103657" version="2" timestamp="2015-03-29T17:56:13Z" changeset="29833525" uid="207845" user="will_p">
    <nd ref="482683000"/>
    <nd ref="482683001"/>
    <nd ref="482683002"/>
    <nd ref="3425083736"/>
    <nd ref="482683004"/>
    <nd ref="482683006"/>
    <tag k="highway" v="residential"/>
    <tag k="name" v="The Leas"/>
  </way>
  <way id="40103658" version="3" timestamp="2015-03-29T17:56:13Z" changeset="29833525" uid="207845" user="will_p">
    <nd ref="482683083"/>
    <nd ref="482683089"/>
    <nd ref="3425083741"/>
    <nd ref="482683095"/>
    <nd ref="482683099"/>
    <nd ref="482683107"/>
    <nd ref="3425083749"/>
    <nd ref="3425083746"/>
    <nd ref="482683006"/>
    <nd ref="3425083743"/>
    <nd ref="482683110"/>
    <nd ref="3425083748"/>
    <nd ref="3425083750"/>
    <nd ref="482683113"/>
    <nd ref="482683115"/>
    <nd ref="482683116"/>
    <nd ref="482682055"/>
    <nd ref="482683117"/>
    <tag k="highway" v="residential"/>
    <tag k="name" v="The Spinney"/>
  </way>
  <way id="62187739" version="13" timestamp="2022-12-10T11:09:38Z" changeset="129929792" uid="1037758" user="BobJim84">
    <nd ref="167201395"/>
    <nd ref="431342924"/>
    <nd ref="167201397"/>
    <nd ref="499600332"/>
    <nd ref="660474534"/>
    <nd ref="431342925"/>
    <nd ref="167201399"/>
    <nd ref="431342926"/>
    <nd ref="4086979145"/>
    <nd ref="2387671437"/>
    <nd ref="431342928"/>
    <nd ref="4086980185"/>
    <nd ref="2465008460"/>
    <nd ref="2387694927"/>
    <nd ref="431342929"/>
    <nd ref="167201401"/>
    <nd ref="3891099473"/>
    <nd ref="431342930"/>
    <nd ref="167201402"/>
    <nd ref="2389832323"/>
    <nd ref="2388621759"/>
    <nd ref="3891099451"/>
    <nd ref="431342931"/>
    <nd ref="3891099423"/>
    <nd ref="3891117357"/>
    <nd ref="431342932"/>
    <nd ref="431342933"/>
    <tag k="highway" v="primary"/>
    <tag k="lanes" v="2"/>
    <tag k="maxspeed" v="30 mph"/>
    <tag k="name" v="Church Road"/>
    <tag k="oneway" v="no"/>
    <tag k="ref" v="A612"/>
    <tag k="source:name" v="OS OpenData StreetView"/>
    <tag k="surface" v="asphalt"/>
  </way>
  <way id="229149324" version="3" timestamp="2024-12-18T22:15:00Z" changeset="160370821" uid="8857" user="philipcullen">
    <nd ref="2377795872"/>
    <nd ref="2377795975"/>
    <nd ref="2377795919"/>
    <nd ref="2377796002"/>
    <nd ref="2377796006"/>
    <nd ref="2377795837"/>
    <nd ref="2377795999"/>
    <nd ref="2377795841"/>
    <nd ref="2377795872"/>
    <tag k="HE_ref" v="1392072"/>
    <tag k="addr:city" v="Nottingham"/>
    <tag k="addr:housenumber" v="2"/>
    <tag k="addr:postcode" v="NG14 5GY"/>
    <tag k="addr:street" v="Corporation Cottages"/>
    <tag k="addr:suburb" v="Bulcote"/>
    <tag k="building" v="house"/>
    <tag k="listed_status" v="Grade II"/>
    <tag k="ref:GB:uprn" v="200004243103"/>
    <tag k="source:addr" v="survey"/>
    <tag k="source:addr:postcode" v="OS Opendata Codepoint"/>
    <tag k="source:building" v="Bing"/>
    <tag k="source:listed_status" v="Historic England"/>
  </way>
  <way id="229149326" version="3" timestamp="2024-12-18T22:15:00Z" changeset="160370821" uid="8857" user="philipcullen">
    <nd ref="2377796001"/>
    <nd ref="2377795842"/>
    <nd ref="2377795983"/>
    <nd ref="2377795893"/>
    <nd ref="2377796001"/>
    <tag k="HE_ref" v="1392072"/>
    <tag k="addr:city" v="Nottingham"/>
    <tag k="addr:housenumber" v="8"/>
    <tag k="addr:postcode" v="NG14 5GY"/>
    <tag k="addr:street" v="Corporation Cottages"/>
    <tag k="addr:suburb" v="Bulcote"/>
    <tag k="building" v="house"/>
    <tag k="listed_status" v="Grade II"/>
    <tag k="ref:GB:uprn" v="200004243109"/>
    <tag k="source:addr" v="survey"/>
    <tag k="source:addr:postcode" v="OS Opendata Codepoint"/>
    <tag k="source:building" v="Bing"/>
    <tag k="source:listed_status" v="Historic England"/>
  </way>
  <way id="229149332" version="3" timestamp="2024-12-18T22:15:00Z" changeset="160370821" uid="8857" user="philipcullen">
    <nd ref="2377795912"/>
    <nd ref="2377795893"/>
    <nd ref="2377795983"/>
    <nd ref="2377795935"/>
    <nd ref="2377795912"/>
    <tag k="HE_ref" v="1392072"/>
    <tag k="addr:city" v="Nottingham"/>
    <tag k="addr:housenumber" v="7"/>
    <tag k="addr:postcode" v="NG14 5GY"/>
    <tag k="addr:street" v="Corporation Cottages"/>
    <tag k="addr:suburb" v="Bulcote"/>
    <tag k="building" v="house"/>
    <tag k="listed_status" v="Grade II"/>
    <tag k="ref:GB:uprn" v="200004243108"/>
    <tag k="source:addr" v="survey"/>
    <tag k="source:addr:postcode" v="OS Opendata Codepoint"/>
    <tag k="source:building" v="Bing"/>
    <tag k="source:listed_status" v="Historic England"/>
  </way>
  <way id="229149333" version="3" timestamp="2024-12-18T22:15:00Z" changeset="160370821" uid="8857" user="philipcullen">
    <nd ref="2377795951"/>
    <nd ref="2377795896"/>
    <nd ref="2377796015"/>
    <nd ref="2377795895"/>
    <nd ref="2377795902"/>
    <nd ref="2377795855"/>
    <nd ref="2377795951"/>
    <tag k="HE_ref" v="1392072"/>
    <tag k="addr:city" v="Nottingham"/>
    <tag k="addr:housenumber" v="12"/>
    <tag k="addr:postcode" v="NG14 5GY"/>
    <tag k="addr:street" v="Corporation Cottages"/>
    <tag k="addr:suburb" v="Bulcote"/>
    <tag k="building" v="house"/>
    <tag k="listed_status" v="Grade II"/>
    <tag k="ref:GB:uprn" v="200004243102"/>
    <tag k="source:addr" v="survey"/>
    <tag k="source:addr:postcode" v="OS Opendata Codepoint"/>
    <tag k="source:building" v="Bing"/>
    <tag k="source:listed_status" v="Historic England"/>
  </way>
  <way id="229149334" version="3" timestamp="2024-12-18T22:15:00Z" changeset="160370821" uid="8857" user="philipcullen">
    <nd ref="2377795955"/>
    <nd ref="2377796003"/>
    <nd ref="2377795854"/>
    <nd ref="2377795887"/>
    <nd ref="2377795955"/>
    <tag k="HE_ref" v="1392072"/>
    <tag k="addr:city" v="Nottingham"/>
    <tag k="addr:housenumber" v="5"/>
    <tag k="addr:postcode" v="NG14 5GY"/>
    <tag k="addr:street" v="Corporation Cottages"/>
    <tag k="addr:suburb" v="Bulcote"/>
    <tag k="building" v="house"/>
    <tag k="listed_status" v="Grade II"/>
    <tag k="ref:GB:uprn" v="200004243106"/>
    <tag k="source:addr" v="survey"/>
    <tag k="source:addr:postcode" v="OS Opendata Codepoint"/>
    <tag k="source:building" v="Bing"/>
    <tag k="source:listed_status" v="Historic England"/>
  </way>
  <way id="229149335" version="3" timestamp="2024-12-18T22:15:00Z" changeset="160370821" uid="8857" user="philipcullen">
    <nd ref="2377795849"/>
    <nd ref="2377795980"/>
    <nd ref="2377795963"/>
    <nd ref="2377795876"/>
    <nd ref="2377795849"/>
    <tag k="HE_ref" v="1392072"/>
    <tag k="addr:city" v="Nottingham"/>
    <tag k="addr:housenumber" v="9"/>
    <tag k="addr:postcode" v="NG14 5GY"/>
    <tag k="addr:street" v="Corporation Cottages"/>
    <tag k="addr:suburb" v="Bulcote"/>
    <tag k="building" v="house"/>
    <tag k="listed_status" v="Grade II"/>
    <tag k="ref:GB:uprn" v="200004243110"/>
    <tag k="source:addr" v="survey"/>
    <tag k="source:addr:postcode" v="OS Opendata Codepoint"/>
    <tag k="source:building" v="Bing"/>
    <tag k="source:listed_status" v="Historic England"/>
  </way>
  <way id="229149336" version="3" timestamp="2024-12-18T22:15:00Z" changeset="160370821" uid="8857" user="philipcullen">
    <nd ref="2377795963"/>
    <nd ref="2377795980"/>
    <nd ref="2377795879"/>
    <nd ref="2377795959"/>
    <nd ref="2377795963"/>
    <tag k="HE_ref" v="1392072"/>
    <tag k="addr:city" v="Nottingham"/>
    <tag k="addr:housenumber" v="10"/>
    <tag k="addr:postcode" v="NG14 5GY"/>
    <tag k="addr:street" v="Corporation Cottages"/>
    <tag k="addr:suburb" v="Bulcote"/>
    <tag k="building" v="house"/>
    <tag k="listed_status" v="Grade II"/>
    <tag k="ref:GB:uprn" v="200004243100"/>
    <tag k="source:addr" v="survey"/>
    <tag k="source:addr:postcode" v="OS Opendata Codepoint"/>
    <tag k="source:building" v="Bing"/>
    <tag k="source:listed_status" v="Historic England"/>
  </way>
  <way id="229149339" version="3" timestamp="2024-12-18T22:15:00Z" changeset="160370821" uid="8857" user="philipcullen">
    <nd ref="2377795843"/>
    <nd ref="2377795870"/>
    <nd ref="2377795985"/>
    <nd ref="2377795868"/>
    <nd ref="2377795843"/>
    <tag k="HE_ref" v="1392072"/>
    <tag k="addr:city" v="Nottingham"/>
    <tag k="addr:housenumber" v="3"/>
    <tag k="addr:postcode" v="NG14 5GY"/>
    <tag k="addr:street" v="Corporation Cottages"/>
    <tag k="addr:suburb" v="Bulcote"/>
    <tag k="building" v="house"/>
    <tag k="listed_status" v="Grade II"/>
    <tag k="ref:GB:uprn" v="200004243104"/>
    <tag k="source:addr" v="survey"/>
    <tag k="source:addr:postcode" v="OS Opendata Codepoint"/>
    <tag k="source:building" v="Bing"/>
    <tag k="source:listed_status" v="Historic England"/>
  </way>
  <way id="229149346" version="3" timestamp="2024-12-18T22:15:00Z" changeset="160370821" uid="8857" user="philipcullen">
    <nd ref="2377795951"/>
    <nd ref="2377795831"/>
    <nd ref="2377796024"/>
    <nd ref="2377795981"/>
    <nd ref="2377795956"/>
    <nd ref="2377795896"/>
    <nd ref="2377795951"/>
    <tag k="HE_ref" v="1392072"/>
    <tag k="addr:city" v="Nottingham"/>
    <tag k="addr:housenumber" v="11"/>
    <tag k="addr:postcode" v="NG14 5GY"/>
    <tag k="addr:street" v="Corporation Cottages"/>
    <tag k="addr:suburb" v="Bulcote"/>
    <tag k="building" v="house"/>
    <tag k="listed_status" v="Grade II"/>
    <tag k="ref:GB:uprn" v="200004243101"/>
    <tag k="source:addr" v="survey"/>
    <tag k="source:addr:postcode" v="OS Opendata Codepoint"/>
    <tag k="source:building" v="Bing"/>
    <tag k="source:listed_status" v="Historic England"/>
  </way>
  <way id="229149352" version="3" timestamp="2024-12-18T22:15:00Z" changeset="160370821" uid="8857" user="philipcullen">
    <nd ref="2377796003"/>
    <nd ref="2377795854"/>
    <nd ref="2377795976"/>
    <nd ref="2377796018"/>
    <nd ref="2377796003"/>
    <tag k="HE_ref" v="1392072"/>
    <tag k="addr:city" v="Nottingham"/>
    <tag k="addr:housenumber" v="6"/>
    <tag k="addr:postcode" v="NG14 5GY"/>
    <tag k="addr:street" v="Corporation Cottages"/>
    <tag k="addr:suburb" v="Bulcote"/>
    <tag k="building" v="house"/>
    <tag k="listed_status" v="Grade II"/>
    <tag k="ref:GB:uprn" v="200004243107"/>
    <tag k="source:addr" v="survey"/>
    <tag k="source:addr:postcode" v="OS Opendata Codepoint"/>
    <tag k="source:building" v="Bing"/>
    <tag k="source:listed_status" v="Historic England"/>
  </way>
  <way id="229149353" version="3" timestamp="2024-12-18T22:15:00Z" changeset="160370821" uid="8857" user="philipcullen">
    <nd ref="2377796007"/>
    <nd ref="2377795872"/>
    <nd ref="2377795975"/>
    <nd ref="2377795987"/>
    <nd ref="2377796007"/>
    <tag k="HE_ref" v="1392072"/>
    <tag k="addr:city" v="Nottingham"/>
    <tag k="addr:housenumber" v="1"/>
    <tag k="addr:postcode" v="NG14 5GY"/>
    <tag k="addr:street" v="Corporation Cottages"/>
    <tag k="addr:suburb" v="Bulcote"/>
    <tag k="building" v="house"/>
    <tag k="listed_status" v="Grade II"/>
    <tag k="ref:GB:uprn" v="200004243099"/>
    <tag k="source:addr" v="survey"/>
    <tag k="source:addr:postcode" v="OS Opendata Codepoint"/>
    <tag k="source:building" v="Bing"/>
    <tag k="source:listed_status" v="Historic England"/>
  </way>
  <way id="229149354" version="3" timestamp="2024-12-18T22:15:00Z" changeset="160370821" uid="8857" user="philipcullen">
    <nd ref="2377795870"/>
    <nd ref="2377795985"/>
    <nd ref="2377795938"/>
    <nd ref="2377795864"/>
    <nd ref="2377795870"/>
    <tag k="HE_ref" v="1392072"/>
    <tag k="addr:city" v="Nottingham"/>
    <tag k="addr:housenumber" v="4"/>
    <tag k="addr:postcode" v="NG14 5GY"/>
    <tag k="addr:street" v="Corporation Cottages"/>
    <tag k="addr:suburb" v="Bulcote"/>
    <tag k="building" v="house"/>
    <tag k="listed_status" v="Grade II"/>
    <tag k="ref:GB:uprn" v="200004243105"/>
    <tag k="source:addr" v="survey"/>
    <tag k="source:addr:postcode" v="OS Opendata Codepoint"/>
    <tag k="source:building" v="Bing"/>
    <tag k="source:listed_status" v="Historic England"/>
  </way>
  <way id="229892386" version="2" timestamp="2015-03-29T17:56:05Z" changeset="29833525" uid="207845" user="will_p">
    <nd ref="2384285120"/>
    <nd ref="2384285111"/>
    <nd ref="2384285257"/>
    <nd ref="2384285014"/>
    <nd ref="2384285308"/>
    <nd ref="2384285102"/>
    <nd ref="2384285004"/>
    <nd ref="2384285289"/>
    <nd ref="2384285271"/>
    <nd ref="2384285123"/>
    <nd ref="2384285310"/>
    <nd ref="2384285059"/>
    <nd ref="2384285327"/>
    <nd ref="2384285018"/>
    <nd ref="2384285120"/>
    <tag k="addr:street" v="Church Road"/>
    <tag k="building" v="yes"/>
    <tag k="name" v="Burton Joyce Cars"/>
    <tag k="second_hand" v="only"/>
    <tag k="shop" v="car"/>
    <tag k="source" v="survey"/>
    <tag k="website" v="http://www.burtonjoycecars.co.uk/"/>
  </way>
  <way id="230485981" version="6" timestamp="2021-08-27T06:34:06Z" changeset="110320450" uid="10208976" user="vchndl">
    <nd ref="431342923"/>
    <nd ref="3425083751"/>
    <nd ref="2387694834"/>
    <nd ref="324349186"/>
    <nd ref="324349187"/>
    <nd ref="9039631685"/>
    <nd ref="7116163680"/>
    <nd ref="1524710591"/>
    <nd ref="3425083763"/>
    <nd ref="167201395"/>
    <tag k="highway" v="tertiary"/>
    <tag k="maxspeed" v="30 mph"/>
    <tag k="name" v="Old Main Road"/>
    <tag k="source" v="npe"/>
    <tag k="source:name" v="survey"/>
  </way>
  <way id="334242107" version="16" timestamp="2025-04-22T16:28:50Z" changeset="165294683" uid="5229644" user="Nathan_A_RF">
    <nd ref="3413440059"/>
    <nd ref="167201384"/>
    <nd ref="3891009957"/>
    <nd ref="167201386"/>
    <nd ref="1524710585"/>
    <nd ref="6799025819"/>
    <nd ref="8083084717"/>
    <nd ref="167201387"/>
    <nd ref="1524710553"/>
    <nd ref="3890794658"/>
    <nd ref="6871405864"/>
    <nd ref="167201390"/>
    <nd ref="7941776390"/>
    <nd ref="3890794655"/>
    <nd ref="3890794654"/>
    <nd ref="6871405857"/>
    <nd ref="167201391"/>
    <tag k="highway" v="primary"/>
    <tag k="lanes" v="2"/>
    <tag k="lit" v="no"/>
    <tag k="maxspeed" v="50 mph"/>
    <tag k="maxspeed:type" v="sign"/>
    <tag k="name" v="Nottingham Road"/>
    <tag k="ref" v="A612"/>
    <tag k="shoulder" v="no"/>
    <tag k="source:name" v="NapTAN"/>
    <tag k="surface" v="asphalt"/>
  </way>
  <way id="335394149" version="2" timestamp="2021-02-17T08:28:11Z" changeset="99434164" uid="10252543" user="srikmar">
    <nd ref="3425083769"/>
    <nd ref="8431117580"/>
    <nd ref="8431117581"/>
    <nd ref="3425083782"/>
    <tag k="access" v="private"/>
    <tag k="highway" v="residential"/>
    <tag k="name" v="Redmays Drive"/>
    <tag k="source" v="survey"/>
  </way>
  <way id="335394152" version="1" timestamp="2015-03-29T17:55:59Z" changeset="29833525" uid="207845" user="will_p">
    <nd ref="482683089"/>
    <nd ref="3425083735"/>
    <tag k="highway" v="residential"/>
    <tag k="name" v="The Spinney"/>
  </way>
  <way id="335394153" version="1" timestamp="2015-03-29T17:55:59Z" changeset="29833525" uid="207845" user="will_p">
    <nd ref="482683095"/>
    <nd ref="3425083753"/>
    <tag k="highway" v="residential"/>
    <tag k="name" v="The Spinney"/>
  </way>
  <way id="385741930" version="6" timestamp="2024-01-19T19:42:36Z" changeset="146455710" uid="242345" user="confusedbuffalo">
    <nd ref="167201391"/>
    <nd ref="3890794650"/>
    <nd ref="482678169"/>
    <nd ref="324349754"/>
    <nd ref="167201393"/>
    <nd ref="3425083798"/>
    <nd ref="3891009378"/>
    <nd ref="3425083778"/>
    <nd ref="3946882585"/>
    <tag k="highway" v="primary"/>
    <tag k="lanes" v="2"/>
    <tag k="maxspeed" v="40 mph"/>
    <tag k="maxspeed:type" v="sign"/>
    <tag k="name" v="Nottingham Road"/>
    <tag k="ref" v="A612"/>
    <tag k="source:name" v="NapTAN"/>
    <tag k="surface" v="asphalt"/>
  </way>
  <way id="385741932" version="2" timestamp="2015-12-13T22:16:22Z" changeset="35934807" uid="207845" user="will_p">
    <nd ref="482678169"/>
    <nd ref="3890794646"/>
    <nd ref="3890794644"/>
    <nd ref="3890794642"/>
    <nd ref="3891009713"/>
    <nd ref="3890794638"/>
    <nd ref="3890794637"/>
    <tag k="highway" v="residential"/>
    <tag k="maxspeed" v="40 mph"/>
    <tag k="name" v="Old Main Road"/>
    <tag k="source" v="gps"/>
    <tag k="source:name" v="survey"/>
  </way>
  <way id="385741959" version="1" timestamp="2015-12-13T19:09:56Z" changeset="35931744" uid="207845" user="will_p">
    <nd ref="482679472"/>
    <nd ref="3425083773"/>
    <nd ref="3166585561"/>
    <nd ref="482679866"/>
    <nd ref="482679455"/>
    <tag k="highway" v="residential"/>
    <tag k="maxspeed" v="30 mph"/>
    <tag k="surface" v="paved"/>
  </way>
  <way id="385741961" version="1" timestamp="2015-12-13T19:09:56Z" changeset="35931744" uid="207845" user="will_p">
    <nd ref="482679455"/>
    <nd ref="3890794527"/>
    <nd ref="3425083755"/>
    <nd ref="3890794520"/>
    <nd ref="3425083747"/>
    <nd ref="3425083730"/>
    <tag k="designation" v="public_bridleway"/>
    <tag k="highway" v="residential"/>
    <tag k="maxspeed" v="20 mph"/>
    <tag k="name:right" v="Corporation Cottages"/>
    <tag k="surface" v="paved"/>
  </way>
  <way id="385764997" version="3" timestamp="2024-12-18T22:15:00Z" changeset="160370821" uid="8857" user="philipcullen">
    <nd ref="3891009712"/>
    <nd ref="3891009711"/>
    <nd ref="3891009709"/>
    <nd ref="3891009707"/>
    <nd ref="3891009706"/>
    <nd ref="3891009705"/>
    <nd ref="3891009704"/>
    <nd ref="3891009702"/>
    <nd ref="3891009701"/>
    <nd ref="3891009692"/>
    <nd ref="3891009688"/>
    <nd ref="431342915"/>
    <nd ref="3891009684"/>
    <nd ref="3891009689"/>
    <nd ref="3891009683"/>
    <nd ref="3891009691"/>
    <nd ref="3891009687"/>
    <nd ref="3891009699"/>
    <nd ref="3891009700"/>
    <nd ref="3891009703"/>
    <nd ref="3891009710"/>
    <nd ref="3891009708"/>
    <nd ref="3891009712"/>
    <tag k="HE_ref" v="1045533"/>
    <tag k="amenity" v="place_of_worship"/>
    <tag k="building" v="church"/>
    <tag k="denomination" v="anglican"/>
    <tag k="listed_status" v="Grade II"/>
    <tag k="name" v="Holy Trinity"/>
    <tag k="ref:GB:uprn" v="10008170304"/>
    <tag k="religion" v="christian"/>
    <tag k="source" v="survey"/>
    <tag k="source:building" v="survey;Bing"/>
    <tag k="source:listed_status" v="Historic England"/>
    <tag k="wikidata" v="Q26297626"/>
  </way>
  <way id="391474761" version="5" timestamp="2024-01-19T19:42:36Z" changeset="146455710" uid="242345" user="confusedbuffalo">
    <nd ref="3946882585"/>
    <nd ref="3425083768"/>
    <nd ref="167201395"/>
    <tag k="highway" v="primary"/>
    <tag k="lanes" v="2"/>
    <tag k="lit" v="yes"/>
    <tag k="maxspeed" v="30 mph"/>
    <tag k="maxspeed:type" v="sign"/>
    <tag k="name" v="Nottingham Road"/>
    <tag k="ref" v="A612"/>
    <tag k="source:name" v="NapTAN"/>
    <tag k="surface" v="asphalt"/>
  </way>

</osm>
