<?xml version="1.0" encoding="UTF-8"?>
<osm version="0.6" generator="Overpass API 0.7.62.8 e802775f">
<note>The data included in this document is from www.openstreetmap.org. The data is made available under ODbL.</note>
<meta osm_base="2025-10-23T16:29:36Z" areas="2025-10-23T08:56:18Z"/>

  <node id="195929805" lat="52.9864318" lon="-0.9101480" version="5" timestamp="2016-05-10T18:00:30Z" changeset="39224297" uid="207845" user="will_p"/>
  <node id="195932551" lat="52.9809588" lon="-0.8825350" version="4" timestamp="2022-09-02T15:58:51Z" changeset="125705174" uid="2762871" user="Sam888"/>
  <node id="195932579" lat="52.9925899" lon="-0.8675465" version="4" timestamp="2022-09-02T15:58:51Z" changeset="125705174" uid="2762871" user="Sam888"/>
  <node id="282317986" lat="52.9766110" lon="-0.8507101" version="5" timestamp="2018-05-27T10:41:12Z" changeset="59310736" uid="51454" user="flint"/>
  <node id="2211501407" lat="52.9759439" lon="-0.8630620" version="2" timestamp="2016-01-25T20:22:42Z" changeset="36804324" uid="1431482" user="JonOrchard"/>
  <way id="15456685" version="17" timestamp="2022-09-02T15:58:51Z" changeset="125705174" uid="2762871" user="Sam888">
    <nd ref="195932551"/>
    <nd ref="2211501422"/>
    <nd ref="8690710372"/>
    <nd ref="6903142273"/>
    <nd ref="8690710381"/>
    <nd ref="2211501432"/>
    <nd ref="2211501431"/>
    <nd ref="5660990008"/>
    <nd ref="5660990006"/>
    <nd ref="330491537"/>
    <nd ref="235264888"/>
    <nd ref="1559786507"/>
    <nd ref="5660989990"/>
    <nd ref="6556683891"/>
    <nd ref="2681024225"/>
    <nd ref="153438603"/>
    <nd ref="153395965"/>
    <tag k="highway" v="tertiary"/>
    <tag k="name" v="Hawksworth Lane"/>
    <tag k="source:name" v="NaPTAN"/>
  </way>
  <way id="18934598" version="14" timestamp="2022-09-02T15:58:51Z" changeset="125705174" uid="2762871" user="Sam888">
    <nd ref="195932551"/>
    <nd ref="195929830"/>
    <nd ref="195932552"/>
    <nd ref="8710152658"/>
    <nd ref="8240153077"/>
    <nd ref="195932554"/>
    <nd ref="8240153094"/>
    <nd ref="7156369029"/>
    <nd ref="1136493042"/>
    <nd ref="8227690175"/>
    <nd ref="195932555"/>
    <nd ref="1136492774"/>
    <nd ref="195932557"/>
    <nd ref="195932558"/>
    <nd ref="195932559"/>
    <nd ref="6865657646"/>
    <nd ref="8411621529"/>
    <nd ref="8411621526"/>
    <nd ref="195932560"/>
    <nd ref="8411621525"/>
    <nd ref="195932562"/>
    <nd ref="1559772124"/>
    <nd ref="195932563"/>
    <nd ref="195932565"/>
    <nd ref="195932567"/>
    <nd ref="9995355864"/>
    <nd ref="195932568"/>
    <nd ref="9995355863"/>
    <nd ref="195932569"/>
    <nd ref="3806558978"/>
    <nd ref="195932570"/>
    <nd ref="9995355862"/>
    <nd ref="195932571"/>
    <nd ref="195932572"/>
    <nd ref="195932573"/>
    <nd ref="3806558976"/>
    <nd ref="195932574"/>
    <nd ref="195932575"/>
    <nd ref="195932576"/>
    <nd ref="195932577"/>
    <nd ref="195932578"/>
    <nd ref="195932579"/>
    <tag k="highway" v="tertiary"/>
    <tag k="name" v="Newfield Lane"/>
    <tag k="source:name" v="OS OpenData StreetView"/>
  </way>
  <way id="98238394" version="1" timestamp="2011-02-04T22:34:16Z" changeset="7188076" uid="84075" user="kevjs1982">
    <nd ref="1136493354"/>
    <nd ref="1136492750"/>
    <nd ref="1136492797"/>
    <nd ref="1136492810"/>
    <nd ref="1136492774"/>
    <tag k="highway" v="residential"/>
    <tag k="name" v="New Road"/>
    <tag k="source" v="bing"/>
    <tag k="source:name" v="OS Open Locator"/>
  </way>
  <way id="98238411" version="8" timestamp="2024-02-18T02:15:49Z" changeset="147593554" uid="493595" user="Yorvik Prestigitator">
    <nd ref="195929805"/>
    <nd ref="4176918083"/>
    <nd ref="195929806"/>
    <nd ref="195929807"/>
    <nd ref="11636240109"/>
    <nd ref="195929808"/>
    <nd ref="4176918037"/>
    <nd ref="4176918039"/>
    <nd ref="6567547244"/>
    <nd ref="195929809"/>
    <nd ref="195929810"/>
    <nd ref="195929811"/>
    <nd ref="4176918053"/>
    <nd ref="195929812"/>
    <nd ref="4176918043"/>
    <nd ref="195929813"/>
    <nd ref="195929814"/>
    <nd ref="6567547226"/>
    <nd ref="3359698381"/>
    <nd ref="195929815"/>
    <nd ref="195929817"/>
    <nd ref="195929818"/>
    <nd ref="195929819"/>
    <nd ref="195929820"/>
    <nd ref="195929821"/>
    <nd ref="8428772488"/>
    <nd ref="195929822"/>
    <nd ref="195929823"/>
    <nd ref="195929824"/>
    <nd ref="195929825"/>
    <nd ref="195929826"/>
    <nd ref="8710152655"/>
    <nd ref="195929827"/>
    <tag k="highway" v="unclassified"/>
    <tag k="name" v="Hawksworth Road"/>
  </way>
  <way id="98238423" version="2" timestamp="2021-05-02T13:48:02Z" changeset="103995912" uid="493595" user="Yorvik Prestigitator">
    <nd ref="1136493358"/>
    <nd ref="8690710342"/>
    <nd ref="1136493032"/>
    <nd ref="1136493042"/>
    <tag k="highway" v="residential"/>
    <tag k="name" v="Town Street"/>
    <tag k="source" v="bing"/>
    <tag k="source:name" v="OS Open Locator"/>
  </way>
  <way id="211142608" version="3" timestamp="2018-06-03T13:48:36Z" changeset="59509330" uid="51454" user="flint">
    <nd ref="2211501407"/>
    <nd ref="2211501411"/>
    <nd ref="2287891603"/>
    <nd ref="2211501420"/>
    <nd ref="5661178612"/>
    <nd ref="2211501430"/>
    <nd ref="330491642"/>
    <nd ref="2211501429"/>
    <nd ref="2211501417"/>
    <nd ref="2211501428"/>
    <nd ref="2211501416"/>
    <nd ref="2211501413"/>
    <nd ref="2211501410"/>
    <nd ref="2211501422"/>
    <tag k="highway" v="unclassified"/>
    <tag k="source" v="OS_OpenData_StreetView"/>
  </way>
  <way id="591339605" version="4" timestamp="2022-09-02T15:58:51Z" changeset="125705174" uid="2762871" user="Sam888">
    <nd ref="282317986"/>
    <nd ref="768098461"/>
    <nd ref="5645654630"/>
    <nd ref="5645654640"/>
    <nd ref="3806558981"/>
    <nd ref="5645654612"/>
    <nd ref="5645654613"/>
    <nd ref="5645654614"/>
    <nd ref="282317987"/>
    <nd ref="5645654615"/>
    <nd ref="5645654616"/>
    <nd ref="1559786495"/>
    <nd ref="1559786491"/>
    <nd ref="1559786517"/>
    <nd ref="1559786493"/>
    <nd ref="6782883076"/>
    <nd ref="1559786499"/>
    <nd ref="5645654617"/>
    <nd ref="282317988"/>
    <nd ref="5645654618"/>
    <nd ref="5645654619"/>
    <nd ref="282317989"/>
    <nd ref="5645654621"/>
    <nd ref="5645654620"/>
    <nd ref="3966859521"/>
    <nd ref="282317990"/>
    <nd ref="3966859520"/>
    <nd ref="3966859519"/>
    <nd ref="282317991"/>
    <nd ref="3966859522"/>
    <nd ref="1136493217"/>
    <nd ref="3966859523"/>
    <nd ref="1136493294"/>
    <nd ref="3966859524"/>
    <nd ref="1136492915"/>
    <nd ref="282317992"/>
    <nd ref="3966859525"/>
    <nd ref="3966859526"/>
    <nd ref="282317993"/>
    <nd ref="3966859527"/>
    <nd ref="3966859528"/>
    <nd ref="1136493190"/>
    <nd ref="1136493011"/>
    <nd ref="1136492895"/>
    <nd ref="282317994"/>
    <nd ref="1136492963"/>
    <nd ref="3104807596"/>
    <nd ref="282317995"/>
    <nd ref="282317996"/>
    <nd ref="195932579"/>
    <tag k="highway" v="tertiary"/>
    <tag k="name" v="Longhedge Lane"/>
    <tag k="source:name" v="OS OpenData StreetView"/>
  </way>
  <way id="593390478" version="1" timestamp="2018-06-03T12:11:01Z" changeset="59506896" uid="51454" user="flint">
    <nd ref="5660990013"/>
    <nd ref="5660990014"/>
    <nd ref="5660990015"/>
    <nd ref="5660990016"/>
    <nd ref="5660990017"/>
    <nd ref="5660990018"/>
    <nd ref="5660990019"/>
    <nd ref="5660990020"/>
    <nd ref="5660990121"/>
    <nd ref="5660990122"/>
    <nd ref="5660990013"/>
    <tag k="building" v="farm"/>
    <tag k="name" v="Glebe Farm"/>
  </way>
  <way id="593403300" version="1" timestamp="2018-06-03T12:54:46Z" changeset="59508018" uid="51454" user="flint">
    <nd ref="5661070844"/>
    <nd ref="5661070845"/>
    <nd ref="5661070846"/>
    <nd ref="5661070847"/>
    <nd ref="5661070848"/>
    <nd ref="5661070849"/>
    <nd ref="5661070844"/>
    <tag k="building" v="yes"/>
    <tag k="name" v="Hawksworth Manor"/>
  </way>
  <way id="884296020" version="3" timestamp="2025-02-15T20:05:04Z" changeset="162549341" uid="95856" user="⇄ john paul jones &amp; gringo">
    <nd ref="2211474589"/>
    <nd ref="8223854908"/>
    <nd ref="8223854911"/>
    <nd ref="8223865018"/>
    <nd ref="2211474589"/>
    <tag k="addr:city" v="Nottingham"/>
    <tag k="addr:country" v="GB"/>
    <tag k="addr:postcode" v="NG13 9DD"/>
    <tag k="addr:suburb" v="Hawksworth"/>
    <tag k="amenity" v="place_of_worship"/>
    <tag k="building" v="church"/>
    <tag k="denomination" v="anglican"/>
    <tag k="name" v="St Mary &amp; All Saints"/>
    <tag k="religion" v="christian"/>
    <tag k="source" v="Bing"/>
    <tag k="wikidata" v="Q5117296"/>
    <tag k="wikipedia" v="en:Church of St Mary and All Saints, Hawksworth"/>
  </way>
  <way id="936316162" version="1" timestamp="2021-04-28T11:27:34Z" changeset="103772025" uid="12924534" user="Stephen Shanks">
    <nd ref="8676098122"/>
    <nd ref="195929828"/>
    <nd ref="195929829"/>
    <nd ref="195929830"/>
    <tag k="highway" v="unclassified"/>
    <tag k="name" v="Hawksworth Road"/>
  </way>
  <way id="936316163" version="1" timestamp="2021-04-28T11:27:34Z" changeset="103772025" uid="12924534" user="Stephen Shanks">
    <nd ref="195929827"/>
    <nd ref="8676098122"/>
    <tag k="bridge" v="yes"/>
    <tag k="highway" v="unclassified"/>
    <tag k="layer" v="1"/>
    <tag k="name" v="Hawksworth Road"/>
  </way>
  <way id="1091298551" version="1" timestamp="2022-09-02T15:58:51Z" changeset="125705174" uid="2762871" user="Sam888">
    <nd ref="195932579"/>
    <nd ref="195932580"/>
    <nd ref="195932581"/>
    <nd ref="195932582"/>
    <nd ref="195932583"/>
    <nd ref="195932584"/>
    <nd ref="195932585"/>
    <nd ref="195932586"/>
    <nd ref="1136492812"/>
    <nd ref="195932587"/>
    <nd ref="195932589"/>
    <nd ref="195932590"/>
    <nd ref="2211385732"/>
    <nd ref="1136493200"/>
    <nd ref="2211385810"/>
    <nd ref="195932591"/>
    <tag k="highway" v="unclassified"/>
    <tag k="name" v="Newfield Lane"/>
    <tag k="source:name" v="OS OpenData StreetView"/>
  </way>
  <way id="1091298552" version="1" timestamp="2022-09-02T15:58:51Z" changeset="125705174" uid="2762871" user="Sam888">
    <nd ref="195932579"/>
    <nd ref="9995355865"/>
    <nd ref="9995355866"/>
    <nd ref="282317997"/>
    <nd ref="2294016734"/>
    <nd ref="282317998"/>
    <nd ref="5840626296"/>
    <nd ref="2294008210"/>
    <nd ref="5840626294"/>
    <tag k="highway" v="tertiary"/>
    <tag k="name" v="Longhedge Lane"/>
    <tag k="source:name" v="OS OpenData StreetView"/>
  </way>

</osm>
