<?xml version="1.0" encoding="UTF-8"?>
<osm version="0.6" generator="Overpass API 0.7.62.8 e802775f">
<note>The data included in this document is from www.openstreetmap.org. The data is made available under ODbL.</note>
<meta osm_base="2025-10-23T17:02:56Z" areas="2025-10-23T14:54:58Z"/>

  <node id="324399811" lat="52.8907782" lon="-0.9945239" version="8" timestamp="2020-07-29T14:10:47Z" changeset="88683696" uid="1431482" user="JonOrchard"/>
  <node id="469445817" lat="52.8902143" lon="-0.9793989" version="2" timestamp="2014-10-02T15:49:19Z" changeset="25813361" uid="1431482" user="JonOrchard"/>
  <node id="768053273" lat="52.8984306" lon="-1.0227945" version="5" timestamp="2024-04-23T15:54:55Z" changeset="150403331" uid="84075" user="kevjs1982">
    <tag k="exit_to" v="Harby;Colston Bassett;Cotgrave;Owthorpe"/>
    <tag k="highway" v="motorway_junction"/>
    <tag k="name" v="Owthorpe"/>
    <tag k="source:name" v="Survey"/>
  </node>
  <node id="1119831415" lat="52.8735032" lon="-0.9909447" version="1" timestamp="2011-01-25T12:18:37Z" changeset="7083029" uid="20119" user="peter taffs"/>
  <node id="1229464857" lat="52.8982945" lon="-1.0237741" version="4" timestamp="2020-08-01T07:20:12Z" changeset="88808401" uid="1431482" user="JonOrchard"/>
  <node id="1229464913" lat="52.8990408" lon="-1.0231445" version="3" timestamp="2017-07-31T21:49:53Z" changeset="50733060" uid="5296090" user="TR42"/>
  <node id="1524656551" lat="52.8999612" lon="-1.0221496" version="3" timestamp="2014-01-15T01:45:10Z" changeset="20004770" uid="38588" user="mentor"/>
  <node id="1524656878" lat="52.9181323" lon="-1.0093998" version="4" timestamp="2022-12-16T15:41:47Z" changeset="130161494" uid="24119" user="Mauls"/>
  <way id="29434533" version="19" timestamp="2020-08-06T07:26:48Z" changeset="89021038" uid="1431482" user="JonOrchard">
    <nd ref="1119831415"/>
    <nd ref="2296724068"/>
    <nd ref="2314363142"/>
    <nd ref="7781379068"/>
    <nd ref="324399724"/>
    <nd ref="7781379067"/>
    <nd ref="2303738855"/>
    <nd ref="7790633928"/>
    <nd ref="7781379066"/>
    <nd ref="460984308"/>
    <nd ref="7781379065"/>
    <nd ref="460982606"/>
    <nd ref="324399726"/>
    <nd ref="2978038252"/>
    <nd ref="2303738854"/>
    <nd ref="324399727"/>
    <nd ref="2303738852"/>
    <nd ref="2978038249"/>
    <nd ref="2303738851"/>
    <nd ref="7781379063"/>
    <nd ref="2303738853"/>
    <nd ref="2303738850"/>
    <nd ref="2372466627"/>
    <nd ref="2372466628"/>
    <nd ref="324399766"/>
    <nd ref="2372466626"/>
    <nd ref="2372466624"/>
    <nd ref="2372466625"/>
    <nd ref="324399767"/>
    <nd ref="2372479842"/>
    <nd ref="324399768"/>
    <nd ref="3133492731"/>
    <nd ref="3133492730"/>
    <nd ref="324399769"/>
    <nd ref="2372467704"/>
    <nd ref="7790614088"/>
    <nd ref="3133492729"/>
    <nd ref="2372990122"/>
    <nd ref="2372990119"/>
    <nd ref="324399770"/>
    <nd ref="2372990117"/>
    <nd ref="2372990115"/>
    <nd ref="364440612"/>
    <tag k="highway" v="tertiary"/>
    <tag k="name" v="Owthorpe Lane"/>
    <tag k="source" v="npe"/>
    <tag k="source:name" v="survey"/>
  </way>
  <way id="29434546" version="12" timestamp="2024-01-09T16:41:54Z" changeset="146073623" uid="84681" user="SK53">
    <nd ref="324399811"/>
    <nd ref="2377828040"/>
    <nd ref="2377828041"/>
    <nd ref="1223178522"/>
    <nd ref="2377828042"/>
    <nd ref="2377828044"/>
    <nd ref="324399894"/>
    <nd ref="2377828048"/>
    <nd ref="3998091359"/>
    <nd ref="2377828046"/>
    <nd ref="324399895"/>
    <nd ref="3998091358"/>
    <nd ref="3133449093"/>
    <nd ref="324399896"/>
    <nd ref="4160136171"/>
    <nd ref="3133449092"/>
    <nd ref="324399897"/>
    <nd ref="324399898"/>
    <nd ref="619007853"/>
    <nd ref="469216505"/>
    <tag k="alt_name" v="Colston Bassett Lane"/>
    <tag k="highway" v="unclassified"/>
    <tag k="name" v="Colston Bassett Lane"/>
    <tag k="source" v="GPS"/>
  </way>
  <way id="39171628" version="5" timestamp="2019-08-31T06:36:46Z" changeset="73943013" uid="84075" user="kevjs1982">
    <nd ref="364440612"/>
    <nd ref="460984907"/>
    <tag k="bridge" v="yes"/>
    <tag k="bridge:ref" v="25"/>
    <tag k="highway" v="tertiary"/>
    <tag k="layer" v="0"/>
    <tag k="name" v="Mackley's Bridge"/>
  </way>
  <way id="39171629" version="12" timestamp="2020-08-06T06:35:41Z" changeset="89017262" uid="1431482" user="JonOrchard">
    <nd ref="460984907"/>
    <nd ref="324399771"/>
    <nd ref="460984950"/>
    <nd ref="460985116"/>
    <nd ref="619004965"/>
    <nd ref="2388218353"/>
    <nd ref="324399772"/>
    <nd ref="3296112328"/>
    <nd ref="2388218354"/>
    <nd ref="2388218355"/>
    <nd ref="324399773"/>
    <nd ref="7790470337"/>
    <nd ref="7790470322"/>
    <nd ref="3133491828"/>
    <nd ref="7781092677"/>
    <nd ref="7790470319"/>
    <nd ref="7790470306"/>
    <nd ref="2377828038"/>
    <nd ref="324399774"/>
    <nd ref="7765613828"/>
    <nd ref="324399775"/>
    <nd ref="2377828039"/>
    <nd ref="7765613830"/>
    <nd ref="324399811"/>
    <tag k="highway" v="tertiary"/>
    <tag k="source" v="NPE"/>
  </way>
  <way id="39171631" version="7" timestamp="2020-07-30T13:41:00Z" changeset="88736450" uid="1431482" user="JonOrchard">
    <nd ref="364440636"/>
    <nd ref="7770139927"/>
    <nd ref="619007852"/>
    <nd ref="3998091357"/>
    <nd ref="469201855"/>
    <nd ref="469445820"/>
    <nd ref="324399899"/>
    <nd ref="324399900"/>
    <nd ref="324399901"/>
    <nd ref="469445817"/>
    <tag k="highway" v="unclassified"/>
    <tag k="name" v="Owthorpe Road"/>
    <tag k="source" v="GPS"/>
  </way>
  <way id="39171632" version="7" timestamp="2024-02-15T15:41:20Z" changeset="147497162" uid="1431482" user="JonOrchard">
    <nd ref="469216505"/>
    <nd ref="364440636"/>
    <tag k="bridge" v="yes"/>
    <tag k="bridge:name" v="Spencer's Bridge"/>
    <tag k="bridge:ref" v="24"/>
    <tag k="highway" v="unclassified"/>
    <tag k="layer" v="1"/>
    <tag k="name" v="Owthorpe Road"/>
    <tag k="oneway" v="no"/>
    <tag k="source" v="GPS"/>
  </way>
  <way id="39171635" version="16" timestamp="2021-04-01T16:13:00Z" changeset="102138354" uid="11212507" user="danieldegroot2">
    <nd ref="469216519"/>
    <nd ref="331458000"/>
    <nd ref="331457852"/>
    <nd ref="2303738843"/>
    <nd ref="2303738842"/>
    <nd ref="324399731"/>
    <nd ref="3133500338"/>
    <nd ref="2303738841"/>
    <nd ref="2303738840"/>
    <nd ref="324399732"/>
    <nd ref="2303738839"/>
    <nd ref="2978043653"/>
    <nd ref="2303738838"/>
    <nd ref="2978043655"/>
    <nd ref="2978043654"/>
    <nd ref="324399733"/>
    <nd ref="2303738836"/>
    <nd ref="2303738837"/>
    <nd ref="2978043656"/>
    <nd ref="324399734"/>
    <nd ref="2303738835"/>
    <nd ref="2303738834"/>
    <nd ref="7781379062"/>
    <nd ref="324399735"/>
    <nd ref="2303738833"/>
    <nd ref="7781130219"/>
    <nd ref="1833465692"/>
    <nd ref="7781130220"/>
    <nd ref="2303738832"/>
    <nd ref="7781181786"/>
    <nd ref="324399736"/>
    <nd ref="7781165883"/>
    <nd ref="7781165882"/>
    <nd ref="8583346874"/>
    <nd ref="2377824891"/>
    <nd ref="7781379059"/>
    <nd ref="324399737"/>
    <nd ref="7781379060"/>
    <nd ref="2377824890"/>
    <nd ref="2377824889"/>
    <nd ref="324399738"/>
    <nd ref="7781181806"/>
    <nd ref="2377824888"/>
    <nd ref="1139206563"/>
    <nd ref="7781379061"/>
    <nd ref="3133502750"/>
    <nd ref="2377824887"/>
    <nd ref="324399739"/>
    <nd ref="3133503910"/>
    <nd ref="3133503911"/>
    <nd ref="324399740"/>
    <nd ref="324399742"/>
    <tag k="highway" v="unclassified"/>
    <tag k="name" v="Kinoulton Lane"/>
    <tag k="source" v="npe"/>
    <tag k="source:name" v="NaPTAN"/>
  </way>
  <way id="39171636" version="7" timestamp="2019-09-01T07:06:39Z" changeset="73964269" uid="322785" user="BCNorwich">
    <nd ref="324399730"/>
    <nd ref="469216519"/>
    <tag k="bridge" v="yes"/>
    <tag k="bridge:ref" v="26"/>
    <tag k="highway" v="unclassified"/>
    <tag k="name" v="Wild's Bridge"/>
    <tag k="source" v="GPS"/>
  </way>
  <way id="39193584" version="1" timestamp="2009-08-16T22:24:52Z" changeset="2171403" uid="61942" user="SomeoneElse">
    <nd ref="469445817"/>
    <nd ref="469445816"/>
    <tag k="bridge" v="yes"/>
    <tag k="created_by" v="Potlatch 0.10f"/>
    <tag k="highway" v="unclassified"/>
    <tag k="layer" v="0"/>
    <tag k="source" v="GPS"/>
  </way>
  <way id="39197426" version="17" timestamp="2024-01-19T19:32:09Z" changeset="146455440" uid="242345" user="confusedbuffalo">
    <nd ref="324399811"/>
    <nd ref="2865803304"/>
    <nd ref="324399812"/>
    <nd ref="324399776"/>
    <nd ref="2388216774"/>
    <nd ref="2388216773"/>
    <nd ref="2388216772"/>
    <nd ref="324399777"/>
    <nd ref="2388216140"/>
    <nd ref="7781030969"/>
    <nd ref="324399778"/>
    <nd ref="3388958596"/>
    <nd ref="8406878801"/>
    <nd ref="3999740262"/>
    <nd ref="324399779"/>
    <nd ref="7781030966"/>
    <nd ref="3999740264"/>
    <nd ref="3999740263"/>
    <nd ref="7781030967"/>
    <nd ref="324399780"/>
    <nd ref="7781030968"/>
    <nd ref="3999740265"/>
    <nd ref="3999740266"/>
    <nd ref="3388957181"/>
    <nd ref="469496578"/>
    <nd ref="3999740268"/>
    <nd ref="3999740267"/>
    <nd ref="3999740269"/>
    <nd ref="324399781"/>
    <nd ref="7793511441"/>
    <nd ref="3999740271"/>
    <nd ref="3999740270"/>
    <nd ref="324399782"/>
    <nd ref="3999740274"/>
    <nd ref="3999740273"/>
    <nd ref="3999740272"/>
    <nd ref="324399783"/>
    <nd ref="3999740275"/>
    <nd ref="3999740276"/>
    <nd ref="324399784"/>
    <nd ref="3999740277"/>
    <nd ref="7793511438"/>
    <nd ref="7793509035"/>
    <nd ref="3999740278"/>
    <nd ref="324399785"/>
    <nd ref="3999740279"/>
    <nd ref="5019880002"/>
    <nd ref="324399786"/>
    <nd ref="749206429"/>
    <nd ref="4161900794"/>
    <tag k="highway" v="tertiary"/>
    <tag k="maxspeed" v="60 mph"/>
    <tag k="maxspeed:type" v="GB:nsl_single"/>
    <tag k="name" v="Swab's Lane"/>
    <tag k="source" v="GPS"/>
    <tag k="source:name" v="OS OpenData StreetView"/>
  </way>
  <way id="98461434" version="5" timestamp="2020-08-06T06:27:44Z" changeset="89016659" uid="1431482" user="JonOrchard">
    <nd ref="1139206569"/>
    <nd ref="1139206635"/>
    <nd ref="1139206632"/>
    <nd ref="4159655351"/>
    <nd ref="4159655350"/>
    <nd ref="1139206647"/>
    <nd ref="1139206579"/>
    <nd ref="4159655339"/>
    <nd ref="1139206622"/>
    <nd ref="5019851725"/>
    <nd ref="1139206568"/>
    <nd ref="1139206629"/>
    <nd ref="4159655312"/>
    <nd ref="1139206587"/>
    <nd ref="1139206641"/>
    <nd ref="5019855631"/>
    <nd ref="4159655299"/>
    <nd ref="4159655295"/>
    <nd ref="1139206625"/>
    <nd ref="1139206562"/>
    <nd ref="4159649088"/>
    <nd ref="4159649085"/>
    <nd ref="7790450809"/>
    <nd ref="1139206598"/>
    <nd ref="4159649083"/>
    <nd ref="4159649082"/>
    <nd ref="4159649079"/>
    <tag k="highway" v="residential"/>
    <tag k="name" v="Village Street"/>
    <tag k="source" v="bing"/>
    <tag k="source:name" v="OS Open Locator"/>
  </way>
  <way id="98461457" version="3" timestamp="2016-05-01T16:58:23Z" changeset="39021167" uid="207845" user="will_p">
    <nd ref="1139206576"/>
    <nd ref="1139206570"/>
    <nd ref="3388936992"/>
    <nd ref="4159655365"/>
    <nd ref="1139206569"/>
    <tag k="highway" v="residential"/>
    <tag k="name" v="Church Lane"/>
    <tag k="source" v="bing"/>
    <tag k="source:name" v="OS Open Locator"/>
  </way>
  <way id="106926884" version="18" timestamp="2020-08-04T09:52:31Z" changeset="88921006" uid="1431482" user="JonOrchard">
    <nd ref="1229464843"/>
    <nd ref="5019784803"/>
    <nd ref="324399803"/>
    <nd ref="2612252573"/>
    <nd ref="2612252574"/>
    <nd ref="4159655364"/>
    <nd ref="2612252575"/>
    <nd ref="324399804"/>
    <nd ref="4159655362"/>
    <nd ref="4159655363"/>
    <nd ref="2612252576"/>
    <nd ref="2388212372"/>
    <nd ref="2388212373"/>
    <nd ref="2388212374"/>
    <nd ref="324399805"/>
    <nd ref="2388212376"/>
    <nd ref="3998098557"/>
    <nd ref="2388212375"/>
    <nd ref="7765587125"/>
    <nd ref="7765587126"/>
    <nd ref="2388212377"/>
    <nd ref="3998097156"/>
    <nd ref="3388943618"/>
    <nd ref="324399806"/>
    <nd ref="2388205568"/>
    <nd ref="1833465654"/>
    <nd ref="1139206620"/>
    <nd ref="7783534127"/>
    <nd ref="1139206624"/>
    <nd ref="1139206573"/>
    <nd ref="1139206615"/>
    <nd ref="3998097155"/>
    <nd ref="1139206649"/>
    <nd ref="1139206601"/>
    <nd ref="5019784800"/>
    <nd ref="324399807"/>
    <nd ref="2377824885"/>
    <nd ref="4159649081"/>
    <nd ref="4159649080"/>
    <nd ref="4159649079"/>
    <nd ref="2377824886"/>
    <nd ref="324399742"/>
    <nd ref="2377824883"/>
    <nd ref="2377824884"/>
    <nd ref="2377824882"/>
    <nd ref="4159649077"/>
    <nd ref="1139206621"/>
    <nd ref="7781092678"/>
    <nd ref="2377824881"/>
    <nd ref="2377824879"/>
    <nd ref="3998097154"/>
    <nd ref="2377824880"/>
    <nd ref="3998097153"/>
    <nd ref="324399808"/>
    <nd ref="5019876440"/>
    <nd ref="5019876438"/>
    <nd ref="3998097152"/>
    <nd ref="5019876436"/>
    <nd ref="5019876444"/>
    <nd ref="3998097151"/>
    <nd ref="324399809"/>
    <nd ref="3998097150"/>
    <nd ref="2377824878"/>
    <nd ref="2377824877"/>
    <nd ref="3998097149"/>
    <nd ref="2377824876"/>
    <nd ref="7769099216"/>
    <nd ref="324399810"/>
    <nd ref="3998097148"/>
    <nd ref="2377824874"/>
    <nd ref="7769099215"/>
    <nd ref="2377824875"/>
    <nd ref="2865803303"/>
    <nd ref="324399811"/>
    <tag k="highway" v="unclassified"/>
    <tag k="name" v="Park Lane"/>
    <tag k="source" v="npe"/>
    <tag k="source:name" v="OS 1:25k"/>
  </way>
  <way id="106926891" version="8" timestamp="2017-07-31T21:49:56Z" changeset="50733060" uid="5296090" user="TR42">
    <nd ref="1229464907"/>
    <nd ref="1229464906"/>
    <nd ref="2612252581"/>
    <nd ref="1229464905"/>
    <nd ref="2612252583"/>
    <nd ref="2612252582"/>
    <nd ref="2612252584"/>
    <nd ref="1229464904"/>
    <nd ref="1229464903"/>
    <nd ref="1229464902"/>
    <nd ref="1229464892"/>
    <tag k="highway" v="trunk_link"/>
    <tag k="lit" v="no"/>
    <tag k="oneway" v="no"/>
    <tag k="source" v="GPS"/>
  </way>
  <way id="106926894" version="7" timestamp="2020-08-01T07:20:12Z" changeset="88808401" uid="1431482" user="JonOrchard">
    <nd ref="1229464857"/>
    <nd ref="7775105428"/>
    <nd ref="1229464890"/>
    <nd ref="7775105427"/>
    <nd ref="1229464921"/>
    <tag k="bridge" v="yes"/>
    <tag k="highway" v="tertiary"/>
    <tag k="layer" v="1"/>
    <tag k="lit" v="no"/>
    <tag k="name" v="Owthorpe Road"/>
    <tag k="source" v="gps"/>
  </way>
  <way id="106926895" version="7" timestamp="2020-08-01T07:11:15Z" changeset="88808248" uid="1431482" user="JonOrchard">
    <nd ref="1229464921"/>
    <nd ref="1229464892"/>
    <nd ref="1229464893"/>
    <nd ref="3388936966"/>
    <nd ref="1229464894"/>
    <nd ref="1229464895"/>
    <nd ref="1229464896"/>
    <nd ref="2612252577"/>
    <nd ref="1229464897"/>
    <nd ref="7775101164"/>
    <nd ref="1229464898"/>
    <nd ref="1229464843"/>
    <tag k="highway" v="tertiary"/>
    <tag k="lit" v="no"/>
    <tag k="name" v="Owthorpe Road"/>
    <tag k="source" v="gps"/>
  </way>
  <way id="139103890" version="18" timestamp="2023-09-05T20:57:15Z" changeset="140868593" uid="13341565" user="Falsernet">
    <nd ref="1524656551"/>
    <nd ref="1524656560"/>
    <nd ref="5005977677"/>
    <nd ref="1524656571"/>
    <nd ref="1524656572"/>
    <nd ref="1524656586"/>
    <nd ref="5005977665"/>
    <nd ref="1524656595"/>
    <nd ref="1524656601"/>
    <nd ref="5005966376"/>
    <nd ref="5005966377"/>
    <nd ref="1524656605"/>
    <tag k="expressway" v="yes"/>
    <tag k="highway" v="trunk"/>
    <tag k="lanes" v="2"/>
    <tag k="lit" v="no"/>
    <tag k="maxheight" v="default"/>
    <tag k="maxspeed" v="70 mph"/>
    <tag k="maxspeed:type" v="GB:nsl_dual"/>
    <tag k="national_highways:area" v="7"/>
    <tag k="oneway" v="yes"/>
    <tag k="operator" v="National Highways"/>
    <tag k="operator:wikidata" v="Q5760006"/>
    <tag k="ref" v="A46"/>
    <tag k="shoulder" v="no"/>
    <tag k="source:maxspeed" v="Stats19"/>
  </way>
  <way id="139107212" version="12" timestamp="2023-09-05T20:57:15Z" changeset="140868593" uid="13341565" user="Falsernet">
    <nd ref="1524656558"/>
    <nd ref="1524690350"/>
    <nd ref="2612254699"/>
    <nd ref="2612254702"/>
    <nd ref="1659291409"/>
    <nd ref="1659291414"/>
    <nd ref="2612252580"/>
    <nd ref="1229464907"/>
    <tag k="expressway" v="yes"/>
    <tag k="highway" v="trunk_link"/>
    <tag k="lane_markings" v="no"/>
    <tag k="lit" v="no"/>
    <tag k="maxspeed" v="70 mph"/>
    <tag k="maxspeed:type" v="GB:nsl_dual"/>
    <tag k="national_highways:area" v="7"/>
    <tag k="oneway" v="yes"/>
    <tag k="operator" v="National Highways"/>
    <tag k="operator:wikidata" v="Q5760006"/>
    <tag k="source" v="GPS"/>
  </way>
  <way id="139107223" version="11" timestamp="2023-09-05T20:57:15Z" changeset="140868593" uid="13341565" user="Falsernet">
    <nd ref="768053273"/>
    <nd ref="1524656551"/>
    <tag k="expressway" v="yes"/>
    <tag k="highway" v="trunk"/>
    <tag k="lanes" v="2"/>
    <tag k="lit" v="no"/>
    <tag k="maxspeed" v="70 mph"/>
    <tag k="maxspeed:type" v="GB:nsl_dual"/>
    <tag k="national_highways:area" v="7"/>
    <tag k="oneway" v="yes"/>
    <tag k="operator" v="National Highways"/>
    <tag k="operator:wikidata" v="Q5760006"/>
    <tag k="ref" v="A46"/>
    <tag k="source" v="gps"/>
    <tag k="source:maxspeed" v="Stats19"/>
  </way>
  <way id="150999939" version="11" timestamp="2023-09-05T20:57:15Z" changeset="140868593" uid="13341565" user="Falsernet">
    <nd ref="1229464907"/>
    <nd ref="2612252578"/>
    <nd ref="1638514663"/>
    <nd ref="2612252579"/>
    <nd ref="1638514641"/>
    <nd ref="1638514643"/>
    <tag k="expressway" v="yes"/>
    <tag k="highway" v="trunk_link"/>
    <tag k="lane_markings" v="no"/>
    <tag k="lit" v="no"/>
    <tag k="maxheight" v="default"/>
    <tag k="maxspeed" v="70 mph"/>
    <tag k="maxspeed:type" v="GB:nsl_dual"/>
    <tag k="national_highways:area" v="7"/>
    <tag k="oneway" v="yes"/>
    <tag k="operator" v="National Highways"/>
    <tag k="operator:wikidata" v="Q5760006"/>
    <tag k="source" v="GPS"/>
  </way>
  <way id="151662370" version="19" timestamp="2023-09-05T20:57:15Z" changeset="140868593" uid="13341565" user="Falsernet">
    <nd ref="1524656878"/>
    <nd ref="5005966369"/>
    <nd ref="1524656854"/>
    <nd ref="1659727711"/>
    <nd ref="5005966362"/>
    <nd ref="5005966380"/>
    <nd ref="1524656851"/>
    <nd ref="5005966363"/>
    <nd ref="5005966357"/>
    <nd ref="1524656845"/>
    <nd ref="2010789412"/>
    <nd ref="5005966379"/>
    <nd ref="1524656842"/>
    <nd ref="5005966361"/>
    <nd ref="5005966359"/>
    <nd ref="5005966364"/>
    <nd ref="5005966356"/>
    <nd ref="5005966372"/>
    <nd ref="1524656837"/>
    <nd ref="1524656834"/>
    <nd ref="5005977679"/>
    <nd ref="1524656830"/>
    <nd ref="1524656828"/>
    <nd ref="1524656824"/>
    <nd ref="2612258331"/>
    <nd ref="1524656567"/>
    <nd ref="2612258334"/>
    <nd ref="1524656558"/>
    <nd ref="1638500821"/>
    <nd ref="1638514643"/>
    <nd ref="1638500822"/>
    <nd ref="5005977671"/>
    <nd ref="1638500823"/>
    <nd ref="5005977673"/>
    <nd ref="1638500824"/>
    <nd ref="5005977663"/>
    <nd ref="1638500825"/>
    <nd ref="5005977675"/>
    <nd ref="5005977667"/>
    <nd ref="1638500826"/>
    <nd ref="5005977659"/>
    <nd ref="1638500827"/>
    <nd ref="5005977669"/>
    <nd ref="1638500828"/>
    <nd ref="5005977678"/>
    <nd ref="5005977676"/>
    <nd ref="5005977672"/>
    <nd ref="1638500829"/>
    <nd ref="2978036027"/>
    <nd ref="1638500830"/>
    <nd ref="5005977674"/>
    <nd ref="1638500837"/>
    <nd ref="5005977670"/>
    <nd ref="1638500841"/>
    <nd ref="5005977655"/>
    <nd ref="1638500833"/>
    <nd ref="1638514655"/>
    <nd ref="1638500839"/>
    <tag k="expressway" v="yes"/>
    <tag k="highway" v="trunk"/>
    <tag k="lanes" v="2"/>
    <tag k="lit" v="no"/>
    <tag k="maxheight" v="default"/>
    <tag k="maxspeed" v="70 mph"/>
    <tag k="maxspeed:type" v="GB:nsl_dual"/>
    <tag k="national_highways:area" v="7"/>
    <tag k="oneway" v="yes"/>
    <tag k="operator" v="National Highways"/>
    <tag k="operator:wikidata" v="Q5760006"/>
    <tag k="ref" v="A46"/>
    <tag k="shoulder" v="no"/>
    <tag k="source" v="GPS Survey"/>
    <tag k="source:maxspeed" v="Stats19"/>
  </way>
  <way id="170147810" version="3" timestamp="2019-09-03T07:42:48Z" changeset="74025048" uid="322785" user="BCNorwich">
    <nd ref="469216511"/>
    <nd ref="6761054065"/>
    <tag k="highway" v="unclassified"/>
    <tag k="name" v="Owthorpe Lane"/>
    <tag k="source" v="npe"/>
    <tag k="source:name" v="survey"/>
  </way>
  <way id="228590857" version="2" timestamp="2013-07-03T19:48:36Z" changeset="16811577" uid="1431482" user="JonOrchard">
    <nd ref="2372473698"/>
    <nd ref="2372473700"/>
    <nd ref="2372473702"/>
    <nd ref="2372473704"/>
    <nd ref="2372473706"/>
    <nd ref="2372473708"/>
    <nd ref="2372473710"/>
    <nd ref="2372473712"/>
    <nd ref="2372473714"/>
    <nd ref="2372473716"/>
    <nd ref="2372473698"/>
    <tag k="building" v="yes"/>
    <tag k="name" v="Barn Farm"/>
  </way>
  <way id="228636233" version="3" timestamp="2021-12-06T13:33:49Z" changeset="114619376" uid="1431482" user="JonOrchard">
    <nd ref="2372967042"/>
    <nd ref="2372967045"/>
    <nd ref="9315470841"/>
    <nd ref="2372967043"/>
    <nd ref="2372967044"/>
    <nd ref="3133500335"/>
    <nd ref="3133500333"/>
    <nd ref="2372967042"/>
    <tag k="building" v="yes"/>
    <tag k="name" v="Hill View"/>
  </way>
  <way id="229152657" version="1" timestamp="2013-07-08T10:43:24Z" changeset="16871809" uid="1431482" user="JonOrchard">
    <nd ref="2377824284"/>
    <nd ref="2377824285"/>
    <nd ref="2377824286"/>
    <nd ref="2377824287"/>
    <nd ref="2377824288"/>
    <nd ref="2377824289"/>
    <nd ref="2377824290"/>
    <nd ref="2377824291"/>
    <nd ref="2377824292"/>
    <nd ref="2377824293"/>
    <nd ref="2377824294"/>
    <nd ref="2377824295"/>
    <nd ref="2377824284"/>
    <tag k="building" v="yes"/>
    <tag k="name" v="Canal Cottage"/>
  </way>
  <way id="229152658" version="2" timestamp="2021-01-28T17:49:49Z" changeset="98312491" uid="1431482" user="JonOrchard">
    <nd ref="2377824296"/>
    <nd ref="2377824297"/>
    <nd ref="8372582440"/>
    <nd ref="8372582441"/>
    <nd ref="8372582443"/>
    <nd ref="8372582442"/>
    <nd ref="8372582439"/>
    <nd ref="8372582438"/>
    <nd ref="8372582437"/>
    <nd ref="2377824299"/>
    <nd ref="8372582435"/>
    <nd ref="8372582436"/>
    <nd ref="2377824296"/>
    <tag k="building" v="yes"/>
    <tag k="name" v="Fishpond Cottages"/>
  </way>
  <way id="229152789" version="2" timestamp="2020-08-03T15:45:40Z" changeset="88884712" uid="1431482" user="JonOrchard">
    <nd ref="2377825328"/>
    <nd ref="2377825329"/>
    <nd ref="2377825330"/>
    <nd ref="7781379057"/>
    <nd ref="2377825331"/>
    <nd ref="2377825332"/>
    <nd ref="2377825328"/>
    <tag k="building" v="yes"/>
    <tag k="name" v="Woodman's Cottage"/>
  </way>
  <way id="229153054" version="5" timestamp="2025-03-08T16:49:45Z" changeset="163371874" uid="95856" user="⇄ john paul jones &amp; gringo">
    <nd ref="2377828050"/>
    <nd ref="2377828051"/>
    <nd ref="2377828052"/>
    <nd ref="2377828053"/>
    <nd ref="2377828054"/>
    <nd ref="2377828055"/>
    <nd ref="3133449082"/>
    <nd ref="2377828050"/>
    <tag k="addr:city" v="Nottingham"/>
    <tag k="addr:country" v="GB"/>
    <tag k="addr:housename" v="Oddhouse Farm"/>
    <tag k="addr:postcode" v="NG12 3SF"/>
    <tag k="addr:street" v="Colston Bassett Lane"/>
    <tag k="addr:suburb" v="Owthorpe"/>
    <tag k="building" v="farm"/>
    <tag k="building:levels" v="2"/>
    <tag k="name" v="The Hen House"/>
  </way>
  <way id="229153056" version="4" timestamp="2025-03-08T16:49:45Z" changeset="163371874" uid="95856" user="⇄ john paul jones &amp; gringo">
    <nd ref="2377828063"/>
    <nd ref="2377828064"/>
    <nd ref="2377828065"/>
    <nd ref="2377828066"/>
    <nd ref="2377828067"/>
    <nd ref="2377828068"/>
    <nd ref="2377828069"/>
    <nd ref="2377828070"/>
    <nd ref="2377828063"/>
    <tag k="addr:city" v="Nottingham"/>
    <tag k="addr:country" v="GB"/>
    <tag k="addr:housename" v="Oddhouse Farm"/>
    <tag k="addr:postcode" v="NG12 3SF"/>
    <tag k="addr:street" v="Colston Bassett Lane"/>
    <tag k="addr:suburb" v="Owthorpe"/>
    <tag k="building" v="yes"/>
    <tag k="name" v="Offhouse Farm"/>
  </way>
  <way id="229153107" version="1" timestamp="2013-07-08T10:52:36Z" changeset="16871924" uid="1431482" user="JonOrchard">
    <nd ref="2377828937"/>
    <nd ref="2377828939"/>
    <nd ref="2377828941"/>
    <nd ref="2377828943"/>
    <nd ref="2377828937"/>
    <tag k="building" v="yes"/>
    <tag k="name" v="Wood View"/>
  </way>
  <way id="229153110" version="1" timestamp="2013-07-08T10:52:36Z" changeset="16871924" uid="1431482" user="JonOrchard">
    <nd ref="2377828961"/>
    <nd ref="2377828963"/>
    <nd ref="2377828965"/>
    <nd ref="2377828967"/>
    <nd ref="2377828969"/>
    <nd ref="2377828971"/>
    <nd ref="2377828973"/>
    <nd ref="2377828975"/>
    <nd ref="2377828976"/>
    <nd ref="2377828979"/>
    <nd ref="2377828981"/>
    <nd ref="2377828983"/>
    <nd ref="2377828985"/>
    <nd ref="2377828986"/>
    <nd ref="2377828989"/>
    <nd ref="2377828991"/>
    <nd ref="2377828993"/>
    <nd ref="2377828995"/>
    <nd ref="2377828961"/>
    <tag k="building" v="yes"/>
    <tag k="name" v="Mackley's Farm"/>
  </way>
  <way id="229250215" version="3" timestamp="2024-01-31T14:25:39Z" changeset="146907590" uid="1431482" user="JonOrchard">
    <nd ref="2378734604"/>
    <nd ref="7781287614"/>
    <nd ref="2378734605"/>
    <nd ref="2378734606"/>
    <nd ref="2378734607"/>
    <nd ref="2378734608"/>
    <nd ref="2378734609"/>
    <nd ref="2378734604"/>
    <tag k="building" v="yes"/>
    <tag k="name" v="Hillview"/>
  </way>
  <way id="229250217" version="2" timestamp="2017-07-17T06:31:29Z" changeset="50341201" uid="1431482" user="JonOrchard">
    <nd ref="2378734614"/>
    <nd ref="2378734615"/>
    <nd ref="2378734616"/>
    <nd ref="2378734617"/>
    <nd ref="2378734618"/>
    <nd ref="2378734619"/>
    <nd ref="2378734620"/>
    <nd ref="2378734621"/>
    <nd ref="2378734622"/>
    <nd ref="2378734623"/>
    <nd ref="2378734614"/>
    <tag k="building" v="yes"/>
    <tag k="name" v="Walnut Tree Farm"/>
  </way>
  <way id="229250218" version="3" timestamp="2017-08-07T10:42:39Z" changeset="50913235" uid="1431482" user="JonOrchard">
    <nd ref="2378734624"/>
    <nd ref="2378734625"/>
    <nd ref="2378734626"/>
    <nd ref="5019857741"/>
    <nd ref="2378734627"/>
    <nd ref="2378734628"/>
    <nd ref="2378734629"/>
    <nd ref="2378734630"/>
    <nd ref="2378734631"/>
    <nd ref="2378734632"/>
    <nd ref="2378734633"/>
    <nd ref="2378734624"/>
    <tag k="building" v="yes"/>
    <tag k="name" v="Village House"/>
  </way>
  <way id="229250334" version="2" timestamp="2017-07-17T06:31:29Z" changeset="50341201" uid="1431482" user="JonOrchard">
    <nd ref="2378735489"/>
    <nd ref="2378735490"/>
    <nd ref="2378735491"/>
    <nd ref="2378735492"/>
    <nd ref="2378735493"/>
    <nd ref="2378735494"/>
    <nd ref="2378735495"/>
    <nd ref="2378735496"/>
    <nd ref="2378735497"/>
    <nd ref="2378735498"/>
    <nd ref="2378735489"/>
    <tag k="building" v="yes"/>
    <tag k="name" v="Swallows Barn"/>
  </way>
  <way id="229250336" version="3" timestamp="2017-08-07T10:40:18Z" changeset="50913174" uid="1431482" user="JonOrchard">
    <nd ref="2378735509"/>
    <nd ref="2378735510"/>
    <nd ref="2378735511"/>
    <nd ref="2378735512"/>
    <nd ref="2378735513"/>
    <nd ref="2378735514"/>
    <nd ref="2378735515"/>
    <nd ref="2378735516"/>
    <nd ref="5019855633"/>
    <nd ref="2378735509"/>
    <tag k="building" v="yes"/>
    <tag k="name" v="Ash Tree Barn"/>
  </way>
  <way id="229250426" version="5" timestamp="2020-08-02T15:54:01Z" changeset="88843979" uid="1431482" user="JonOrchard">
    <nd ref="2378736133"/>
    <nd ref="2378736134"/>
    <nd ref="5019857767"/>
    <nd ref="2378736135"/>
    <nd ref="5019851722"/>
    <nd ref="5019857759"/>
    <nd ref="2378736136"/>
    <nd ref="2378736137"/>
    <nd ref="2378736138"/>
    <nd ref="2378736139"/>
    <nd ref="7778275442"/>
    <nd ref="2378736140"/>
    <nd ref="7778275437"/>
    <nd ref="2378736133"/>
    <tag k="building" v="yes"/>
    <tag k="name" v="The Hayloft"/>
  </way>
  <way id="229250433" version="5" timestamp="2021-01-26T15:26:13Z" changeset="98171277" uid="1431482" user="JonOrchard">
    <nd ref="2378736175"/>
    <nd ref="6226016045"/>
    <nd ref="8364682591"/>
    <nd ref="2378736176"/>
    <nd ref="2378736177"/>
    <nd ref="2378736178"/>
    <nd ref="7783513560"/>
    <nd ref="2378736179"/>
    <nd ref="7783513561"/>
    <nd ref="2378736180"/>
    <nd ref="2378736175"/>
    <tag k="building" v="yes"/>
    <tag k="name" v="Millers Barn"/>
  </way>
  <way id="229250435" version="6" timestamp="2024-01-31T16:15:40Z" changeset="146911456" uid="1431482" user="JonOrchard">
    <nd ref="2378736185"/>
    <nd ref="11573562689"/>
    <nd ref="2378736189"/>
    <nd ref="7778204976"/>
    <nd ref="2378736190"/>
    <nd ref="2378736191"/>
    <nd ref="2378736192"/>
    <nd ref="2378736193"/>
    <nd ref="2378736194"/>
    <nd ref="7778262387"/>
    <nd ref="2378736195"/>
    <nd ref="2378736185"/>
    <tag k="building" v="yes"/>
    <tag k="name" v="Village Farm Cottage"/>
  </way>
  <way id="229250480" version="5" timestamp="2025-03-08T16:48:12Z" changeset="163371813" uid="95856" user="⇄ john paul jones &amp; gringo">
    <nd ref="2378737587"/>
    <nd ref="2378737589"/>
    <nd ref="2378737592"/>
    <nd ref="5025697156"/>
    <nd ref="2378737595"/>
    <nd ref="2378737598"/>
    <nd ref="2378737601"/>
    <nd ref="2378737587"/>
    <tag k="addr:city" v="Nottingham"/>
    <tag k="addr:country" v="GB"/>
    <tag k="addr:housename" v="Bramble Cottage"/>
    <tag k="addr:postcode" v="NG12 3GA"/>
    <tag k="addr:street" v="Village Street"/>
    <tag k="addr:suburb" v="Owthorpe"/>
    <tag k="building" v="yes"/>
    <tag k="name" v="Bramble Cottage"/>
  </way>
  <way id="229250481" version="5" timestamp="2025-03-08T16:48:12Z" changeset="163371813" uid="95856" user="⇄ john paul jones &amp; gringo">
    <nd ref="2378737603"/>
    <nd ref="2378737605"/>
    <nd ref="7778266005"/>
    <nd ref="7778266002"/>
    <nd ref="7778266001"/>
    <nd ref="7778266000"/>
    <nd ref="7778265999"/>
    <nd ref="7778265998"/>
    <nd ref="2378737607"/>
    <nd ref="8364625590"/>
    <nd ref="8364625593"/>
    <nd ref="2378737609"/>
    <nd ref="2378737603"/>
    <tag k="addr:city" v="Nottingham"/>
    <tag k="addr:country" v="GB"/>
    <tag k="addr:housename" v="Apple Tree Farm"/>
    <tag k="addr:postcode" v="NG12 3GA"/>
    <tag k="addr:street" v="Village Street"/>
    <tag k="addr:suburb" v="Owthorpe"/>
    <tag k="building" v="yes"/>
    <tag k="name" v="Apple Tree Farm"/>
  </way>
  <way id="229250482" version="3" timestamp="2020-08-03T15:38:10Z" changeset="88884404" uid="1431482" user="JonOrchard">
    <nd ref="2378737610"/>
    <nd ref="2378737612"/>
    <nd ref="2378737614"/>
    <nd ref="2378737616"/>
    <nd ref="2378737618"/>
    <nd ref="2378737620"/>
    <nd ref="7781371584"/>
    <nd ref="7781371579"/>
    <nd ref="7781371578"/>
    <nd ref="7781371583"/>
    <nd ref="7781392485"/>
    <nd ref="7781371581"/>
    <nd ref="7781371580"/>
    <nd ref="2378737610"/>
    <tag k="building" v="yes"/>
    <tag k="name" v="Orchard House"/>
  </way>
  <way id="229250569" version="4" timestamp="2021-01-26T15:26:13Z" changeset="98171277" uid="1431482" user="JonOrchard">
    <nd ref="2378738045"/>
    <nd ref="2378738046"/>
    <nd ref="2378738047"/>
    <nd ref="8364682582"/>
    <nd ref="8364682583"/>
    <nd ref="2378738048"/>
    <nd ref="2378738045"/>
    <tag k="building" v="hall"/>
    <tag k="name" v="Village Hall"/>
    <tag k="note" v="Possibly village or church hall, but no sign outside"/>
  </way>
  <way id="229250612" version="3" timestamp="2024-01-31T16:08:55Z" changeset="146911212" uid="1431482" user="JonOrchard">
    <nd ref="2378739640"/>
    <nd ref="7783522706"/>
    <nd ref="2378739641"/>
    <nd ref="2378739642"/>
    <nd ref="2378739643"/>
    <nd ref="2378739648"/>
    <nd ref="2378739645"/>
    <nd ref="2378739646"/>
    <nd ref="2378739647"/>
    <nd ref="2378739640"/>
    <tag k="building" v="yes"/>
    <tag k="name" v="Church Barn"/>
  </way>
  <way id="229250822" version="6" timestamp="2025-03-08T16:48:12Z" changeset="163371813" uid="95856" user="⇄ john paul jones &amp; gringo">
    <nd ref="2378741933"/>
    <nd ref="2378741934"/>
    <nd ref="2378741935"/>
    <nd ref="4159655329"/>
    <nd ref="4159655328"/>
    <nd ref="4159655332"/>
    <nd ref="4159655334"/>
    <nd ref="4159655335"/>
    <nd ref="2378741936"/>
    <nd ref="2378741933"/>
    <tag k="HE_ref" v="1236253"/>
    <tag k="addr:city" v="Nottingham"/>
    <tag k="addr:country" v="GB"/>
    <tag k="addr:postcode" v="NG12 3GA"/>
    <tag k="addr:suburb" v="Owthorpe"/>
    <tag k="amenity" v="place_of_worship"/>
    <tag k="building" v="church"/>
    <tag k="denomination" v="anglican"/>
    <tag k="listed_status" v="Grade II*"/>
    <tag k="name" v="St Margaret's Church"/>
    <tag k="religion" v="christian"/>
    <tag k="source" v="survey"/>
    <tag k="source:listed_status" v="Historic England"/>
    <tag k="wikidata" v="Q17547813"/>
  </way>
  <way id="229250824" version="2" timestamp="2024-01-31T16:09:22Z" changeset="146911226" uid="1431482" user="JonOrchard">
    <nd ref="2378741943"/>
    <nd ref="2378741944"/>
    <nd ref="2378741945"/>
    <nd ref="2378741946"/>
    <nd ref="2378741947"/>
    <nd ref="2378741948"/>
    <nd ref="2378741949"/>
    <nd ref="2378741950"/>
    <nd ref="2378741943"/>
    <tag k="building" v="yes"/>
    <tag k="name" v="The Bungalow"/>
  </way>
  <way id="229250827" version="5" timestamp="2025-03-08T16:48:12Z" changeset="163371813" uid="95856" user="⇄ john paul jones &amp; gringo">
    <nd ref="2378741959"/>
    <nd ref="7778263148"/>
    <nd ref="2378741960"/>
    <nd ref="2378741961"/>
    <nd ref="5025697148"/>
    <nd ref="7778263156"/>
    <nd ref="5025697151"/>
    <nd ref="5025697154"/>
    <nd ref="5025697153"/>
    <nd ref="5025697152"/>
    <nd ref="5025697150"/>
    <nd ref="5025697149"/>
    <nd ref="2378741962"/>
    <nd ref="2378741959"/>
    <tag k="addr:city" v="Nottingham"/>
    <tag k="addr:country" v="GB"/>
    <tag k="addr:housename" v="Meadowside"/>
    <tag k="addr:postcode" v="NG12 3GA"/>
    <tag k="addr:street" v="Village Street"/>
    <tag k="addr:suburb" v="Owthorpe"/>
    <tag k="building" v="yes"/>
    <tag k="name" v="Meadowside"/>
  </way>
  <way id="229250832" version="5" timestamp="2023-03-03T14:02:16Z" changeset="133255618" uid="1431482" user="JonOrchard">
    <nd ref="2378741984"/>
    <nd ref="2378741985"/>
    <nd ref="2378741986"/>
    <nd ref="2378741987"/>
    <nd ref="10706850107"/>
    <nd ref="2378741988"/>
    <nd ref="2378741989"/>
    <nd ref="2378741984"/>
    <tag k="building" v="yes"/>
    <tag k="name" v="School Farm"/>
  </way>
  <way id="229250929" version="2" timestamp="2020-08-04T09:43:26Z" changeset="88920511" uid="1431482" user="JonOrchard">
    <nd ref="2378742749"/>
    <nd ref="2378742750"/>
    <nd ref="2378742751"/>
    <nd ref="2378742752"/>
    <nd ref="2378742753"/>
    <nd ref="2378742754"/>
    <nd ref="7783534125"/>
    <nd ref="2378742749"/>
    <tag k="building" v="yes"/>
    <tag k="name" v="The Sawmill"/>
  </way>
  <way id="229250993" version="1" timestamp="2013-07-09T06:52:04Z" changeset="16883029" uid="1431482" user="JonOrchard">
    <nd ref="2378743007"/>
    <nd ref="2378743008"/>
    <nd ref="2378743009"/>
    <nd ref="2378743010"/>
    <nd ref="2378743011"/>
    <nd ref="2378743012"/>
    <nd ref="2378743007"/>
    <tag k="building" v="yes"/>
    <tag k="name" v="Keeper's Cottage"/>
  </way>
  <way id="230299544" version="2" timestamp="2024-01-31T16:19:26Z" changeset="146911588" uid="1431482" user="JonOrchard">
    <nd ref="2388210122"/>
    <nd ref="2388210123"/>
    <nd ref="2388210124"/>
    <nd ref="2388210125"/>
    <nd ref="2388210126"/>
    <nd ref="2388210127"/>
    <nd ref="2388210128"/>
    <nd ref="2388210129"/>
    <nd ref="2388210122"/>
    <tag k="building" v="yes"/>
    <tag k="name" v="Newfields Farm Cottage"/>
  </way>
  <way id="230299545" version="3" timestamp="2021-01-08T13:05:33Z" changeset="97171977" uid="1431482" user="JonOrchard">
    <nd ref="2388210130"/>
    <nd ref="2388210131"/>
    <nd ref="2388210132"/>
    <nd ref="2388210133"/>
    <nd ref="2388210134"/>
    <nd ref="2388210135"/>
    <nd ref="2388210136"/>
    <nd ref="2388210137"/>
    <nd ref="8302895381"/>
    <nd ref="8302895383"/>
    <nd ref="8302895382"/>
    <nd ref="8302895380"/>
    <nd ref="2388210138"/>
    <nd ref="2388210139"/>
    <nd ref="2388210140"/>
    <nd ref="2388210141"/>
    <nd ref="2388210130"/>
    <tag k="building" v="yes"/>
    <tag k="name" v="Woodview Cottages"/>
  </way>
  <way id="230299546" version="2" timestamp="2018-12-16T16:49:18Z" changeset="65526487" uid="1431482" user="JonOrchard">
    <nd ref="2388210142"/>
    <nd ref="2388210143"/>
    <nd ref="2388210144"/>
    <nd ref="2388210145"/>
    <nd ref="2388210142"/>
    <tag k="building" v="yes"/>
    <tag k="name" v="Newfield Farm"/>
  </way>
  <way id="244210886" version="8" timestamp="2020-08-03T15:45:40Z" changeset="88884712" uid="1431482" user="JonOrchard">
    <nd ref="2978038249"/>
    <nd ref="7781379064"/>
    <nd ref="2978038251"/>
    <nd ref="2978038250"/>
    <nd ref="324399728"/>
    <nd ref="2303738849"/>
    <nd ref="2303738848"/>
    <nd ref="3133500336"/>
    <nd ref="1223178518"/>
    <nd ref="3133500334"/>
    <nd ref="2303738847"/>
    <nd ref="3133500332"/>
    <nd ref="2303738846"/>
    <nd ref="2978040505"/>
    <nd ref="1223178519"/>
    <nd ref="3059922991"/>
    <nd ref="2303738845"/>
    <nd ref="324399729"/>
    <nd ref="2303738844"/>
    <nd ref="2372479843"/>
    <nd ref="6761054068"/>
    <nd ref="6577539113"/>
    <nd ref="469216511"/>
    <tag k="highway" v="unclassified"/>
    <tag k="name" v="Owthorpe Lane"/>
    <tag k="source" v="npe"/>
    <tag k="source:name" v="survey"/>
  </way>
  <way id="256660223" version="6" timestamp="2023-09-05T20:57:15Z" changeset="140868593" uid="13341565" user="Falsernet">
    <nd ref="1229464913"/>
    <nd ref="2612254704"/>
    <nd ref="2612254706"/>
    <nd ref="1524690336"/>
    <nd ref="1524656551"/>
    <tag k="expressway" v="yes"/>
    <tag k="highway" v="trunk_link"/>
    <tag k="lit" v="no"/>
    <tag k="maxspeed" v="70 mph"/>
    <tag k="maxspeed:type" v="GB:nsl_dual"/>
    <tag k="national_highways:area" v="7"/>
    <tag k="oneway" v="yes"/>
    <tag k="operator" v="National Highways"/>
    <tag k="operator:wikidata" v="Q5760006"/>
    <tag k="source" v="GPS"/>
  </way>
  <way id="294239254" version="2" timestamp="2021-01-26T15:39:20Z" changeset="98171726" uid="1431482" user="JonOrchard">
    <nd ref="2978036017"/>
    <nd ref="2978036018"/>
    <nd ref="2978036019"/>
    <nd ref="2978036020"/>
    <nd ref="2978036017"/>
    <tag k="building" v="residential"/>
    <tag k="name" v="Owthorpe Lodge"/>
  </way>
  <way id="506457524" version="5" timestamp="2025-03-08T16:48:12Z" changeset="163371813" uid="95856" user="⇄ john paul jones &amp; gringo">
    <nd ref="4961810219"/>
    <nd ref="4961810220"/>
    <nd ref="4961857321"/>
    <nd ref="7781376058"/>
    <nd ref="7781301223"/>
    <nd ref="7781301224"/>
    <nd ref="4961857322"/>
    <nd ref="4961857323"/>
    <nd ref="4961857324"/>
    <nd ref="4961857325"/>
    <nd ref="4961857326"/>
    <nd ref="4961810219"/>
    <tag k="addr:city" v="Nottingham"/>
    <tag k="addr:country" v="GB"/>
    <tag k="addr:housename" v="Highview House"/>
    <tag k="addr:postcode" v="NG12 3GA"/>
    <tag k="addr:suburb" v="Owthorpe"/>
    <tag k="building" v="house"/>
    <tag k="name" v="Highview House"/>
  </way>
  <way id="508083327" version="2" timestamp="2020-08-02T15:54:01Z" changeset="88843979" uid="1431482" user="JonOrchard">
    <nd ref="4974620184"/>
    <nd ref="4974620185"/>
    <nd ref="4974620186"/>
    <nd ref="4974620187"/>
    <nd ref="4974620188"/>
    <nd ref="4974620189"/>
    <nd ref="4974620190"/>
    <nd ref="4974620191"/>
    <nd ref="7778275469"/>
    <nd ref="7778275466"/>
    <nd ref="4974620184"/>
    <tag k="building" v="yes"/>
    <tag k="name" v="Village Barn"/>
  </way>
  <way id="508083328" version="3" timestamp="2020-08-02T15:54:01Z" changeset="88843979" uid="1431482" user="JonOrchard">
    <nd ref="4974620184"/>
    <nd ref="7778275473"/>
    <nd ref="5019851735"/>
    <nd ref="5019851736"/>
    <nd ref="5019851737"/>
    <nd ref="5019851734"/>
    <nd ref="4974620192"/>
    <nd ref="4974620193"/>
    <nd ref="4974620194"/>
    <nd ref="4974620195"/>
    <nd ref="4974620185"/>
    <nd ref="4974620184"/>
    <tag k="building" v="yes"/>
    <tag k="name" v="Barnwell"/>
  </way>
  <way id="721526308" version="1" timestamp="2019-09-03T07:42:48Z" changeset="74025048" uid="322785" user="BCNorwich">
    <nd ref="6761054065"/>
    <nd ref="324399730"/>
    <tag k="highway" v="unclassified"/>
    <tag k="name" v="Owthorpe Lane"/>
    <tag k="source" v="npe"/>
    <tag k="source:name" v="survey"/>
  </way>
  <way id="806735904" version="2" timestamp="2025-03-08T16:48:12Z" changeset="163371813" uid="95856" user="⇄ john paul jones &amp; gringo">
    <nd ref="2378737598"/>
    <nd ref="7544053513"/>
    <nd ref="7544053514"/>
    <nd ref="2378737601"/>
    <nd ref="2378737598"/>
    <tag k="addr:city" v="Nottingham"/>
    <tag k="addr:country" v="GB"/>
    <tag k="addr:housename" v="Lilac Cottage"/>
    <tag k="addr:postcode" v="NG12 3GA"/>
    <tag k="addr:street" v="Village Street"/>
    <tag k="addr:suburb" v="Owthorpe"/>
    <tag k="building" v="house"/>
    <tag k="name" v="Lilac Cottage"/>
  </way>
  <way id="806736745" version="3" timestamp="2025-03-08T16:48:12Z" changeset="163371813" uid="95856" user="⇄ john paul jones &amp; gringo">
    <nd ref="2378737605"/>
    <nd ref="7778266005"/>
    <nd ref="7778266004"/>
    <nd ref="7778266003"/>
    <nd ref="7544056780"/>
    <nd ref="7544056781"/>
    <nd ref="2378737603"/>
    <nd ref="2378737605"/>
    <tag k="addr:city" v="Nottingham"/>
    <tag k="addr:country" v="GB"/>
    <tag k="addr:housename" v="Dawn's Cottage"/>
    <tag k="addr:postcode" v="NG12 3GA"/>
    <tag k="addr:street" v="Village Street"/>
    <tag k="addr:suburb" v="Owthorpe"/>
    <tag k="building" v="house"/>
    <tag k="name" v="Dawn's Cottage"/>
  </way>
  <way id="831785329" version="2" timestamp="2020-07-29T14:21:08Z" changeset="88684148" uid="1431482" user="JonOrchard">
    <nd ref="7765605884"/>
    <nd ref="7765635985"/>
    <nd ref="7765635986"/>
    <nd ref="7765640053"/>
    <nd ref="7765635987"/>
    <nd ref="7765605884"/>
    <tag k="building" v="commercial"/>
    <tag k="name" v="The Dutch Barn"/>
  </way>
  <way id="833763865" version="2" timestamp="2024-01-31T16:18:31Z" changeset="146911555" uid="1431482" user="JonOrchard">
    <nd ref="7783150672"/>
    <nd ref="7783150673"/>
    <nd ref="7783150674"/>
    <nd ref="5019876446"/>
    <nd ref="7783150672"/>
    <tag k="addr:housenumber" v="1"/>
    <tag k="addr:street" v="Park Lane"/>
    <tag k="building" v="residential"/>
  </way>
  <way id="833763866" version="2" timestamp="2024-01-31T16:18:31Z" changeset="146911555" uid="1431482" user="JonOrchard">
    <nd ref="7783150672"/>
    <nd ref="7783150677"/>
    <nd ref="5026597427"/>
    <nd ref="5019876446"/>
    <nd ref="7783150672"/>
    <tag k="addr:housenumber" v="2"/>
    <tag k="addr:street" v="Park Lane"/>
    <tag k="building" v="residential"/>
  </way>
  <way id="833763867" version="2" timestamp="2024-01-31T16:18:31Z" changeset="146911555" uid="1431482" user="JonOrchard">
    <nd ref="7783150677"/>
    <nd ref="7783150678"/>
    <nd ref="5019876450"/>
    <nd ref="5026597427"/>
    <nd ref="7783150677"/>
    <tag k="addr:housenumber" v="3"/>
    <tag k="addr:street" v="Park Lane"/>
    <tag k="building" v="residential"/>
  </way>
  <way id="833763868" version="3" timestamp="2024-01-31T16:18:31Z" changeset="146911555" uid="1431482" user="JonOrchard">
    <nd ref="7783150678"/>
    <nd ref="7783150679"/>
    <nd ref="5026597428"/>
    <nd ref="2377826378"/>
    <nd ref="5019876459"/>
    <nd ref="7783150680"/>
    <nd ref="5019876450"/>
    <nd ref="7783150678"/>
    <tag k="addr:housenumber" v="4"/>
    <tag k="addr:street" v="Park Lane"/>
    <tag k="building" v="residential"/>
  </way>
  <way id="1244972045" version="1" timestamp="2024-01-31T16:15:40Z" changeset="146911456" uid="1431482" user="JonOrchard">
    <nd ref="11573562701"/>
    <nd ref="11573562702"/>
    <nd ref="11573562703"/>
    <nd ref="11573562700"/>
    <nd ref="11573562704"/>
    <nd ref="11573562705"/>
    <nd ref="11573562701"/>
    <tag k="building" v="house"/>
    <tag k="name" v="The Thressing Barn"/>
  </way>
  <way id="1244972046" version="1" timestamp="2024-01-31T16:15:40Z" changeset="146911456" uid="1431482" user="JonOrchard">
    <nd ref="11573562700"/>
    <nd ref="2378736150"/>
    <nd ref="11573562706"/>
    <nd ref="11573562707"/>
    <nd ref="11573562708"/>
    <nd ref="11573562709"/>
    <nd ref="11573562710"/>
    <nd ref="11573562703"/>
    <nd ref="11573562700"/>
    <tag k="building" v="house"/>
    <tag k="name" v="The Dairy"/>
  </way>

</osm>
