<?xml version="1.0" encoding="UTF-8"?>
<osm version="0.6" generator="Overpass API 0.7.62.8 e802775f">
<note>The data included in this document is from www.openstreetmap.org. The data is made available under ODbL.</note>
<meta osm_base="2025-10-23T16:52:46Z" areas="2025-10-23T08:56:18Z"/>

  <node id="25081971" lat="52.7983277" lon="-1.2206977" version="4" timestamp="2014-08-12T13:41:44Z" changeset="24702020" uid="178626" user="Rovastar"/>
  <node id="34672671" lat="52.8140670" lon="-1.1824042" version="3" timestamp="2014-08-12T13:22:58Z" changeset="24701647" uid="178626" user="Rovastar"/>
  <node id="258738968" lat="52.8119710" lon="-1.2363184" version="3" timestamp="2014-08-12T14:02:13Z" changeset="24702488" uid="178626" user="Rovastar"/>
  <node id="477520542" lat="52.7904854" lon="-1.1988110" version="5" timestamp="2014-08-12T13:11:45Z" changeset="24701392" uid="178626" user="Rovastar"/>
  <node id="3861407654" lat="52.7909474" lon="-1.1942347" version="1" timestamp="2015-11-26T21:17:05Z" changeset="35601107" uid="3413822" user="HawkyOSM"/>
  <way id="4219870" version="7" timestamp="2024-01-19T19:32:09Z" changeset="146455440" uid="242345" user="confusedbuffalo">
    <nd ref="25081971"/>
    <nd ref="3012354740"/>
    <nd ref="3012354744"/>
    <nd ref="3012354752"/>
    <nd ref="8794097746"/>
    <nd ref="25081972"/>
    <nd ref="3012354770"/>
    <nd ref="25081973"/>
    <nd ref="3012354774"/>
    <nd ref="3012354776"/>
    <nd ref="3012354778"/>
    <nd ref="25081975"/>
    <nd ref="3012354779"/>
    <nd ref="25081976"/>
    <nd ref="3012354777"/>
    <nd ref="3012354775"/>
    <nd ref="25081978"/>
    <nd ref="3012354772"/>
    <nd ref="25081979"/>
    <nd ref="3012354769"/>
    <nd ref="3012354766"/>
    <nd ref="1374547397"/>
    <nd ref="3012354760"/>
    <nd ref="3012354756"/>
    <nd ref="1139086779"/>
    <tag k="highway" v="tertiary"/>
    <tag k="maxspeed" v="60 mph"/>
    <tag k="maxspeed:type" v="GB:nsl_single"/>
    <tag k="name" v="Stanford Road"/>
  </way>
  <way id="4219871" version="10" timestamp="2022-03-20T16:52:32Z" changeset="118703366" uid="84075" user="kevjs1982">
    <nd ref="3012304060"/>
    <nd ref="3012304061"/>
    <nd ref="25082009"/>
    <nd ref="4112035353"/>
    <nd ref="25082008"/>
    <nd ref="4112035371"/>
    <nd ref="4112035374"/>
    <nd ref="4112035379"/>
    <nd ref="1711497600"/>
    <nd ref="3012304064"/>
    <nd ref="25082007"/>
    <nd ref="3012304065"/>
    <nd ref="3012304075"/>
    <nd ref="3012304077"/>
    <nd ref="25082006"/>
    <nd ref="4112035386"/>
    <nd ref="4112035387"/>
    <nd ref="9592379753"/>
    <nd ref="4112035388"/>
    <nd ref="729245645"/>
    <nd ref="1196733002"/>
    <nd ref="25082004"/>
    <nd ref="8823526174"/>
    <nd ref="3012304078"/>
    <nd ref="3012304079"/>
    <nd ref="25082003"/>
    <nd ref="3012304080"/>
    <nd ref="3012304081"/>
    <nd ref="3012304082"/>
    <nd ref="25082001"/>
    <nd ref="4112035516"/>
    <nd ref="3012304083"/>
    <nd ref="3012304084"/>
    <nd ref="25082000"/>
    <nd ref="3012304085"/>
    <nd ref="3012353194"/>
    <nd ref="25081994"/>
    <tag k="highway" v="tertiary"/>
    <tag k="maxspeed" v="30 mph"/>
    <tag k="name" v="Main Street"/>
  </way>
  <way id="5087673" version="11" timestamp="2024-06-09T18:36:12Z" changeset="152467180" uid="16495269" user="thx811">
    <nd ref="25081997"/>
    <nd ref="3012304094"/>
    <nd ref="3012304095"/>
    <nd ref="25081995"/>
    <nd ref="3012304096"/>
    <nd ref="34672624"/>
    <nd ref="3012304097"/>
    <nd ref="3012304098"/>
    <nd ref="34672626"/>
    <nd ref="3012304099"/>
    <nd ref="3012304100"/>
    <nd ref="34672627"/>
    <nd ref="3012304101"/>
    <nd ref="34672628"/>
    <nd ref="3012304102"/>
    <nd ref="34672629"/>
    <nd ref="34672630"/>
    <nd ref="34672631"/>
    <nd ref="3012304103"/>
    <nd ref="34672632"/>
    <nd ref="3865132294"/>
    <nd ref="3012304104"/>
    <nd ref="34672635"/>
    <nd ref="3012304105"/>
    <nd ref="3012304106"/>
    <nd ref="34672636"/>
    <nd ref="34672637"/>
    <nd ref="3012304107"/>
    <nd ref="34672638"/>
    <nd ref="34672639"/>
    <nd ref="34672640"/>
    <nd ref="34672641"/>
    <nd ref="3012304108"/>
    <nd ref="3012304109"/>
    <nd ref="34672642"/>
    <nd ref="3012304110"/>
    <nd ref="34672643"/>
    <nd ref="34672644"/>
    <nd ref="3012304111"/>
    <nd ref="34672645"/>
    <nd ref="3012304112"/>
    <nd ref="34672646"/>
    <nd ref="3012304113"/>
    <nd ref="3012304114"/>
    <nd ref="34672647"/>
    <nd ref="3012304115"/>
    <nd ref="34672648"/>
    <nd ref="8113877368"/>
    <nd ref="34672649"/>
    <nd ref="34672650"/>
    <nd ref="3012323059"/>
    <nd ref="3012323060"/>
    <nd ref="34672651"/>
    <nd ref="3012323061"/>
    <nd ref="34672652"/>
    <nd ref="34672653"/>
    <nd ref="3012323062"/>
    <nd ref="3012323063"/>
    <nd ref="34672654"/>
    <nd ref="3012323064"/>
    <nd ref="3012323065"/>
    <nd ref="3012323066"/>
    <nd ref="3012323067"/>
    <nd ref="34672656"/>
    <nd ref="3012323068"/>
    <nd ref="3012323069"/>
    <nd ref="3012323070"/>
    <nd ref="34672657"/>
    <nd ref="3012323071"/>
    <nd ref="3012323072"/>
    <nd ref="34672658"/>
    <nd ref="3012323073"/>
    <nd ref="3012323074"/>
    <nd ref="3012323075"/>
    <nd ref="34672659"/>
    <nd ref="6784879222"/>
    <nd ref="3012323082"/>
    <nd ref="3012323085"/>
    <nd ref="34672660"/>
    <nd ref="3012323087"/>
    <nd ref="3012323091"/>
    <nd ref="3012323094"/>
    <nd ref="34672661"/>
    <nd ref="3012323097"/>
    <nd ref="34672662"/>
    <nd ref="34672663"/>
    <nd ref="3012323101"/>
    <nd ref="11967440643"/>
    <nd ref="34672664"/>
    <nd ref="34672665"/>
    <nd ref="3012323103"/>
    <nd ref="3012323104"/>
    <nd ref="34672666"/>
    <nd ref="3012323105"/>
    <nd ref="34672667"/>
    <nd ref="3012323107"/>
    <nd ref="3012323109"/>
    <nd ref="34672668"/>
    <nd ref="34672669"/>
    <nd ref="9592730624"/>
    <nd ref="3012323111"/>
    <nd ref="34672670"/>
    <nd ref="3012323113"/>
    <nd ref="3012323117"/>
    <nd ref="34672671"/>
    <tag k="highway" v="tertiary"/>
    <tag k="maxspeed" v="60 mph"/>
    <tag k="maxspeed:type" v="GB:nsl_single"/>
    <tag k="name" v="Leake Lane"/>
    <tag k="source:name" v="OS OpenData StreetView"/>
  </way>
  <way id="23872593" version="23" timestamp="2016-06-27T17:52:04Z" changeset="40326722" uid="61942" user="SomeoneElse">
    <nd ref="258738968"/>
    <nd ref="14351672"/>
    <nd ref="3012392525"/>
    <nd ref="3012392526"/>
    <nd ref="3012392527"/>
    <nd ref="14351671"/>
    <nd ref="3012392529"/>
    <nd ref="3012392531"/>
    <nd ref="3012392633"/>
    <nd ref="14351670"/>
    <nd ref="3012392634"/>
    <nd ref="3012392635"/>
    <nd ref="3012392637"/>
    <nd ref="14351669"/>
    <nd ref="3012392642"/>
    <nd ref="3012392643"/>
    <nd ref="14351668"/>
    <nd ref="3012392647"/>
    <nd ref="3012392648"/>
    <nd ref="3012392652"/>
    <nd ref="3012392653"/>
    <nd ref="14351667"/>
    <nd ref="3012392654"/>
    <nd ref="3012392655"/>
    <nd ref="1104820151"/>
    <nd ref="3012392656"/>
    <nd ref="3012392657"/>
    <nd ref="14351666"/>
    <nd ref="3012392659"/>
    <nd ref="3012392660"/>
    <nd ref="14351665"/>
    <nd ref="3012392661"/>
    <nd ref="3012392662"/>
    <nd ref="3012392663"/>
    <nd ref="3012392664"/>
    <nd ref="14351664"/>
    <nd ref="3012392665"/>
    <nd ref="3012392666"/>
    <nd ref="2679493443"/>
    <nd ref="3012392667"/>
    <nd ref="1206792386"/>
    <nd ref="3012392668"/>
    <nd ref="14351663"/>
    <nd ref="3012392669"/>
    <nd ref="3012392670"/>
    <nd ref="3012392672"/>
    <nd ref="14351662"/>
    <nd ref="3012392673"/>
    <nd ref="3012392675"/>
    <nd ref="14351661"/>
    <nd ref="3012410039"/>
    <nd ref="3012410041"/>
    <nd ref="3974643476"/>
    <nd ref="3012410042"/>
    <nd ref="3012410044"/>
    <nd ref="3012410045"/>
    <nd ref="3012410046"/>
    <nd ref="14351660"/>
    <nd ref="3012410048"/>
    <nd ref="14351658"/>
    <nd ref="25081959"/>
    <nd ref="1206798742"/>
    <nd ref="3012410051"/>
    <nd ref="1206798735"/>
    <nd ref="3012410054"/>
    <nd ref="3012410055"/>
    <nd ref="3012410057"/>
    <nd ref="34672674"/>
    <nd ref="3012410058"/>
    <nd ref="3012410056"/>
    <nd ref="14351657"/>
    <nd ref="3012410053"/>
    <nd ref="3012410052"/>
    <nd ref="34672673"/>
    <nd ref="3012422278"/>
    <nd ref="3012422277"/>
    <nd ref="3012422276"/>
    <nd ref="3012422275"/>
    <nd ref="3012422274"/>
    <nd ref="14351656"/>
    <nd ref="3012422273"/>
    <nd ref="3012422272"/>
    <nd ref="3012422271"/>
    <nd ref="3012422270"/>
    <nd ref="14351655"/>
    <nd ref="3012422269"/>
    <nd ref="3012422268"/>
    <nd ref="34672672"/>
    <nd ref="3012422265"/>
    <nd ref="3012422264"/>
    <nd ref="3012422259"/>
    <nd ref="3012422255"/>
    <nd ref="3012422254"/>
    <nd ref="14351654"/>
    <nd ref="3012422251"/>
    <nd ref="3012422249"/>
    <nd ref="3012422248"/>
    <nd ref="14351653"/>
    <nd ref="3012422250"/>
    <nd ref="3012422252"/>
    <nd ref="3012422257"/>
    <nd ref="3012422260"/>
    <nd ref="14351652"/>
    <nd ref="3012422262"/>
    <nd ref="3012422263"/>
    <nd ref="979518735"/>
    <nd ref="3012422261"/>
    <nd ref="3012422258"/>
    <nd ref="3012422256"/>
    <nd ref="14351651"/>
    <nd ref="3012422253"/>
    <nd ref="3012422247"/>
    <nd ref="3012422245"/>
    <nd ref="979518739"/>
    <nd ref="3012422243"/>
    <nd ref="14351649"/>
    <nd ref="3974649859"/>
    <nd ref="3012422242"/>
    <nd ref="3012422241"/>
    <nd ref="979518743"/>
    <nd ref="3012422240"/>
    <nd ref="3012422239"/>
    <nd ref="979518746"/>
    <tag k="alt_name" v="Melton Road"/>
    <tag k="highway" v="primary"/>
    <tag k="lanes" v="2"/>
    <tag k="lit" v="no"/>
    <tag k="maxspeed" v="50 mph"/>
    <tag k="name" v="Rempstone Road"/>
    <tag k="ref" v="A6006"/>
    <tag k="source:name" v="OS OpenData Locator"/>
  </way>
  <way id="39832692" version="5" timestamp="2017-05-05T07:17:16Z" changeset="48415713" uid="1778799" user="SomeoneElse_Revert">
    <nd ref="477520542"/>
    <nd ref="477520580"/>
    <tag k="bridge" v="yes"/>
    <tag k="highway" v="tertiary"/>
    <tag k="name" v="Meadow Lane"/>
  </way>
  <way id="39832693" version="5" timestamp="2024-01-19T19:32:09Z" changeset="146455440" uid="242345" user="confusedbuffalo">
    <nd ref="477520580"/>
    <nd ref="3012304040"/>
    <nd ref="3012304041"/>
    <nd ref="3012304042"/>
    <nd ref="25082017"/>
    <nd ref="3012304043"/>
    <nd ref="3012304044"/>
    <nd ref="25082016"/>
    <nd ref="3012304045"/>
    <nd ref="3012304046"/>
    <nd ref="25082014"/>
    <nd ref="3012304047"/>
    <nd ref="1711500160"/>
    <nd ref="3012304048"/>
    <nd ref="1711500159"/>
    <nd ref="3012304049"/>
    <nd ref="25082013"/>
    <nd ref="3012304050"/>
    <nd ref="1711500162"/>
    <nd ref="25082012"/>
    <nd ref="3012304053"/>
    <nd ref="1711500161"/>
    <nd ref="3012304055"/>
    <nd ref="25082011"/>
    <tag k="highway" v="tertiary"/>
    <tag k="maxspeed" v="60 mph"/>
    <tag k="maxspeed:type" v="GB:nsl_single"/>
    <tag k="name" v="Meadow Lane"/>
  </way>
  <way id="58857984" version="7" timestamp="2023-11-30T19:44:16Z" changeset="144638015" uid="504708" user="HillWithSmallFields">
    <nd ref="729245619"/>
    <nd ref="4112035351"/>
    <nd ref="1711497579"/>
    <nd ref="1711497580"/>
    <nd ref="729245622"/>
    <nd ref="1711497546"/>
    <nd ref="1711497551"/>
    <nd ref="4112035340"/>
    <nd ref="4112035337"/>
    <nd ref="34672623"/>
    <nd ref="4112035336"/>
    <nd ref="4112035338"/>
    <nd ref="1711497558"/>
    <nd ref="1711497553"/>
    <nd ref="729245626"/>
    <nd ref="4112035341"/>
    <nd ref="729245630"/>
    <nd ref="1711497606"/>
    <nd ref="1711497566"/>
    <nd ref="729245619"/>
    <tag k="addr:postcode" v="LE12 5PY"/>
    <tag k="amenity" v="place_of_worship"/>
    <tag k="building" v="yes"/>
    <tag k="denomination" v="anglican"/>
    <tag k="name" v="Saint John the Baptist"/>
    <tag k="ref:dove" v="15756"/>
    <tag k="religion" v="christian"/>
    <tag k="source" v="survey"/>
    <tag k="wikidata" v="Q5117454"/>
  </way>
  <way id="98444777" version="10" timestamp="2024-01-19T19:32:09Z" changeset="146455440" uid="242345" user="confusedbuffalo">
    <nd ref="1139086779"/>
    <nd ref="3012354748"/>
    <nd ref="3012354745"/>
    <nd ref="25081981"/>
    <nd ref="3012354741"/>
    <nd ref="1374547396"/>
    <nd ref="3012354737"/>
    <nd ref="3012354736"/>
    <nd ref="25081982"/>
    <nd ref="3012353230"/>
    <nd ref="3012353227"/>
    <nd ref="25081983"/>
    <nd ref="3012353226"/>
    <nd ref="8406886261"/>
    <nd ref="3012353224"/>
    <nd ref="3012353222"/>
    <nd ref="1374547395"/>
    <nd ref="3012353220"/>
    <nd ref="3012353218"/>
    <nd ref="25081984"/>
    <nd ref="3012353216"/>
    <nd ref="3012353214"/>
    <nd ref="25081986"/>
    <nd ref="3012353209"/>
    <nd ref="3012353208"/>
    <nd ref="25081987"/>
    <nd ref="3012353206"/>
    <nd ref="3012353205"/>
    <nd ref="25081989"/>
    <nd ref="3012353204"/>
    <nd ref="3012353203"/>
    <nd ref="3012353202"/>
    <nd ref="25081990"/>
    <tag k="highway" v="tertiary"/>
    <tag k="maxspeed" v="60 mph"/>
    <tag k="maxspeed:type" v="GB:nsl_single"/>
    <tag k="name" v="Normanton Lane"/>
  </way>
  <way id="98761919" version="10" timestamp="2017-06-26T14:40:07Z" changeset="49838138" uid="1431482" user="JonOrchard">
    <nd ref="979518746"/>
    <nd ref="3012422238"/>
    <nd ref="3012422237"/>
    <nd ref="3012422236"/>
    <nd ref="3012422235"/>
    <nd ref="3012422234"/>
    <nd ref="979518748"/>
    <nd ref="14351648"/>
    <nd ref="3012422233"/>
    <nd ref="3012324336"/>
    <nd ref="4937069466"/>
    <nd ref="3012324335"/>
    <nd ref="3012324333"/>
    <nd ref="979518751"/>
    <nd ref="3974661373"/>
    <nd ref="3012323129"/>
    <nd ref="3012323126"/>
    <nd ref="14351647"/>
    <nd ref="3974661375"/>
    <nd ref="3012323121"/>
    <nd ref="3012323118"/>
    <nd ref="3012323116"/>
    <nd ref="3974661419"/>
    <nd ref="3012323115"/>
    <nd ref="3012323114"/>
    <nd ref="14351645"/>
    <nd ref="3012323119"/>
    <nd ref="3012323120"/>
    <nd ref="1571973237"/>
    <tag k="alt_name" v="Melton Road"/>
    <tag k="highway" v="primary"/>
    <tag k="lanes" v="2"/>
    <tag k="lit" v="no"/>
    <tag k="maxspeed" v="50 mph"/>
    <tag k="name" v="Ashby Road"/>
    <tag k="ref" v="A6006"/>
    <tag k="source:name" v="OS OpenData StreetView"/>
  </way>
  <way id="103488078" version="5" timestamp="2024-01-19T19:32:09Z" changeset="146455440" uid="242345" user="confusedbuffalo">
    <nd ref="1194860897"/>
    <nd ref="25081991"/>
    <nd ref="3012353200"/>
    <nd ref="3012353199"/>
    <nd ref="3012353198"/>
    <nd ref="3012353197"/>
    <tag k="highway" v="tertiary"/>
    <tag k="maxspeed" v="60 mph"/>
    <tag k="maxspeed:type" v="GB:nsl_single"/>
    <tag k="name" v="Normanton Lane"/>
  </way>
  <way id="103488084" version="7" timestamp="2024-01-19T19:32:09Z" changeset="146455440" uid="242345" user="confusedbuffalo">
    <nd ref="25081990"/>
    <nd ref="3012353201"/>
    <nd ref="1194860897"/>
    <tag k="bridge" v="yes"/>
    <tag k="highway" v="tertiary"/>
    <tag k="layer" v="1"/>
    <tag k="maxspeed" v="60 mph"/>
    <tag k="maxspeed:type" v="GB:nsl_single"/>
    <tag k="name" v="Normanton Lane"/>
  </way>
  <way id="229965688" version="7" timestamp="2024-02-25T21:05:21Z" changeset="147908673" uid="16495269" user="thx811">
    <nd ref="2385037092"/>
    <nd ref="11663214562"/>
    <nd ref="11663214565"/>
    <nd ref="11663214563"/>
    <nd ref="11663214633"/>
    <nd ref="2385037097"/>
    <nd ref="2385037103"/>
    <nd ref="2385037106"/>
    <nd ref="2385037109"/>
    <nd ref="2385037113"/>
    <nd ref="2385037116"/>
    <nd ref="2385037119"/>
    <nd ref="2385037122"/>
    <nd ref="2385037124"/>
    <nd ref="2385037126"/>
    <nd ref="11663214636"/>
    <nd ref="2385037128"/>
    <nd ref="2385037130"/>
    <nd ref="11663214632"/>
    <nd ref="11663214634"/>
    <nd ref="11663214635"/>
    <nd ref="2385037134"/>
    <nd ref="2385037136"/>
    <nd ref="2385037138"/>
    <nd ref="11663214549"/>
    <nd ref="11663214548"/>
    <nd ref="11663214547"/>
    <nd ref="2385037144"/>
    <nd ref="2385037148"/>
    <nd ref="2385037151"/>
    <nd ref="2385037154"/>
    <nd ref="11663741806"/>
    <nd ref="2385037157"/>
    <nd ref="2385037160"/>
    <nd ref="11663214601"/>
    <nd ref="11663214546"/>
    <nd ref="11663214545"/>
    <nd ref="11663214544"/>
    <nd ref="11663214543"/>
    <nd ref="2385037164"/>
    <nd ref="11663484566"/>
    <nd ref="11663214616"/>
    <nd ref="11663214615"/>
    <nd ref="11663214618"/>
    <nd ref="11663214542"/>
    <nd ref="11663214610"/>
    <nd ref="11663214611"/>
    <nd ref="11663214613"/>
    <nd ref="11663214612"/>
    <nd ref="2385037167"/>
    <nd ref="2385037169"/>
    <nd ref="2385037171"/>
    <nd ref="2385037173"/>
    <nd ref="2385037175"/>
    <nd ref="2385037181"/>
    <nd ref="2385037185"/>
    <nd ref="2385037188"/>
    <nd ref="2385037191"/>
    <nd ref="2385037194"/>
    <nd ref="2385037197"/>
    <nd ref="2385037201"/>
    <nd ref="2385037203"/>
    <nd ref="2385037205"/>
    <nd ref="2385037207"/>
    <nd ref="2385037209"/>
    <nd ref="2385037211"/>
    <nd ref="2385037214"/>
    <nd ref="11663214551"/>
    <nd ref="11663214550"/>
    <nd ref="11663648824"/>
    <nd ref="2385037216"/>
    <nd ref="11663741833"/>
    <nd ref="11663214552"/>
    <nd ref="11663214553"/>
    <nd ref="11663741834"/>
    <nd ref="11663214556"/>
    <nd ref="11663214555"/>
    <nd ref="11663741835"/>
    <nd ref="11663484526"/>
    <nd ref="11663741836"/>
    <nd ref="11663214554"/>
    <nd ref="11663214557"/>
    <nd ref="11663214558"/>
    <nd ref="11663214559"/>
    <nd ref="11663214560"/>
    <nd ref="2385037092"/>
    <tag k="building" v="yes"/>
    <tag k="healthcare" v="rehabilitation"/>
    <tag k="name" v="Stanford Hall"/>
    <tag k="wikidata" v="Q7598749"/>
    <tag k="wikipedia" v="en:Stanford Hall, Nottinghamshire"/>
  </way>
  <way id="297355259" version="2" timestamp="2016-04-10T17:00:02Z" changeset="38455749" uid="207845" user="will_p">
    <nd ref="3012304065"/>
    <nd ref="3012304070"/>
    <nd ref="3012304072"/>
    <nd ref="3012304071"/>
    <nd ref="3012304069"/>
    <nd ref="3012304068"/>
    <nd ref="3012304067"/>
    <nd ref="3012304063"/>
    <tag k="alt_name" v="Village Farm Close"/>
    <tag k="highway" v="residential"/>
    <tag k="name" v="Village Farm"/>
    <tag k="source" v="survey"/>
  </way>
  <way id="382937585" version="7" timestamp="2025-09-13T21:59:45Z" changeset="171895126" uid="253700" user="hb0">
    <nd ref="3861407655"/>
    <nd ref="34672594"/>
    <nd ref="34672595"/>
    <nd ref="34672600"/>
    <nd ref="34672604"/>
    <nd ref="34672610"/>
    <nd ref="3012304051"/>
    <nd ref="3012304052"/>
    <nd ref="3012304054"/>
    <nd ref="34672616"/>
    <nd ref="34672619"/>
    <tag k="highway" v="unclassified"/>
    <tag k="lit" v="no"/>
    <tag k="maxspeed" v="60 mph"/>
    <tag k="maxspeed:type" v="GB:nsl_single"/>
    <tag k="maxweightrating:hgv" v="7.5"/>
    <tag k="maxweightrating:hgv:conditional" v="none @ delivery"/>
    <tag k="name" v="Stanford Lane"/>
    <tag k="sidewalk" v="no"/>
    <tag k="surface" v="asphalt"/>
  </way>
  <way id="382937586" version="9" timestamp="2025-09-13T21:59:45Z" changeset="171895126" uid="253700" user="hb0">
    <nd ref="3861407654"/>
    <nd ref="3861407655"/>
    <tag k="bridge" v="yes"/>
    <tag k="highway" v="unclassified"/>
    <tag k="lane_markings" v="no"/>
    <tag k="layer" v="1"/>
    <tag k="lit" v="no"/>
    <tag k="maxspeed" v="60 mph"/>
    <tag k="maxspeed:type" v="GB:nsl_single"/>
    <tag k="maxweightrating:hgv" v="7.5"/>
    <tag k="maxweightrating:hgv:conditional" v="none @ delivery"/>
    <tag k="name" v="Stanford Lane"/>
    <tag k="sidewalk" v="no"/>
    <tag k="surface" v="asphalt"/>
  </way>
  <way id="409293319" version="2" timestamp="2016-06-27T17:52:06Z" changeset="40326722" uid="61942" user="SomeoneElse">
    <nd ref="1571973237"/>
    <nd ref="34672671"/>
    <tag k="alt_name" v="Melton Road"/>
    <tag k="highway" v="primary"/>
    <tag k="lanes" v="2"/>
    <tag k="lit" v="yes"/>
    <tag k="maxspeed" v="50 mph"/>
    <tag k="name" v="Ashby Road"/>
    <tag k="ref" v="A6006"/>
    <tag k="source:name" v="OS OpenData StreetView"/>
  </way>
  <way id="409293320" version="3" timestamp="2022-03-20T19:44:12Z" changeset="118708541" uid="84075" user="kevjs1982">
    <nd ref="34672671"/>
    <nd ref="1571973242"/>
    <nd ref="9592708116"/>
    <nd ref="3012323122"/>
    <nd ref="14351644"/>
    <nd ref="453041441"/>
    <tag k="alt_name" v="Melton Road"/>
    <tag k="highway" v="primary"/>
    <tag k="lanes" v="2"/>
    <tag k="lit" v="yes"/>
    <tag k="maxspeed" v="50 mph"/>
    <tag k="name" v="Ashby Road"/>
    <tag k="ref" v="A6006"/>
    <tag k="source:name" v="OS OpenData StreetView"/>
  </way>
  <way id="409293325" version="1" timestamp="2016-04-10T16:59:54Z" changeset="38455749" uid="207845" user="will_p">
    <nd ref="25081994"/>
    <nd ref="3012304087"/>
    <nd ref="3012304088"/>
    <nd ref="3012304089"/>
    <nd ref="3012304090"/>
    <nd ref="3012304091"/>
    <nd ref="25081998"/>
    <nd ref="3012304092"/>
    <nd ref="3012304093"/>
    <nd ref="25081997"/>
    <tag k="highway" v="tertiary"/>
    <tag k="maxspeed" v="30 mph"/>
    <tag k="name" v="Leake Lane"/>
    <tag k="source:name" v="OS OpenData StreetView"/>
  </way>
  <way id="409293327" version="7" timestamp="2025-09-13T21:59:47Z" changeset="171895120" uid="253700" user="hb0">
    <nd ref="25082011"/>
    <nd ref="3012304056"/>
    <nd ref="34672619"/>
    <nd ref="3012304057"/>
    <nd ref="3012304058"/>
    <nd ref="25082010"/>
    <nd ref="3012304059"/>
    <nd ref="3012304060"/>
    <tag k="highway" v="tertiary"/>
    <tag k="lanes" v="2"/>
    <tag k="lit" v="yes"/>
    <tag k="maxspeed" v="30 mph"/>
    <tag k="maxspeed:type" v="GB:nsl_restricted"/>
    <tag k="name" v="Main Street"/>
    <tag k="sidewalk" v="no"/>
    <tag k="surface" v="asphalt"/>
  </way>
  <way id="409293328" version="1" timestamp="2016-04-10T16:59:54Z" changeset="38455749" uid="207845" user="will_p">
    <nd ref="3012353197"/>
    <nd ref="25081992"/>
    <nd ref="3012353196"/>
    <nd ref="3012304086"/>
    <nd ref="3012353195"/>
    <nd ref="25081994"/>
    <tag k="highway" v="tertiary"/>
    <tag k="maxspeed" v="30 mph"/>
    <tag k="name" v="Normanton Lane"/>
  </way>
  <way id="1254668462" version="2" timestamp="2024-02-25T18:55:14Z" changeset="147903999" uid="16495269" user="thx811">
    <nd ref="11663400959"/>
    <nd ref="11663400960"/>
    <nd ref="11663443769"/>
    <nd ref="11663214729"/>
    <nd ref="11663443770"/>
    <nd ref="11663443771"/>
    <nd ref="11663400958"/>
    <nd ref="11663400959"/>
    <tag k="building" v="yes"/>
    <tag k="name" v="Gardener's Cottage"/>
  </way>
  <way id="1254693859" version="1" timestamp="2024-02-25T20:28:56Z" changeset="147907273" uid="16495269" user="thx811">
    <nd ref="11663648828"/>
    <nd ref="11663648834"/>
    <nd ref="11663648833"/>
    <nd ref="11663648835"/>
    <nd ref="11663648829"/>
    <nd ref="11663648830"/>
    <nd ref="11663648837"/>
    <nd ref="11663648832"/>
    <nd ref="11663648836"/>
    <nd ref="11663648831"/>
    <nd ref="11663648828"/>
    <tag k="building" v="pavilion"/>
    <tag k="name" v="Tennis Pavillion"/>
  </way>
  <way id="1254693901" version="1" timestamp="2024-02-25T20:28:56Z" changeset="147907273" uid="16495269" user="thx811">
    <nd ref="11663657177"/>
    <nd ref="11663657178"/>
    <nd ref="11663657179"/>
    <nd ref="11663657180"/>
    <nd ref="11663657177"/>
    <tag k="building" v="yes"/>
    <tag k="name" v="Garden Pavillion"/>
  </way>

</osm>
