<?xml version="1.0" encoding="UTF-8"?>
<osm version="0.6" generator="Overpass API 0.7.62.8 e802775f">
<note>The data included in this document is from www.openstreetmap.org. The data is made available under ODbL.</note>
<meta osm_base="2025-10-23T16:51:45Z" areas="2025-10-23T12:46:58Z"/>

  <node id="256318045" lat="52.8294938" lon="-1.2228913" version="4" timestamp="2016-01-28T20:47:37Z" changeset="36865094" uid="1431482" user="JonOrchard"/>
  <node id="307878723" lat="52.8331807" lon="-1.2221686" version="6" timestamp="2016-09-24T23:20:28Z" changeset="42413691" uid="207845" user="will_p"/>
  <node id="1367999424" lat="52.8313948" lon="-1.2230218" version="4" timestamp="2017-04-24T23:29:00Z" changeset="48105204" uid="207845" user="will_p"/>
  <node id="1519736806" lat="52.8492006" lon="-1.2323241" version="3" timestamp="2017-04-23T21:56:04Z" changeset="48073007" uid="207845" user="will_p"/>
  <node id="2679422701" lat="52.8307337" lon="-1.1980115" version="2" timestamp="2016-01-28T20:44:05Z" changeset="36865008" uid="1431482" user="JonOrchard"/>
  <way id="23657165" version="10" timestamp="2021-08-26T13:53:36Z" changeset="110290297" uid="242345" user="confusedbuffalo">
    <nd ref="256318045"/>
    <nd ref="1075931102"/>
    <nd ref="3974634618"/>
    <nd ref="1576179009"/>
    <nd ref="2908377893"/>
    <nd ref="256318047"/>
    <nd ref="5156699585"/>
    <nd ref="1075931105"/>
    <nd ref="1075931107"/>
    <nd ref="1075931108"/>
    <nd ref="256318049"/>
    <nd ref="685977297"/>
    <nd ref="5156699599"/>
    <nd ref="5156699594"/>
    <nd ref="5156699587"/>
    <nd ref="5156699586"/>
    <nd ref="5156699588"/>
    <nd ref="5156699593"/>
    <nd ref="5156699600"/>
    <nd ref="685977298"/>
    <nd ref="256318052"/>
    <nd ref="2679422640"/>
    <nd ref="2679422724"/>
    <nd ref="1075931116"/>
    <nd ref="2679422610"/>
    <nd ref="256318054"/>
    <nd ref="2679422729"/>
    <nd ref="2679422723"/>
    <nd ref="256318056"/>
    <nd ref="2679422707"/>
    <nd ref="1075931118"/>
    <nd ref="256318058"/>
    <nd ref="251025439"/>
    <tag k="highway" v="unclassified"/>
    <tag k="maxspeed" v="60 mph"/>
    <tag k="maxspeed:type" v="GB:nsl_single"/>
    <tag k="name" v="Brickyard Lane"/>
    <tag k="source:maxspeed" v="survey"/>
  </way>
  <way id="92768388" version="7" timestamp="2017-04-25T21:26:35Z" changeset="48142722" uid="207845" user="will_p">
    <nd ref="307878723"/>
    <nd ref="3974628542"/>
    <nd ref="1416392266"/>
    <nd ref="1416392264"/>
    <nd ref="307878724"/>
    <nd ref="1416392241"/>
    <nd ref="4816680491"/>
    <nd ref="1416392235"/>
    <nd ref="1416392224"/>
    <nd ref="3974628543"/>
    <nd ref="1367999423"/>
    <tag k="highway" v="tertiary"/>
    <tag k="maxspeed" v="40 mph"/>
    <tag k="name" v="Pithouse Lane"/>
  </way>
  <way id="95246854" version="10" timestamp="2017-04-25T21:26:35Z" changeset="48142722" uid="207845" user="will_p">
    <nd ref="324781871"/>
    <nd ref="4812419731"/>
    <nd ref="1519736228"/>
    <nd ref="324781870"/>
    <nd ref="4812419712"/>
    <nd ref="1519736215"/>
    <nd ref="4812419706"/>
    <nd ref="324781869"/>
    <nd ref="1519736204"/>
    <nd ref="1075937148"/>
    <nd ref="4812419704"/>
    <nd ref="4812419641"/>
    <nd ref="324781868"/>
    <nd ref="4812419213"/>
    <nd ref="4812419212"/>
    <nd ref="4416943597"/>
    <nd ref="4814435696"/>
    <nd ref="1075937150"/>
    <nd ref="1519736128"/>
    <nd ref="324781867"/>
    <nd ref="1576155919"/>
    <nd ref="1416392274"/>
    <nd ref="4814435666"/>
    <nd ref="4814435688"/>
    <nd ref="1075937152"/>
    <nd ref="1416392271"/>
    <nd ref="4816680371"/>
    <nd ref="1416392268"/>
    <nd ref="307878721"/>
    <nd ref="307878720"/>
    <tag k="highway" v="unclassified"/>
    <tag k="maxspeed" v="30 mph"/>
    <tag k="name" v="Main Street"/>
    <tag k="source:maxspeed" v="survey"/>
  </way>
  <way id="98761909" version="2" timestamp="2011-08-28T17:46:16Z" changeset="9149726" uid="207845" user="will_p">
    <nd ref="1142654187"/>
    <nd ref="307878721"/>
    <tag k="highway" v="residential"/>
    <tag k="name" v="Village Farm Close"/>
    <tag k="source" v="bing"/>
    <tag k="source:name" v="OS OpenData Locator;survey"/>
  </way>
  <way id="98761914" version="2" timestamp="2011-08-28T17:46:16Z" changeset="9149726" uid="207845" user="will_p">
    <nd ref="1142654182"/>
    <nd ref="1142654187"/>
    <nd ref="1142654131"/>
    <tag k="highway" v="residential"/>
    <tag k="name" v="Village Farm Close"/>
    <tag k="source" v="bing"/>
    <tag k="source:name" v="OS OpenData Locator;survey"/>
  </way>
  <way id="122412096" version="5" timestamp="2016-09-24T23:20:19Z" changeset="42413691" uid="207845" user="will_p">
    <nd ref="1367999424"/>
    <nd ref="1416392195"/>
    <nd ref="1416392193"/>
    <nd ref="1075931154"/>
    <nd ref="1075931156"/>
    <nd ref="3974628544"/>
    <nd ref="302001373"/>
    <tag k="highway" v="tertiary"/>
    <tag k="maxspeed" v="40 mph"/>
    <tag k="name" v="Pithouse Lane"/>
  </way>
  <way id="122412098" version="3" timestamp="2016-09-24T23:20:19Z" changeset="42413691" uid="207845" user="will_p">
    <nd ref="1367999423"/>
    <nd ref="1367999424"/>
    <tag k="bridge" v="yes"/>
    <tag k="highway" v="tertiary"/>
    <tag k="layer" v="1"/>
    <tag k="maxspeed" v="40 mph"/>
    <tag k="name" v="Pithouse Lane"/>
  </way>
  <way id="122562954" version="5" timestamp="2017-04-25T21:26:35Z" changeset="48142722" uid="207845" user="will_p">
    <nd ref="307878720"/>
    <nd ref="4816680483"/>
    <nd ref="1416392246"/>
    <nd ref="4816680634"/>
    <nd ref="307878722"/>
    <nd ref="1416392243"/>
    <nd ref="4816680633"/>
    <nd ref="1416392248"/>
    <nd ref="4816680488"/>
    <nd ref="1416392265"/>
    <nd ref="4416942983"/>
    <nd ref="307878723"/>
    <tag k="highway" v="tertiary"/>
    <tag k="maxspeed" v="30 mph"/>
    <tag k="name" v="Main Street"/>
    <tag k="source:maxspeed" v="survey"/>
  </way>
  <way id="128114998" version="10" timestamp="2025-10-18T10:42:31Z" changeset="173444101" uid="22553159" user="Aethonatic">
    <nd ref="1139086627"/>
    <nd ref="1416480525"/>
    <nd ref="307878717"/>
    <nd ref="1416480524"/>
    <nd ref="307878718"/>
    <nd ref="1416480523"/>
    <nd ref="1416480522"/>
    <nd ref="1519736256"/>
    <nd ref="1416480521"/>
    <nd ref="1416392292"/>
    <nd ref="4416943602"/>
    <nd ref="1416392286"/>
    <nd ref="1416392277"/>
    <nd ref="4416942986"/>
    <nd ref="307878720"/>
    <tag k="access" v="no"/>
    <tag k="check_date" v="2025-10-18"/>
    <tag k="highway" v="tertiary"/>
    <tag k="maxspeed" v="60 mph"/>
    <tag k="maxspeed:type" v="GB:nsl_single"/>
    <tag k="maxweightrating:hgv" v="7.5"/>
    <tag k="maxweightrating:hgv:conditional" v="none @ destination"/>
    <tag k="name" v="Dark Lane"/>
    <tag k="opening_date" v="2026-07-17"/>
    <tag k="source:maxspeed" v="survey"/>
  </way>
  <way id="138594324" version="7" timestamp="2025-08-18T10:56:34Z" changeset="170609750" uid="21990187" user="MarkoŠatrak">
    <nd ref="1519736806"/>
    <nd ref="307878708"/>
    <nd ref="4812356551"/>
    <nd ref="1519736753"/>
    <nd ref="4812356552"/>
    <nd ref="1368228613"/>
    <nd ref="4812351283"/>
    <nd ref="307878709"/>
    <nd ref="4812351282"/>
    <nd ref="1519736465"/>
    <nd ref="1519736390"/>
    <nd ref="307878710"/>
    <nd ref="4812355525"/>
    <nd ref="1139086702"/>
    <nd ref="307878711"/>
    <nd ref="1519736385"/>
    <nd ref="307878712"/>
    <nd ref="4812356560"/>
    <nd ref="1519736358"/>
    <nd ref="1519736354"/>
    <nd ref="4812356561"/>
    <nd ref="1416480574"/>
    <nd ref="4812356562"/>
    <nd ref="4797401136"/>
    <nd ref="1416480554"/>
    <nd ref="1416480548"/>
    <nd ref="4812356563"/>
    <nd ref="4812356564"/>
    <nd ref="307878713"/>
    <nd ref="4812356565"/>
    <nd ref="307878714"/>
    <nd ref="1416480541"/>
    <nd ref="4812356566"/>
    <nd ref="1416480540"/>
    <nd ref="307878715"/>
    <nd ref="1416480535"/>
    <nd ref="4812356567"/>
    <nd ref="1416480532"/>
    <nd ref="307878716"/>
    <nd ref="1416480529"/>
    <nd ref="1416480527"/>
    <nd ref="1139087500"/>
    <nd ref="1139086627"/>
    <tag k="highway" v="tertiary"/>
    <tag k="maxspeed" v="60 mph"/>
    <tag k="maxspeed:type" v="GB:nsl_single"/>
    <tag k="maxweightrating:hgv" v="7.5"/>
    <tag k="maxweightrating:hgv:conditional" v="none @ destination"/>
    <tag k="name" v="West Leake Lane"/>
    <tag k="source:maxspeed" v="survey"/>
  </way>
  <way id="138594330" version="1" timestamp="2011-11-27T15:56:49Z" changeset="9968467" uid="207845" user="will_p">
    <nd ref="1519736071"/>
    <nd ref="1075937143"/>
    <tag k="bridge" v="yes"/>
    <tag k="highway" v="unclassified"/>
    <tag k="layer" v="1"/>
    <tag k="name" v="West Leake Road"/>
    <tag k="source:name" v="OS Open Locator"/>
  </way>
  <way id="138594331" version="6" timestamp="2025-05-17T15:49:12Z" changeset="166397938" uid="22907478" user="Alex_mapper06">
    <nd ref="1075937143"/>
    <nd ref="1519736117"/>
    <nd ref="3974628537"/>
    <nd ref="324781872"/>
    <nd ref="4812419735"/>
    <nd ref="4812419734"/>
    <nd ref="4812419733"/>
    <nd ref="1519736164"/>
    <nd ref="4812419732"/>
    <nd ref="1075937145"/>
    <nd ref="1519736201"/>
    <nd ref="2679422675"/>
    <tag k="highway" v="unclassified"/>
    <tag k="maxspeed" v="40 mph"/>
    <tag k="maxspeed:type" v="GB:nsl_single"/>
    <tag k="name" v="West Leake Road"/>
    <tag k="source:maxspeed" v="survey"/>
    <tag k="source:name" v="OS Open Locator"/>
  </way>
  <way id="262279942" version="7" timestamp="2025-05-17T15:49:12Z" changeset="166397938" uid="22907478" user="Alex_mapper06">
    <nd ref="2679422701"/>
    <nd ref="2679422718"/>
    <nd ref="324781877"/>
    <nd ref="3875326479"/>
    <nd ref="1519735882"/>
    <nd ref="3974614123"/>
    <nd ref="3974614122"/>
    <nd ref="324781876"/>
    <nd ref="1519735894"/>
    <nd ref="3866792065"/>
    <nd ref="3865128247"/>
    <nd ref="324781875"/>
    <nd ref="1075937136"/>
    <nd ref="3974614126"/>
    <nd ref="3974614125"/>
    <nd ref="3974614127"/>
    <nd ref="324781874"/>
    <nd ref="3974614128"/>
    <nd ref="3974614129"/>
    <nd ref="1075937139"/>
    <nd ref="3974614130"/>
    <nd ref="1519735948"/>
    <nd ref="3974614131"/>
    <nd ref="1075937141"/>
    <nd ref="324781873"/>
    <nd ref="1519735956"/>
    <nd ref="1519736047"/>
    <nd ref="1519736071"/>
    <tag k="highway" v="unclassified"/>
    <tag k="maxspeed" v="40 mph"/>
    <tag k="maxspeed:type" v="GB:nsl_single"/>
    <tag k="name" v="West Leake Road"/>
    <tag k="source:maxspeed" v="survey"/>
    <tag k="source:name" v="OS Open Locator"/>
  </way>
  <way id="262279945" version="3" timestamp="2017-04-23T23:09:02Z" changeset="48074129" uid="207845" user="will_p">
    <nd ref="2679422675"/>
    <nd ref="3974628538"/>
    <nd ref="4812419730"/>
    <nd ref="324781871"/>
    <tag k="highway" v="unclassified"/>
    <tag k="maxspeed" v="30 mph"/>
    <tag k="name" v="West Leake Road"/>
    <tag k="source:name" v="OS Open Locator"/>
  </way>
  <way id="444207720" version="3" timestamp="2019-10-07T15:31:26Z" changeset="75383215" uid="417748" user="Dave Venables">
    <nd ref="4416942963"/>
    <nd ref="4416942951"/>
    <nd ref="4416942952"/>
    <nd ref="4416942949"/>
    <nd ref="390326708"/>
    <nd ref="4416942950"/>
    <nd ref="4416942954"/>
    <nd ref="4416942957"/>
    <nd ref="4416942959"/>
    <nd ref="4416942961"/>
    <nd ref="4416942962"/>
    <nd ref="4416942968"/>
    <nd ref="4416942966"/>
    <nd ref="4416942970"/>
    <nd ref="4416942969"/>
    <nd ref="4416942967"/>
    <nd ref="4416942965"/>
    <nd ref="4416942963"/>
    <tag k="HE_ref" v="1242473"/>
    <tag k="addr:postcode" v="LE12 5RF"/>
    <tag k="amenity" v="place_of_worship"/>
    <tag k="building" v="church"/>
    <tag k="denomination" v="anglican"/>
    <tag k="listed_status" v="Grade II*"/>
    <tag k="name" v="St Helena's Church"/>
    <tag k="religion" v="christian"/>
    <tag k="source" v="NPE;survey"/>
    <tag k="source:listed_status" v="Historic England"/>
    <tag k="wikidata" v="Q7588305"/>
    <tag k="wikipedia" v="en:St Helena's Church, West Leake"/>
  </way>
  <way id="488955084" version="1" timestamp="2017-04-23T23:08:57Z" changeset="48074129" uid="207845" user="will_p">
    <nd ref="4812419205"/>
    <nd ref="4812419202"/>
    <nd ref="4812419203"/>
    <nd ref="4812419204"/>
    <nd ref="4812419207"/>
    <nd ref="4812419206"/>
    <nd ref="4812419205"/>
    <tag k="addr:housenumber" v="61"/>
    <tag k="addr:postcode" v="LE12 5RF"/>
    <tag k="addr:street" v="Main Street"/>
    <tag k="building" v="detached"/>
    <tag k="source:addr:postcode" v="OS Opendata Codepoint"/>
  </way>
  <way id="488955085" version="1" timestamp="2017-04-23T23:08:57Z" changeset="48074129" uid="207845" user="will_p">
    <nd ref="4812419211"/>
    <nd ref="4812419210"/>
    <nd ref="4812419209"/>
    <nd ref="4812419200"/>
    <nd ref="4812419199"/>
    <nd ref="4812419208"/>
    <nd ref="4812419211"/>
    <tag k="addr:housenumber" v="63"/>
    <tag k="addr:postcode" v="LE12 5RF"/>
    <tag k="addr:street" v="Main Street"/>
    <tag k="building" v="detached"/>
    <tag k="source:addr:postcode" v="OS Opendata Codepoint"/>
  </way>
  <way id="488955089" version="5" timestamp="2025-10-18T09:36:41Z" changeset="173441607" uid="19018955" user="facultygood525">
    <nd ref="4812419647"/>
    <nd ref="4812419646"/>
    <nd ref="4812419220"/>
    <nd ref="4812419645"/>
    <nd ref="12053900774"/>
    <nd ref="4812419622"/>
    <nd ref="4812419621"/>
    <nd ref="4812419644"/>
    <nd ref="12053900778"/>
    <nd ref="12053900777"/>
    <nd ref="12053900776"/>
    <nd ref="12053900775"/>
    <nd ref="4812419643"/>
    <nd ref="4812419642"/>
    <nd ref="4812419647"/>
    <tag k="addr:city" v="West Leake"/>
    <tag k="addr:postcode" v="LE12 5RF"/>
    <tag k="addr:street" v="Main Street"/>
    <tag k="amenity" v="community_centre"/>
    <tag k="building" v="public"/>
    <tag k="community_centre" v="village_hall"/>
    <tag k="name" v="West Leake Village Hall"/>
    <tag k="source" v="survey;Bing"/>
    <tag k="wheelchair" v="designated"/>
  </way>
  <way id="488955092" version="1" timestamp="2017-04-23T23:08:58Z" changeset="48074129" uid="207845" user="will_p">
    <nd ref="4812419666"/>
    <nd ref="4812419665"/>
    <nd ref="4812419664"/>
    <nd ref="4812419663"/>
    <nd ref="4812419662"/>
    <nd ref="4812419661"/>
    <nd ref="4812419660"/>
    <nd ref="4812419659"/>
    <nd ref="4812419666"/>
    <tag k="addr:housename" v="Schoolside Farm"/>
    <tag k="addr:housenumber" v="67"/>
    <tag k="addr:postcode" v="LE12 5RF"/>
    <tag k="addr:street" v="Main Street"/>
    <tag k="building" v="detached"/>
    <tag k="source:addr:postcode" v="OS Opendata Codepoint"/>
  </way>
  <way id="488955093" version="2" timestamp="2022-02-26T13:34:01Z" changeset="117879080" uid="242345" user="confusedbuffalo">
    <nd ref="4812419668"/>
    <nd ref="4812419671"/>
    <nd ref="4812419670"/>
    <nd ref="4812419667"/>
    <nd ref="4812419668"/>
    <tag k="addr:housenumber" v="69"/>
    <tag k="addr:postcode" v="LE12 5RF"/>
    <tag k="addr:street" v="Main Street"/>
    <tag k="building" v="semidetached_house"/>
    <tag k="source:addr:postcode" v="OS Opendata Codepoint"/>
  </way>
  <way id="488955094" version="2" timestamp="2022-02-26T13:34:01Z" changeset="117879080" uid="242345" user="confusedbuffalo">
    <nd ref="4812419672"/>
    <nd ref="4812419668"/>
    <nd ref="4812419667"/>
    <nd ref="4812419669"/>
    <nd ref="4812419672"/>
    <tag k="addr:housenumber" v="71"/>
    <tag k="addr:postcode" v="LE12 5RF"/>
    <tag k="addr:street" v="Main Street"/>
    <tag k="building" v="semidetached_house"/>
    <tag k="source:addr:postcode" v="OS Opendata Codepoint"/>
  </way>
  <way id="488955095" version="1" timestamp="2017-04-23T23:08:58Z" changeset="48074129" uid="207845" user="will_p">
    <nd ref="4812419676"/>
    <nd ref="4812419677"/>
    <nd ref="4812419679"/>
    <nd ref="4812419675"/>
    <nd ref="4812419678"/>
    <nd ref="4812419676"/>
    <tag k="addr:housenumber" v="73"/>
    <tag k="addr:postcode" v="LE12 5RF"/>
    <tag k="addr:street" v="Main Street"/>
    <tag k="building" v="detached"/>
    <tag k="source:addr:postcode" v="OS Opendata Codepoint"/>
  </way>
  <way id="488955097" version="2" timestamp="2022-02-26T13:34:01Z" changeset="117879080" uid="242345" user="confusedbuffalo">
    <nd ref="4812419684"/>
    <nd ref="4812419685"/>
    <nd ref="4812419691"/>
    <nd ref="4812419692"/>
    <nd ref="4812419693"/>
    <nd ref="4812419696"/>
    <nd ref="4812419684"/>
    <tag k="addr:housenumber" v="75"/>
    <tag k="addr:postcode" v="LE12 5RF"/>
    <tag k="addr:street" v="Main Street"/>
    <tag k="building" v="semidetached_house"/>
    <tag k="source:addr:postcode" v="OS Opendata Codepoint"/>
  </way>
  <way id="488955098" version="2" timestamp="2022-02-26T13:34:01Z" changeset="117879080" uid="242345" user="confusedbuffalo">
    <nd ref="4812419685"/>
    <nd ref="4812419684"/>
    <nd ref="4812419695"/>
    <nd ref="4812419694"/>
    <nd ref="4812419690"/>
    <nd ref="4812419689"/>
    <nd ref="4812419688"/>
    <nd ref="4812419687"/>
    <nd ref="4812419686"/>
    <nd ref="4812419685"/>
    <tag k="addr:housename" v="September Cottage"/>
    <tag k="addr:housenumber" v="77"/>
    <tag k="addr:postcode" v="LE12 5RF"/>
    <tag k="addr:street" v="Main Street"/>
    <tag k="building" v="semidetached_house"/>
    <tag k="source:addr:postcode" v="OS Opendata Codepoint"/>
  </way>
  <way id="488955099" version="1" timestamp="2017-04-23T23:08:58Z" changeset="48074129" uid="207845" user="will_p">
    <nd ref="4812419703"/>
    <nd ref="4812419702"/>
    <nd ref="4812419701"/>
    <nd ref="4812419700"/>
    <nd ref="4812419703"/>
    <tag k="addr:housenumber" v="60"/>
    <tag k="addr:postcode" v="LE12 5RF"/>
    <tag k="addr:street" v="Main Street"/>
    <tag k="building" v="detached"/>
    <tag k="source:addr:postcode" v="OS Opendata Codepoint"/>
  </way>
  <way id="488955113" version="1" timestamp="2017-04-23T23:09:00Z" changeset="48074129" uid="207845" user="will_p">
    <nd ref="4812419791"/>
    <nd ref="4812419790"/>
    <nd ref="4812419789"/>
    <nd ref="4812419788"/>
    <nd ref="4812419787"/>
    <nd ref="4812419786"/>
    <nd ref="4812419791"/>
    <tag k="addr:housename" v="Town End Farmhouse"/>
    <tag k="addr:housenumber" v="79"/>
    <tag k="addr:postcode" v="LE12 5RF"/>
    <tag k="addr:street" v="Main Street"/>
    <tag k="building" v="detached"/>
    <tag k="source:addr:postcode" v="OS Opendata Codepoint"/>
  </way>
  <way id="488955117" version="1" timestamp="2017-04-23T23:09:00Z" changeset="48074129" uid="207845" user="will_p">
    <nd ref="4812419821"/>
    <nd ref="4812419820"/>
    <nd ref="4812419819"/>
    <nd ref="4812419818"/>
    <nd ref="4812419821"/>
    <tag k="addr:housenumber" v="89"/>
    <tag k="addr:postcode" v="LE12 5RF"/>
    <tag k="addr:street" v="Main Street"/>
    <tag k="building" v="detached"/>
    <tag k="source:addr:postcode" v="OS Opendata Codepoint"/>
  </way>
  <way id="489169834" version="1" timestamp="2017-04-24T23:28:57Z" changeset="48105204" uid="207845" user="will_p">
    <nd ref="4814435659"/>
    <nd ref="4814435658"/>
    <nd ref="4814435657"/>
    <nd ref="4814435656"/>
    <nd ref="4814435655"/>
    <nd ref="4814435654"/>
    <nd ref="4814435659"/>
    <tag k="addr:housename" v="Post Office Cottage"/>
    <tag k="addr:housenumber" v="33"/>
    <tag k="addr:postcode" v="LE12 5RF"/>
    <tag k="addr:street" v="Main Street"/>
    <tag k="building" v="detached"/>
    <tag k="source:addr:postcode" v="OS Opendata Codepoint"/>
  </way>
  <way id="489169837" version="1" timestamp="2017-04-24T23:28:57Z" changeset="48105204" uid="207845" user="will_p">
    <nd ref="4814435676"/>
    <nd ref="4814435675"/>
    <nd ref="4814435674"/>
    <nd ref="4814435673"/>
    <nd ref="4814435672"/>
    <nd ref="4814435671"/>
    <nd ref="4814435676"/>
    <tag k="addr:housename" v="Cherry Tree House"/>
    <tag k="addr:housenumber" v="39"/>
    <tag k="addr:postcode" v="LE12 5RF"/>
    <tag k="addr:street" v="Main Street"/>
    <tag k="building" v="detached"/>
    <tag k="source:addr:postcode" v="OS Opendata Codepoint"/>
  </way>
  <way id="489169838" version="1" timestamp="2017-04-24T23:28:57Z" changeset="48105204" uid="207845" user="will_p">
    <nd ref="4814435680"/>
    <nd ref="4814435679"/>
    <nd ref="4814435678"/>
    <nd ref="4814435677"/>
    <nd ref="4814435680"/>
    <tag k="addr:housenumber" v="37"/>
    <tag k="addr:postcode" v="LE12 5RF"/>
    <tag k="addr:street" v="Main Street"/>
    <tag k="building" v="detached"/>
    <tag k="source:addr:postcode" v="OS Opendata Codepoint"/>
  </way>
  <way id="489169848" version="1" timestamp="2017-04-24T23:28:58Z" changeset="48105204" uid="207845" user="will_p">
    <nd ref="4814435717"/>
    <nd ref="4814435718"/>
    <nd ref="4814435719"/>
    <nd ref="4814435720"/>
    <nd ref="4814435922"/>
    <nd ref="4814435921"/>
    <nd ref="4814435716"/>
    <nd ref="4814435715"/>
    <nd ref="4814435714"/>
    <nd ref="4814435713"/>
    <nd ref="4814435712"/>
    <nd ref="4814435711"/>
    <nd ref="4814435710"/>
    <nd ref="4814435695"/>
    <nd ref="4814435694"/>
    <nd ref="4814435693"/>
    <nd ref="4814435707"/>
    <nd ref="4814435705"/>
    <nd ref="4814435938"/>
    <nd ref="4814435937"/>
    <nd ref="4814435709"/>
    <nd ref="4814435717"/>
    <tag k="addr:housenumber" v="50"/>
    <tag k="addr:postcode" v="LE12 5RF"/>
    <tag k="addr:street" v="Main Street"/>
    <tag k="building" v="residential"/>
    <tag k="source:addr:postcode" v="OS Opendata Codepoint"/>
  </way>
  <way id="489169855" version="1" timestamp="2017-04-24T23:28:58Z" changeset="48105204" uid="207845" user="will_p">
    <nd ref="4814435959"/>
    <nd ref="4814435960"/>
    <nd ref="4814435961"/>
    <nd ref="4814435962"/>
    <nd ref="4814435963"/>
    <nd ref="4814435964"/>
    <nd ref="4814435965"/>
    <nd ref="4814435966"/>
    <nd ref="4814435967"/>
    <nd ref="4814435968"/>
    <nd ref="4814435959"/>
    <tag k="addr:housenumber" v="43"/>
    <tag k="addr:postcode" v="LE12 5RF"/>
    <tag k="addr:street" v="Main Street"/>
    <tag k="building" v="detached"/>
    <tag k="source:addr:postcode" v="OS Opendata Codepoint"/>
  </way>
  <way id="489169856" version="1" timestamp="2017-04-24T23:28:59Z" changeset="48105204" uid="207845" user="will_p">
    <nd ref="4814435974"/>
    <nd ref="4814435973"/>
    <nd ref="4814435972"/>
    <nd ref="4814435971"/>
    <nd ref="4814435970"/>
    <nd ref="4814435969"/>
    <nd ref="4814435974"/>
    <tag k="addr:housename" v="Hillcroft"/>
    <tag k="addr:housenumber" v="41"/>
    <tag k="addr:postcode" v="LE12 5RF"/>
    <tag k="addr:street" v="Main Street"/>
    <tag k="building" v="detached"/>
    <tag k="source:addr:postcode" v="OS Opendata Codepoint"/>
  </way>
  <way id="489169859" version="1" timestamp="2017-04-24T23:28:59Z" changeset="48105204" uid="207845" user="will_p">
    <nd ref="4814435980"/>
    <nd ref="4814435976"/>
    <nd ref="4814435977"/>
    <nd ref="4814435978"/>
    <nd ref="4814435979"/>
    <nd ref="4814435981"/>
    <nd ref="4814435980"/>
    <tag k="addr:housenumber" v="47"/>
    <tag k="addr:postcode" v="LE12 5RF"/>
    <tag k="addr:street" v="Main Street"/>
    <tag k="building" v="detached"/>
    <tag k="source:addr:postcode" v="OS Opendata Codepoint"/>
  </way>
  <way id="489169861" version="1" timestamp="2017-04-24T23:28:59Z" changeset="48105204" uid="207845" user="will_p">
    <nd ref="4814435995"/>
    <nd ref="4814435994"/>
    <nd ref="4814435993"/>
    <nd ref="4814435992"/>
    <nd ref="4814435991"/>
    <nd ref="4814435990"/>
    <nd ref="4814435989"/>
    <nd ref="4814435988"/>
    <nd ref="4814435987"/>
    <nd ref="4814435986"/>
    <nd ref="4814435995"/>
    <tag k="addr:housename" v="Lychgate House"/>
    <tag k="addr:housenumber" v="49"/>
    <tag k="addr:postcode" v="LE12 5RF"/>
    <tag k="addr:street" v="Main Street"/>
    <tag k="building" v="detached"/>
    <tag k="source:addr:postcode" v="OS Opendata Codepoint"/>
  </way>
  <way id="489169863" version="1" timestamp="2017-04-24T23:28:59Z" changeset="48105204" uid="207845" user="will_p">
    <nd ref="4814436005"/>
    <nd ref="4814436004"/>
    <nd ref="4814436003"/>
    <nd ref="4814436002"/>
    <nd ref="4814436001"/>
    <nd ref="4814436000"/>
    <nd ref="4814436005"/>
    <tag k="addr:housename" v="Whealers House"/>
    <tag k="addr:housenumber" v="51"/>
    <tag k="addr:postcode" v="LE12 5RF"/>
    <tag k="addr:street" v="Main Street"/>
    <tag k="building" v="detached"/>
    <tag k="source:addr:postcode" v="OS Opendata Codepoint"/>
  </way>
  <way id="489169864" version="2" timestamp="2018-12-20T07:18:53Z" changeset="65632098" uid="364" user="Edward">
    <nd ref="4814436013"/>
    <nd ref="4814436006"/>
    <nd ref="4814436007"/>
    <nd ref="4814436008"/>
    <nd ref="4814436009"/>
    <nd ref="4814436010"/>
    <nd ref="4814436011"/>
    <nd ref="4814436012"/>
    <nd ref="4814436016"/>
    <nd ref="4814436015"/>
    <nd ref="4814436014"/>
    <nd ref="4814436013"/>
    <tag k="HE_ref" v="1260026"/>
    <tag k="addr:housenumber" v="55"/>
    <tag k="addr:postcode" v="LE12 5RF"/>
    <tag k="addr:street" v="Main Street"/>
    <tag k="building" v="detached"/>
    <tag k="listed_status" v="Grade II"/>
    <tag k="source:addr:postcode" v="OS Opendata Codepoint"/>
    <tag k="source:listed_status" v="Historic England"/>
    <tag k="wikidata" v="Q26551090"/>
  </way>
  <way id="489434821" version="1" timestamp="2017-04-25T21:26:31Z" changeset="48142722" uid="207845" user="will_p">
    <nd ref="4816680377"/>
    <nd ref="4816680376"/>
    <nd ref="4816680375"/>
    <nd ref="4816680374"/>
    <nd ref="4816680373"/>
    <nd ref="4816680372"/>
    <nd ref="4816680377"/>
    <tag k="addr:housenumber" v="4"/>
    <tag k="addr:postcode" v="LE12 5RP"/>
    <tag k="addr:street" v="Village Farm Close"/>
    <tag k="building" v="detached"/>
    <tag k="source:addr:postcode" v="OS Opendata Codepoint"/>
  </way>
  <way id="489434822" version="1" timestamp="2017-04-25T21:26:31Z" changeset="48142722" uid="207845" user="will_p">
    <nd ref="4816680384"/>
    <nd ref="4816680383"/>
    <nd ref="4816680382"/>
    <nd ref="4816680381"/>
    <nd ref="4816680380"/>
    <nd ref="4816680379"/>
    <nd ref="4816680384"/>
    <tag k="addr:housenumber" v="27"/>
    <tag k="addr:postcode" v="LE12 5RF"/>
    <tag k="addr:street" v="Main Street"/>
    <tag k="building" v="detached"/>
    <tag k="source:addr:postcode" v="OS Opendata Codepoint"/>
  </way>
  <way id="489434834" version="1" timestamp="2017-04-25T21:26:32Z" changeset="48142722" uid="207845" user="will_p">
    <nd ref="4816680410"/>
    <nd ref="4816680409"/>
    <nd ref="4816680408"/>
    <nd ref="4816680402"/>
    <nd ref="4816680405"/>
    <nd ref="4816680403"/>
    <nd ref="4816680404"/>
    <nd ref="4816680406"/>
    <nd ref="4816680407"/>
    <nd ref="4816680410"/>
    <tag k="addr:housenumber" v="3"/>
    <tag k="addr:postcode" v="LE12 5RP"/>
    <tag k="addr:street" v="Village Farm Close"/>
    <tag k="building" v="detached"/>
    <tag k="source:addr:postcode" v="OS Opendata Codepoint"/>
  </way>
  <way id="489434837" version="1" timestamp="2017-04-25T21:26:32Z" changeset="48142722" uid="207845" user="will_p">
    <nd ref="4816680416"/>
    <nd ref="4816680415"/>
    <nd ref="4816680414"/>
    <nd ref="4816680413"/>
    <nd ref="4816680412"/>
    <nd ref="4816680411"/>
    <nd ref="4816680416"/>
    <tag k="addr:housename" v="Willow Tree"/>
    <tag k="addr:housenumber" v="2"/>
    <tag k="addr:postcode" v="LE12 5RP"/>
    <tag k="addr:street" v="Village Farm Close"/>
    <tag k="building" v="detached"/>
    <tag k="source:addr:postcode" v="OS Opendata Codepoint"/>
  </way>
  <way id="489434842" version="1" timestamp="2017-04-25T21:26:32Z" changeset="48142722" uid="207845" user="will_p">
    <nd ref="4816680433"/>
    <nd ref="4816680432"/>
    <nd ref="4816680431"/>
    <nd ref="4816680430"/>
    <nd ref="4816680429"/>
    <nd ref="4816680424"/>
    <nd ref="4816680423"/>
    <nd ref="4816680428"/>
    <nd ref="4816680427"/>
    <nd ref="4816680426"/>
    <nd ref="4816680433"/>
    <tag k="addr:housename" v="Greenwood House"/>
    <tag k="addr:housenumber" v="2A"/>
    <tag k="addr:postcode" v="LE12 5RP"/>
    <tag k="addr:street" v="Village Farm Close"/>
    <tag k="building" v="detached"/>
    <tag k="source:addr:postcode" v="OS Opendata Codepoint"/>
  </way>
  <way id="489434848" version="1" timestamp="2017-04-25T21:26:32Z" changeset="48142722" uid="207845" user="will_p">
    <nd ref="4816680444"/>
    <nd ref="4816680443"/>
    <nd ref="4816680442"/>
    <nd ref="4816680441"/>
    <nd ref="4816680440"/>
    <nd ref="4816680439"/>
    <nd ref="4816680438"/>
    <nd ref="4816680444"/>
    <tag k="addr:housenumber" v="21"/>
    <tag k="addr:postcode" v="LE12 5RF"/>
    <tag k="addr:street" v="Main Street"/>
    <tag k="building" v="detached"/>
    <tag k="source:addr:postcode" v="OS Opendata Codepoint"/>
  </way>
  <way id="489434849" version="1" timestamp="2017-04-25T21:26:32Z" changeset="48142722" uid="207845" user="will_p">
    <nd ref="4816680450"/>
    <nd ref="4816680449"/>
    <nd ref="4816680448"/>
    <nd ref="4816680447"/>
    <nd ref="4816680446"/>
    <nd ref="4816680445"/>
    <nd ref="4816680450"/>
    <tag k="addr:housenumber" v="1"/>
    <tag k="addr:postcode" v="LE12 5RP"/>
    <tag k="addr:street" v="Village Farm Close"/>
    <tag k="building" v="detached"/>
    <tag k="source:addr:postcode" v="OS Opendata Codepoint"/>
  </way>
  <way id="489434858" version="2" timestamp="2022-02-26T13:34:01Z" changeset="117879080" uid="242345" user="confusedbuffalo">
    <nd ref="4816680506"/>
    <nd ref="4816680455"/>
    <nd ref="4816680458"/>
    <nd ref="4816680509"/>
    <nd ref="4816680504"/>
    <nd ref="4816680502"/>
    <nd ref="4816680508"/>
    <nd ref="4816680500"/>
    <nd ref="4816680498"/>
    <nd ref="4816680497"/>
    <nd ref="4816680499"/>
    <nd ref="4816680505"/>
    <nd ref="4816680506"/>
    <tag k="addr:housenumber" v="1"/>
    <tag k="addr:postcode" v="LE12 5RF"/>
    <tag k="addr:street" v="Main Street"/>
    <tag k="building" v="semidetached_house"/>
    <tag k="source:addr:postcode" v="OS Opendata Codepoint"/>
  </way>
  <way id="489434859" version="2" timestamp="2022-02-26T13:34:01Z" changeset="117879080" uid="242345" user="confusedbuffalo">
    <nd ref="4816680510"/>
    <nd ref="4816680457"/>
    <nd ref="4816680456"/>
    <nd ref="4816680506"/>
    <nd ref="4816680505"/>
    <nd ref="4816680507"/>
    <nd ref="4816680501"/>
    <nd ref="4816680503"/>
    <nd ref="4816680510"/>
    <tag k="addr:housenumber" v="3"/>
    <tag k="addr:postcode" v="LE12 5RF"/>
    <tag k="addr:street" v="Main Street"/>
    <tag k="building" v="semidetached_house"/>
    <tag k="source:addr:housenumber" v="interpolation"/>
    <tag k="source:addr:postcode" v="OS Opendata Codepoint"/>
  </way>
  <way id="489434860" version="2" timestamp="2022-02-26T13:34:01Z" changeset="117879080" uid="242345" user="confusedbuffalo">
    <nd ref="4816680514"/>
    <nd ref="4816680669"/>
    <nd ref="4816680668"/>
    <nd ref="4816680513"/>
    <nd ref="4816680514"/>
    <tag k="addr:housenumber" v="7"/>
    <tag k="addr:postcode" v="LE12 5RF"/>
    <tag k="addr:street" v="Main Street"/>
    <tag k="building" v="semidetached_house"/>
    <tag k="source:addr:postcode" v="OS Opendata Codepoint"/>
  </way>
  <way id="489434862" version="2" timestamp="2022-02-26T13:34:01Z" changeset="117879080" uid="242345" user="confusedbuffalo">
    <nd ref="4816680632"/>
    <nd ref="4816680677"/>
    <nd ref="4816680676"/>
    <nd ref="4816680628"/>
    <nd ref="4816680627"/>
    <nd ref="4816680520"/>
    <nd ref="4816680621"/>
    <nd ref="4816680631"/>
    <nd ref="4816680632"/>
    <tag k="addr:housenumber" v="11"/>
    <tag k="addr:postcode" v="LE12 5RF"/>
    <tag k="addr:street" v="Main Street"/>
    <tag k="building" v="semidetached_house"/>
    <tag k="source:addr:postcode" v="OS Opendata Codepoint"/>
  </way>
  <way id="489434863" version="2" timestamp="2022-02-26T13:34:01Z" changeset="117879080" uid="242345" user="confusedbuffalo">
    <nd ref="4816680642"/>
    <nd ref="4816680673"/>
    <nd ref="4816680672"/>
    <nd ref="4816680637"/>
    <nd ref="4816680638"/>
    <nd ref="4816680641"/>
    <nd ref="4816680642"/>
    <tag k="addr:housenumber" v="15"/>
    <tag k="addr:postcode" v="LE12 5RF"/>
    <tag k="addr:street" v="Main Street"/>
    <tag k="building" v="semidetached_house"/>
    <tag k="source:addr:postcode" v="OS Opendata Codepoint"/>
  </way>
  <way id="489434872" version="2" timestamp="2022-02-26T13:34:01Z" changeset="117879080" uid="242345" user="confusedbuffalo">
    <nd ref="4816680670"/>
    <nd ref="4816680514"/>
    <nd ref="4816680513"/>
    <nd ref="4816680667"/>
    <nd ref="4816680670"/>
    <tag k="addr:housenumber" v="9"/>
    <tag k="addr:postcode" v="LE12 5RF"/>
    <tag k="addr:street" v="Main Street"/>
    <tag k="building" v="semidetached_house"/>
    <tag k="source:addr:postcode" v="OS Opendata Codepoint"/>
  </way>
  <way id="489434874" version="2" timestamp="2022-02-26T13:34:01Z" changeset="117879080" uid="242345" user="confusedbuffalo">
    <nd ref="4816680674"/>
    <nd ref="4816680639"/>
    <nd ref="4816680640"/>
    <nd ref="4816680642"/>
    <nd ref="4816680641"/>
    <nd ref="4816680625"/>
    <nd ref="4816680626"/>
    <nd ref="4816680671"/>
    <nd ref="4816680635"/>
    <nd ref="4816680636"/>
    <nd ref="4816680674"/>
    <tag k="addr:housenumber" v="17"/>
    <tag k="addr:postcode" v="LE12 5RF"/>
    <tag k="addr:street" v="Main Street"/>
    <tag k="building" v="semidetached_house"/>
    <tag k="source:addr:postcode" v="OS Opendata Codepoint"/>
  </way>
  <way id="489434875" version="2" timestamp="2022-02-26T13:34:01Z" changeset="117879080" uid="242345" user="confusedbuffalo">
    <nd ref="4816680678"/>
    <nd ref="4816680632"/>
    <nd ref="4816680631"/>
    <nd ref="4816680519"/>
    <nd ref="4816680622"/>
    <nd ref="4816680623"/>
    <nd ref="4816680624"/>
    <nd ref="4816680675"/>
    <nd ref="4816680629"/>
    <nd ref="4816680630"/>
    <nd ref="4816680678"/>
    <tag k="addr:housenumber" v="13"/>
    <tag k="addr:postcode" v="LE12 5RF"/>
    <tag k="addr:street" v="Main Street"/>
    <tag k="building" v="semidetached_house"/>
    <tag k="source:addr:postcode" v="OS Opendata Codepoint"/>
  </way>

</osm>
