<?xml version="1.0" encoding="UTF-8"?>
<osm version="0.6" generator="Overpass API 0.7.62.8 e802775f">
<note>The data included in this document is from www.openstreetmap.org. The data is made available under ODbL.</note>
<meta osm_base="2025-10-23T16:42:44Z" areas="2025-10-23T08:56:18Z"/>

  <node id="209064998" lat="53.0910542" lon="-1.0702313" version="10" timestamp="2024-01-22T15:44:59Z" changeset="146559152" uid="6714692" user="Fingrmouse"/>
  <node id="209065813" lat="53.0887188" lon="-1.0720973" version="12" timestamp="2025-04-22T17:25:15Z" changeset="165296826" uid="5229644" user="Nathan_A_RF"/>
  <node id="209066269" lat="53.0905215" lon="-1.0706815" version="3" timestamp="2025-04-22T17:25:15Z" changeset="165296826" uid="5229644" user="Nathan_A_RF"/>
  <node id="209070527" lat="53.0784693" lon="-1.0887500" version="4" timestamp="2025-04-22T16:22:19Z" changeset="165294426" uid="5229644" user="Nathan_A_RF"/>
  <node id="221565756" lat="53.0516571" lon="-1.0679604" version="9" timestamp="2025-04-22T16:22:19Z" changeset="165294426" uid="5229644" user="Nathan_A_RF"/>
  <node id="221571310" lat="53.0520529" lon="-1.0691238" version="6" timestamp="2025-04-22T20:43:56Z" changeset="165303825" uid="5229644" user="Nathan_A_RF"/>
  <node id="221631989" lat="53.0550992" lon="-1.0886820" version="3" timestamp="2008-01-12T20:43:56Z" changeset="615752" uid="20119" user="peter taffs"/>
  <node id="289035703" lat="53.0493621" lon="-1.0620280" version="10" timestamp="2025-04-22T20:43:56Z" changeset="165303825" uid="5229644" user="Nathan_A_RF"/>
  <node id="289036061" lat="53.0619173" lon="-1.0343870" version="13" timestamp="2024-03-27T17:36:27Z" changeset="149236701" uid="6714692" user="Fingrmouse"/>
  <node id="382656190" lat="53.0835961" lon="-1.0392549" version="4" timestamp="2024-01-05T16:24:54Z" changeset="145928849" uid="6714692" user="Fingrmouse"/>
  <node id="2893563785" lat="53.0890217" lon="-1.0711928" version="2" timestamp="2025-04-22T17:25:15Z" changeset="165296826" uid="5229644" user="Nathan_A_RF"/>
  <way id="19917141" version="15" timestamp="2025-04-22T17:25:15Z" changeset="165296826" uid="5229644" user="Nathan_A_RF">
    <nd ref="209065797"/>
    <nd ref="209065798"/>
    <nd ref="209065799"/>
    <nd ref="209065801"/>
    <nd ref="209065802"/>
    <nd ref="209065803"/>
    <nd ref="2666994764"/>
    <nd ref="209065805"/>
    <nd ref="12776746176"/>
    <nd ref="2893563785"/>
    <tag k="highway" v="trunk"/>
    <tag k="junction" v="circular"/>
    <tag k="lit" v="yes"/>
    <tag k="maxspeed" v="50 mph"/>
    <tag k="oneway" v="yes"/>
    <tag k="ref" v="A614"/>
    <tag k="sidewalk" v="no"/>
    <tag k="source:maxspeed" v="survey"/>
  </way>
  <way id="19917186" version="24" timestamp="2025-04-22T17:25:15Z" changeset="165296826" uid="5229644" user="Nathan_A_RF">
    <nd ref="209065801"/>
    <nd ref="2666994751"/>
    <nd ref="2666994708"/>
    <nd ref="209066333"/>
    <tag k="highway" v="trunk"/>
    <tag k="lit" v="yes"/>
    <tag k="maxspeed" v="50 mph"/>
    <tag k="maxspeed:type" v="sign"/>
    <tag k="name" v="Ollerton Road"/>
    <tag k="oneway" v="yes"/>
    <tag k="ref" v="A6097"/>
    <tag k="source:name" v="OS OpenData StreetView"/>
  </way>
  <way id="19917570" version="21" timestamp="2025-04-22T16:22:19Z" changeset="165294426" uid="5229644" user="Nathan_A_RF">
    <nd ref="209065813"/>
    <nd ref="209070505"/>
    <nd ref="768202524"/>
    <nd ref="209070508"/>
    <nd ref="2843489931"/>
    <nd ref="209070509"/>
    <nd ref="2843489901"/>
    <nd ref="768202557"/>
    <nd ref="768202553"/>
    <nd ref="209070510"/>
    <nd ref="2843486598"/>
    <nd ref="209070512"/>
    <nd ref="2843489927"/>
    <nd ref="209070514"/>
    <nd ref="768202571"/>
    <nd ref="209070515"/>
    <nd ref="768202565"/>
    <nd ref="768202586"/>
    <nd ref="209070516"/>
    <nd ref="768202579"/>
    <nd ref="209070517"/>
    <nd ref="2843486579"/>
    <nd ref="11540319979"/>
    <nd ref="768202596"/>
    <nd ref="209070519"/>
    <nd ref="768202594"/>
    <nd ref="3466186307"/>
    <nd ref="209070520"/>
    <nd ref="768202589"/>
    <nd ref="6705320453"/>
    <nd ref="768202600"/>
    <nd ref="209070521"/>
    <nd ref="209070523"/>
    <nd ref="209070524"/>
    <nd ref="209070525"/>
    <nd ref="6705320454"/>
    <nd ref="322546264"/>
    <nd ref="209070527"/>
    <nd ref="2843598324"/>
    <nd ref="209070530"/>
    <nd ref="209070532"/>
    <nd ref="209070533"/>
    <nd ref="209070535"/>
    <nd ref="209070536"/>
    <nd ref="209070538"/>
    <nd ref="209070539"/>
    <nd ref="209070540"/>
    <nd ref="209070542"/>
    <nd ref="209070543"/>
    <nd ref="221614485"/>
    <nd ref="2843454077"/>
    <nd ref="209070544"/>
    <nd ref="2843454090"/>
    <nd ref="209070546"/>
    <nd ref="7953508966"/>
    <nd ref="209070547"/>
    <nd ref="209070549"/>
    <nd ref="209070550"/>
    <nd ref="209070551"/>
    <nd ref="209070552"/>
    <nd ref="7733859074"/>
    <nd ref="3480712866"/>
    <nd ref="209070554"/>
    <nd ref="2843454072"/>
    <nd ref="209070555"/>
    <nd ref="209070556"/>
    <tag k="highway" v="trunk"/>
    <tag k="lanes" v="2"/>
    <tag k="lit" v="no"/>
    <tag k="maxspeed" v="50 mph"/>
    <tag k="name" v="Old Rufford Road"/>
    <tag k="ref" v="A614"/>
    <tag k="sidewalk" v="no"/>
    <tag k="source:maxspeed" v="survey"/>
    <tag k="source:name" v="NaPTAN"/>
    <tag k="surface" v="asphalt"/>
    <tag k="verge" v="both"/>
  </way>
  <way id="20638643" version="20" timestamp="2025-04-22T16:22:19Z" changeset="165294426" uid="5229644" user="Nathan_A_RF">
    <nd ref="221564559"/>
    <nd ref="2194068634"/>
    <nd ref="1829400118"/>
    <nd ref="2194068623"/>
    <nd ref="221650791"/>
    <nd ref="1829400091"/>
    <nd ref="2194068614"/>
    <nd ref="1829400129"/>
    <nd ref="221564562"/>
    <nd ref="1829400103"/>
    <nd ref="2194068597"/>
    <nd ref="221649084"/>
    <nd ref="2194068612"/>
    <nd ref="1829400131"/>
    <nd ref="2194068622"/>
    <nd ref="221564564"/>
    <nd ref="2194068630"/>
    <nd ref="1829399968"/>
    <nd ref="221564566"/>
    <nd ref="2194068582"/>
    <nd ref="1829400077"/>
    <nd ref="2194068633"/>
    <nd ref="221564569"/>
    <nd ref="1829399978"/>
    <nd ref="2194068626"/>
    <nd ref="221564570"/>
    <nd ref="2194068647"/>
    <nd ref="1829400183"/>
    <nd ref="2194068620"/>
    <nd ref="1829400069"/>
    <nd ref="2194068631"/>
    <nd ref="221564572"/>
    <nd ref="2194068617"/>
    <nd ref="2194068646"/>
    <nd ref="221564559"/>
    <tag k="highway" v="trunk"/>
    <tag k="junction" v="roundabout"/>
    <tag k="lit" v="yes"/>
    <tag k="maxspeed" v="50 mph"/>
    <tag k="maxspeed:type" v="sign"/>
    <tag k="source" v="Bing"/>
  </way>
  <way id="20638773" version="13" timestamp="2025-04-22T16:22:19Z" changeset="165294426" uid="5229644" user="Nathan_A_RF">
    <nd ref="2194068626"/>
    <nd ref="2843661608"/>
    <nd ref="2843661611"/>
    <nd ref="2843661604"/>
    <nd ref="221565756"/>
    <tag k="highway" v="trunk"/>
    <tag k="lit" v="yes"/>
    <tag k="maxspeed" v="50 mph"/>
    <tag k="maxspeed:type" v="sign"/>
    <tag k="name" v="Oxton Bypass"/>
    <tag k="oneway" v="yes"/>
    <tag k="ref" v="A6097"/>
  </way>
  <way id="20644307" version="10" timestamp="2025-08-18T10:56:25Z" changeset="170609750" uid="21990187" user="MarkoŠatrak">
    <nd ref="221631989"/>
    <nd ref="221634343"/>
    <nd ref="221634344"/>
    <nd ref="221634346"/>
    <nd ref="221634349"/>
    <nd ref="221634350"/>
    <nd ref="221634352"/>
    <nd ref="221634353"/>
    <nd ref="221634355"/>
    <nd ref="3584575396"/>
    <nd ref="221634360"/>
    <nd ref="3479418740"/>
    <nd ref="221634361"/>
    <nd ref="221634362"/>
    <nd ref="221634363"/>
    <nd ref="221634364"/>
    <nd ref="221634367"/>
    <nd ref="1829402158"/>
    <nd ref="221634369"/>
    <nd ref="221634371"/>
    <nd ref="7735516148"/>
    <nd ref="221634373"/>
    <nd ref="11825042038"/>
    <nd ref="11825042039"/>
    <nd ref="221634374"/>
    <nd ref="221634377"/>
    <nd ref="11825042035"/>
    <nd ref="221634379"/>
    <nd ref="11825042036"/>
    <nd ref="221634381"/>
    <nd ref="11825042037"/>
    <nd ref="221634383"/>
    <nd ref="221634385"/>
    <tag k="highway" v="unclassified"/>
    <tag k="maxspeed" v="60 mph"/>
    <tag k="maxspeed:type" v="GB:nsl_single"/>
    <tag k="maxweightrating:hgv" v="7.5"/>
    <tag k="maxweightrating:hgv:conditional" v="none @ destination"/>
    <tag k="name" v="Beanford Lane"/>
    <tag k="source:name" v="OS_OpenData_Locator"/>
  </way>
  <way id="20645746" version="10" timestamp="2025-04-22T20:43:56Z" changeset="165303825" uid="5229644" user="Nathan_A_RF">
    <nd ref="221571310"/>
    <nd ref="221634385"/>
    <nd ref="221571311"/>
    <nd ref="221571312"/>
    <nd ref="221571313"/>
    <nd ref="221571316"/>
    <nd ref="4666398102"/>
    <nd ref="3584583357"/>
    <nd ref="221571317"/>
    <nd ref="221571319"/>
    <nd ref="221571321"/>
    <nd ref="221571322"/>
    <nd ref="221571323"/>
    <nd ref="3593621196"/>
    <nd ref="221571325"/>
    <nd ref="221571326"/>
    <nd ref="221571329"/>
    <nd ref="221571331"/>
    <tag k="highway" v="secondary"/>
    <tag k="lit" v="no"/>
    <tag k="maxspeed" v="60 mph"/>
    <tag k="maxspeed:type" v="GB:nsl_single"/>
    <tag k="name" v="Nottingham Road"/>
    <tag k="ref" v="B6386"/>
    <tag k="source:name" v="survey"/>
    <tag k="surface" v="asphalt"/>
  </way>
  <way id="20645938" version="7" timestamp="2025-04-22T20:43:56Z" changeset="165303825" uid="5229644" user="Nathan_A_RF">
    <nd ref="221564559"/>
    <nd ref="2843642648"/>
    <nd ref="2843642647"/>
    <nd ref="2843642655"/>
    <nd ref="221571310"/>
    <tag k="highway" v="secondary"/>
    <tag k="lit" v="yes"/>
    <tag k="maxspeed" v="60 mph"/>
    <tag k="maxspeed:type" v="GB:nsl_single"/>
    <tag k="name" v="Nottingham Road"/>
    <tag k="oneway" v="yes"/>
    <tag k="ref" v="B6386"/>
    <tag k="source:name" v="survey"/>
  </way>
  <way id="24566291" version="8" timestamp="2025-04-22T17:25:15Z" changeset="165296826" uid="5229644" user="Nathan_A_RF">
    <nd ref="2893563785"/>
    <nd ref="2666994760"/>
    <nd ref="2666994725"/>
    <nd ref="267102127"/>
    <nd ref="11540320173"/>
    <nd ref="2893563784"/>
    <tag k="highway" v="trunk"/>
    <tag k="junction" v="circular"/>
    <tag k="maxspeed" v="50 mph"/>
    <tag k="oneway" v="yes"/>
    <tag k="ref" v="A614"/>
    <tag k="source:maxspeed" v="survey"/>
  </way>
  <way id="24566301" version="9" timestamp="2025-04-22T17:25:15Z" changeset="165296826" uid="5229644" user="Nathan_A_RF">
    <nd ref="209066333"/>
    <nd ref="2843674006"/>
    <nd ref="333282776"/>
    <nd ref="267102251"/>
    <nd ref="12776746175"/>
    <nd ref="209065805"/>
    <tag k="highway" v="trunk"/>
    <tag k="lit" v="yes"/>
    <tag k="maxspeed" v="50 mph"/>
    <tag k="maxspeed:type" v="sign"/>
    <tag k="name" v="Ollerton Road"/>
    <tag k="oneway" v="yes"/>
    <tag k="ref" v="A6097"/>
    <tag k="source:name" v="OS OpenData StreetView"/>
  </way>
  <way id="26383005" version="27" timestamp="2024-11-21T23:04:07Z" changeset="159438333" uid="6714692" user="Fingrmouse">
    <nd ref="289036061"/>
    <nd ref="7448064311"/>
    <nd ref="7448064300"/>
    <nd ref="11766657808"/>
    <nd ref="2193226580"/>
    <nd ref="2193226583"/>
    <nd ref="1210384941"/>
    <nd ref="6782229010"/>
    <nd ref="479261854"/>
    <tag k="highway" v="secondary"/>
    <tag k="maxspeed" v="50 mph"/>
    <tag k="name" v="Southwell Road"/>
    <tag k="ref" v="B6386"/>
    <tag k="sidewalk" v="no"/>
    <tag k="source:name" v="OS_OpenData_Locator"/>
  </way>
  <way id="26383019" version="26" timestamp="2025-04-22T19:53:48Z" changeset="165302274" uid="5229644" user="Nathan_A_RF">
    <nd ref="289036061"/>
    <nd ref="2193226590"/>
    <nd ref="2193226664"/>
    <nd ref="6782229038"/>
    <nd ref="2193226542"/>
    <nd ref="289036066"/>
    <nd ref="11912310404"/>
    <nd ref="289036071"/>
    <nd ref="2193226679"/>
    <nd ref="6782229039"/>
    <nd ref="2193226659"/>
    <nd ref="6871384652"/>
    <nd ref="11766657767"/>
    <nd ref="2193226573"/>
    <nd ref="2193226577"/>
    <nd ref="2193226662"/>
    <nd ref="11766657761"/>
    <nd ref="2193226585"/>
    <nd ref="2193226558"/>
    <nd ref="289036076"/>
    <nd ref="2193226587"/>
    <nd ref="2193226673"/>
    <nd ref="289036078"/>
    <nd ref="6784678548"/>
    <nd ref="2193226521"/>
    <nd ref="11766657760"/>
    <nd ref="324774126"/>
    <nd ref="289036087"/>
    <nd ref="2193226629"/>
    <nd ref="2193226644"/>
    <nd ref="6567635687"/>
    <nd ref="2193226539"/>
    <nd ref="2193226631"/>
    <nd ref="406615218"/>
    <tag k="highway" v="secondary"/>
    <tag k="maxspeed" v="50 mph"/>
    <tag k="maxspeed:type" v="sign"/>
    <tag k="name" v="Southwell Road"/>
    <tag k="ref" v="B6386"/>
    <tag k="source:name" v="OS_OpenData_Locator"/>
  </way>
  <way id="26638260" version="22" timestamp="2017-02-05T23:38:17Z" changeset="45842470" uid="2762871" user="Sam888">
    <nd ref="324766915"/>
    <nd ref="292181853"/>
    <nd ref="292181854"/>
    <nd ref="3594625222"/>
    <nd ref="3594625202"/>
    <nd ref="333280235"/>
    <nd ref="292181855"/>
    <nd ref="333280237"/>
    <nd ref="3594625217"/>
    <nd ref="292181856"/>
    <nd ref="3479418709"/>
    <nd ref="333280238"/>
    <nd ref="3594625229"/>
    <tag k="highway" v="tertiary"/>
    <tag k="lit" v="no"/>
    <tag k="maxspeed" v="60 mph"/>
    <tag k="maxspeed:type" v="GB:nsl_single"/>
    <tag k="name" v="Forest Road"/>
    <tag k="source:name" v="Sign"/>
  </way>
  <way id="26638264" version="23" timestamp="2025-08-18T10:56:25Z" changeset="170609750" uid="21990187" user="MarkoŠatrak">
    <nd ref="289035703"/>
    <nd ref="11769810592"/>
    <nd ref="3594842594"/>
    <nd ref="2193226531"/>
    <nd ref="292181915"/>
    <nd ref="3594857837"/>
    <nd ref="2356133341"/>
    <nd ref="292181916"/>
    <nd ref="2356133340"/>
    <nd ref="11825042224"/>
    <nd ref="292181895"/>
    <nd ref="11825042223"/>
    <nd ref="292181896"/>
    <nd ref="292181917"/>
    <nd ref="2356133339"/>
    <nd ref="11825042222"/>
    <nd ref="292181898"/>
    <nd ref="11825042221"/>
    <nd ref="11825042220"/>
    <nd ref="11825042219"/>
    <nd ref="1253293322"/>
    <nd ref="406846233"/>
    <tag k="highway" v="secondary"/>
    <tag k="lit" v="no"/>
    <tag k="maxspeed" v="50 mph"/>
    <tag k="maxspeed:type" v="sign"/>
    <tag k="maxweightrating:hgv" v="7.5"/>
    <tag k="maxweightrating:hgv:conditional" v="none @ destination"/>
    <tag k="name" v="Epperstone Road"/>
    <tag k="ref" v="B6386"/>
    <tag k="sidewalk" v="no"/>
    <tag k="source:name" v="OS_OpenData_Locator"/>
  </way>
  <way id="29430414" version="18" timestamp="2025-04-22T16:22:19Z" changeset="165294426" uid="5229644" user="Nathan_A_RF">
    <nd ref="209070527"/>
    <nd ref="2843489902"/>
    <nd ref="2843489932"/>
    <nd ref="324767231"/>
    <nd ref="2843486588"/>
    <nd ref="324767232"/>
    <nd ref="324354827"/>
    <nd ref="659001085"/>
    <nd ref="659001086"/>
    <nd ref="324354828"/>
    <nd ref="324354829"/>
    <nd ref="324767233"/>
    <nd ref="659001088"/>
    <nd ref="659001089"/>
    <nd ref="324354830"/>
    <nd ref="324354831"/>
    <nd ref="6533245114"/>
    <nd ref="659001090"/>
    <nd ref="324354832"/>
    <nd ref="324354833"/>
    <nd ref="324354834"/>
    <nd ref="659001001"/>
    <nd ref="324767236"/>
    <nd ref="2843642658"/>
    <nd ref="2843642656"/>
    <nd ref="2843642662"/>
    <nd ref="659000708"/>
    <tag k="highway" v="tertiary"/>
    <tag k="lit" v="no"/>
    <tag k="maxspeed" v="60 mph"/>
    <tag k="maxspeed:type" v="GB:nsl_single"/>
    <tag k="name" v="Oaks Lane"/>
    <tag k="source:name" v="OS OpenData StreetView"/>
  </way>
  <way id="29465823" version="7" timestamp="2024-03-28T20:29:20Z" changeset="149286544" uid="6714692" user="Fingrmouse">
    <nd ref="324741239"/>
    <nd ref="11769810433"/>
    <nd ref="1829399946"/>
    <nd ref="11769810432"/>
    <nd ref="1829400080"/>
    <nd ref="3594435866"/>
    <tag k="highway" v="residential"/>
    <tag k="lit" v="yes"/>
    <tag k="maxspeed" v="30 mph"/>
    <tag k="name" v="Elmcroft"/>
    <tag k="sidewalk" v="both"/>
    <tag k="source:name" v="Sign"/>
  </way>
  <way id="29466163" version="7" timestamp="2025-04-22T20:00:55Z" changeset="165302463" uid="5229644" user="Nathan_A_RF">
    <nd ref="324744184"/>
    <nd ref="1829400087"/>
    <nd ref="1829400060"/>
    <nd ref="7171144859"/>
    <nd ref="7171144831"/>
    <nd ref="324744185"/>
    <nd ref="3924357435"/>
    <tag k="highway" v="unclassified"/>
    <tag k="maxspeed" v="30 mph"/>
    <tag k="name" v="Honeyknab Lane"/>
    <tag k="source:name" v="Sign"/>
  </way>
  <way id="29466165" version="6" timestamp="2025-04-22T20:00:55Z" changeset="165302463" uid="5229644" user="Nathan_A_RF">
    <nd ref="324744183"/>
    <nd ref="11520414408"/>
    <nd ref="12776996425"/>
    <nd ref="324744184"/>
    <tag k="highway" v="unclassified"/>
    <tag k="maxspeed" v="30 mph"/>
  </way>
  <way id="37090200" version="18" timestamp="2025-04-22T16:22:19Z" changeset="165294426" uid="5229644" user="Nathan_A_RF">
    <nd ref="221565756"/>
    <nd ref="11825042148"/>
    <nd ref="221565758"/>
    <nd ref="11825042147"/>
    <nd ref="11825042144"/>
    <nd ref="11825042145"/>
    <nd ref="11825042146"/>
    <nd ref="1249226879"/>
    <nd ref="3594404156"/>
    <nd ref="3594406926"/>
    <nd ref="406846233"/>
    <tag k="highway" v="trunk"/>
    <tag k="lit" v="no"/>
    <tag k="maxspeed" v="50 mph"/>
    <tag k="maxspeed:type" v="sign"/>
    <tag k="name" v="Oxton Bypass"/>
    <tag k="name:signed" v="no"/>
    <tag k="ref" v="A6097"/>
    <tag k="source" v="GPS"/>
  </way>
  <way id="38110504" version="11" timestamp="2025-04-22T17:43:00Z" changeset="165297470" uid="5229644" user="Nathan_A_RF">
    <nd ref="382656190"/>
    <nd ref="324758022"/>
    <nd ref="11492110156"/>
    <nd ref="2904177807"/>
    <nd ref="324755460"/>
    <nd ref="11492110076"/>
    <nd ref="11492110165"/>
    <nd ref="11492110073"/>
    <nd ref="704045142"/>
    <nd ref="2904190982"/>
    <nd ref="2904190958"/>
    <nd ref="11492110074"/>
    <nd ref="2904190995"/>
    <nd ref="8359700955"/>
    <nd ref="704045144"/>
    <nd ref="2904190986"/>
    <nd ref="324755461"/>
    <nd ref="704045147"/>
    <nd ref="11492110171"/>
    <nd ref="11492110172"/>
    <nd ref="324755462"/>
    <nd ref="704045148"/>
    <nd ref="704045150"/>
    <nd ref="11492110173"/>
    <nd ref="704045154"/>
    <nd ref="11492110174"/>
    <nd ref="704045156"/>
    <nd ref="324755464"/>
    <nd ref="704045164"/>
    <nd ref="324755465"/>
    <nd ref="11492110032"/>
    <nd ref="324755466"/>
    <nd ref="324750925"/>
    <nd ref="11492110031"/>
    <nd ref="324755626"/>
    <nd ref="324755627"/>
    <nd ref="324755628"/>
    <nd ref="11492110030"/>
    <nd ref="324755629"/>
    <nd ref="11492110029"/>
    <nd ref="324755630"/>
    <nd ref="324755631"/>
    <nd ref="11492110025"/>
    <nd ref="11492110026"/>
    <nd ref="324755632"/>
    <nd ref="11492110027"/>
    <nd ref="324755633"/>
    <nd ref="11492110028"/>
    <nd ref="324755634"/>
    <nd ref="324755635"/>
    <nd ref="324755622"/>
    <tag k="highway" v="unclassified"/>
    <tag k="lit" v="no"/>
    <tag k="maxspeed" v="60 mph"/>
    <tag k="maxspeed:type" v="GB:nsl_single"/>
    <tag k="name" v="Greaves Lane"/>
    <tag k="sidewalk" v="no"/>
    <tag k="source" v="GPS trace"/>
    <tag k="source:name" v="Sign"/>
    <tag k="width" v="3"/>
  </way>
  <way id="39916486" version="6" timestamp="2024-01-05T17:09:56Z" changeset="145930545" uid="6714692" user="Fingrmouse">
    <nd ref="479256365"/>
    <nd ref="1829400062"/>
    <nd ref="1829400225"/>
    <nd ref="6785104810"/>
    <nd ref="1829400128"/>
    <nd ref="1829400086"/>
    <nd ref="11492230308"/>
    <nd ref="11492230307"/>
    <nd ref="11492230306"/>
    <nd ref="11492230324"/>
    <nd ref="479256400"/>
    <nd ref="11492230325"/>
    <nd ref="11492230326"/>
    <nd ref="11492230335"/>
    <nd ref="11492230327"/>
    <nd ref="11492230334"/>
    <nd ref="479256411"/>
    <nd ref="11492230354"/>
    <nd ref="11492230336"/>
    <nd ref="479256186"/>
    <tag k="highway" v="residential"/>
    <tag k="maxspeed" v="30 mph"/>
    <tag k="motor_vehicle" v="destination"/>
    <tag k="name" v="Water Lane"/>
    <tag k="source:access" v="No access from west"/>
    <tag k="source:name" v="Sign"/>
  </way>
  <way id="39916488" version="7" timestamp="2024-01-05T17:09:56Z" changeset="145930545" uid="6714692" user="Fingrmouse">
    <nd ref="479256162"/>
    <nd ref="3594435860"/>
    <nd ref="3594435862"/>
    <nd ref="479256454"/>
    <nd ref="11492230292"/>
    <nd ref="479256365"/>
    <tag k="highway" v="unclassified"/>
    <tag k="maxspeed" v="30 mph"/>
    <tag k="motor_vehicle" v="destination"/>
    <tag k="name" v="New Road"/>
    <tag k="source:access" v="No access from west"/>
    <tag k="source:name" v="Sign"/>
  </way>
  <way id="39916490" version="4" timestamp="2025-05-23T13:27:57Z" changeset="166656765" uid="22257229" user="MihaelIvanjek">
    <nd ref="479256249"/>
    <nd ref="11492230296"/>
    <nd ref="479256497"/>
    <nd ref="11492230295"/>
    <nd ref="11492230294"/>
    <nd ref="479256510"/>
    <nd ref="2193226618"/>
    <nd ref="11492230293"/>
    <nd ref="2193226653"/>
    <nd ref="3584598456"/>
    <nd ref="479256365"/>
    <tag k="highway" v="unclassified"/>
    <tag k="motor_vehicle" v="destination"/>
    <tag k="name" v="Sandy Lane"/>
  </way>
  <way id="39916896" version="4" timestamp="2016-01-02T21:19:07Z" changeset="36327328" uid="161875" user="Willumm">
    <nd ref="3594435845"/>
    <nd ref="3594435876"/>
    <nd ref="3594435877"/>
    <nd ref="3594435874"/>
    <nd ref="3594435873"/>
    <nd ref="3594435872"/>
    <nd ref="3594435871"/>
    <nd ref="3594435870"/>
    <nd ref="3594435869"/>
    <nd ref="3594435868"/>
    <nd ref="3594435867"/>
    <nd ref="479261731"/>
    <nd ref="479261732"/>
    <nd ref="479261734"/>
    <nd ref="479261740"/>
    <tag k="highway" v="residential"/>
    <tag k="maxspeed" v="30 mph"/>
    <tag k="name" v="Manor Close"/>
    <tag k="oneway" v="no"/>
    <tag k="source" v="View from east;Bing"/>
    <tag k="source:name" v="Sign"/>
  </way>
  <way id="39916897" version="3" timestamp="2016-01-02T21:19:08Z" changeset="36327328" uid="161875" user="Willumm">
    <nd ref="479261787"/>
    <nd ref="324744185"/>
    <tag k="highway" v="residential"/>
    <tag k="maxspeed" v="30 mph"/>
    <tag k="name" v="The Orchards"/>
    <tag k="oneway" v="no"/>
    <tag k="source:name" v="OS_OpenData_Locator"/>
  </way>
  <way id="41522709" version="15" timestamp="2025-08-18T10:56:30Z" changeset="170609750" uid="21990187" user="MarkoŠatrak">
    <nd ref="289035685"/>
    <nd ref="11769810501"/>
    <nd ref="11769810500"/>
    <nd ref="1829400020"/>
    <nd ref="1829400109"/>
    <nd ref="3594418828"/>
    <nd ref="289035643"/>
    <nd ref="11825042160"/>
    <nd ref="1829400114"/>
    <nd ref="11824961462"/>
    <nd ref="7980144474"/>
    <nd ref="289035632"/>
    <tag k="highway" v="secondary"/>
    <tag k="lit" v="no"/>
    <tag k="maxspeed" v="50 mph"/>
    <tag k="maxspeed:type" v="sign"/>
    <tag k="maxweightrating:hgv" v="7.5"/>
    <tag k="maxweightrating:hgv:conditional" v="none @ destination"/>
    <tag k="name" v="Nottingham Road"/>
    <tag k="ref" v="B6386"/>
    <tag k="sidewalk" v="left"/>
    <tag k="source:name" v="Sign"/>
  </way>
  <way id="43327659" version="6" timestamp="2025-04-22T20:43:56Z" changeset="165303825" uid="5229644" user="Nathan_A_RF">
    <nd ref="221571310"/>
    <nd ref="2843642644"/>
    <nd ref="2843642661"/>
    <nd ref="2194068614"/>
    <tag k="highway" v="secondary"/>
    <tag k="lit" v="yes"/>
    <tag k="maxspeed" v="60 mph"/>
    <tag k="maxspeed:type" v="GB:nsl_single"/>
    <tag k="name" v="Nottingham Road"/>
    <tag k="oneway" v="yes"/>
    <tag k="ref" v="B6386"/>
    <tag k="source:name" v="survey"/>
  </way>
  <way id="43327665" version="14" timestamp="2020-10-14T05:50:52Z" changeset="92450213" uid="10192134" user="mathpras">
    <nd ref="324743613"/>
    <nd ref="3594491019"/>
    <nd ref="8005510105"/>
    <nd ref="324744183"/>
    <tag k="highway" v="tertiary"/>
    <tag k="lit" v="yes"/>
    <tag k="maxspeed" v="30 mph"/>
    <tag k="name" v="Blind Lane"/>
    <tag k="oneway" v="no"/>
    <tag k="source:name" v="Sign"/>
  </way>
  <way id="43327667" version="13" timestamp="2025-08-18T10:56:30Z" changeset="170609750" uid="21990187" user="MarkoŠatrak">
    <nd ref="289035703"/>
    <nd ref="11769810591"/>
    <nd ref="1249226851"/>
    <tag k="highway" v="secondary"/>
    <tag k="maxspeed" v="50 mph"/>
    <tag k="maxspeed:type" v="sign"/>
    <tag k="maxweightrating:hgv" v="7.5"/>
    <tag k="maxweightrating:hgv:conditional" v="none @ destination"/>
    <tag k="name" v="Epperstone Road"/>
    <tag k="ref" v="B6386"/>
    <tag k="sidewalk" v="no"/>
  </way>
  <way id="51544055" version="9" timestamp="2025-04-22T16:22:19Z" changeset="165294426" uid="5229644" user="Nathan_A_RF">
    <nd ref="659000888"/>
    <nd ref="2843642649"/>
    <nd ref="659000968"/>
    <nd ref="2843642651"/>
    <nd ref="267102044"/>
    <nd ref="3594595847"/>
    <nd ref="267102043"/>
    <nd ref="267102042"/>
    <nd ref="2843642659"/>
    <nd ref="267102041"/>
    <nd ref="267102039"/>
    <nd ref="324766894"/>
    <nd ref="324766915"/>
    <nd ref="324354835"/>
    <tag k="dual_carriageway" v="yes"/>
    <tag k="highway" v="trunk"/>
    <tag k="lanes" v="2"/>
    <tag k="lit" v="no"/>
    <tag k="maxspeed" v="50 mph"/>
    <tag k="maxspeed:type" v="sign"/>
    <tag k="name" v="Oxton Bypass"/>
    <tag k="oneway" v="yes"/>
    <tag k="ref" v="A6097"/>
    <tag k="source" v="GPS"/>
    <tag k="source:name" v="OS Locator"/>
  </way>
  <way id="51544057" version="13" timestamp="2025-04-22T16:22:19Z" changeset="165294426" uid="5229644" user="Nathan_A_RF">
    <nd ref="1829400129"/>
    <nd ref="659000325"/>
    <nd ref="659000326"/>
    <nd ref="2843642654"/>
    <tag k="dual_carriageway" v="yes"/>
    <tag k="highway" v="trunk"/>
    <tag k="lit" v="yes"/>
    <tag k="maxspeed" v="50 mph"/>
    <tag k="maxspeed:type" v="sign"/>
    <tag k="name" v="Oxton Bypass"/>
    <tag k="oneway" v="yes"/>
    <tag k="ref" v="A6097"/>
    <tag k="source" v="GPS"/>
    <tag k="source:name" v="OS Locator"/>
  </way>
  <way id="104984111" version="13" timestamp="2025-08-18T10:56:30Z" changeset="170609750" uid="21990187" user="MarkoŠatrak">
    <nd ref="289035632"/>
    <nd ref="4507913248"/>
    <nd ref="4507913247"/>
    <nd ref="4507913249"/>
    <nd ref="1829399978"/>
    <tag k="highway" v="secondary"/>
    <tag k="lit" v="yes"/>
    <tag k="maxspeed" v="50 mph"/>
    <tag k="maxspeed:type" v="sign"/>
    <tag k="maxweightrating:hgv" v="7.5"/>
    <tag k="maxweightrating:hgv:conditional" v="none @ destination"/>
    <tag k="name" v="Nottingham Road"/>
    <tag k="oneway" v="yes"/>
    <tag k="ref" v="B6386"/>
    <tag k="source:name" v="NaPTAN"/>
  </way>
  <way id="171981820" version="3" timestamp="2024-03-28T20:29:20Z" changeset="149286544" uid="6714692" user="Fingrmouse">
    <nd ref="11769810465"/>
    <nd ref="11769810470"/>
    <nd ref="1829400099"/>
    <nd ref="1829399985"/>
    <tag k="highway" v="residential"/>
    <tag k="maxspeed" v="30 mph"/>
    <tag k="oneway" v="no"/>
    <tag k="source" v="Bing"/>
  </way>
  <way id="171981822" version="3" timestamp="2024-03-28T20:29:20Z" changeset="149286544" uid="6714692" user="Fingrmouse">
    <nd ref="1829400150"/>
    <nd ref="1829400134"/>
    <nd ref="1829400124"/>
    <nd ref="1829400140"/>
    <nd ref="1829400010"/>
    <nd ref="11769810431"/>
    <nd ref="1829400080"/>
    <tag k="highway" v="residential"/>
    <tag k="maxspeed" v="30 mph"/>
    <tag k="source" v="Bing"/>
  </way>
  <way id="171981831" version="5" timestamp="2024-03-28T18:06:38Z" changeset="149281878" uid="6714692" user="Fingrmouse">
    <nd ref="11769487253"/>
    <nd ref="11769487252"/>
    <nd ref="11769487256"/>
    <nd ref="1829400005"/>
    <nd ref="1829400223"/>
    <nd ref="1829400067"/>
    <nd ref="1829400053"/>
    <nd ref="1829400100"/>
    <nd ref="11769487253"/>
    <tag k="addr:city" v="Oxton"/>
    <tag k="addr:street" v="Main Street"/>
    <tag k="amenity" v="community_centre"/>
    <tag k="building" v="community"/>
    <tag k="community_centre" v="village_hall"/>
    <tag k="name" v="Oxton Village Hall"/>
    <tag k="source" v="Bing"/>
  </way>
  <way id="197114158" version="7" timestamp="2025-04-22T16:22:19Z" changeset="165294426" uid="5229644" user="Nathan_A_RF">
    <nd ref="2074101160"/>
    <nd ref="659000550"/>
    <nd ref="659000548"/>
    <nd ref="659000667"/>
    <nd ref="659000668"/>
    <nd ref="659000898"/>
    <nd ref="659000901"/>
    <nd ref="659000902"/>
    <nd ref="2843674017"/>
    <nd ref="659000708"/>
    <tag k="dual_carriageway" v="yes"/>
    <tag k="highway" v="trunk"/>
    <tag k="lit" v="no"/>
    <tag k="maxspeed" v="50 mph"/>
    <tag k="maxspeed:type" v="sign"/>
    <tag k="name" v="Oxton Bypass"/>
    <tag k="oneway" v="yes"/>
    <tag k="ref" v="A6097"/>
    <tag k="sidewalk" v="no"/>
    <tag k="source" v="GPS"/>
    <tag k="source:name" v="OS_OpenData_Locator"/>
  </way>
  <way id="197114159" version="6" timestamp="2025-04-22T16:22:19Z" changeset="165294426" uid="5229644" user="Nathan_A_RF">
    <nd ref="2074101161"/>
    <nd ref="324740878"/>
    <nd ref="267102033"/>
    <nd ref="267102032"/>
    <nd ref="267102030"/>
    <nd ref="267101894"/>
    <nd ref="2843642653"/>
    <nd ref="2843642646"/>
    <tag k="dual_carriageway" v="yes"/>
    <tag k="highway" v="trunk"/>
    <tag k="lit" v="no"/>
    <tag k="maxspeed" v="50 mph"/>
    <tag k="maxspeed:type" v="sign"/>
    <tag k="name" v="Oxton Bypass"/>
    <tag k="oneway" v="yes"/>
    <tag k="ref" v="A6097"/>
    <tag k="source" v="GPS"/>
    <tag k="source:name" v="OS Locator"/>
  </way>
  <way id="197114161" version="9" timestamp="2025-04-22T16:22:19Z" changeset="165294426" uid="5229644" user="Nathan_A_RF">
    <nd ref="659000708"/>
    <nd ref="659000903"/>
    <nd ref="659000905"/>
    <nd ref="659000906"/>
    <nd ref="659000907"/>
    <nd ref="3594595848"/>
    <nd ref="659000908"/>
    <nd ref="2843674011"/>
    <nd ref="12776638572"/>
    <nd ref="659000888"/>
    <tag k="dual_carriageway" v="yes"/>
    <tag k="highway" v="trunk"/>
    <tag k="lit" v="no"/>
    <tag k="maxspeed" v="50 mph"/>
    <tag k="maxspeed:type" v="sign"/>
    <tag k="name" v="Oxton Bypass"/>
    <tag k="oneway" v="yes"/>
    <tag k="ref" v="A6097"/>
    <tag k="source" v="GPS"/>
    <tag k="source:name" v="OS Locator"/>
  </way>
  <way id="197114162" version="8" timestamp="2025-04-22T16:22:19Z" changeset="165294426" uid="5229644" user="Nathan_A_RF">
    <nd ref="324354835"/>
    <nd ref="2843642664"/>
    <nd ref="2843642657"/>
    <nd ref="267102038"/>
    <nd ref="267102036"/>
    <nd ref="6885656801"/>
    <nd ref="659000672"/>
    <nd ref="267102035"/>
    <nd ref="324737588"/>
    <nd ref="2074101161"/>
    <tag k="dual_carriageway" v="yes"/>
    <tag k="highway" v="trunk"/>
    <tag k="lanes" v="2"/>
    <tag k="lit" v="no"/>
    <tag k="maxspeed" v="50 mph"/>
    <tag k="maxspeed:type" v="sign"/>
    <tag k="name" v="Oxton Bypass"/>
    <tag k="oneway" v="yes"/>
    <tag k="ref" v="A6097"/>
    <tag k="sidewalk" v="no"/>
    <tag k="source" v="GPS"/>
    <tag k="source:name" v="OS_OpenData_Locator"/>
  </way>
  <way id="261081785" version="3" timestamp="2025-04-22T17:25:15Z" changeset="165296826" uid="5229644" user="Nathan_A_RF">
    <nd ref="209066269"/>
    <nd ref="2666994732"/>
    <nd ref="2666994715"/>
    <nd ref="209065797"/>
    <tag k="highway" v="trunk"/>
    <tag k="junction" v="circular"/>
    <tag k="maxspeed" v="50 mph"/>
    <tag k="oneway" v="yes"/>
    <tag k="ref" v="A614"/>
    <tag k="source:maxspeed" v="survey"/>
  </way>
  <way id="268775882" version="1" timestamp="2014-03-24T23:11:43Z" changeset="21296036" uid="2000820" user="charli2592">
    <nd ref="502409199"/>
    <nd ref="2740958853"/>
    <nd ref="2740958854"/>
    <tag k="highway" v="residential"/>
  </way>
  <way id="268775883" version="1" timestamp="2014-03-24T23:11:43Z" changeset="21296036" uid="2000820" user="charli2592">
    <nd ref="2740958853"/>
    <nd ref="2740958855"/>
    <tag k="highway" v="residential"/>
  </way>
  <way id="280211768" version="2" timestamp="2025-04-22T16:22:19Z" changeset="165294426" uid="5229644" user="Nathan_A_RF">
    <nd ref="659000708"/>
    <nd ref="324766915"/>
    <tag k="highway" v="tertiary"/>
    <tag k="maxspeed" v="50 mph"/>
    <tag k="maxspeed:type" v="sign"/>
    <tag k="source:name" v="OS OpenData StreetView"/>
  </way>
  <way id="280215538" version="4" timestamp="2025-04-22T16:22:19Z" changeset="165294426" uid="5229644" user="Nathan_A_RF">
    <nd ref="221565756"/>
    <nd ref="2614622110"/>
    <nd ref="2843661610"/>
    <nd ref="221564572"/>
    <tag k="highway" v="trunk"/>
    <tag k="lit" v="yes"/>
    <tag k="maxspeed" v="50 mph"/>
    <tag k="maxspeed:type" v="sign"/>
    <tag k="name" v="Oxton Bypass"/>
    <tag k="oneway" v="yes"/>
    <tag k="ref" v="A6097"/>
  </way>
  <way id="317838962" version="11" timestamp="2025-08-18T10:56:34Z" changeset="170609750" uid="21990187" user="MarkoŠatrak">
    <nd ref="1829399968"/>
    <nd ref="289035564"/>
    <nd ref="2843661607"/>
    <nd ref="2843661606"/>
    <nd ref="289035632"/>
    <tag k="highway" v="secondary"/>
    <tag k="lit" v="yes"/>
    <tag k="maxspeed" v="50 mph"/>
    <tag k="maxspeed:type" v="sign"/>
    <tag k="maxweightrating:hgv" v="7.5"/>
    <tag k="maxweightrating:hgv:conditional" v="none @ destination"/>
    <tag k="name" v="Nottingham Road"/>
    <tag k="oneway" v="yes"/>
    <tag k="ref" v="B6386"/>
    <tag k="source:name" v="NaPTAN"/>
  </way>
  <way id="353629130" version="10" timestamp="2025-08-18T10:56:34Z" changeset="170609750" uid="21990187" user="MarkoŠatrak">
    <nd ref="1249226851"/>
    <nd ref="1249226853"/>
    <nd ref="289035699"/>
    <nd ref="3594404162"/>
    <nd ref="289035695"/>
    <nd ref="6784649167"/>
    <nd ref="6784649171"/>
    <nd ref="11769810503"/>
    <nd ref="1829400196"/>
    <nd ref="1829400026"/>
    <nd ref="11769810502"/>
    <nd ref="1829399988"/>
    <nd ref="289035685"/>
    <tag k="highway" v="secondary"/>
    <tag k="maxspeed" v="50 mph"/>
    <tag k="maxspeed:type" v="sign"/>
    <tag k="maxweightrating:hgv" v="7.5"/>
    <tag k="maxweightrating:hgv:conditional" v="none @ destination"/>
    <tag k="name" v="Epperstone Road"/>
    <tag k="ref" v="B6386"/>
    <tag k="sidewalk" v="left"/>
    <tag k="source:name" v="OS_OpenData_Locator"/>
  </way>
  <way id="353629136" version="8" timestamp="2025-04-22T20:43:56Z" changeset="165303825" uid="5229644" user="Nathan_A_RF">
    <nd ref="289035809"/>
    <nd ref="11769810574"/>
    <nd ref="11769810573"/>
    <nd ref="11769810572"/>
    <nd ref="2193226548"/>
    <nd ref="11769810571"/>
    <nd ref="289035737"/>
    <nd ref="11769810570"/>
    <nd ref="289035726"/>
    <nd ref="11769810569"/>
    <nd ref="11769810568"/>
    <nd ref="11769810567"/>
    <nd ref="1249226861"/>
    <nd ref="289035722"/>
    <nd ref="11769810593"/>
    <nd ref="289035718"/>
    <nd ref="289035703"/>
    <tag k="highway" v="secondary"/>
    <tag k="lit" v="no"/>
    <tag k="maxspeed" v="50 mph"/>
    <tag k="maxspeed:type" v="sign"/>
    <tag k="name" v="Southwell Road"/>
    <tag k="ref" v="B6386"/>
    <tag k="sidewalk" v="no"/>
    <tag k="source:name" v="OS_OpenData_Locator"/>
  </way>
  <way id="353633136" version="3" timestamp="2016-01-02T21:19:07Z" changeset="36327328" uid="161875" user="Willumm">
    <nd ref="3594435878"/>
    <nd ref="3594435879"/>
    <tag k="highway" v="residential"/>
    <tag k="maxspeed" v="30 mph"/>
    <tag k="name" v="Church View"/>
    <tag k="oneway" v="no"/>
    <tag k="source" v="View from east;Bing"/>
    <tag k="source:name" v="Sign"/>
  </way>
  <way id="353635895" version="6" timestamp="2025-05-23T13:27:57Z" changeset="166656765" uid="22257229" user="MihaelIvanjek">
    <nd ref="1829400161"/>
    <nd ref="1829400155"/>
    <nd ref="292181863"/>
    <nd ref="11520414411"/>
    <nd ref="292181864"/>
    <nd ref="3594435878"/>
    <nd ref="1829400184"/>
    <nd ref="1829399990"/>
    <nd ref="1829400182"/>
    <nd ref="292181865"/>
    <nd ref="479261740"/>
    <tag k="highway" v="tertiary"/>
    <tag k="lit" v="yes"/>
    <tag k="maxspeed" v="30 mph"/>
    <tag k="motor_vehicle" v="destination"/>
    <tag k="name" v="Main Street"/>
    <tag k="oneway" v="no"/>
    <tag k="sidewalk" v="both"/>
    <tag k="source:name" v="NaPTAN"/>
  </way>
  <way id="353635896" version="7" timestamp="2024-03-27T17:36:27Z" changeset="149236701" uid="6714692" user="Fingrmouse">
    <nd ref="11766658340"/>
    <nd ref="3594483915"/>
    <nd ref="3594483916"/>
    <nd ref="3594483920"/>
    <nd ref="3594483917"/>
    <nd ref="3594483918"/>
    <nd ref="3594483921"/>
    <nd ref="3594483926"/>
    <nd ref="3594483923"/>
    <nd ref="3594483925"/>
    <nd ref="3594483924"/>
    <nd ref="527859306"/>
    <nd ref="11766658340"/>
    <tag k="amenity" v="place_of_worship"/>
    <tag k="building" v="church"/>
    <tag k="denomination" v="anglican"/>
    <tag k="name" v="St Peter &amp; St Paul"/>
    <tag k="ref:dove" v="15165"/>
    <tag k="religion" v="christian"/>
    <tag k="wikidata" v="Q15979480"/>
    <tag k="wikipedia" v="en:St Peter &amp; St Paul's Church, Oxton"/>
  </way>
  <way id="353635904" version="8" timestamp="2025-05-23T13:27:57Z" changeset="166656765" uid="22257229" user="MihaelIvanjek">
    <nd ref="479261740"/>
    <nd ref="479256162"/>
    <nd ref="3594435863"/>
    <nd ref="324741366"/>
    <nd ref="1829399975"/>
    <nd ref="11769810450"/>
    <nd ref="292181866"/>
    <nd ref="11769810457"/>
    <nd ref="11769810456"/>
    <nd ref="11769810462"/>
    <nd ref="11769810461"/>
    <nd ref="1829399985"/>
    <nd ref="11769810473"/>
    <nd ref="292181867"/>
    <nd ref="11769810485"/>
    <nd ref="1829400154"/>
    <nd ref="1829399925"/>
    <nd ref="11769810479"/>
    <nd ref="8401876434"/>
    <nd ref="7706916376"/>
    <nd ref="1829400123"/>
    <nd ref="292181868"/>
    <nd ref="11769810498"/>
    <nd ref="11769810531"/>
    <nd ref="479256186"/>
    <nd ref="11769810499"/>
    <nd ref="289035685"/>
    <tag k="highway" v="tertiary"/>
    <tag k="lit" v="yes"/>
    <tag k="maxspeed" v="30 mph"/>
    <tag k="motor_vehicle" v="destination"/>
    <tag k="name" v="Main Street"/>
    <tag k="oneway" v="no"/>
    <tag k="sidewalk" v="right"/>
    <tag k="source:name" v="Sign"/>
  </way>
  <way id="353637207" version="6" timestamp="2025-05-23T13:27:57Z" changeset="166656765" uid="22257229" user="MihaelIvanjek">
    <nd ref="324743613"/>
    <nd ref="292181861"/>
    <nd ref="3594491020"/>
    <nd ref="7883295326"/>
    <nd ref="3594483583"/>
    <nd ref="1829400161"/>
    <tag k="highway" v="tertiary"/>
    <tag k="lit" v="yes"/>
    <tag k="maxspeed" v="30 mph"/>
    <tag k="motor_vehicle" v="destination"/>
    <tag k="name" v="Main Street"/>
    <tag k="oneway" v="no"/>
    <tag k="sidewalk" v="left"/>
    <tag k="source:name" v="Sign"/>
  </way>
  <way id="353638174" version="3" timestamp="2024-03-28T18:06:38Z" changeset="149281878" uid="6714692" user="Fingrmouse">
    <nd ref="324760139"/>
    <nd ref="11769486859"/>
    <nd ref="11769486862"/>
    <nd ref="1829400051"/>
    <nd ref="11769486803"/>
    <nd ref="11769486866"/>
    <nd ref="11769486809"/>
    <nd ref="292181860"/>
    <nd ref="324743613"/>
    <tag k="highway" v="tertiary"/>
    <tag k="lit" v="yes"/>
    <tag k="name" v="Forest Road"/>
    <tag k="sidewalk" v="both"/>
    <tag k="source:name" v="Sign"/>
  </way>
  <way id="353638176" version="4" timestamp="2024-03-28T18:06:38Z" changeset="149281878" uid="6714692" user="Fingrmouse">
    <nd ref="292181858"/>
    <nd ref="1829399996"/>
    <nd ref="1829400057"/>
    <nd ref="292181859"/>
    <nd ref="7180786692"/>
    <nd ref="11769486856"/>
    <nd ref="11769486854"/>
    <nd ref="324760139"/>
    <tag k="highway" v="tertiary"/>
    <tag k="lit" v="yes"/>
    <tag k="maxspeed" v="30 mph"/>
    <tag k="name" v="Forest Road"/>
    <tag k="sidewalk" v="left"/>
    <tag k="source:name" v="Sign"/>
  </way>
  <way id="353650071" version="4" timestamp="2024-03-28T18:06:38Z" changeset="149281878" uid="6714692" user="Fingrmouse">
    <nd ref="3594625229"/>
    <nd ref="3594625193"/>
    <nd ref="11769486725"/>
    <nd ref="3594624970"/>
    <nd ref="11769486721"/>
    <nd ref="333280240"/>
    <tag k="highway" v="tertiary"/>
    <tag k="lit" v="yes"/>
    <tag k="maxspeed" v="60 mph"/>
    <tag k="maxspeed:type" v="GB:nsl_single"/>
    <tag k="name" v="Forest Road"/>
    <tag k="sidewalk" v="left"/>
    <tag k="source:name" v="Sign"/>
  </way>
  <way id="353652294" version="2" timestamp="2016-05-10T18:54:24Z" changeset="39225094" uid="2762871" user="Sam888">
    <nd ref="333280240"/>
    <nd ref="292181857"/>
    <nd ref="3594624963"/>
    <tag k="highway" v="tertiary"/>
    <tag k="lit" v="no"/>
    <tag k="maxspeed" v="60 mph"/>
    <tag k="maxspeed:type" v="GB:nsl_single"/>
    <tag k="name" v="Forest Road"/>
    <tag k="sidewalk" v="left"/>
    <tag k="source:name" v="Sign"/>
  </way>
  <way id="353652296" version="2" timestamp="2024-03-28T20:29:20Z" changeset="149286544" uid="6714692" user="Fingrmouse">
    <nd ref="3594435866"/>
    <nd ref="1829400078"/>
    <nd ref="1829399977"/>
    <nd ref="11769810447"/>
    <nd ref="1829400063"/>
    <nd ref="324741366"/>
    <tag k="highway" v="residential"/>
    <tag k="lit" v="yes"/>
    <tag k="maxspeed" v="30 mph"/>
    <tag k="name" v="Elmcroft"/>
    <tag k="sidewalk" v="right"/>
    <tag k="source:name" v="Sign"/>
  </way>
  <way id="353652300" version="3" timestamp="2020-02-03T09:03:16Z" changeset="80466212" uid="10455643" user="kotamadh">
    <nd ref="3594624963"/>
    <nd ref="7180786687"/>
    <nd ref="292181858"/>
    <tag k="highway" v="tertiary"/>
    <tag k="lit" v="yes"/>
    <tag k="maxspeed" v="60 mph"/>
    <tag k="maxspeed:type" v="GB:nsl_single"/>
    <tag k="name" v="Forest Road"/>
    <tag k="sidewalk" v="left"/>
    <tag k="source:name" v="Sign"/>
  </way>
  <way id="353663713" version="3" timestamp="2025-06-07T16:16:09Z" changeset="167317554" uid="8857" user="philipcullen">
    <nd ref="3594799374"/>
    <nd ref="3594799375"/>
    <nd ref="3594799377"/>
    <nd ref="3594799379"/>
    <nd ref="3594799374"/>
    <tag k="building" v="yes"/>
    <tag k="name" v="Land Rover Servicing"/>
    <tag k="ref:GB:uprn" v="10094826727"/>
    <tag k="shop" v="car_repair"/>
    <tag k="source" v="Bing"/>
  </way>
  <way id="388693137" version="10" timestamp="2025-04-22T17:25:15Z" changeset="165296826" uid="5229644" user="Nathan_A_RF">
    <nd ref="209066333"/>
    <nd ref="12776746174"/>
    <nd ref="2843674019"/>
    <nd ref="2843674012"/>
    <nd ref="11540320140"/>
    <nd ref="2843674008"/>
    <nd ref="267102051"/>
    <nd ref="2843674013"/>
    <nd ref="2843674015"/>
    <nd ref="2843674016"/>
    <nd ref="8087752828"/>
    <nd ref="2843674018"/>
    <nd ref="267102050"/>
    <nd ref="11540320144"/>
    <nd ref="2843674002"/>
    <nd ref="2843674007"/>
    <nd ref="267102049"/>
    <nd ref="11540320149"/>
    <nd ref="2843674003"/>
    <nd ref="6544016485"/>
    <nd ref="9804199042"/>
    <nd ref="2843674004"/>
    <nd ref="2843674005"/>
    <nd ref="324755622"/>
    <nd ref="267102048"/>
    <nd ref="11825042114"/>
    <nd ref="2843674010"/>
    <nd ref="7138954166"/>
    <nd ref="267102047"/>
    <nd ref="267102046"/>
    <nd ref="12776638573"/>
    <nd ref="12776638574"/>
    <nd ref="659000888"/>
    <tag k="highway" v="trunk"/>
    <tag k="lit" v="no"/>
    <tag k="maxspeed" v="50 mph"/>
    <tag k="maxspeed:type" v="sign"/>
    <tag k="name" v="Ollerton Road"/>
    <tag k="ref" v="A6097"/>
    <tag k="source:name" v="OS OpenData StreetView"/>
  </way>
  <way id="389274938" version="5" timestamp="2025-04-22T19:56:44Z" changeset="165302343" uid="5229644" user="Nathan_A_RF">
    <nd ref="502409199"/>
    <nd ref="333279850"/>
    <nd ref="5570911949"/>
    <tag k="highway" v="tertiary"/>
    <tag k="maxspeed" v="60 mph"/>
    <tag k="maxspeed:type" v="GB:nsl_single"/>
    <tag k="name" v="Blind Lane"/>
    <tag k="sidewalk" v="no"/>
    <tag k="source:name" v="Sign"/>
    <tag k="verge" v="right"/>
  </way>
  <way id="389274939" version="6" timestamp="2025-04-22T20:00:55Z" changeset="165302463" uid="5229644" user="Nathan_A_RF">
    <nd ref="3924357435"/>
    <nd ref="7171139296"/>
    <nd ref="1829400002"/>
    <nd ref="7171139318"/>
    <nd ref="324744186"/>
    <nd ref="11769486984"/>
    <nd ref="324744187"/>
    <nd ref="11769486985"/>
    <nd ref="324744188"/>
    <nd ref="11769486986"/>
    <nd ref="324744189"/>
    <nd ref="324744190"/>
    <nd ref="11769486988"/>
    <nd ref="11769486987"/>
    <nd ref="324744191"/>
    <nd ref="324744192"/>
    <nd ref="11769486989"/>
    <nd ref="11769486990"/>
    <nd ref="324744193"/>
    <nd ref="11769486991"/>
    <nd ref="324744194"/>
    <nd ref="324744195"/>
    <nd ref="11769486992"/>
    <nd ref="324744196"/>
    <nd ref="11769486993"/>
    <nd ref="324744197"/>
    <nd ref="11769486994"/>
    <nd ref="324744198"/>
    <nd ref="11769486995"/>
    <nd ref="324744199"/>
    <nd ref="11769486996"/>
    <nd ref="324744200"/>
    <nd ref="324744202"/>
    <nd ref="11769486997"/>
    <nd ref="324744204"/>
    <nd ref="11769486998"/>
    <nd ref="324744205"/>
    <nd ref="324744206"/>
    <nd ref="324744208"/>
    <nd ref="11492230022"/>
    <nd ref="324744209"/>
    <nd ref="324744210"/>
    <nd ref="11769486999"/>
    <nd ref="324744211"/>
    <nd ref="11769487000"/>
    <nd ref="324744212"/>
    <nd ref="324744213"/>
    <nd ref="324744215"/>
    <nd ref="11769487001"/>
    <nd ref="11769487002"/>
    <nd ref="324744217"/>
    <nd ref="324744218"/>
    <nd ref="324744220"/>
    <nd ref="11769487003"/>
    <nd ref="324744222"/>
    <nd ref="324744224"/>
    <nd ref="324744226"/>
    <nd ref="11769487004"/>
    <nd ref="324744228"/>
    <nd ref="324744230"/>
    <nd ref="324744232"/>
    <nd ref="324744233"/>
    <nd ref="324744234"/>
    <nd ref="324744236"/>
    <nd ref="324744237"/>
    <nd ref="324744238"/>
    <nd ref="324744239"/>
    <nd ref="324744240"/>
    <nd ref="324744241"/>
    <nd ref="11492230021"/>
    <nd ref="324744242"/>
    <nd ref="324744243"/>
    <nd ref="324744397"/>
    <nd ref="324744399"/>
    <tag k="highway" v="unclassified"/>
    <tag k="maxspeed" v="60 mph"/>
    <tag k="maxspeed:type" v="GB:nsl_single"/>
    <tag k="name" v="Honeyknab Lane"/>
    <tag k="source:name" v="Sign"/>
  </way>
  <way id="472427338" version="2" timestamp="2025-04-22T16:22:19Z" changeset="165294426" uid="5229644" user="Nathan_A_RF">
    <nd ref="2843642646"/>
    <nd ref="1829400132"/>
    <nd ref="2194068630"/>
    <tag k="dual_carriageway" v="yes"/>
    <tag k="highway" v="trunk"/>
    <tag k="lit" v="yes"/>
    <tag k="maxspeed" v="50 mph"/>
    <tag k="maxspeed:type" v="sign"/>
    <tag k="name" v="Oxton Bypass"/>
    <tag k="oneway" v="yes"/>
    <tag k="ref" v="A6097"/>
    <tag k="source" v="GPS"/>
    <tag k="source:name" v="OS Locator"/>
  </way>
  <way id="472427340" version="3" timestamp="2025-04-22T16:22:19Z" changeset="165294426" uid="5229644" user="Nathan_A_RF">
    <nd ref="2843642654"/>
    <nd ref="2843642645"/>
    <nd ref="659000330"/>
    <nd ref="659000332"/>
    <nd ref="659000472"/>
    <nd ref="2074101160"/>
    <tag k="dual_carriageway" v="yes"/>
    <tag k="highway" v="trunk"/>
    <tag k="lit" v="no"/>
    <tag k="maxspeed" v="50 mph"/>
    <tag k="maxspeed:type" v="sign"/>
    <tag k="name" v="Oxton Bypass"/>
    <tag k="oneway" v="yes"/>
    <tag k="ref" v="A6097"/>
    <tag k="source" v="GPS"/>
    <tag k="source:name" v="OS Locator"/>
  </way>
  <way id="582519793" version="5" timestamp="2025-04-22T19:56:44Z" changeset="165302343" uid="5229644" user="Nathan_A_RF">
    <nd ref="333279859"/>
    <nd ref="11766658283"/>
    <nd ref="333279861"/>
    <nd ref="11766658282"/>
    <nd ref="5570912957"/>
    <tag k="highway" v="tertiary"/>
    <tag k="maxspeed" v="60 mph"/>
    <tag k="maxspeed:type" v="GB:nsl_single"/>
    <tag k="name" v="Blind Lane"/>
    <tag k="sidewalk" v="no"/>
    <tag k="source:name" v="Sign"/>
    <tag k="verge" v="both"/>
  </way>
  <way id="582519796" version="3" timestamp="2025-04-22T19:56:44Z" changeset="165302343" uid="5229644" user="Nathan_A_RF">
    <nd ref="5570911949"/>
    <nd ref="5570911950"/>
    <nd ref="333279851"/>
    <tag k="highway" v="tertiary"/>
    <tag k="maxspeed" v="60 mph"/>
    <tag k="maxspeed:type" v="GB:nsl_single"/>
    <tag k="name" v="Blind Lane"/>
    <tag k="sidewalk" v="no"/>
    <tag k="source:name" v="Sign"/>
    <tag k="verge" v="none"/>
  </way>
  <way id="582519798" version="1" timestamp="2018-04-22T12:13:10Z" changeset="58308126" uid="61942" user="SomeoneElse">
    <nd ref="324744183"/>
    <nd ref="333279848"/>
    <nd ref="3594515637"/>
    <nd ref="479261704"/>
    <tag k="highway" v="tertiary"/>
    <tag k="lit" v="yes"/>
    <tag k="maxspeed" v="30 mph"/>
    <tag k="name" v="Blind Lane"/>
    <tag k="sidewalk" v="left"/>
    <tag k="source:name" v="Sign"/>
  </way>
  <way id="582519800" version="1" timestamp="2018-04-22T12:13:11Z" changeset="58308126" uid="61942" user="SomeoneElse">
    <nd ref="479261704"/>
    <nd ref="502409199"/>
    <tag k="highway" v="tertiary"/>
    <tag k="lit" v="yes"/>
    <tag k="maxspeed" v="60 mph"/>
    <tag k="maxspeed:type" v="GB:nsl_single"/>
    <tag k="name" v="Blind Lane"/>
    <tag k="sidewalk" v="left"/>
    <tag k="source:name" v="Sign"/>
  </way>
  <way id="582519801" version="4" timestamp="2025-04-22T19:56:44Z" changeset="165302343" uid="5229644" user="Nathan_A_RF">
    <nd ref="333279851"/>
    <nd ref="333279853"/>
    <nd ref="2193226525"/>
    <nd ref="333279854"/>
    <nd ref="11492230289"/>
    <nd ref="333279857"/>
    <nd ref="333279859"/>
    <tag k="highway" v="tertiary"/>
    <tag k="maxspeed" v="60 mph"/>
    <tag k="maxspeed:type" v="GB:nsl_single"/>
    <tag k="name" v="Blind Lane"/>
    <tag k="sidewalk" v="no"/>
    <tag k="source:name" v="Sign"/>
    <tag k="verge" v="right"/>
  </way>
  <way id="582520042" version="3" timestamp="2025-04-22T19:56:44Z" changeset="165302343" uid="5229644" user="Nathan_A_RF">
    <nd ref="5570912957"/>
    <nd ref="333279864"/>
    <tag k="highway" v="tertiary"/>
    <tag k="maxspeed" v="50 mph"/>
    <tag k="maxspeed:type" v="sign"/>
    <tag k="name" v="Blind Lane"/>
    <tag k="sidewalk" v="no"/>
    <tag k="source:name" v="Sign"/>
    <tag k="verge" v="both"/>
  </way>
  <way id="582520043" version="7" timestamp="2024-11-21T23:04:07Z" changeset="159438333" uid="6714692" user="Fingrmouse">
    <nd ref="333279864"/>
    <nd ref="289035883"/>
    <nd ref="2193226536"/>
    <nd ref="289035876"/>
    <nd ref="2193226593"/>
    <nd ref="9076559138"/>
    <nd ref="2193226569"/>
    <nd ref="6522486532"/>
    <nd ref="289035871"/>
    <nd ref="479256249"/>
    <nd ref="289035842"/>
    <nd ref="2193226545"/>
    <nd ref="11769810578"/>
    <nd ref="11766658267"/>
    <nd ref="2193226671"/>
    <nd ref="11769810577"/>
    <nd ref="2193226555"/>
    <nd ref="289035830"/>
    <nd ref="289035827"/>
    <nd ref="11769810576"/>
    <nd ref="11766658266"/>
    <nd ref="11769810575"/>
    <nd ref="289035809"/>
    <tag k="highway" v="secondary"/>
    <tag k="maxspeed" v="50 mph"/>
    <tag k="name" v="Southwell Road"/>
    <tag k="ref" v="B6386"/>
    <tag k="source:maxspeed" v="Sign at north"/>
    <tag k="source:name" v="OS_OpenData_Locator"/>
  </way>
  <way id="582522451" version="4" timestamp="2025-04-22T19:56:44Z" changeset="165302343" uid="5229644" user="Nathan_A_RF">
    <nd ref="5570930976"/>
    <nd ref="289035886"/>
    <nd ref="333279864"/>
    <tag k="highway" v="secondary"/>
    <tag k="lit" v="no"/>
    <tag k="maxspeed" v="50 mph"/>
    <tag k="maxspeed:type" v="sign"/>
    <tag k="name" v="Southwell Road"/>
    <tag k="ref" v="B6386"/>
    <tag k="sidewalk" v="no"/>
    <tag k="source:name" v="OS_OpenData_Locator"/>
    <tag k="verge" v="right"/>
  </way>
  <way id="582523885" version="4" timestamp="2024-11-21T23:04:07Z" changeset="159438333" uid="6714692" user="Fingrmouse">
    <nd ref="289035906"/>
    <nd ref="2193226641"/>
    <nd ref="289035904"/>
    <nd ref="2193226575"/>
    <nd ref="2193226634"/>
    <nd ref="289035901"/>
    <nd ref="2193226627"/>
    <nd ref="2193226675"/>
    <nd ref="2193226647"/>
    <nd ref="2193226625"/>
    <nd ref="289035899"/>
    <nd ref="289035898"/>
    <nd ref="5570930976"/>
    <tag k="highway" v="secondary"/>
    <tag k="maxspeed" v="50 mph"/>
    <tag k="name" v="Southwell Road"/>
    <tag k="ref" v="B6386"/>
    <tag k="sidewalk" v="no"/>
    <tag k="source:name" v="OS_OpenData_Locator"/>
    <tag k="verge" v="both"/>
  </way>
  <way id="582524021" version="9" timestamp="2024-11-21T23:04:07Z" changeset="159438333" uid="6714692" user="Fingrmouse">
    <nd ref="479261854"/>
    <nd ref="7062553432"/>
    <nd ref="11766657809"/>
    <nd ref="289036024"/>
    <nd ref="2193226571"/>
    <nd ref="324774149"/>
    <nd ref="324774150"/>
    <nd ref="7290398091"/>
    <nd ref="2193226677"/>
    <nd ref="5570946779"/>
    <tag k="highway" v="secondary"/>
    <tag k="lit" v="no"/>
    <tag k="maxspeed" v="50 mph"/>
    <tag k="name" v="Southwell Road"/>
    <tag k="ref" v="B6386"/>
    <tag k="sidewalk" v="no"/>
    <tag k="source:name" v="OS_OpenData_Locator"/>
    <tag k="verge" v="both"/>
  </way>
  <way id="582524049" version="7" timestamp="2024-11-21T23:04:07Z" changeset="159438333" uid="6714692" user="Fingrmouse">
    <nd ref="5570937754"/>
    <nd ref="11766658171"/>
    <nd ref="7483496175"/>
    <nd ref="2193226596"/>
    <nd ref="2193226636"/>
    <nd ref="11766658172"/>
    <nd ref="289035906"/>
    <tag k="highway" v="secondary"/>
    <tag k="lit" v="no"/>
    <tag k="maxspeed" v="50 mph"/>
    <tag k="name" v="Southwell Road"/>
    <tag k="ref" v="B6386"/>
    <tag k="sidewalk" v="no"/>
    <tag k="source:name" v="OS_OpenData_Locator"/>
    <tag k="verge" v="right"/>
  </way>
  <way id="582525070" version="6" timestamp="2024-11-21T23:04:07Z" changeset="159438333" uid="6714692" user="Fingrmouse">
    <nd ref="5570946815"/>
    <nd ref="2193226551"/>
    <nd ref="289035918"/>
    <nd ref="7896241229"/>
    <nd ref="2193226621"/>
    <nd ref="2193226565"/>
    <nd ref="1210384946"/>
    <nd ref="289035915"/>
    <nd ref="2193226656"/>
    <nd ref="2193226638"/>
    <nd ref="1210384939"/>
    <nd ref="289035909"/>
    <nd ref="11766658170"/>
    <nd ref="324775057"/>
    <nd ref="5570937754"/>
    <tag k="highway" v="secondary"/>
    <tag k="lit" v="no"/>
    <tag k="maxspeed" v="50 mph"/>
    <tag k="name" v="Southwell Road"/>
    <tag k="ref" v="B6386"/>
    <tag k="sidewalk" v="no"/>
    <tag k="source:name" v="OS_OpenData_Locator"/>
    <tag k="verge" v="left"/>
  </way>
  <way id="582525071" version="4" timestamp="2024-11-21T23:04:07Z" changeset="159438333" uid="6714692" user="Fingrmouse">
    <nd ref="5570946779"/>
    <nd ref="289035942"/>
    <nd ref="5570937721"/>
    <nd ref="5570946815"/>
    <tag k="highway" v="secondary"/>
    <tag k="lit" v="no"/>
    <tag k="maxspeed" v="50 mph"/>
    <tag k="name" v="Southwell Road"/>
    <tag k="ref" v="B6386"/>
    <tag k="sidewalk" v="no"/>
    <tag k="source:name" v="OS_OpenData_Locator"/>
    <tag k="verge" v="none"/>
  </way>
  <way id="713304767" version="1" timestamp="2019-08-13T09:06:23Z" changeset="73297340" uid="6714692" user="Fingrmouse">
    <nd ref="6705320639"/>
    <nd ref="6705320640"/>
    <nd ref="6705320641"/>
    <nd ref="6705320642"/>
    <nd ref="6705320643"/>
    <nd ref="6705320644"/>
    <nd ref="6705320645"/>
    <nd ref="6705320626"/>
    <nd ref="6705320646"/>
    <nd ref="6705320647"/>
    <nd ref="6705320648"/>
    <nd ref="6705320649"/>
    <nd ref="6705320650"/>
    <nd ref="6705320651"/>
    <nd ref="6705320652"/>
    <nd ref="6705320653"/>
    <nd ref="6705320654"/>
    <nd ref="6705320655"/>
    <nd ref="6705320656"/>
    <nd ref="6705320657"/>
    <nd ref="6705320658"/>
    <nd ref="6705320659"/>
    <nd ref="6705320660"/>
    <nd ref="6705320661"/>
    <nd ref="6705320662"/>
    <nd ref="6705320663"/>
    <nd ref="6705320664"/>
    <nd ref="6705320665"/>
    <nd ref="6705320639"/>
    <tag k="building" v="yes"/>
    <tag k="name" v="Oakmere Park Golf Club"/>
  </way>
  <way id="792060990" version="3" timestamp="2024-11-17T15:41:59Z" changeset="159248296" uid="95856" user="⇄ john paul jones &amp; gringo">
    <nd ref="7404809943"/>
    <nd ref="7404809929"/>
    <nd ref="7404809930"/>
    <nd ref="7404809944"/>
    <nd ref="7404809945"/>
    <nd ref="7404809931"/>
    <nd ref="7404809951"/>
    <nd ref="7404809953"/>
    <nd ref="7404809933"/>
    <nd ref="7404809949"/>
    <nd ref="7404809948"/>
    <nd ref="7404809932"/>
    <nd ref="7404809946"/>
    <nd ref="7404809947"/>
    <nd ref="7404809950"/>
    <nd ref="7404809935"/>
    <nd ref="7404809939"/>
    <nd ref="7404809937"/>
    <nd ref="7404809941"/>
    <nd ref="7404809938"/>
    <nd ref="7404809940"/>
    <nd ref="7404809936"/>
    <nd ref="7404809934"/>
    <nd ref="7404809952"/>
    <nd ref="7404809928"/>
    <nd ref="7404809942"/>
    <nd ref="7404809943"/>
    <tag k="addr:city" v="Southwell"/>
    <tag k="addr:county" v="Nottinghamshire"/>
    <tag k="addr:hamlet" v="Oxton Grange"/>
    <tag k="addr:housename" v="Grange Farm"/>
    <tag k="addr:postcode" v="NG25 0RG"/>
    <tag k="addr:street" v="Ollerton Road"/>
    <tag k="addr:suburb" v="Calverton"/>
    <tag k="building" v="farm"/>
    <tag k="name" v="Grange Farm"/>
    <tag k="place" v="isolated_dwelling"/>
    <tag k="source" v="OS_OpenData_StreetView"/>
  </way>
  <way id="904698432" version="1" timestamp="2021-02-07T12:18:30Z" changeset="98847823" uid="11519576" user="coolmule0">
    <nd ref="8401854798"/>
    <nd ref="8401876516"/>
    <nd ref="8401876513"/>
    <nd ref="8401854797"/>
    <nd ref="8401854798"/>
    <tag k="addr:housenumber" v="1"/>
    <tag k="addr:street" v="New Road"/>
    <tag k="building" v="house"/>
  </way>
  <way id="904698433" version="1" timestamp="2021-02-07T12:18:30Z" changeset="98847823" uid="11519576" user="coolmule0">
    <nd ref="8401854800"/>
    <nd ref="8401854798"/>
    <nd ref="8401854797"/>
    <nd ref="8401854799"/>
    <nd ref="8401854800"/>
    <tag k="addr:housenumber" v="2"/>
    <tag k="addr:street" v="New Road"/>
    <tag k="building" v="house"/>
  </way>
  <way id="904698434" version="1" timestamp="2021-02-07T12:18:30Z" changeset="98847823" uid="11519576" user="coolmule0">
    <nd ref="8401854802"/>
    <nd ref="8401854800"/>
    <nd ref="8401854799"/>
    <nd ref="8401854801"/>
    <nd ref="8401854802"/>
    <tag k="addr:housenumber" v="3"/>
    <tag k="addr:street" v="New Road"/>
    <tag k="building" v="house"/>
  </way>
  <way id="904698435" version="1" timestamp="2021-02-07T12:18:30Z" changeset="98847823" uid="11519576" user="coolmule0">
    <nd ref="8401854804"/>
    <nd ref="8401854802"/>
    <nd ref="8401854801"/>
    <nd ref="8401854803"/>
    <nd ref="8401854804"/>
    <tag k="addr:housenumber" v="4"/>
    <tag k="addr:street" v="New Road"/>
    <tag k="building" v="house"/>
  </way>
  <way id="904698436" version="1" timestamp="2021-02-07T12:18:30Z" changeset="98847823" uid="11519576" user="coolmule0">
    <nd ref="8401854806"/>
    <nd ref="8401854804"/>
    <nd ref="8401854803"/>
    <nd ref="8401854805"/>
    <nd ref="8401854806"/>
    <tag k="addr:housenumber" v="5"/>
    <tag k="addr:street" v="New Road"/>
    <tag k="building" v="house"/>
  </way>
  <way id="904698437" version="1" timestamp="2021-02-07T12:18:30Z" changeset="98847823" uid="11519576" user="coolmule0">
    <nd ref="8401854808"/>
    <nd ref="8401854806"/>
    <nd ref="8401854805"/>
    <nd ref="8401854807"/>
    <nd ref="8401854808"/>
    <tag k="addr:housenumber" v="6"/>
    <tag k="addr:street" v="New Road"/>
    <tag k="building" v="house"/>
  </way>
  <way id="904698438" version="1" timestamp="2021-02-07T12:18:30Z" changeset="98847823" uid="11519576" user="coolmule0">
    <nd ref="8401854810"/>
    <nd ref="8401854808"/>
    <nd ref="8401854807"/>
    <nd ref="8401854809"/>
    <nd ref="8401854810"/>
    <tag k="addr:housenumber" v="7"/>
    <tag k="addr:street" v="New Road"/>
    <tag k="building" v="house"/>
  </way>
  <way id="904698439" version="1" timestamp="2021-02-07T12:18:30Z" changeset="98847823" uid="11519576" user="coolmule0">
    <nd ref="8401854812"/>
    <nd ref="8401854810"/>
    <nd ref="8401854809"/>
    <nd ref="8401854811"/>
    <nd ref="8401854812"/>
    <tag k="addr:housenumber" v="8"/>
    <tag k="addr:street" v="New Road"/>
    <tag k="building" v="house"/>
  </way>
  <way id="904698462" version="1" timestamp="2021-02-07T12:18:30Z" changeset="98847823" uid="11519576" user="coolmule0">
    <nd ref="8401876515"/>
    <nd ref="8401854812"/>
    <nd ref="8401854811"/>
    <nd ref="8401876514"/>
    <nd ref="8401876515"/>
    <tag k="addr:housenumber" v="9"/>
    <tag k="addr:street" v="New Road"/>
    <tag k="building" v="house"/>
  </way>
  <way id="1283920294" version="1" timestamp="2024-05-17T11:14:28Z" changeset="151448807" uid="6714692" user="Fingrmouse">
    <nd ref="11912310496"/>
    <nd ref="11912310497"/>
    <nd ref="11912310498"/>
    <nd ref="11912310499"/>
    <nd ref="11912310500"/>
    <nd ref="11912310501"/>
    <nd ref="11912310502"/>
    <nd ref="11912310503"/>
    <nd ref="11912310496"/>
    <tag k="building" v="yes"/>
    <tag k="name" v="UPVCSaver.com"/>
  </way>
  <way id="1283920295" version="1" timestamp="2024-05-17T11:14:28Z" changeset="151448807" uid="6714692" user="Fingrmouse">
    <nd ref="11912310504"/>
    <nd ref="11912310505"/>
    <nd ref="11912310506"/>
    <nd ref="11912310507"/>
    <nd ref="11912310587"/>
    <nd ref="11912310570"/>
    <nd ref="11912310508"/>
    <nd ref="11912310509"/>
    <nd ref="11912310510"/>
    <nd ref="11912310511"/>
    <nd ref="11912310512"/>
    <nd ref="11912310513"/>
    <nd ref="11912310514"/>
    <nd ref="11912310515"/>
    <nd ref="11912310504"/>
    <tag k="building" v="yes"/>
    <tag k="name" v="Oxton Hill Cottages"/>
    <tag k="tourism" v="chalet"/>
  </way>
  <way id="1380056365" version="1" timestamp="2025-04-22T17:25:15Z" changeset="165296826" uid="5229644" user="Nathan_A_RF">
    <nd ref="2893563785"/>
    <nd ref="2666994746"/>
    <nd ref="209065808"/>
    <nd ref="209065810"/>
    <nd ref="2666994710"/>
    <nd ref="209065811"/>
    <nd ref="209065813"/>
    <tag k="highway" v="trunk"/>
    <tag k="lit" v="yes"/>
    <tag k="maxspeed" v="50 mph"/>
    <tag k="name" v="Old Rufford Road"/>
    <tag k="oneway" v="yes"/>
    <tag k="ref" v="A614"/>
    <tag k="sidewalk" v="no"/>
    <tag k="source:maxspeed" v="survey"/>
    <tag k="source:name" v="NaPTAN"/>
  </way>
  <way id="1380056367" version="1" timestamp="2025-04-22T17:25:15Z" changeset="165296826" uid="5229644" user="Nathan_A_RF">
    <nd ref="209064998"/>
    <nd ref="209065796"/>
    <nd ref="209065797"/>
    <tag k="highway" v="trunk"/>
    <tag k="lit" v="yes"/>
    <tag k="maxspeed" v="50 mph"/>
    <tag k="name" v="Old Rufford Road"/>
    <tag k="oneway" v="yes"/>
    <tag k="ref" v="A614"/>
    <tag k="sidewalk" v="no"/>
    <tag k="source:maxspeed" v="survey"/>
    <tag k="source:name" v="OS OpenData StreetView"/>
  </way>

</osm>
