<?xml version="1.0" encoding="UTF-8"?>
<osm version="0.6" generator="Overpass API 0.7.62.8 e802775f">
<note>The data included in this document is from www.openstreetmap.org. The data is made available under ODbL.</note>
<meta osm_base="2025-10-23T17:01:53Z" areas="2025-10-23T14:54:58Z"/>

  <node id="330554581" lat="52.9070081" lon="-1.0551900" version="16" timestamp="2015-07-19T23:36:56Z" changeset="32743643" uid="207845" user="will_p"/>
  <node id="390310341" lat="52.8824870" lon="-1.0472499" version="3" timestamp="2014-07-17T19:49:41Z" changeset="24208361" uid="1431482" user="JonOrchard"/>
  <node id="1222316475" lat="52.9034274" lon="-1.0711883" version="3" timestamp="2015-07-19T18:16:14Z" changeset="32738158" uid="207845" user="will_p"/>
  <node id="3658274922" lat="52.8995445" lon="-1.0604145" version="1" timestamp="2015-07-19T21:56:29Z" changeset="32742804" uid="207845" user="will_p"/>
  <node id="4303028921" lat="52.9012988" lon="-1.0773881" version="1" timestamp="2016-07-14T16:25:58Z" changeset="40743249" uid="84681" user="SK53"/>
  <way id="30023446" version="12" timestamp="2020-06-17T14:47:51Z" changeset="86779963" uid="10126647" user="ansukess">
    <nd ref="1222316475"/>
    <nd ref="330554690"/>
    <nd ref="3657995453"/>
    <nd ref="7629544721"/>
    <nd ref="330554692"/>
    <nd ref="3657995456"/>
    <nd ref="3657995457"/>
    <nd ref="3657995458"/>
    <nd ref="330554694"/>
    <nd ref="3657995459"/>
    <nd ref="3657995460"/>
    <nd ref="3657995461"/>
    <nd ref="7131186464"/>
    <nd ref="1312905263"/>
    <tag k="highway" v="tertiary"/>
    <tag k="maxspeed" v="30 mph"/>
    <tag k="name" v="Cotgrave Lane"/>
    <tag k="source:name" v="survey"/>
  </way>
  <way id="30023457" version="9" timestamp="2015-12-29T17:29:35Z" changeset="36246398" uid="84681" user="SK53">
    <nd ref="330554714"/>
    <nd ref="330555045"/>
    <nd ref="330555046"/>
    <nd ref="479524333"/>
    <nd ref="3658274967"/>
    <nd ref="558862422"/>
    <nd ref="330555047"/>
    <nd ref="3658274966"/>
    <nd ref="558862417"/>
    <nd ref="3658274965"/>
    <nd ref="330555048"/>
    <nd ref="330551819"/>
    <nd ref="558862416"/>
    <nd ref="1576213443"/>
    <nd ref="330555050"/>
    <nd ref="3658274964"/>
    <nd ref="558862396"/>
    <nd ref="558862406"/>
    <nd ref="1137759031"/>
    <nd ref="558862412"/>
    <nd ref="558862414"/>
    <nd ref="3658274939"/>
    <nd ref="558862408"/>
    <tag k="highway" v="unclassified"/>
    <tag k="name" v="Gilliver Lane"/>
    <tag k="source" v="survey"/>
    <tag k="source:name" v="survey"/>
  </way>
  <way id="34061630" version="13" timestamp="2014-07-17T19:49:41Z" changeset="24208361" uid="1431482" user="JonOrchard">
    <nd ref="390310341"/>
    <nd ref="2968013362"/>
    <nd ref="390310342"/>
    <nd ref="2968013361"/>
    <nd ref="390310343"/>
    <nd ref="2968013358"/>
    <nd ref="2968013360"/>
    <nd ref="2968013359"/>
    <nd ref="1163512802"/>
    <nd ref="390310344"/>
    <nd ref="2968013357"/>
    <nd ref="390310345"/>
    <nd ref="2968013356"/>
    <nd ref="2370619842"/>
    <nd ref="390310346"/>
    <nd ref="390310347"/>
    <nd ref="390310348"/>
    <nd ref="1948065294"/>
    <nd ref="390310349"/>
    <nd ref="2968013355"/>
    <nd ref="2968013354"/>
    <nd ref="1778178272"/>
    <nd ref="1813958501"/>
    <tag k="highway" v="unclassified"/>
    <tag k="name" v="Laming Gap Lane"/>
    <tag k="source" v="NPE"/>
    <tag k="source:name" v="OS OpenData StreetView"/>
  </way>
  <way id="39177385" version="11" timestamp="2019-04-07T09:55:01Z" changeset="68971833" uid="705850" user="Cebderby">
    <nd ref="330554581"/>
    <nd ref="3658339033"/>
    <nd ref="3658274968"/>
    <nd ref="330554582"/>
    <nd ref="360341450"/>
    <nd ref="360341481"/>
    <tag k="highway" v="tertiary"/>
    <tag k="maxspeed" v="50 mph"/>
    <tag k="name" v="Plumtree Road"/>
    <tag k="source" v="gps"/>
    <tag k="source:name" v="survey"/>
  </way>
  <way id="98342982" version="5" timestamp="2020-12-28T11:50:52Z" changeset="96533236" uid="10126647" user="ansukess">
    <nd ref="558862408"/>
    <nd ref="3658274938"/>
    <nd ref="3658274937"/>
    <nd ref="558862407"/>
    <nd ref="330555052"/>
    <nd ref="330555053"/>
    <nd ref="330555054"/>
    <nd ref="8266685802"/>
    <tag k="highway" v="unclassified"/>
    <tag k="maxspeed" v="30 mph"/>
    <tag k="name" v="Church Gate"/>
    <tag k="source" v="survey"/>
  </way>
  <way id="116459795" version="4" timestamp="2020-12-22T06:22:10Z" changeset="96234316" uid="10455643" user="kotamadh">
    <nd ref="1222316475"/>
    <nd ref="8250798257"/>
    <nd ref="4303028922"/>
    <nd ref="330554576"/>
    <nd ref="1312905272"/>
    <tag k="highway" v="tertiary"/>
    <tag k="maxspeed" v="40 mph"/>
    <tag k="name" v="Cotgrave Road"/>
    <tag k="source" v="gps"/>
  </way>
  <way id="116459800" version="7" timestamp="2019-04-07T09:55:01Z" changeset="68971833" uid="705850" user="Cebderby">
    <nd ref="1312905272"/>
    <nd ref="3657995454"/>
    <nd ref="330554579"/>
    <nd ref="1312905284"/>
    <nd ref="1778178514"/>
    <nd ref="330554714"/>
    <nd ref="330554581"/>
    <tag k="highway" v="tertiary"/>
    <tag k="maxspeed" v="50 mph"/>
    <tag k="name" v="Cotgrave Road"/>
    <tag k="source" v="gps"/>
  </way>
  <way id="229982172" version="2" timestamp="2013-07-15T10:37:06Z" changeset="16960176" uid="1431482" user="JonOrchard">
    <nd ref="2385175849"/>
    <nd ref="2385175850"/>
    <nd ref="2385175851"/>
    <nd ref="2385175852"/>
    <nd ref="2385175853"/>
    <nd ref="2385175854"/>
    <nd ref="2385175849"/>
    <tag k="building" v="yes"/>
    <tag k="name" v="Manor Farm"/>
  </way>
  <way id="229982229" version="3" timestamp="2025-06-07T11:27:15Z" changeset="167304988" uid="8857" user="philipcullen">
    <nd ref="2385176642"/>
    <nd ref="2385176643"/>
    <nd ref="2385176644"/>
    <nd ref="2385176645"/>
    <nd ref="2385176646"/>
    <nd ref="2385176647"/>
    <nd ref="2385176648"/>
    <nd ref="2385176649"/>
    <nd ref="2385176650"/>
    <nd ref="2385176651"/>
    <nd ref="2385176652"/>
    <nd ref="2385176653"/>
    <nd ref="2385176654"/>
    <nd ref="2385176655"/>
    <nd ref="2385176656"/>
    <nd ref="2385176657"/>
    <nd ref="2385176658"/>
    <nd ref="2385176659"/>
    <nd ref="2385176660"/>
    <nd ref="2385176661"/>
    <nd ref="2385176642"/>
    <tag k="building" v="yes"/>
    <tag k="name" v="Manor Farm"/>
    <tag k="ref:GB:uprn" v="3040030506"/>
  </way>
  <way id="229982283" version="3" timestamp="2025-06-07T11:27:15Z" changeset="167304988" uid="8857" user="philipcullen">
    <nd ref="2385178119"/>
    <nd ref="2385178123"/>
    <nd ref="2385178125"/>
    <nd ref="2385178127"/>
    <nd ref="2385178129"/>
    <nd ref="2385178131"/>
    <nd ref="2385178119"/>
    <tag k="building" v="yes"/>
    <tag k="name" v="Vale View"/>
    <tag k="ref:GB:uprn" v="3040030496"/>
  </way>
  <way id="229982693" version="3" timestamp="2025-06-07T11:27:15Z" changeset="167304988" uid="8857" user="philipcullen">
    <nd ref="2385189327"/>
    <nd ref="2385189328"/>
    <nd ref="2385189329"/>
    <nd ref="2385189330"/>
    <nd ref="2385189331"/>
    <nd ref="2385189332"/>
    <nd ref="2385189333"/>
    <nd ref="2385189334"/>
    <nd ref="2385189327"/>
    <tag k="building" v="yes"/>
    <tag k="name" v="Blackberry Farm"/>
    <tag k="ref:GB:uprn" v="3040072956"/>
  </way>
  <way id="229983182" version="4" timestamp="2025-03-08T15:05:16Z" changeset="163367888" uid="95856" user="⇄ john paul jones &amp; gringo">
    <nd ref="2385190162"/>
    <nd ref="2385190165"/>
    <nd ref="2385190167"/>
    <nd ref="2385190169"/>
    <nd ref="2385190171"/>
    <nd ref="2385190173"/>
    <nd ref="2385190175"/>
    <nd ref="2385190176"/>
    <nd ref="2385190178"/>
    <nd ref="2385190180"/>
    <nd ref="2385190162"/>
    <tag k="addr:city" v="Nottingham"/>
    <tag k="addr:country" v="GB"/>
    <tag k="addr:housename" v="Blackberry Farm"/>
    <tag k="addr:postcode" v="NG12 5PB"/>
    <tag k="addr:street" v="Wolds Lane"/>
    <tag k="addr:suburb" v="Clipson on the Wolds"/>
    <tag k="building" v="yes"/>
    <tag k="fhrs:id" v="266211"/>
    <tag k="name" v="Harker's Farm Shop"/>
    <tag k="shop" v="farm"/>
    <tag k="source:addr" v="FHRS Open Data"/>
  </way>
  <way id="361337829" version="3" timestamp="2024-01-19T19:32:09Z" changeset="146455440" uid="242345" user="confusedbuffalo">
    <nd ref="3658274922"/>
    <nd ref="330555055"/>
    <nd ref="1137759000"/>
    <nd ref="330555056"/>
    <nd ref="3658274919"/>
    <nd ref="330555058"/>
    <nd ref="1199242005"/>
    <nd ref="3658274917"/>
    <nd ref="1137758998"/>
    <nd ref="3658274918"/>
    <nd ref="330555060"/>
    <nd ref="330555061"/>
    <nd ref="3658274916"/>
    <nd ref="3658274915"/>
    <nd ref="1137759030"/>
    <nd ref="3658274914"/>
    <nd ref="330555062"/>
    <nd ref="3658274913"/>
    <nd ref="1137759033"/>
    <nd ref="3658274912"/>
    <nd ref="330555063"/>
    <nd ref="3658274907"/>
    <nd ref="1137758986"/>
    <nd ref="3658274904"/>
    <nd ref="330555064"/>
    <nd ref="1137758996"/>
    <nd ref="330555065"/>
    <nd ref="1137758982"/>
    <nd ref="1137759040"/>
    <nd ref="1137758979"/>
    <nd ref="2676922967"/>
    <nd ref="330555066"/>
    <tag k="highway" v="unclassified"/>
    <tag k="lanes" v="1"/>
    <tag k="maxspeed" v="60 mph"/>
    <tag k="maxspeed:type" v="GB:nsl_single"/>
    <tag k="name" v="Church Gate"/>
    <tag k="source" v="survey"/>
  </way>
  <way id="431052171" version="4" timestamp="2021-01-11T02:52:27Z" changeset="97271326" uid="322039" user="MacLondon">
    <nd ref="4303028921"/>
    <nd ref="360341348"/>
    <nd ref="360341349"/>
    <nd ref="6892675786"/>
    <nd ref="3937608485"/>
    <nd ref="360341350"/>
    <nd ref="360341351"/>
    <nd ref="3937608486"/>
    <nd ref="360341352"/>
    <nd ref="360341343"/>
    <nd ref="8250798245"/>
    <nd ref="1222316475"/>
    <tag k="hgv" v="destination"/>
    <tag k="highway" v="tertiary"/>
    <tag k="maxspeed" v="40 mph"/>
    <tag k="maxweight" v="7.5"/>
    <tag k="name" v="Cotgrave Road"/>
    <tag k="source" v="gps"/>
    <tag k="source:maxspeed" v="survey"/>
  </way>
  <way id="889200788" version="1" timestamp="2020-12-28T11:50:52Z" changeset="96533236" uid="10126647" user="ansukess">
    <nd ref="8266685802"/>
    <nd ref="558862395"/>
    <nd ref="3658274931"/>
    <nd ref="558862394"/>
    <nd ref="3658274927"/>
    <nd ref="558862393"/>
    <nd ref="3658274922"/>
    <tag k="highway" v="unclassified"/>
    <tag k="maxspeed" v="30 mph"/>
    <tag k="name" v="Church Gate"/>
    <tag k="source" v="survey"/>
  </way>
  <way id="898405407" version="2" timestamp="2021-01-26T13:02:00Z" changeset="98166081" uid="1431482" user="JonOrchard">
    <nd ref="8348691880"/>
    <nd ref="8348691881"/>
    <nd ref="8348691882"/>
    <nd ref="8348691883"/>
    <nd ref="8348691884"/>
    <nd ref="8348691885"/>
    <nd ref="8348691886"/>
    <nd ref="8348691887"/>
    <nd ref="8348691888"/>
    <nd ref="8348691889"/>
    <nd ref="8348691890"/>
    <nd ref="8348691891"/>
    <nd ref="8348691892"/>
    <nd ref="8348691893"/>
    <nd ref="8348691880"/>
    <tag k="building" v="yes"/>
    <tag k="name" v="Hill View Farm"/>
  </way>

</osm>
