<?xml version="1.0" encoding="UTF-8"?>
<osm version="0.6" generator="Overpass API 0.7.62.8 e802775f">
<note>The data included in this document is from www.openstreetmap.org. The data is made available under ODbL.</note>
<meta osm_base="2025-10-23T16:29:36Z" areas="2025-10-23T12:46:58Z"/>

  <node id="32617515" lat="53.3716075" lon="-0.9670374" version="4" timestamp="2010-06-14T23:35:41Z" changeset="4992466" uid="26825" user="Warofdreams"/>
  <node id="726793517" lat="53.3723005" lon="-1.0115945" version="2" timestamp="2023-07-19T18:02:24Z" changeset="138729052" uid="12616743" user="BassetlawMapper"/>
  <node id="1602336159" lat="53.3586514" lon="-0.9631971" version="2" timestamp="2012-06-09T23:52:06Z" changeset="11850009" uid="61942" user="SomeoneElse"/>
  <node id="3346982634" lat="53.3654974" lon="-0.9533594" version="2" timestamp="2020-11-09T09:15:46Z" changeset="93785185" uid="11734032" user="daitv"/>
  <node id="4683846198" lat="53.3582082" lon="-0.9763886" version="1" timestamp="2017-02-13T17:40:12Z" changeset="46054168" uid="5296090" user="TR42"/>
  <way id="5410782" version="6" timestamp="2014-05-13T20:23:08Z" changeset="22320740" uid="2011702" user="krd_mapper">
    <nd ref="32617520"/>
    <nd ref="2856634492"/>
    <nd ref="2856634495"/>
    <nd ref="2856634493"/>
    <nd ref="38992373"/>
    <nd ref="2856634494"/>
    <nd ref="2856634490"/>
    <nd ref="38992379"/>
    <nd ref="773009938"/>
    <tag k="highway" v="unclassified"/>
    <tag k="name" v="Neatholme Road"/>
    <tag k="source" v="OS OpenData StreetView"/>
  </way>
  <way id="13869209" version="14" timestamp="2023-06-19T10:46:50Z" changeset="137512595" uid="19621984" user="NigT">
    <nd ref="32617519"/>
    <nd ref="130214100"/>
    <nd ref="10989249465"/>
    <nd ref="3346982634"/>
    <tag k="designation" v="byway_open_to_all_traffic"/>
    <tag k="highway" v="unclassified"/>
    <tag k="lanes" v="2"/>
    <tag k="name" v="Chain Bridge Lane"/>
    <tag k="surface" v="asphalt"/>
  </way>
  <way id="48232117" version="5" timestamp="2022-01-27T19:04:47Z" changeset="116679072" uid="8871564" user="AndAndrew">
    <nd ref="32617515"/>
    <nd ref="367056895"/>
    <nd ref="367056897"/>
    <nd ref="32617516"/>
    <nd ref="32617481"/>
    <nd ref="367056900"/>
    <nd ref="367056906"/>
    <nd ref="367056911"/>
    <nd ref="367056898"/>
    <nd ref="367056912"/>
    <nd ref="367056914"/>
    <nd ref="367056915"/>
    <nd ref="6658006507"/>
    <nd ref="367056920"/>
    <tag k="highway" v="tertiary"/>
    <tag k="name" v="Mattersey Road"/>
    <tag k="source:name" v="OS_OpenRoads"/>
  </way>
  <way id="62004466" version="2" timestamp="2015-02-09T18:15:30Z" changeset="28733819" uid="2020484" user="Nigel Greens">
    <nd ref="32617518"/>
    <nd ref="3340251243"/>
    <nd ref="773010000"/>
    <nd ref="773010001"/>
    <nd ref="773010002"/>
    <tag k="highway" v="unclassified"/>
    <tag k="source" v="OS OpenData StreetView"/>
  </way>
  <way id="62004484" version="5" timestamp="2020-01-21T05:02:59Z" changeset="79830384" uid="10252553" user="chaubean">
    <nd ref="32617527"/>
    <nd ref="6473610053"/>
    <nd ref="773010156"/>
    <nd ref="7147875716"/>
    <nd ref="773010157"/>
    <nd ref="6286188088"/>
    <nd ref="6286188396"/>
    <nd ref="773010158"/>
    <nd ref="6286188156"/>
    <nd ref="773010159"/>
    <nd ref="6286188308"/>
    <nd ref="6286188175"/>
    <nd ref="773010160"/>
    <nd ref="6286188428"/>
    <nd ref="3340307947"/>
    <nd ref="773010154"/>
    <tag k="highway" v="residential"/>
    <tag k="name" v="Little Top Lane"/>
    <tag k="source" v="OS OpenData StreetView"/>
  </way>
  <way id="62004485" version="2" timestamp="2010-12-23T12:00:49Z" changeset="6744507" uid="387224" user="amstrange1">
    <nd ref="773010154"/>
    <nd ref="773010161"/>
    <nd ref="773010162"/>
    <nd ref="1059013606"/>
    <nd ref="773010163"/>
    <tag k="highway" v="residential"/>
    <tag k="name" v="The Paddocks"/>
  </way>
  <way id="62004486" version="1" timestamp="2010-06-14T23:36:41Z" changeset="4992466" uid="26825" user="Warofdreams">
    <nd ref="773010168"/>
    <nd ref="773010169"/>
    <nd ref="773010170"/>
    <nd ref="773010171"/>
    <tag k="highway" v="residential"/>
    <tag k="name" v="Chain Bridge Road"/>
    <tag k="source" v="OS OpenData StreetView"/>
  </way>
  <way id="91234127" version="1" timestamp="2010-12-23T12:00:49Z" changeset="6744507" uid="387224" user="amstrange1">
    <nd ref="1059013616"/>
    <nd ref="773010162"/>
    <tag k="highway" v="residential"/>
    <tag k="name" v="The Paddocks"/>
  </way>
  <way id="147038861" version="7" timestamp="2021-07-01T14:09:44Z" changeset="107264148" uid="12604514" user="Diana Soldatkina">
    <nd ref="1602336159"/>
    <nd ref="1602336136"/>
    <nd ref="1602336131"/>
    <nd ref="1602336114"/>
    <nd ref="1602336162"/>
    <nd ref="1602336154"/>
    <nd ref="8883139623"/>
    <nd ref="1602336140"/>
    <nd ref="3339899024"/>
    <nd ref="1602336133"/>
    <nd ref="1602336123"/>
    <nd ref="1602336167"/>
    <nd ref="1602336152"/>
    <nd ref="6782596621"/>
    <nd ref="3339899038"/>
    <nd ref="1602336102"/>
    <nd ref="1602336105"/>
    <nd ref="7765299504"/>
    <nd ref="8883139643"/>
    <nd ref="1602336135"/>
    <nd ref="1602336093"/>
    <tag k="designation" v="byway_open_to_all_traffic"/>
    <tag k="highway" v="unclassified"/>
    <tag k="name" v="Lound Low Road"/>
    <tag k="surface" v="gravel"/>
  </way>
  <way id="147038862" version="10" timestamp="2020-06-19T12:02:42Z" changeset="86876292" uid="10455640" user="madnikhi">
    <nd ref="1602336159"/>
    <nd ref="1782081757"/>
    <nd ref="1782081753"/>
    <nd ref="1782081747"/>
    <nd ref="5864853308"/>
    <nd ref="7412026541"/>
    <nd ref="1782081740"/>
    <nd ref="773010168"/>
    <nd ref="1602336084"/>
    <nd ref="7146567154"/>
    <nd ref="1782081728"/>
    <nd ref="6784612602"/>
    <nd ref="1602336156"/>
    <nd ref="1782081726"/>
    <nd ref="1602336116"/>
    <nd ref="1782081734"/>
    <nd ref="1602336171"/>
    <nd ref="32617519"/>
    <nd ref="7635251991"/>
    <nd ref="1602336137"/>
    <nd ref="6286187869"/>
    <nd ref="1602336111"/>
    <nd ref="6473610059"/>
    <nd ref="1602336164"/>
    <nd ref="2856634496"/>
    <nd ref="2856634491"/>
    <nd ref="32617520"/>
    <nd ref="1602336087"/>
    <nd ref="1602336160"/>
    <nd ref="1602336121"/>
    <nd ref="1602336161"/>
    <nd ref="6286188332"/>
    <nd ref="32617518"/>
    <tag k="highway" v="unclassified"/>
    <tag k="name" v="Town Street"/>
    <tag k="source" v="OS_OpenData_StreetView"/>
    <tag k="source:name" v="OS_OpenData_StreetView"/>
  </way>
  <way id="147038863" version="5" timestamp="2022-01-27T19:04:47Z" changeset="116679072" uid="8871564" user="AndAndrew">
    <nd ref="32617519"/>
    <nd ref="32617527"/>
    <nd ref="1602336158"/>
    <tag k="highway" v="tertiary"/>
    <tag k="name" v="Daneshill Road"/>
    <tag k="source" v="OS_OpenData_StreetView"/>
    <tag k="source:name" v="OS_OpenRoads"/>
  </way>
  <way id="147038865" version="2" timestamp="2019-02-18T14:04:11Z" changeset="67317025" uid="84681" user="SK53">
    <nd ref="32617518"/>
    <nd ref="6286188388"/>
    <nd ref="6286188356"/>
    <nd ref="6286188386"/>
    <nd ref="773010154"/>
    <nd ref="1602336107"/>
    <nd ref="1602336129"/>
    <nd ref="1602336168"/>
    <nd ref="32617515"/>
    <tag k="highway" v="unclassified"/>
    <tag k="source" v="OS_OpenData_StreetView"/>
  </way>
  <way id="147038866" version="2" timestamp="2019-02-18T14:04:11Z" changeset="67317025" uid="84681" user="SK53">
    <nd ref="6286188297"/>
    <nd ref="6286188120"/>
    <nd ref="6286188299"/>
    <nd ref="1602336139"/>
    <nd ref="1602336091"/>
    <nd ref="1602336161"/>
    <tag k="highway" v="residential"/>
    <tag k="name" v="Pinfold Close"/>
    <tag k="source" v="OS_OpenData_StreetView"/>
    <tag k="source:geometry" v="Bing"/>
    <tag k="source:name" v="OS-OpenData_Locator"/>
  </way>
  <way id="307637747" version="11" timestamp="2023-07-19T18:02:24Z" changeset="138729052" uid="12616743" user="BassetlawMapper">
    <nd ref="726793517"/>
    <nd ref="11055355581"/>
    <nd ref="11055355688"/>
    <nd ref="32617522"/>
    <nd ref="3103884249"/>
    <nd ref="10807465802"/>
    <nd ref="10807465778"/>
    <nd ref="10807517610"/>
    <nd ref="773010695"/>
    <nd ref="2176572906"/>
    <nd ref="2176572904"/>
    <nd ref="726793556"/>
    <nd ref="2176572900"/>
    <nd ref="2176572898"/>
    <nd ref="2176572897"/>
    <nd ref="32617523"/>
    <nd ref="32617524"/>
    <nd ref="726793558"/>
    <nd ref="726793559"/>
    <nd ref="32617525"/>
    <nd ref="8040002475"/>
    <nd ref="32617526"/>
    <nd ref="6787368748"/>
    <nd ref="3339862777"/>
    <nd ref="1602336158"/>
    <tag k="highway" v="tertiary"/>
    <tag k="lit" v="no"/>
    <tag k="name" v="Daneshill Road"/>
  </way>
  <way id="474424628" version="3" timestamp="2021-06-07T14:25:27Z" changeset="105978496" uid="3199858" user="Mateusz Konieczny - bot account">
    <nd ref="4683846198"/>
    <nd ref="1782081733"/>
    <nd ref="8002677440"/>
    <nd ref="28265446"/>
    <nd ref="1602336158"/>
    <nd ref="32617514"/>
    <nd ref="367056885"/>
    <nd ref="367056890"/>
    <nd ref="32617515"/>
    <tag k="highway" v="tertiary"/>
    <tag k="lit" v="no"/>
    <tag k="name" v="Mattersey Road"/>
  </way>
  <way id="671265278" version="6" timestamp="2025-07-11T12:00:20Z" changeset="168792614" uid="5359" user="user_5359">
    <nd ref="6286188107"/>
    <nd ref="6286187868"/>
    <nd ref="6286188394"/>
    <nd ref="6286188115"/>
    <nd ref="6286188087"/>
    <nd ref="6286188338"/>
    <nd ref="6286188401"/>
    <nd ref="6286188100"/>
    <nd ref="6286188450"/>
    <nd ref="6286188465"/>
    <nd ref="6286188107"/>
    <tag k="addr:city" v="Retford"/>
    <tag k="addr:housename" v="Lound Hall"/>
    <tag k="addr:postcode" v="DN22 8RX"/>
    <tag k="addr:street" v="Town Street"/>
    <tag k="addr:suburb" v="Lound"/>
    <tag k="alt_name" v="Lound Hall Care Home"/>
    <tag k="amenity" v="social_facility"/>
    <tag k="building" v="house"/>
    <tag k="fhrs:id" v="170718"/>
    <tag k="name" v="Lound Hall Nursing Home"/>
    <tag k="ref:GB:cqc_location" v="1-143686027"/>
    <tag k="ref:GB:uprn" v="100031278860"/>
    <tag k="social_facility" v="nursing_home"/>
    <tag k="social_facility:for" v="elderly"/>
    <tag k="source" v="survey"/>
    <tag k="source:addr" v="FHRS Open Data"/>
    <tag k="source:geometry" v="Bing"/>
  </way>
  <way id="671265283" version="4" timestamp="2023-06-22T15:40:33Z" changeset="137653117" uid="1802093" user="Paul Berry">
    <nd ref="6286188289"/>
    <nd ref="6286187863"/>
    <nd ref="6286188096"/>
    <nd ref="6286187878"/>
    <nd ref="6286188313"/>
    <nd ref="6286188305"/>
    <nd ref="6286188303"/>
    <nd ref="6286188180"/>
    <nd ref="6286188289"/>
    <tag k="accommodation" v="yes"/>
    <tag k="addr:city" v="Retford"/>
    <tag k="addr:postcode" v="DN22 8RX"/>
    <tag k="addr:street" v="Town Street"/>
    <tag k="addr:suburb" v="Lound"/>
    <tag k="alt_name" v="Bluebell Inn"/>
    <tag k="amenity" v="pub"/>
    <tag k="building" v="yes"/>
    <tag k="contact:website" v="www.bluebellinnretford.co.uk"/>
    <tag k="name" v="Bluebell"/>
    <tag k="source" v="Geograph;Bing;Naptan;OS StreetView Open Data"/>
    <tag k="source:addr" v="interpolation"/>
  </way>
  <way id="690023300" version="1" timestamp="2019-05-14T18:26:55Z" changeset="70248647" uid="9641463" user="branib">
    <nd ref="6473610053"/>
    <nd ref="6473610054"/>
    <nd ref="6473610058"/>
    <nd ref="6473610055"/>
    <nd ref="6473610056"/>
    <nd ref="6473610057"/>
    <tag k="highway" v="residential"/>
  </way>
  <way id="690023301" version="1" timestamp="2019-05-14T18:26:55Z" changeset="70248647" uid="9641463" user="branib">
    <nd ref="6473610059"/>
    <nd ref="6473610060"/>
    <nd ref="6473610062"/>
    <nd ref="6473610061"/>
    <tag k="highway" v="residential"/>
  </way>
  <way id="695867722" version="3" timestamp="2021-07-01T14:09:44Z" changeset="107264148" uid="12604514" user="Diana Soldatkina">
    <nd ref="3346982634"/>
    <nd ref="8096283296"/>
    <nd ref="773010165"/>
    <nd ref="8096283249"/>
    <nd ref="3347665773"/>
    <nd ref="1602336093"/>
    <nd ref="2854453209"/>
    <nd ref="3346975757"/>
    <tag k="designation" v="byway_open_to_all_traffic"/>
    <tag k="highway" v="unclassified"/>
    <tag k="name" v="Chain Bridge Lane"/>
  </way>
  <way id="974978508" version="2" timestamp="2022-10-06T11:57:21Z" changeset="127099481" uid="17299016" user="Russ (mechanical edit account)">
    <nd ref="9022694823"/>
    <nd ref="9022694820"/>
    <nd ref="9022694821"/>
    <nd ref="9022694822"/>
    <nd ref="9022694823"/>
    <tag k="brand" v="National Grid"/>
    <tag k="brand:wikidata" v="Q1465461"/>
    <tag k="building" v="yes"/>
    <tag k="name" v="Daneshill Generation"/>
    <tag k="operator" v="National Grid Electricity Distribution Plc"/>
    <tag k="operator:old" v="Western Power Distribution"/>
    <tag k="operator:wikidata" v="Q7988183"/>
    <tag k="owner" v="National Grid Electricity Distribution (East Midlands) Plc"/>
    <tag k="owner:wikidata" v="Q114348127"/>
    <tag k="power" v="substation"/>
    <tag k="ref:GB:wpd_site" v="890017"/>
  </way>
  <way id="974978515" version="2" timestamp="2022-10-06T11:57:21Z" changeset="127099481" uid="17299016" user="Russ (mechanical edit account)">
    <nd ref="9022694851"/>
    <nd ref="9022694848"/>
    <nd ref="9022694849"/>
    <nd ref="9022694850"/>
    <nd ref="9022694851"/>
    <tag k="brand" v="National Grid"/>
    <tag k="brand:wikidata" v="Q1465461"/>
    <tag k="building" v="yes"/>
    <tag k="name" v="Low Farm AD Substation"/>
    <tag k="operator" v="National Grid Electricity Distribution Plc"/>
    <tag k="operator:old" v="Western Power Distribution"/>
    <tag k="operator:wikidata" v="Q7988183"/>
    <tag k="owner" v="National Grid Electricity Distribution (East Midlands) Plc"/>
    <tag k="owner:wikidata" v="Q114348127"/>
    <tag k="power" v="substation"/>
    <tag k="ref:GB:wpd_site" v="897792"/>
    <tag k="voltage" v="33000"/>
  </way>

</osm>
