<?xml version="1.0" encoding="UTF-8"?>
<osm version="0.6" generator="Overpass API 0.7.62.8 e802775f">
<note>The data included in this document is from www.openstreetmap.org. The data is made available under ODbL.</note>
<meta osm_base="2025-10-23T16:43:43Z" areas="2025-10-23T08:56:18Z"/>

  <node id="27476921" lat="52.3259153" lon="-1.5567198" version="5" timestamp="2022-10-31T21:24:33Z" changeset="128317548" uid="5589" user="user_5589"/>
  <node id="27477095" lat="52.3201282" lon="-1.5305242" version="4" timestamp="2019-03-29T20:19:22Z" changeset="68678303" uid="9065" user="brianboru"/>
  <node id="27477099" lat="52.3198473" lon="-1.5293318" version="5" timestamp="2020-12-17T00:10:32Z" changeset="95968136" uid="5589" user="user_5589"/>
  <node id="27477371" lat="52.3130272" lon="-1.5232679" version="6" timestamp="2012-01-16T10:32:54Z" changeset="10407033" uid="5589" user="user_5589"/>
  <node id="27477385" lat="52.3088688" lon="-1.5286278" version="3" timestamp="2012-01-13T07:41:45Z" changeset="10376133" uid="5589" user="user_5589"/>
  <node id="32679871" lat="52.3180460" lon="-1.5424078" version="4" timestamp="2023-02-21T09:06:16Z" changeset="132825078" uid="5589" user="user_5589"/>
  <node id="260313892" lat="52.3093950" lon="-1.5281350" version="4" timestamp="2014-08-15T05:15:32Z" changeset="24759486" uid="38588" user="mentor"/>
  <node id="260313893" lat="52.3094827" lon="-1.5278227" version="2" timestamp="2011-10-05T11:12:34Z" changeset="9476613" uid="5589" user="user_5589"/>
  <node id="260488201" lat="52.3192115" lon="-1.5470795" version="4" timestamp="2022-05-17T13:21:48Z" changeset="121100711" uid="7345137" user="magrej"/>
  <node id="457500394" lat="52.3127122" lon="-1.5236731" version="2" timestamp="2012-01-06T00:11:14Z" changeset="10307020" uid="5589" user="user_5589"/>
  <node id="712746162" lat="52.3114879" lon="-1.5305079" version="4" timestamp="2020-09-16T00:07:05Z" changeset="90950350" uid="5589" user="user_5589"/>
  <node id="1269808831" lat="52.3202249" lon="-1.5301215" version="2" timestamp="2019-03-29T20:19:23Z" changeset="68678303" uid="9065" user="brianboru"/>
  <node id="1455819574" lat="52.3091792" lon="-1.5281869" version="2" timestamp="2014-08-15T05:15:32Z" changeset="24759486" uid="38588" user="mentor"/>
  <node id="1836915245" lat="52.3152842" lon="-1.5363571" version="2" timestamp="2020-12-17T00:10:32Z" changeset="95968136" uid="5589" user="user_5589"/>
  <way id="4954439" version="21" timestamp="2023-02-22T04:12:42Z" changeset="132861019" uid="5589" user="user_5589">
    <nd ref="1269803031"/>
    <nd ref="849561746"/>
    <nd ref="10684680358"/>
    <nd ref="2349709927"/>
    <nd ref="32679857"/>
    <tag k="highway" v="trunk"/>
    <tag k="lanes" v="1"/>
    <tag k="lanes:forward" v="1"/>
    <tag k="lit" v="yes"/>
    <tag k="maintenance" v="gritting"/>
    <tag k="maxspeed" v="40 mph"/>
    <tag k="name" v="Kenilworth Road"/>
    <tag k="oneway" v="yes"/>
    <tag k="operator" v="Warwickshire County Council"/>
    <tag k="ref" v="A452"/>
    <tag k="shoulder" v="no"/>
    <tag k="surface" v="asphalt"/>
  </way>
  <way id="4954440" version="21" timestamp="2023-02-21T21:09:32Z" changeset="132853861" uid="5589" user="user_5589">
    <nd ref="32679857"/>
    <nd ref="2349709926"/>
    <nd ref="9520706959"/>
    <nd ref="10682703729"/>
    <tag k="highway" v="trunk"/>
    <tag k="lanes" v="1"/>
    <tag k="lanes:forward" v="1"/>
    <tag k="lit" v="yes"/>
    <tag k="maintenance" v="gritting"/>
    <tag k="maxspeed" v="40 mph"/>
    <tag k="name" v="Kenilworth Road"/>
    <tag k="oneway" v="yes"/>
    <tag k="operator" v="Warwickshire County Council"/>
    <tag k="ref" v="A452"/>
    <tag k="surface" v="asphalt"/>
  </way>
  <way id="8003573" version="14" timestamp="2024-05-06T16:13:13Z" changeset="150973009" uid="6086403" user="eggdogboba">
    <nd ref="27477131"/>
    <nd ref="2349713539"/>
    <nd ref="2349713537"/>
    <nd ref="560059112"/>
    <tag k="cycleway:left" v="no"/>
    <tag k="foot" v="no"/>
    <tag k="highway" v="tertiary"/>
    <tag k="lanes" v="1"/>
    <tag k="lit" v="yes"/>
    <tag k="maintenance" v="gritting"/>
    <tag k="maxspeed" v="40 mph"/>
    <tag k="name" v="Westhill Road"/>
    <tag k="oneway" v="yes"/>
    <tag k="operator" v="Warwickshire County Council"/>
    <tag k="shoulder" v="no"/>
    <tag k="sidewalk" v="no"/>
    <tag k="surface" v="asphalt"/>
  </way>
  <way id="8003574" version="42" timestamp="2025-01-08T20:17:21Z" changeset="161147004" uid="5229644" user="Nathan_A_RF">
    <nd ref="27477091"/>
    <nd ref="9937253244"/>
    <nd ref="27477090"/>
    <nd ref="7937185033"/>
    <nd ref="2187344498"/>
    <nd ref="9287128612"/>
    <nd ref="27477089"/>
    <nd ref="2187344494"/>
    <nd ref="1269808820"/>
    <nd ref="1836972390"/>
    <nd ref="1269808816"/>
    <nd ref="1836913087"/>
    <nd ref="27477088"/>
    <nd ref="27477087"/>
    <nd ref="1836913082"/>
    <nd ref="27477086"/>
    <nd ref="10682685064"/>
    <nd ref="1269808800"/>
    <nd ref="10682685063"/>
    <nd ref="27477085"/>
    <nd ref="10682685062"/>
    <nd ref="1269808822"/>
    <nd ref="27477084"/>
    <nd ref="9287130618"/>
    <nd ref="2187344511"/>
    <nd ref="8798245074"/>
    <nd ref="27477083"/>
    <nd ref="2121400612"/>
    <nd ref="1836913084"/>
    <nd ref="7593842795"/>
    <nd ref="6544312019"/>
    <nd ref="9287130620"/>
    <nd ref="27477082"/>
    <nd ref="1836913081"/>
    <nd ref="1836967037"/>
    <nd ref="27477081"/>
    <nd ref="2187344501"/>
    <nd ref="1836913085"/>
    <nd ref="27477080"/>
    <nd ref="27477079"/>
    <nd ref="1836913088"/>
    <nd ref="1836913078"/>
    <nd ref="27477078"/>
    <nd ref="27477077"/>
    <nd ref="7984764918"/>
    <nd ref="27477076"/>
    <nd ref="1836913079"/>
    <nd ref="9287130619"/>
    <nd ref="27477075"/>
    <nd ref="1836913086"/>
    <nd ref="27477074"/>
    <nd ref="9522961284"/>
    <nd ref="1420960020"/>
    <tag k="cycleway:both" v="no"/>
    <tag k="highway" v="tertiary"/>
    <tag k="highway_authority_ref" v="C36"/>
    <tag k="lane_markings" v="yes"/>
    <tag k="lanes" v="2"/>
    <tag k="lit" v="no"/>
    <tag k="maintenance" v="gritting"/>
    <tag k="maxspeed" v="60 mph"/>
    <tag k="maxspeed:type" v="GB:nsl_single"/>
    <tag k="name" v="Bericote Road"/>
    <tag k="operator" v="Warwickshire County Council"/>
    <tag k="shoulder" v="no"/>
    <tag k="surface" v="asphalt"/>
  </way>
  <way id="8003575" version="16" timestamp="2025-01-08T20:17:21Z" changeset="161147004" uid="5229644" user="Nathan_A_RF">
    <nd ref="27477130"/>
    <nd ref="2349713530"/>
    <nd ref="560059109"/>
    <tag k="cycleway:left" v="no"/>
    <tag k="highway" v="secondary"/>
    <tag k="lanes" v="1"/>
    <tag k="lit" v="yes"/>
    <tag k="maintenance" v="gritting"/>
    <tag k="maxspeed" v="40 mph"/>
    <tag k="name" v="Stoneleigh Road"/>
    <tag k="oneway" v="yes"/>
    <tag k="operator" v="Warwickshire County Council"/>
    <tag k="ref" v="B4113"/>
    <tag k="shoulder" v="no"/>
    <tag k="surface" v="asphalt"/>
  </way>
  <way id="8003578" version="19" timestamp="2024-04-28T01:36:06Z" changeset="150601495" uid="5589" user="user_5589">
    <nd ref="260313893"/>
    <nd ref="1578879771"/>
    <nd ref="1578879782"/>
    <nd ref="1286783695"/>
    <tag k="cycleway:both" v="no"/>
    <tag k="highway" v="primary"/>
    <tag k="lanes" v="2"/>
    <tag k="lanes:backward" v="1"/>
    <tag k="lanes:forward" v="1"/>
    <tag k="lit" v="yes"/>
    <tag k="maxspeed" v="30 mph"/>
    <tag k="name" v="Leicester Lane"/>
    <tag k="oneway" v="no"/>
    <tag k="ref" v="A445"/>
    <tag k="sidewalk" v="both"/>
    <tag k="sidewalk:both:surface" v="asphalt"/>
    <tag k="surface" v="asphalt"/>
  </way>
  <way id="8003582" version="20" timestamp="2023-02-22T22:30:20Z" changeset="132902121" uid="5589" user="user_5589">
    <nd ref="27476923"/>
    <nd ref="2056655918"/>
    <nd ref="2187344449"/>
    <nd ref="10687069732"/>
    <nd ref="27476922"/>
    <tag k="highway" v="trunk"/>
    <tag k="lanes" v="2"/>
    <tag k="lanes:backward" v="1"/>
    <tag k="lanes:forward" v="1"/>
    <tag k="lit" v="yes"/>
    <tag k="maintenance" v="gritting"/>
    <tag k="maxspeed" v="40 mph"/>
    <tag k="name" v="Leamington Road"/>
    <tag k="oneway" v="no"/>
    <tag k="operator" v="Warwickshire County Council"/>
    <tag k="overtaking" v="no"/>
    <tag k="ref" v="A452"/>
    <tag k="shoulder" v="no"/>
    <tag k="surface" v="asphalt"/>
  </way>
  <way id="8419057" version="19" timestamp="2025-01-08T20:17:21Z" changeset="161147004" uid="5229644" user="Nathan_A_RF">
    <nd ref="27477095"/>
    <nd ref="1269808809"/>
    <nd ref="1269808818"/>
    <nd ref="254596087"/>
    <nd ref="1269808826"/>
    <nd ref="27477093"/>
    <tag k="cycleway:left" v="no"/>
    <tag k="highway" v="secondary"/>
    <tag k="junction" v="roundabout"/>
    <tag k="lanes" v="2"/>
    <tag k="lit" v="yes"/>
    <tag k="maintenance" v="gritting"/>
    <tag k="maxspeed" v="40 mph"/>
    <tag k="oneway" v="yes"/>
    <tag k="operator" v="Warwickshire County Council"/>
    <tag k="shoulder" v="no"/>
    <tag k="surface" v="asphalt"/>
  </way>
  <way id="8419060" version="22" timestamp="2025-01-08T20:17:21Z" changeset="161147004" uid="5229644" user="Nathan_A_RF">
    <nd ref="27477095"/>
    <nd ref="2292083367"/>
    <nd ref="27477092"/>
    <tag k="cycleway:left" v="no"/>
    <tag k="foot" v="yes"/>
    <tag k="highway" v="tertiary"/>
    <tag k="highway_authority_ref" v="C36"/>
    <tag k="lanes" v="1"/>
    <tag k="lanes:forward" v="1"/>
    <tag k="lit" v="yes"/>
    <tag k="maintenance" v="gritting"/>
    <tag k="maxspeed" v="40 mph"/>
    <tag k="name" v="Bericote Road"/>
    <tag k="oneway" v="yes"/>
    <tag k="operator" v="Warwickshire County Council"/>
    <tag k="shoulder" v="no"/>
    <tag k="sidewalk" v="no"/>
    <tag k="surface" v="asphalt"/>
  </way>
  <way id="8419066" version="22" timestamp="2023-02-21T08:55:18Z" changeset="132824645" uid="5589" user="user_5589">
    <nd ref="849561726"/>
    <nd ref="10138070599"/>
    <nd ref="2056655924"/>
    <nd ref="2349709929"/>
    <nd ref="574727138"/>
    <nd ref="1269803009"/>
    <tag k="highway" v="trunk"/>
    <tag k="lanes" v="2"/>
    <tag k="lanes:forward" v="2"/>
    <tag k="lit" v="yes"/>
    <tag k="maintenance" v="gritting"/>
    <tag k="maxspeed" v="40 mph"/>
    <tag k="name" v="Leamington Road"/>
    <tag k="oneway" v="yes"/>
    <tag k="operator" v="Warwickshire County Council"/>
    <tag k="ref" v="A452"/>
    <tag k="shoulder" v="no"/>
    <tag k="surface" v="asphalt"/>
  </way>
  <way id="8419067" version="22" timestamp="2022-10-29T17:04:37Z" changeset="128219920" uid="5589" user="user_5589">
    <nd ref="1269803014"/>
    <nd ref="849561763"/>
    <nd ref="849561764"/>
    <nd ref="2349709935"/>
    <nd ref="27476923"/>
    <tag k="highway" v="trunk"/>
    <tag k="lanes" v="1"/>
    <tag k="lanes:forward" v="1"/>
    <tag k="lit" v="yes"/>
    <tag k="maintenance" v="gritting"/>
    <tag k="maxspeed" v="40 mph"/>
    <tag k="name" v="Leamington Road"/>
    <tag k="oneway" v="yes"/>
    <tag k="operator" v="Warwickshire County Council"/>
    <tag k="ref" v="A452"/>
    <tag k="shoulder" v="no"/>
    <tag k="sidewalk" v="no"/>
    <tag k="surface" v="asphalt"/>
  </way>
  <way id="8419068" version="25" timestamp="2023-02-21T21:09:32Z" changeset="132853861" uid="5589" user="user_5589">
    <nd ref="1269803016"/>
    <nd ref="32679885"/>
    <nd ref="3144022877"/>
    <nd ref="3144022879"/>
    <nd ref="849561760"/>
    <nd ref="3144022875"/>
    <nd ref="1269803047"/>
    <nd ref="2349709933"/>
    <nd ref="27477071"/>
    <tag k="cycleway:left" v="no"/>
    <tag k="highway" v="tertiary"/>
    <tag k="highway_authority_ref" v="C36"/>
    <tag k="lanes" v="1"/>
    <tag k="lanes:forward" v="1"/>
    <tag k="lit" v="yes"/>
    <tag k="maintenance" v="gritting"/>
    <tag k="maxspeed" v="40 mph"/>
    <tag k="name" v="Bericote Road"/>
    <tag k="oneway" v="yes"/>
    <tag k="operator" v="Warwickshire County Council"/>
    <tag k="surface" v="asphalt"/>
  </way>
  <way id="8419069" version="20" timestamp="2023-02-21T21:09:32Z" changeset="132853861" uid="5589" user="user_5589">
    <nd ref="27477071"/>
    <nd ref="2349709932"/>
    <nd ref="849561751"/>
    <nd ref="3144022880"/>
    <nd ref="10684215474"/>
    <tag k="cycleway:left" v="no"/>
    <tag k="highway" v="tertiary"/>
    <tag k="highway_authority_ref" v="C36"/>
    <tag k="lanes" v="1"/>
    <tag k="lanes:forward" v="1"/>
    <tag k="lit" v="yes"/>
    <tag k="maxspeed" v="40 mph"/>
    <tag k="name" v="Bericote Road"/>
    <tag k="oneway" v="yes"/>
    <tag k="surface" v="asphalt"/>
  </way>
  <way id="8419072" version="18" timestamp="2022-12-07T07:54:16Z" changeset="129808979" uid="5589" user="user_5589">
    <nd ref="27477385"/>
    <nd ref="474981514"/>
    <nd ref="1455819565"/>
    <nd ref="8004181585"/>
    <nd ref="27477383"/>
    <tag k="cycleway:both" v="no"/>
    <tag k="highway" v="primary"/>
    <tag k="lanes" v="1"/>
    <tag k="lanes:forward" v="1"/>
    <tag k="lit" v="yes"/>
    <tag k="maxspeed" v="30 mph"/>
    <tag k="name" v="Lillington Road"/>
    <tag k="oneway" v="yes"/>
    <tag k="ref" v="A445"/>
    <tag k="sidewalk" v="left"/>
    <tag k="surface" v="asphalt"/>
  </way>
  <way id="23945742" version="17" timestamp="2023-02-20T22:31:56Z" changeset="132811067" uid="5589" user="user_5589">
    <nd ref="27476921"/>
    <nd ref="10144723876"/>
    <nd ref="2187303076"/>
    <nd ref="27476920"/>
    <tag k="bridge" v="yes"/>
    <tag k="bridge:name" v="Chesford Bridge"/>
    <tag k="highway" v="trunk"/>
    <tag k="lanes" v="2"/>
    <tag k="lanes:backward" v="1"/>
    <tag k="lanes:forward" v="1"/>
    <tag k="layer" v="1"/>
    <tag k="lit" v="no"/>
    <tag k="maintenance" v="gritting"/>
    <tag k="maxspeed" v="40 mph"/>
    <tag k="maxweight:signed" v="no"/>
    <tag k="name" v="Leamington Road"/>
    <tag k="oneway" v="no"/>
    <tag k="operator" v="Warwickshire County Council"/>
    <tag k="overtaking" v="no"/>
    <tag k="ref" v="A452"/>
    <tag k="shoulder" v="no"/>
    <tag k="surface" v="asphalt"/>
  </way>
  <way id="24006461" version="12" timestamp="2022-12-07T07:54:01Z" changeset="129808979" uid="5589" user="user_5589">
    <nd ref="260313893"/>
    <nd ref="1455819578"/>
    <nd ref="260313894"/>
    <tag k="cycleway:both" v="no"/>
    <tag k="highway" v="primary"/>
    <tag k="lanes" v="1"/>
    <tag k="lanes:forward" v="1"/>
    <tag k="lit" v="yes"/>
    <tag k="maxspeed" v="30 mph"/>
    <tag k="name" v="Leicester Lane"/>
    <tag k="oneway" v="yes"/>
    <tag k="ref" v="A445"/>
    <tag k="sidewalk" v="left"/>
    <tag k="surface" v="asphalt"/>
  </way>
  <way id="24006462" version="11" timestamp="2022-12-07T07:53:56Z" changeset="129808979" uid="5589" user="user_5589">
    <nd ref="260313892"/>
    <nd ref="1455819559"/>
    <nd ref="260313893"/>
    <tag k="cycleway:both" v="no"/>
    <tag k="highway" v="primary"/>
    <tag k="lanes" v="1"/>
    <tag k="lanes:forward" v="1"/>
    <tag k="lit" v="yes"/>
    <tag k="maxspeed" v="30 mph"/>
    <tag k="name" v="Leicester Lane"/>
    <tag k="oneway" v="yes"/>
    <tag k="ref" v="A445"/>
    <tag k="sidewalk" v="left"/>
    <tag k="surface" v="asphalt"/>
  </way>
  <way id="24020639" version="9" timestamp="2023-04-12T09:49:43Z" changeset="134808265" uid="5589" user="user_5589">
    <nd ref="260488201"/>
    <nd ref="260488202"/>
    <tag k="bridge" v="yes"/>
    <tag k="cycleway:both" v="no"/>
    <tag k="highway" v="unclassified"/>
    <tag k="layer" v="1"/>
    <tag k="maxspeed" v="40 mph"/>
    <tag k="maxspeed:type" v="sign"/>
    <tag k="name" v="Hill Wootton Road"/>
    <tag k="surface" v="asphalt"/>
    <tag k="unsigned_ref" v="D22370"/>
  </way>
  <way id="24020640" version="11" timestamp="2023-04-12T09:49:43Z" changeset="134808265" uid="5589" user="user_5589">
    <nd ref="260488202"/>
    <nd ref="2187344451"/>
    <nd ref="2187344445"/>
    <nd ref="2187344497"/>
    <nd ref="2187344505"/>
    <nd ref="2187344500"/>
    <nd ref="2187344466"/>
    <nd ref="2187344481"/>
    <nd ref="2187344502"/>
    <nd ref="2187344453"/>
    <nd ref="260488203"/>
    <nd ref="2187344447"/>
    <nd ref="1241148747"/>
    <nd ref="1241148762"/>
    <nd ref="8265930572"/>
    <nd ref="32679869"/>
    <tag k="cycleway:both" v="no"/>
    <tag k="highway" v="unclassified"/>
    <tag k="maxspeed" v="40 mph"/>
    <tag k="maxspeed:type" v="sign"/>
    <tag k="name" v="Hill Wootton Road"/>
    <tag k="surface" v="asphalt"/>
    <tag k="unsigned_ref" v="D22370"/>
  </way>
  <way id="25620146" version="26" timestamp="2022-08-01T11:30:59Z" changeset="124339049" uid="5589" user="user_5589">
    <nd ref="27477371"/>
    <nd ref="8004181588"/>
    <nd ref="9532744672"/>
    <nd ref="9591207187"/>
    <tag k="cycleway:both" v="no"/>
    <tag k="highway" v="residential"/>
    <tag k="lanes" v="2"/>
    <tag k="lanes:backward" v="1"/>
    <tag k="lanes:forward" v="1"/>
    <tag k="lit" v="yes"/>
    <tag k="maxspeed" v="40 mph"/>
    <tag k="name" v="Telford Avenue"/>
    <tag k="sidewalk" v="both"/>
    <tag k="sidewalk:both:surface" v="asphalt"/>
    <tag k="surface" v="asphalt"/>
  </way>
  <way id="38624494" version="18" timestamp="2025-05-08T18:42:50Z" changeset="165998277" uid="3199858" user="Mateusz Konieczny - bot account">
    <nd ref="457500394"/>
    <nd ref="8004181587"/>
    <nd ref="1578879791"/>
    <nd ref="1592540943"/>
    <nd ref="875031989"/>
    <nd ref="1578879775"/>
    <nd ref="1578879789"/>
    <nd ref="1578879769"/>
    <nd ref="457500396"/>
    <nd ref="1592540934"/>
    <nd ref="1578879780"/>
    <nd ref="1592540936"/>
    <nd ref="1578879779"/>
    <nd ref="8004181586"/>
    <nd ref="457500397"/>
    <tag k="cycleway:both" v="no"/>
    <tag k="frontage_road" v="yes"/>
    <tag k="highway" v="residential"/>
    <tag k="lanes" v="2"/>
    <tag k="lanes:backward" v="1"/>
    <tag k="lanes:forward" v="1"/>
    <tag k="lit" v="yes"/>
    <tag k="maxspeed" v="40 mph"/>
    <tag k="name" v="Leicester Lane"/>
    <tag k="parking:both" v="lane"/>
    <tag k="parking:both:orientation" v="parallel"/>
    <tag k="parking:both:staggered" v="yes"/>
    <tag k="sidewalk" v="no"/>
    <tag k="surface" v="asphalt"/>
  </way>
  <way id="44060311" version="12" timestamp="2023-08-14T09:18:33Z" changeset="139861713" uid="5589" user="user_5589">
    <nd ref="560059109"/>
    <nd ref="2349713533"/>
    <nd ref="8235225909"/>
    <nd ref="27477096"/>
    <tag k="cycleway:left" v="no"/>
    <tag k="highway" v="secondary"/>
    <tag k="lanes" v="1"/>
    <tag k="lit" v="yes"/>
    <tag k="maintenance" v="gritting"/>
    <tag k="maxspeed" v="40 mph"/>
    <tag k="name" v="Stoneleigh Road"/>
    <tag k="oneway" v="yes"/>
    <tag k="operator" v="Warwickshire County Council"/>
    <tag k="ref" v="B4113"/>
    <tag k="shoulder" v="no"/>
    <tag k="sidewalk" v="left"/>
    <tag k="surface" v="asphalt"/>
  </way>
  <way id="44060312" version="20" timestamp="2025-01-08T20:17:21Z" changeset="161147004" uid="5229644" user="Nathan_A_RF">
    <nd ref="27477099"/>
    <nd ref="1836850820"/>
    <nd ref="1836850817"/>
    <nd ref="1836850822"/>
    <nd ref="27477100"/>
    <nd ref="2188199540"/>
    <tag k="cycleway:both" v="no"/>
    <tag k="highway" v="tertiary"/>
    <tag k="lane_markings" v="yes"/>
    <tag k="lanes" v="2"/>
    <tag k="lit" v="no"/>
    <tag k="maintenance" v="gritting"/>
    <tag k="maxspeed" v="50 mph"/>
    <tag k="maxspeed:type" v="sign"/>
    <tag k="name" v="Westhill Road"/>
    <tag k="operator" v="Warwickshire County Council"/>
    <tag k="shoulder" v="no"/>
    <tag k="sidewalk" v="right"/>
    <tag k="sidewalk:right:surface" v="asphalt"/>
    <tag k="surface" v="asphalt"/>
  </way>
  <way id="44060313" version="13" timestamp="2022-05-02T00:22:45Z" changeset="120439223" uid="5589" user="user_5589">
    <nd ref="560059112"/>
    <nd ref="2349713535"/>
    <nd ref="8235225908"/>
    <nd ref="15831016"/>
    <tag k="cycleway:left" v="no"/>
    <tag k="highway" v="tertiary"/>
    <tag k="lanes" v="1"/>
    <tag k="lanes:forward" v="1"/>
    <tag k="lit" v="yes"/>
    <tag k="maintenance" v="gritting"/>
    <tag k="maxspeed" v="40 mph"/>
    <tag k="name" v="Westhill Road"/>
    <tag k="oneway" v="yes"/>
    <tag k="operator" v="Warwickshire County Council"/>
    <tag k="shoulder" v="no"/>
    <tag k="sidewalk" v="left"/>
    <tag k="surface" v="asphalt"/>
  </way>
  <way id="44060316" version="24" timestamp="2025-01-08T20:17:21Z" changeset="161147004" uid="5229644" user="Nathan_A_RF">
    <nd ref="560059109"/>
    <nd ref="9647011644"/>
    <nd ref="8316039585"/>
    <tag k="cycleway:both" v="no"/>
    <tag k="highway" v="secondary"/>
    <tag k="lane_markings" v="yes"/>
    <tag k="lanes" v="2"/>
    <tag k="lit" v="yes"/>
    <tag k="maintenance" v="gritting"/>
    <tag k="maxspeed" v="40 mph"/>
    <tag k="name" v="Stoneleigh Road"/>
    <tag k="operator" v="Warwickshire County Council"/>
    <tag k="ref" v="B4113"/>
    <tag k="shoulder" v="no"/>
    <tag k="sidewalk" v="right"/>
    <tag k="sidewalk:right:surface" v="asphalt"/>
    <tag k="surface" v="asphalt"/>
  </way>
  <way id="101426719" version="17" timestamp="2023-02-20T22:31:56Z" changeset="132811067" uid="5589" user="user_5589">
    <nd ref="2292083443"/>
    <nd ref="2187303081"/>
    <nd ref="27476921"/>
    <tag k="highway" v="trunk"/>
    <tag k="lanes" v="2"/>
    <tag k="lanes:backward" v="1"/>
    <tag k="lanes:forward" v="1"/>
    <tag k="lit" v="yes"/>
    <tag k="maintenance" v="gritting"/>
    <tag k="maxspeed" v="40 mph"/>
    <tag k="name" v="Leamington Road"/>
    <tag k="oneway" v="no"/>
    <tag k="operator" v="Warwickshire County Council"/>
    <tag k="overtaking" v="no"/>
    <tag k="ref" v="A452"/>
    <tag k="shoulder" v="no"/>
    <tag k="sidewalk" v="left"/>
    <tag k="surface" v="asphalt"/>
  </way>
  <way id="101426728" version="21" timestamp="2023-07-18T08:07:27Z" changeset="138654461" uid="5589" user="user_5589">
    <nd ref="27476922"/>
    <nd ref="10274491616"/>
    <nd ref="2187344492"/>
    <nd ref="2292083443"/>
    <tag k="highway" v="trunk"/>
    <tag k="lanes" v="2"/>
    <tag k="lanes:backward" v="1"/>
    <tag k="lanes:forward" v="1"/>
    <tag k="lit" v="yes"/>
    <tag k="maintenance" v="gritting"/>
    <tag k="maxspeed" v="40 mph"/>
    <tag k="name" v="Leamington Road"/>
    <tag k="oneway" v="no"/>
    <tag k="operator" v="Warwickshire County Council"/>
    <tag k="overtaking" v="no"/>
    <tag k="ref" v="A452"/>
    <tag k="shoulder" v="no"/>
    <tag k="sidewalk" v="left"/>
    <tag k="surface" v="asphalt"/>
  </way>
  <way id="111454468" version="14" timestamp="2022-10-29T17:03:56Z" changeset="128219920" uid="5589" user="user_5589">
    <nd ref="1269803014"/>
    <nd ref="9706027345"/>
    <nd ref="1269803045"/>
    <nd ref="9706027342"/>
    <nd ref="1269803035"/>
    <nd ref="9706027339"/>
    <nd ref="2357942398"/>
    <nd ref="9706027348"/>
    <nd ref="1269803009"/>
    <tag k="highway" v="trunk"/>
    <tag k="junction" v="roundabout"/>
    <tag k="lanes" v="2"/>
    <tag k="lanes:forward" v="2"/>
    <tag k="lit" v="yes"/>
    <tag k="maintenance" v="gritting"/>
    <tag k="maxspeed" v="40 mph"/>
    <tag k="operator" v="Warwickshire County Council"/>
    <tag k="shoulder" v="no"/>
    <tag k="surface" v="asphalt"/>
  </way>
  <way id="113506110" version="11" timestamp="2022-08-01T14:37:50Z" changeset="124349712" uid="5589" user="user_5589">
    <nd ref="1286783695"/>
    <nd ref="1348856022"/>
    <tag k="cycleway:both" v="no"/>
    <tag k="highway" v="primary"/>
    <tag k="lanes" v="2"/>
    <tag k="lanes:backward" v="1"/>
    <tag k="lanes:forward" v="1"/>
    <tag k="lit" v="yes"/>
    <tag k="maxspeed" v="40 mph"/>
    <tag k="name" v="Leicester Lane"/>
    <tag k="ref" v="A445"/>
    <tag k="shoulder" v="no"/>
    <tag k="sidewalk" v="both"/>
    <tag k="sidewalk:both:surface" v="asphalt"/>
    <tag k="surface" v="asphalt"/>
  </way>
  <way id="120258108" version="10" timestamp="2024-08-11T19:11:06Z" changeset="155117516" uid="5589" user="user_5589">
    <nd ref="1348856007"/>
    <nd ref="1348856014"/>
    <tag k="cycleway:both" v="no"/>
    <tag k="highway" v="tertiary"/>
    <tag k="lanes" v="2"/>
    <tag k="lanes:backward" v="1"/>
    <tag k="lanes:forward" v="1"/>
    <tag k="lit" v="yes"/>
    <tag k="maxspeed" v="30 mph"/>
    <tag k="name" v="Sandy Lane"/>
    <tag k="oneway" v="no"/>
    <tag k="sidewalk" v="right"/>
    <tag k="sidewalk:right:surface" v="asphalt"/>
    <tag k="surface" v="asphalt"/>
  </way>
  <way id="120258112" version="14" timestamp="2022-08-01T14:37:47Z" changeset="124349712" uid="5589" user="user_5589">
    <nd ref="1348856022"/>
    <nd ref="27477376"/>
    <nd ref="27477375"/>
    <nd ref="27477374"/>
    <nd ref="415369748"/>
    <nd ref="9667088726"/>
    <tag k="cycleway:both" v="no"/>
    <tag k="highway" v="primary"/>
    <tag k="lanes" v="2"/>
    <tag k="lanes:backward" v="1"/>
    <tag k="lanes:forward" v="1"/>
    <tag k="lit" v="yes"/>
    <tag k="maxspeed" v="40 mph"/>
    <tag k="name" v="Leicester Lane"/>
    <tag k="ref" v="A445"/>
    <tag k="shoulder" v="no"/>
    <tag k="sidewalk" v="both"/>
    <tag k="sidewalk:both:surface" v="asphalt"/>
    <tag k="surface" v="asphalt"/>
  </way>
  <way id="120258115" version="13" timestamp="2024-08-11T19:11:00Z" changeset="155117516" uid="5589" user="user_5589">
    <nd ref="1348856014"/>
    <nd ref="250557782"/>
    <nd ref="1588136518"/>
    <nd ref="1588136470"/>
    <nd ref="1588136546"/>
    <tag k="cycleway:both" v="no"/>
    <tag k="highway" v="tertiary"/>
    <tag k="lanes" v="2"/>
    <tag k="lanes:backward" v="1"/>
    <tag k="lanes:forward" v="1"/>
    <tag k="lit" v="yes"/>
    <tag k="maxspeed" v="30 mph"/>
    <tag k="name" v="Sandy Lane"/>
    <tag k="oneway" v="no"/>
    <tag k="sidewalk" v="right"/>
    <tag k="sidewalk:right:surface" v="asphalt"/>
    <tag k="surface" v="asphalt"/>
  </way>
  <way id="127077402" version="14" timestamp="2022-10-29T17:04:05Z" changeset="128219920" uid="5589" user="user_5589">
    <nd ref="1269803009"/>
    <nd ref="1269803066"/>
    <nd ref="1269803016"/>
    <tag k="highway" v="trunk"/>
    <tag k="junction" v="roundabout"/>
    <tag k="lanes" v="2"/>
    <tag k="lanes:forward" v="2"/>
    <tag k="lit" v="yes"/>
    <tag k="maintenance" v="gritting"/>
    <tag k="maxspeed" v="40 mph"/>
    <tag k="operator" v="Warwickshire County Council"/>
    <tag k="shoulder" v="no"/>
    <tag k="surface" v="asphalt"/>
  </way>
  <way id="127077403" version="13" timestamp="2022-04-30T21:50:30Z" changeset="120400870" uid="5589" user="user_5589">
    <nd ref="1269803031"/>
    <nd ref="9706027343"/>
    <nd ref="1269803018"/>
    <nd ref="2056655920"/>
    <nd ref="1269803023"/>
    <nd ref="9706027340"/>
    <nd ref="1269803029"/>
    <tag k="highway" v="trunk"/>
    <tag k="junction" v="roundabout"/>
    <tag k="lanes" v="2"/>
    <tag k="lanes:forward" v="2"/>
    <tag k="lit" v="yes"/>
    <tag k="maintenance" v="gritting"/>
    <tag k="maxspeed" v="40 mph"/>
    <tag k="operator" v="Warwickshire County Council"/>
    <tag k="shoulder" v="no"/>
    <tag k="surface" v="asphalt"/>
  </way>
  <way id="127077404" version="14" timestamp="2022-10-29T17:03:51Z" changeset="128219920" uid="5589" user="user_5589">
    <nd ref="1269803029"/>
    <nd ref="1269803033"/>
    <tag k="highway" v="trunk"/>
    <tag k="junction" v="roundabout"/>
    <tag k="lanes" v="2"/>
    <tag k="lanes:forward" v="2"/>
    <tag k="lit" v="yes"/>
    <tag k="maintenance" v="gritting"/>
    <tag k="maxspeed" v="40 mph"/>
    <tag k="operator" v="Warwickshire County Council"/>
    <tag k="shoulder" v="no"/>
    <tag k="surface" v="asphalt"/>
  </way>
  <way id="128625207" version="16" timestamp="2025-01-08T20:17:21Z" changeset="161147004" uid="5229644" user="Nathan_A_RF">
    <nd ref="1420960020"/>
    <nd ref="27477072"/>
    <nd ref="27477071"/>
    <tag k="cycleway:both" v="no"/>
    <tag k="highway" v="tertiary"/>
    <tag k="highway_authority_ref" v="C36"/>
    <tag k="lane_markings" v="yes"/>
    <tag k="lanes" v="2"/>
    <tag k="lit" v="yes"/>
    <tag k="maintenance" v="gritting"/>
    <tag k="maxspeed" v="40 mph"/>
    <tag k="name" v="Bericote Road"/>
    <tag k="operator" v="Warwickshire County Council"/>
    <tag k="shoulder" v="no"/>
    <tag k="surface" v="asphalt"/>
  </way>
  <way id="145393799" version="12" timestamp="2024-08-11T19:11:16Z" changeset="155117516" uid="5589" user="user_5589">
    <nd ref="1455819563"/>
    <nd ref="1588136486"/>
    <nd ref="1588136517"/>
    <nd ref="1588136529"/>
    <nd ref="9532610463"/>
    <nd ref="1588136542"/>
    <nd ref="1588136546"/>
    <tag k="cycleway:both" v="no"/>
    <tag k="highway" v="tertiary"/>
    <tag k="lanes" v="1"/>
    <tag k="lanes:forward" v="1"/>
    <tag k="lit" v="yes"/>
    <tag k="maxspeed" v="30 mph"/>
    <tag k="name" v="Sandy Lane"/>
    <tag k="oneway" v="yes"/>
    <tag k="sidewalk" v="both"/>
    <tag k="surface" v="asphalt"/>
  </way>
  <way id="145393802" version="13" timestamp="2024-08-11T19:11:20Z" changeset="155117516" uid="5589" user="user_5589">
    <nd ref="9532610465"/>
    <nd ref="1588136478"/>
    <nd ref="1588136527"/>
    <nd ref="1588136523"/>
    <nd ref="890394907"/>
    <tag k="cycleway:both" v="no"/>
    <tag k="highway" v="tertiary"/>
    <tag k="lanes" v="1"/>
    <tag k="lanes:forward" v="1"/>
    <tag k="lit" v="yes"/>
    <tag k="maxspeed" v="30 mph"/>
    <tag k="name" v="Sandy Lane"/>
    <tag k="oneway" v="yes"/>
    <tag k="sidewalk" v="both"/>
    <tag k="surface" v="asphalt"/>
  </way>
  <way id="190345636" version="21" timestamp="2023-07-18T08:07:01Z" changeset="138654461" uid="5589" user="user_5589">
    <nd ref="32679871"/>
    <nd ref="2056655967"/>
    <nd ref="1479553340"/>
    <nd ref="32679870"/>
    <nd ref="2121400574"/>
    <nd ref="9938194842"/>
    <nd ref="7911302003"/>
    <nd ref="32679869"/>
    <nd ref="10274368703"/>
    <nd ref="32679868"/>
    <nd ref="10274397061"/>
    <nd ref="2056655938"/>
    <nd ref="9938194839"/>
    <nd ref="32679867"/>
    <nd ref="32679866"/>
    <nd ref="7911302004"/>
    <nd ref="32679865"/>
    <nd ref="7911302005"/>
    <nd ref="7911302006"/>
    <nd ref="32679863"/>
    <nd ref="7911302007"/>
    <nd ref="9938194838"/>
    <nd ref="32679862"/>
    <nd ref="32679861"/>
    <nd ref="2056655905"/>
    <nd ref="1479553337"/>
    <nd ref="2056655928"/>
    <nd ref="10144723897"/>
    <nd ref="32679860"/>
    <nd ref="2056655932"/>
    <tag k="highway" v="trunk"/>
    <tag k="lanes" v="2"/>
    <tag k="lanes:backward" v="1"/>
    <tag k="lanes:forward" v="1"/>
    <tag k="lit" v="no"/>
    <tag k="maintenance" v="gritting"/>
    <tag k="maxspeed" v="40 mph"/>
    <tag k="name" v="Kenilworth Road"/>
    <tag k="oneway" v="no"/>
    <tag k="operator" v="Warwickshire County Council"/>
    <tag k="ref" v="A452"/>
    <tag k="shoulder" v="no"/>
    <tag k="sidewalk" v="left"/>
    <tag k="surface" v="asphalt"/>
  </way>
  <way id="229415648" version="4" timestamp="2021-11-11T21:38:37Z" changeset="113670264" uid="13087991" user="hvollstedt_EG">
    <nd ref="2380178153"/>
    <nd ref="2380178158"/>
    <nd ref="2380178155"/>
    <nd ref="2380178156"/>
    <nd ref="2380178154"/>
    <nd ref="2380178152"/>
    <nd ref="2380178147"/>
    <nd ref="2380178140"/>
    <nd ref="2380178145"/>
    <nd ref="2380178141"/>
    <nd ref="2380178144"/>
    <nd ref="2380178138"/>
    <nd ref="2380178131"/>
    <nd ref="3716869129"/>
    <nd ref="2380178126"/>
    <nd ref="2380178132"/>
    <nd ref="2380178129"/>
    <nd ref="2380178130"/>
    <nd ref="2380178128"/>
    <nd ref="2380178133"/>
    <nd ref="2380178135"/>
    <nd ref="2380178142"/>
    <nd ref="2380178148"/>
    <nd ref="2380178149"/>
    <nd ref="2380178150"/>
    <nd ref="2380178153"/>
    <tag k="addr:city" v="Kenilworth"/>
    <tag k="addr:postcode" v="CV8 2LN"/>
    <tag k="addr:street" v="Chesford Bridge"/>
    <tag k="bar" v="yes"/>
    <tag k="building" v="hotel"/>
    <tag k="fhrs:id" v="241874"/>
    <tag k="internet_access" v="wlan"/>
    <tag k="internet_access:fee" v="no"/>
    <tag k="name" v="The Kenilworth Riverside"/>
    <tag k="source" v="bing"/>
    <tag k="tourism" v="hotel"/>
    <tag k="website" v="https://www.kenilworthriverside.com/"/>
  </way>
  <way id="270762611" version="10" timestamp="2025-05-08T18:43:05Z" changeset="165998277" uid="3199858" user="Mateusz Konieczny - bot account">
    <nd ref="2056655932"/>
    <nd ref="2056655965"/>
    <nd ref="32679858"/>
    <nd ref="2056655944"/>
    <nd ref="32679857"/>
    <tag k="foot" v="yes"/>
    <tag k="highway" v="trunk"/>
    <tag k="lanes" v="2"/>
    <tag k="lanes:backward" v="1"/>
    <tag k="lanes:forward" v="1"/>
    <tag k="lit" v="yes"/>
    <tag k="maintenance" v="gritting"/>
    <tag k="maxspeed" v="40 mph"/>
    <tag k="name" v="Kenilworth Road"/>
    <tag k="oneway" v="no"/>
    <tag k="operator" v="Warwickshire County Council"/>
    <tag k="ref" v="A452"/>
    <tag k="shoulder" v="no"/>
    <tag k="sidewalk" v="no"/>
    <tag k="surface" v="asphalt"/>
  </way>
  <way id="305779555" version="6" timestamp="2022-04-30T21:50:30Z" changeset="120400870" uid="5589" user="user_5589">
    <nd ref="1269803016"/>
    <nd ref="9706027346"/>
    <nd ref="2357942401"/>
    <nd ref="1269803049"/>
    <nd ref="9706027344"/>
    <nd ref="1269803054"/>
    <nd ref="9706027347"/>
    <nd ref="1269803020"/>
    <nd ref="9706027341"/>
    <nd ref="1269803056"/>
    <nd ref="1269803052"/>
    <nd ref="1269803025"/>
    <nd ref="1269803031"/>
    <tag k="highway" v="trunk"/>
    <tag k="junction" v="roundabout"/>
    <tag k="lanes" v="2"/>
    <tag k="lanes:forward" v="2"/>
    <tag k="lit" v="yes"/>
    <tag k="maintenance" v="gritting"/>
    <tag k="maxspeed" v="40 mph"/>
    <tag k="operator" v="Warwickshire County Council"/>
    <tag k="shoulder" v="no"/>
    <tag k="surface" v="asphalt"/>
  </way>
  <way id="341738291" version="8" timestamp="2022-08-01T14:38:09Z" changeset="124349712" uid="5589" user="user_5589">
    <nd ref="8934182940"/>
    <nd ref="1588136510"/>
    <nd ref="250557783"/>
    <nd ref="1588136539"/>
    <nd ref="1348856006"/>
    <nd ref="1836915224"/>
    <nd ref="1348856007"/>
    <tag k="cycleway:both" v="no"/>
    <tag k="highway" v="tertiary"/>
    <tag k="lanes" v="2"/>
    <tag k="lanes:backward" v="1"/>
    <tag k="lanes:forward" v="1"/>
    <tag k="lit" v="yes"/>
    <tag k="maxspeed" v="30 mph"/>
    <tag k="name" v="Sandy Lane"/>
    <tag k="oneway" v="no"/>
    <tag k="sidewalk" v="right"/>
    <tag k="sidewalk:right:surface" v="asphalt"/>
    <tag k="surface" v="asphalt"/>
  </way>
  <way id="388866926" version="5" timestamp="2024-01-03T14:55:03Z" changeset="145843208" uid="353317" user="neonKnight">
    <nd ref="3920532148"/>
    <nd ref="3920532149"/>
    <nd ref="3920532150"/>
    <nd ref="3920532151"/>
    <nd ref="3920532152"/>
    <nd ref="3920532153"/>
    <nd ref="3920532154"/>
    <nd ref="3920532957"/>
    <nd ref="3920532148"/>
    <tag k="addr:street" v="Sandy Lane"/>
    <tag k="amenity" v="place_of_worship"/>
    <tag k="building" v="yes"/>
    <tag k="denomination" v="plymouth_brethren"/>
    <tag k="name" v="Brethren's Meeting Room"/>
    <tag k="religion" v="christian"/>
    <tag k="wheelchair" v="yes"/>
  </way>
  <way id="614498040" version="3" timestamp="2023-04-16T13:51:47Z" changeset="134976174" uid="4078654" user="currybum">
    <nd ref="5812606527"/>
    <nd ref="5812606526"/>
    <nd ref="5812606525"/>
    <nd ref="5812606524"/>
    <nd ref="5812606523"/>
    <nd ref="5812606522"/>
    <nd ref="5812606521"/>
    <nd ref="5812606520"/>
    <nd ref="5812606527"/>
    <tag k="building" v="sports_centre"/>
    <tag k="club" v="sport"/>
    <tag k="name" v="Old Leamingtonians"/>
    <tag k="source" v="Warwicks CC Aerial Imagery 2013"/>
  </way>
  <way id="614498053" version="2" timestamp="2019-03-29T20:19:54Z" changeset="68678303" uid="9065" user="brianboru">
    <nd ref="5812606699"/>
    <nd ref="5812606698"/>
    <nd ref="5812606697"/>
    <nd ref="5812606696"/>
    <nd ref="5812606695"/>
    <nd ref="5812606694"/>
    <nd ref="5812606693"/>
    <nd ref="5812606692"/>
    <nd ref="5812606691"/>
    <nd ref="5812606690"/>
    <nd ref="5812606689"/>
    <nd ref="5812606688"/>
    <nd ref="5812606699"/>
    <tag k="amenity" v="place_of_worship"/>
    <tag k="building" v="yes"/>
    <tag k="name" v="Gurdwara Babake"/>
    <tag k="religion" v="sikh"/>
    <tag k="source" v="Warwicks CC Aerial Imagery 2013"/>
  </way>
  <way id="680428405" version="11" timestamp="2025-05-28T12:45:15Z" changeset="166874640" uid="5589" user="user_5589">
    <nd ref="12870930188"/>
    <nd ref="27477091"/>
    <tag k="cycleway:both" v="no"/>
    <tag k="highway" v="tertiary"/>
    <tag k="highway_authority_ref" v="C36"/>
    <tag k="lane_markings" v="yes"/>
    <tag k="lanes" v="2"/>
    <tag k="lit" v="yes"/>
    <tag k="maintenance" v="gritting"/>
    <tag k="maxspeed" v="60 mph"/>
    <tag k="maxspeed:type" v="GB:nsl_single"/>
    <tag k="name" v="Bericote Road"/>
    <tag k="operator" v="Warwickshire County Council"/>
    <tag k="shoulder" v="no"/>
    <tag k="sidewalk" v="no"/>
    <tag k="surface" v="asphalt"/>
  </way>
  <way id="796402769" version="3" timestamp="2025-08-30T12:05:12Z" changeset="171223929" uid="5589" user="user_5589">
    <nd ref="7448293988"/>
    <nd ref="7448293989"/>
    <nd ref="7448293990"/>
    <nd ref="7448293991"/>
    <nd ref="7448293988"/>
    <tag k="building" v="yes"/>
    <tag k="check_date" v="2025-08-30"/>
    <tag k="club" v="sport"/>
    <tag k="name" v="Leamington Netball"/>
    <tag k="website" v="https://www.leamingtonnetball.com/"/>
  </way>
  <way id="884516212" version="11" timestamp="2022-12-07T07:54:19Z" changeset="129808979" uid="5589" user="user_5589">
    <nd ref="1455819574"/>
    <nd ref="890394891"/>
    <nd ref="27477382"/>
    <nd ref="890394932"/>
    <nd ref="2009615067"/>
    <nd ref="890394930"/>
    <nd ref="27477383"/>
    <tag k="cycleway:both" v="no"/>
    <tag k="foot" v="yes"/>
    <tag k="highway" v="primary"/>
    <tag k="junction" v="roundabout"/>
    <tag k="lanes" v="2"/>
    <tag k="lanes:forward" v="2"/>
    <tag k="lit" v="yes"/>
    <tag k="maxspeed" v="30 mph"/>
    <tag k="name" v="Leicester Lane"/>
    <tag k="oneway" v="yes"/>
    <tag k="ref" v="A445"/>
    <tag k="shoulder" v="no"/>
    <tag k="sidewalk" v="no"/>
    <tag k="surface" v="asphalt"/>
  </way>
  <way id="884516215" version="10" timestamp="2022-12-07T07:53:50Z" changeset="129808979" uid="5589" user="user_5589">
    <nd ref="27477383"/>
    <nd ref="1455819563"/>
    <nd ref="890394924"/>
    <nd ref="3004537618"/>
    <nd ref="890394921"/>
    <nd ref="890394918"/>
    <nd ref="27477384"/>
    <nd ref="9532610466"/>
    <nd ref="890394907"/>
    <nd ref="260313892"/>
    <tag k="cycleway:both" v="no"/>
    <tag k="highway" v="primary"/>
    <tag k="junction" v="roundabout"/>
    <tag k="lanes" v="2"/>
    <tag k="lanes:forward" v="2"/>
    <tag k="lit" v="yes"/>
    <tag k="maxspeed" v="30 mph"/>
    <tag k="name" v="Leicester Lane"/>
    <tag k="oneway" v="yes"/>
    <tag k="ref" v="A445"/>
    <tag k="sidewalk" v="left"/>
    <tag k="surface" v="asphalt"/>
  </way>
  <way id="884516217" version="9" timestamp="2022-12-07T07:54:04Z" changeset="129808979" uid="5589" user="user_5589">
    <nd ref="260313892"/>
    <nd ref="3004537617"/>
    <nd ref="890394906"/>
    <nd ref="3004537616"/>
    <nd ref="260313894"/>
    <tag k="cycleway:both" v="no"/>
    <tag k="highway" v="primary"/>
    <tag k="junction" v="roundabout"/>
    <tag k="lanes" v="2"/>
    <tag k="lanes:forward" v="2"/>
    <tag k="lit" v="yes"/>
    <tag k="maxspeed" v="30 mph"/>
    <tag k="name" v="Leicester Lane"/>
    <tag k="oneway" v="yes"/>
    <tag k="ref" v="A445"/>
    <tag k="sidewalk" v="left"/>
    <tag k="surface" v="asphalt"/>
  </way>
  <way id="889968283" version="8" timestamp="2025-01-08T20:17:21Z" changeset="161147004" uid="5229644" user="Nathan_A_RF">
    <nd ref="1269808831"/>
    <nd ref="6371011990"/>
    <nd ref="27477131"/>
    <nd ref="6371011992"/>
    <nd ref="6371011991"/>
    <nd ref="1269808808"/>
    <nd ref="15831016"/>
    <tag k="cycleway:left" v="no"/>
    <tag k="highway" v="secondary"/>
    <tag k="junction" v="roundabout"/>
    <tag k="lanes" v="2"/>
    <tag k="lit" v="yes"/>
    <tag k="maintenance" v="gritting"/>
    <tag k="maxspeed" v="40 mph"/>
    <tag k="oneway" v="yes"/>
    <tag k="operator" v="Warwickshire County Council"/>
    <tag k="shoulder" v="no"/>
    <tag k="sidewalk" v="no"/>
    <tag k="surface" v="asphalt"/>
  </way>
  <way id="889968284" version="5" timestamp="2025-01-08T20:17:21Z" changeset="161147004" uid="5229644" user="Nathan_A_RF">
    <nd ref="27477130"/>
    <nd ref="1269808840"/>
    <nd ref="6371011993"/>
    <nd ref="8235225905"/>
    <nd ref="27477096"/>
    <tag k="cycleway:left" v="no"/>
    <tag k="highway" v="secondary"/>
    <tag k="junction" v="roundabout"/>
    <tag k="lanes" v="2"/>
    <tag k="lit" v="yes"/>
    <tag k="maintenance" v="gritting"/>
    <tag k="maxspeed" v="40 mph"/>
    <tag k="oneway" v="yes"/>
    <tag k="operator" v="Warwickshire County Council"/>
    <tag k="shoulder" v="no"/>
    <tag k="surface" v="asphalt"/>
  </way>
  <way id="894656559" version="10" timestamp="2022-12-15T22:34:44Z" changeset="130133293" uid="5589" user="user_5589">
    <nd ref="8316039585"/>
    <nd ref="9705548637"/>
    <nd ref="6904617512"/>
    <nd ref="15831015"/>
    <nd ref="9037089450"/>
    <nd ref="9037089448"/>
    <nd ref="9647011643"/>
    <nd ref="2357634492"/>
    <nd ref="2357634484"/>
    <nd ref="9647011641"/>
    <nd ref="560059130"/>
    <nd ref="6301693529"/>
    <nd ref="9705548633"/>
    <nd ref="15831014"/>
    <nd ref="1836915245"/>
    <tag k="cycleway:both" v="no"/>
    <tag k="highway" v="secondary"/>
    <tag k="lane_markings" v="yes"/>
    <tag k="lanes" v="2"/>
    <tag k="lanes:backward" v="1"/>
    <tag k="lanes:forward" v="1"/>
    <tag k="lit" v="yes"/>
    <tag k="maintenance" v="gritting"/>
    <tag k="maxspeed" v="40 mph"/>
    <tag k="name" v="Stoneleigh Road"/>
    <tag k="operator" v="Warwickshire County Council"/>
    <tag k="overtaking" v="no"/>
    <tag k="ref" v="B4113"/>
    <tag k="road_marking" v="GB:1013.1"/>
    <tag k="shoulder" v="no"/>
    <tag k="sidewalk" v="right"/>
    <tag k="sidewalk:right:surface" v="asphalt"/>
    <tag k="surface" v="asphalt"/>
  </way>
  <way id="897736286" version="7" timestamp="2022-12-15T22:34:44Z" changeset="130133293" uid="5589" user="user_5589">
    <nd ref="1836915245"/>
    <nd ref="1836915227"/>
    <nd ref="250557789"/>
    <tag k="cycleway:both" v="no"/>
    <tag k="highway" v="secondary"/>
    <tag k="lane_markings" v="yes"/>
    <tag k="lanes" v="2"/>
    <tag k="lanes:backward" v="1"/>
    <tag k="lanes:forward" v="1"/>
    <tag k="lit" v="yes"/>
    <tag k="maintenance" v="gritting"/>
    <tag k="maxspeed" v="40 mph"/>
    <tag k="name" v="Stoneleigh Road"/>
    <tag k="operator" v="Warwickshire County Council"/>
    <tag k="ref" v="B4113"/>
    <tag k="shoulder" v="no"/>
    <tag k="sidewalk" v="right"/>
    <tag k="sidewalk:right:surface" v="asphalt"/>
    <tag k="surface" v="asphalt"/>
  </way>
  <way id="917698032" version="5" timestamp="2023-02-21T21:09:32Z" changeset="132853861" uid="5589" user="user_5589">
    <nd ref="1524859149"/>
    <nd ref="1269803014"/>
    <tag k="highway" v="trunk"/>
    <tag k="junction" v="roundabout"/>
    <tag k="lanes" v="2"/>
    <tag k="lanes:forward" v="2"/>
    <tag k="lit" v="yes"/>
    <tag k="maintenance" v="gritting"/>
    <tag k="maxspeed" v="40 mph"/>
    <tag k="operator" v="Warwickshire County Council"/>
    <tag k="shoulder" v="no"/>
    <tag k="surface" v="asphalt"/>
  </way>
  <way id="917698034" version="5" timestamp="2023-02-21T21:09:32Z" changeset="132853861" uid="5589" user="user_5589">
    <nd ref="1269803033"/>
    <nd ref="1269803036"/>
    <nd ref="10684215475"/>
    <nd ref="1524859149"/>
    <tag k="highway" v="trunk"/>
    <tag k="junction" v="roundabout"/>
    <tag k="lanes" v="2"/>
    <tag k="lanes:forward" v="2"/>
    <tag k="lit" v="yes"/>
    <tag k="maintenance" v="gritting"/>
    <tag k="maxspeed" v="40 mph"/>
    <tag k="operator" v="Warwickshire County Council"/>
    <tag k="shoulder" v="no"/>
    <tag k="surface" v="asphalt"/>
  </way>
  <way id="965755615" version="7" timestamp="2022-07-15T16:19:05Z" changeset="123657150" uid="5589" user="user_5589">
    <nd ref="712746162"/>
    <nd ref="712746107"/>
    <nd ref="9591198091"/>
    <nd ref="8934182940"/>
    <tag k="cycleway:both" v="no"/>
    <tag k="highway" v="tertiary"/>
    <tag k="lanes" v="2"/>
    <tag k="lanes:backward" v="1"/>
    <tag k="lanes:forward" v="1"/>
    <tag k="lit" v="no"/>
    <tag k="maxspeed" v="40 mph"/>
    <tag k="name" v="Sandy Lane"/>
    <tag k="oneway" v="no"/>
    <tag k="shoulder" v="no"/>
    <tag k="sidewalk" v="right"/>
    <tag k="sidewalk:right:surface" v="asphalt"/>
    <tag k="surface" v="asphalt"/>
  </way>
  <way id="1051956472" version="4" timestamp="2022-08-01T14:37:42Z" changeset="124349712" uid="5589" user="user_5589">
    <nd ref="9667088726"/>
    <nd ref="2357634301"/>
    <nd ref="457500397"/>
    <tag k="cycleway:both" v="no"/>
    <tag k="highway" v="primary"/>
    <tag k="lanes" v="2"/>
    <tag k="lanes:backward" v="1"/>
    <tag k="lanes:forward" v="1"/>
    <tag k="lit" v="yes"/>
    <tag k="maxspeed" v="40 mph"/>
    <tag k="name" v="Leicester Lane"/>
    <tag k="ref" v="A445"/>
    <tag k="shoulder" v="no"/>
    <tag k="sidewalk" v="right"/>
    <tag k="sidewalk:right:surface" v="asphalt"/>
    <tag k="surface" v="asphalt"/>
  </way>
  <way id="1051956478" version="4" timestamp="2023-03-09T23:22:09Z" changeset="133498140" uid="5589" user="user_5589">
    <nd ref="457500397"/>
    <nd ref="10724566239"/>
    <nd ref="27477373"/>
    <nd ref="10724566237"/>
    <nd ref="27477372"/>
    <nd ref="10724566242"/>
    <nd ref="457500394"/>
    <tag k="cycleway:both" v="no"/>
    <tag k="highway" v="primary"/>
    <tag k="lanes" v="2"/>
    <tag k="lanes:backward" v="1"/>
    <tag k="lanes:forward" v="1"/>
    <tag k="lit" v="yes"/>
    <tag k="maxspeed" v="40 mph"/>
    <tag k="name" v="Leicester Lane"/>
    <tag k="ref" v="A445"/>
    <tag k="shoulder" v="no"/>
    <tag k="sidewalk" v="no"/>
    <tag k="surface" v="asphalt"/>
  </way>
  <way id="1051956491" version="5" timestamp="2023-03-09T23:22:09Z" changeset="133498140" uid="5589" user="user_5589">
    <nd ref="457500394"/>
    <nd ref="10724566238"/>
    <nd ref="27477371"/>
    <nd ref="10724566244"/>
    <nd ref="1885196222"/>
    <nd ref="27477370"/>
    <nd ref="1885196223"/>
    <nd ref="1885196224"/>
    <nd ref="1885196228"/>
    <nd ref="2009615063"/>
    <tag k="cycleway:both" v="no"/>
    <tag k="highway" v="primary"/>
    <tag k="lanes" v="2"/>
    <tag k="lanes:backward" v="1"/>
    <tag k="lanes:forward" v="1"/>
    <tag k="lit" v="yes"/>
    <tag k="maxspeed" v="40 mph"/>
    <tag k="name" v="Leicester Lane"/>
    <tag k="ref" v="A445"/>
    <tag k="shoulder" v="no"/>
    <tag k="sidewalk" v="right"/>
    <tag k="sidewalk:right:surface" v="asphalt"/>
    <tag k="surface" v="asphalt"/>
  </way>
  <way id="1056290100" version="7" timestamp="2025-01-08T20:17:21Z" changeset="161147004" uid="5229644" user="Nathan_A_RF">
    <nd ref="15831016"/>
    <nd ref="1269808804"/>
    <nd ref="1269808823"/>
    <nd ref="27477130"/>
    <tag k="cycleway:left" v="no"/>
    <tag k="highway" v="secondary"/>
    <tag k="junction" v="roundabout"/>
    <tag k="lanes" v="2"/>
    <tag k="lit" v="yes"/>
    <tag k="maintenance" v="gritting"/>
    <tag k="maxspeed" v="40 mph"/>
    <tag k="oneway" v="yes"/>
    <tag k="operator" v="Warwickshire County Council"/>
    <tag k="shoulder" v="no"/>
    <tag k="sidewalk" v="left"/>
    <tag k="surface" v="asphalt"/>
  </way>
  <way id="1066787165" version="4" timestamp="2024-08-11T19:11:27Z" changeset="155117516" uid="5589" user="user_5589">
    <nd ref="1588136546"/>
    <nd ref="1588136482"/>
    <nd ref="1588136516"/>
    <nd ref="9532610465"/>
    <tag k="cycleway:left" v="no"/>
    <tag k="highway" v="tertiary"/>
    <tag k="lanes" v="1"/>
    <tag k="lanes:forward" v="1"/>
    <tag k="lit" v="yes"/>
    <tag k="maxspeed" v="30 mph"/>
    <tag k="name" v="Sandy Lane"/>
    <tag k="oneway" v="yes"/>
    <tag k="shoulder" v="no"/>
    <tag k="sidewalk" v="no"/>
    <tag k="surface" v="asphalt"/>
  </way>
  <way id="1084419295" version="5" timestamp="2025-01-08T20:17:21Z" changeset="161147004" uid="5229644" user="Nathan_A_RF">
    <nd ref="27477092"/>
    <nd ref="2292083369"/>
    <nd ref="8235225907"/>
    <nd ref="254596087"/>
    <tag k="cycleway:left" v="no"/>
    <tag k="highway" v="tertiary"/>
    <tag k="highway_authority_ref" v="C36"/>
    <tag k="lanes" v="1"/>
    <tag k="lit" v="yes"/>
    <tag k="maintenance" v="gritting"/>
    <tag k="maxspeed" v="40 mph"/>
    <tag k="name" v="Bericote Road"/>
    <tag k="oneway" v="yes"/>
    <tag k="operator" v="Warwickshire County Council"/>
    <tag k="shoulder" v="no"/>
    <tag k="surface" v="asphalt"/>
  </way>
  <way id="1084419297" version="4" timestamp="2025-01-08T20:17:21Z" changeset="161147004" uid="5229644" user="Nathan_A_RF">
    <nd ref="560059112"/>
    <nd ref="2188199543"/>
    <nd ref="2188199539"/>
    <nd ref="27477099"/>
    <tag k="cycleway:both" v="no"/>
    <tag k="highway" v="tertiary"/>
    <tag k="lane_markings" v="yes"/>
    <tag k="lanes" v="2"/>
    <tag k="lit" v="yes"/>
    <tag k="maintenance" v="gritting"/>
    <tag k="maxspeed" v="50 mph"/>
    <tag k="maxspeed:type" v="sign"/>
    <tag k="name" v="Westhill Road"/>
    <tag k="operator" v="Warwickshire County Council"/>
    <tag k="shoulder" v="no"/>
    <tag k="sidewalk" v="right"/>
    <tag k="sidewalk:right:surface" v="asphalt"/>
    <tag k="surface" v="asphalt"/>
  </way>
  <way id="1108005846" version="4" timestamp="2023-02-21T08:55:18Z" changeset="132824645" uid="5589" user="user_5589">
    <nd ref="27476923"/>
    <nd ref="849561726"/>
    <tag k="highway" v="trunk"/>
    <tag k="lanes" v="1"/>
    <tag k="lanes:forward" v="1"/>
    <tag k="lit" v="yes"/>
    <tag k="maintenance" v="gritting"/>
    <tag k="maxspeed" v="40 mph"/>
    <tag k="name" v="Leamington Road"/>
    <tag k="oneway" v="yes"/>
    <tag k="operator" v="Warwickshire County Council"/>
    <tag k="ref" v="A452"/>
    <tag k="shoulder" v="no"/>
    <tag k="surface" v="asphalt"/>
  </way>
  <way id="1148337147" version="2" timestamp="2023-02-22T04:12:42Z" changeset="132861019" uid="5589" user="user_5589">
    <nd ref="10682703729"/>
    <nd ref="2349709928"/>
    <nd ref="10684680356"/>
    <nd ref="9520706958"/>
    <nd ref="849561610"/>
    <nd ref="1269803029"/>
    <tag k="highway" v="trunk"/>
    <tag k="lanes" v="2"/>
    <tag k="lanes:forward" v="2"/>
    <tag k="lit" v="yes"/>
    <tag k="maintenance" v="gritting"/>
    <tag k="maxspeed" v="40 mph"/>
    <tag k="name" v="Kenilworth Road"/>
    <tag k="oneway" v="yes"/>
    <tag k="operator" v="Warwickshire County Council"/>
    <tag k="ref" v="A452"/>
    <tag k="surface" v="asphalt"/>
  </way>
  <way id="1148337148" version="1" timestamp="2023-02-21T21:09:32Z" changeset="132853861" uid="5589" user="user_5589">
    <nd ref="10684215474"/>
    <nd ref="849561752"/>
    <nd ref="7250375339"/>
    <nd ref="849561753"/>
    <nd ref="535891902"/>
    <nd ref="1269803052"/>
    <tag k="cycleway:left" v="no"/>
    <tag k="highway" v="tertiary"/>
    <tag k="highway_authority_ref" v="C36"/>
    <tag k="lanes" v="2"/>
    <tag k="lanes:forward" v="2"/>
    <tag k="lit" v="yes"/>
    <tag k="maxspeed" v="40 mph"/>
    <tag k="name" v="Bericote Road"/>
    <tag k="oneway" v="yes"/>
    <tag k="surface" v="asphalt"/>
  </way>
  <way id="1197964678" version="3" timestamp="2025-01-08T20:17:21Z" changeset="161147004" uid="5229644" user="Nathan_A_RF">
    <nd ref="27477096"/>
    <nd ref="1269808839"/>
    <nd ref="27477095"/>
    <tag k="cycleway:left" v="no"/>
    <tag k="highway" v="secondary"/>
    <tag k="junction" v="roundabout"/>
    <tag k="lanes" v="2"/>
    <tag k="lit" v="yes"/>
    <tag k="maintenance" v="gritting"/>
    <tag k="maxspeed" v="40 mph"/>
    <tag k="oneway" v="yes"/>
    <tag k="operator" v="Warwickshire County Council"/>
    <tag k="shoulder" v="no"/>
    <tag k="sidewalk" v="left"/>
    <tag k="surface" v="asphalt"/>
  </way>
  <way id="1390431041" version="1" timestamp="2025-05-28T12:24:41Z" changeset="166873784" uid="5589" user="user_5589">
    <nd ref="27477092"/>
    <nd ref="12870930188"/>
    <tag k="cycleway:both" v="no"/>
    <tag k="highway" v="tertiary"/>
    <tag k="highway_authority_ref" v="C36"/>
    <tag k="lane_markings" v="yes"/>
    <tag k="lanes" v="2"/>
    <tag k="lit" v="yes"/>
    <tag k="maintenance" v="gritting"/>
    <tag k="maxspeed" v="40 mph"/>
    <tag k="maxspeed:type" v="GB:nsl_single"/>
    <tag k="name" v="Bericote Road"/>
    <tag k="operator" v="Warwickshire County Council"/>
    <tag k="shoulder" v="no"/>
    <tag k="sidewalk" v="no"/>
    <tag k="surface" v="asphalt"/>
  </way>

</osm>
