<?xml version="1.0" encoding="UTF-8"?>
<osm version="0.6" generator="Overpass API 0.7.62.8 e802775f">
<note>The data included in this document is from www.openstreetmap.org. The data is made available under ODbL.</note>
<meta osm_base="2025-10-23T17:08:00Z" areas="2025-10-23T14:54:58Z"/>

  <node id="13787281" lat="52.4900962" lon="-1.5705632" version="6" timestamp="2014-03-29T07:44:14Z" changeset="21378454" uid="9065" user="brianboru"/>
  <node id="13787577" lat="52.5086601" lon="-1.5228938" version="2" timestamp="2012-03-14T10:00:36Z" changeset="10976010" uid="154484" user="PeterP"/>
  <node id="27396920" lat="52.5172097" lon="-1.5553191" version="4" timestamp="2016-05-19T14:12:42Z" changeset="39425447" uid="9065" user="brianboru"/>
  <node id="27396923" lat="52.5170223" lon="-1.5549047" version="5" timestamp="2016-05-19T14:12:42Z" changeset="39425447" uid="9065" user="brianboru"/>
  <node id="254678612" lat="52.5106697" lon="-1.5491189" version="1" timestamp="2008-03-29T18:41:39Z" changeset="418790" uid="735" user="blackadder">
    <tag k="created_by" v="JOSM"/>
  </node>
  <node id="467451733" lat="52.4747960" lon="-1.5303892" version="5" timestamp="2011-08-11T17:28:39Z" changeset="8987570" uid="154484" user="PeterP"/>
  <node id="467451757" lat="52.4762105" lon="-1.5166047" version="6" timestamp="2012-02-14T12:32:48Z" changeset="10682297" uid="9065" user="brianboru"/>
  <node id="1353929543" lat="52.4787393" lon="-1.5119020" version="5" timestamp="2015-06-09T17:14:33Z" changeset="31849674" uid="154484" user="PeterP"/>
  <node id="1353941694" lat="52.4811259" lon="-1.5555787" version="4" timestamp="2015-02-28T12:43:10Z" changeset="29154143" uid="154484" user="PeterP"/>
  <node id="1395170722" lat="52.4746636" lon="-1.5312217" version="1" timestamp="2011-08-11T17:28:37Z" changeset="8987570" uid="154484" user="PeterP"/>
  <node id="1632656635" lat="52.4763192" lon="-1.5126731" version="1" timestamp="2012-02-14T12:41:48Z" changeset="10682380" uid="9065" user="brianboru">
    <tag k="highway" v="mini_roundabout"/>
    <tag k="source" v="bing"/>
  </node>
  <node id="4054639250" lat="52.4730663" lon="-1.5464720" version="1" timestamp="2016-03-11T12:44:34Z" changeset="37758598" uid="154484" user="PeterP"/>
  <node id="6503535563" lat="52.4864658" lon="-1.5179870" version="1" timestamp="2019-05-27T10:05:48Z" changeset="70655765" uid="9259465" user="alivelis"/>
  <node id="6503535566" lat="52.4863914" lon="-1.5178071" version="1" timestamp="2019-05-27T10:05:48Z" changeset="70655765" uid="9259465" user="alivelis"/>
  <node id="8841271193" lat="52.5157458" lon="-1.5557152" version="1" timestamp="2021-06-17T08:27:24Z" changeset="106514254" uid="13262840" user="jakedowner"/>
  <node id="12844870967" lat="52.4982623" lon="-1.5395230" version="1" timestamp="2025-05-17T21:19:38Z" changeset="166409268" uid="22318191" user="Feathers McGraw"/>
  <way id="15135310" version="12" timestamp="2025-09-04T19:22:04Z" changeset="171466265" uid="12943226" user="Inkle">
    <nd ref="13787556"/>
    <nd ref="32578588"/>
    <nd ref="32578589"/>
    <nd ref="32578590"/>
    <nd ref="32578591"/>
    <nd ref="32578592"/>
    <tag k="gritting" v="yes"/>
    <tag k="gritting_depot" v="Coleshill Heath Road"/>
    <tag k="gritting_operator" v="Warwickshire County Council"/>
    <tag k="gritting_route_ref" v="4"/>
    <tag k="gritting_route_revision" v="201105"/>
    <tag k="highway" v="tertiary"/>
    <tag k="highway_authority_ref" v="C13"/>
    <tag k="lanes" v="2"/>
    <tag k="lit" v="no"/>
    <tag k="maintenance" v="gritting"/>
    <tag k="maxspeed" v="30 mph"/>
    <tag k="name" v="Red Lane"/>
    <tag k="sidewalk" v="no"/>
    <tag k="surface" v="asphalt"/>
  </way>
  <way id="23517254" version="17" timestamp="2025-08-18T07:30:09Z" changeset="170599086" uid="12943226" user="Inkle">
    <nd ref="254677420"/>
    <nd ref="8020568201"/>
    <nd ref="8813898831"/>
    <nd ref="7104582816"/>
    <nd ref="254677443"/>
    <nd ref="254677449"/>
    <nd ref="254677454"/>
    <nd ref="254677462"/>
    <nd ref="8239327567"/>
    <nd ref="254677467"/>
    <nd ref="6276979315"/>
    <nd ref="8345599706"/>
    <nd ref="1353941662"/>
    <nd ref="1353941673"/>
    <tag k="highway" v="tertiary"/>
    <tag k="lanes" v="2"/>
    <tag k="maxspeed" v="60 mph"/>
    <tag k="maxspeed:type" v="GB:nsl_single"/>
    <tag k="name" v="Breach Oak Lane"/>
    <tag k="surface" v="asphalt"/>
  </way>
  <way id="23517255" version="14" timestamp="2025-05-17T21:19:38Z" changeset="166409268" uid="22318191" user="Feathers McGraw">
    <nd ref="12844870969"/>
    <nd ref="254678464"/>
    <nd ref="254678473"/>
    <nd ref="254678481"/>
    <nd ref="2396945822"/>
    <nd ref="254678493"/>
    <nd ref="254678528"/>
    <nd ref="254678536"/>
    <nd ref="7015873422"/>
    <nd ref="254678543"/>
    <nd ref="254678549"/>
    <nd ref="254678560"/>
    <nd ref="254678569"/>
    <nd ref="254678576"/>
    <nd ref="254678585"/>
    <nd ref="254678596"/>
    <nd ref="254678604"/>
    <nd ref="254678612"/>
    <tag k="gritting" v="yes"/>
    <tag k="gritting_depot" v="Coleshill Heath Road"/>
    <tag k="gritting_operator" v="Warwickshire County Council"/>
    <tag k="gritting_route_ref" v="4"/>
    <tag k="gritting_route_revision" v="201105"/>
    <tag k="highway" v="tertiary"/>
    <tag k="highway_authority_ref" v="C13"/>
    <tag k="lanes" v="2"/>
    <tag k="maintenance" v="gritting"/>
    <tag k="maxspeed" v="50 mph"/>
    <tag k="name" v="Church Lane"/>
    <tag k="source:name" v="OS_OpenData_Locator"/>
    <tag k="surface" v="paved"/>
  </way>
  <way id="23517256" version="5" timestamp="2013-07-29T14:32:33Z" changeset="17140259" uid="9065" user="brianboru">
    <nd ref="254678409"/>
    <nd ref="254678417"/>
    <nd ref="254678422"/>
    <nd ref="254678430"/>
    <nd ref="254678441"/>
    <nd ref="254678391"/>
    <tag k="abutters" v="residential"/>
    <tag k="highway" v="residential"/>
    <tag k="name" v="Post Office Row"/>
    <tag k="surface" v="paved"/>
  </way>
  <way id="23525058" version="11" timestamp="2025-05-17T21:19:38Z" changeset="166409268" uid="22318191" user="Feathers McGraw">
    <nd ref="254677491"/>
    <nd ref="1353941681"/>
    <nd ref="1353941688"/>
    <nd ref="254677580"/>
    <nd ref="254677584"/>
    <nd ref="254677588"/>
    <nd ref="7992300942"/>
    <nd ref="254677593"/>
    <nd ref="254677597"/>
    <nd ref="254677600"/>
    <nd ref="254677604"/>
    <nd ref="254677608"/>
    <nd ref="254677612"/>
    <nd ref="254677646"/>
    <nd ref="254677649"/>
    <nd ref="2400539508"/>
    <nd ref="254677652"/>
    <nd ref="254677691"/>
    <nd ref="254677732"/>
    <nd ref="254677763"/>
    <nd ref="3858828461"/>
    <tag k="highway" v="tertiary"/>
    <tag k="lanes" v="2"/>
    <tag k="maxspeed" v="60 mph"/>
    <tag k="maxspeed:type" v="GB:nsl_single"/>
    <tag k="name" v="Howe Green Lane"/>
    <tag k="surface" v="paved"/>
  </way>
  <way id="23525059" version="10" timestamp="2025-09-04T19:21:49Z" changeset="171466260" uid="12943226" user="Inkle">
    <nd ref="254677866"/>
    <nd ref="254677870"/>
    <nd ref="8034424799"/>
    <nd ref="2401536358"/>
    <nd ref="254677874"/>
    <nd ref="254677877"/>
    <nd ref="254677881"/>
    <nd ref="254677885"/>
    <nd ref="254677923"/>
    <nd ref="2400539630"/>
    <nd ref="254677928"/>
    <nd ref="254677931"/>
    <nd ref="254677959"/>
    <nd ref="254677963"/>
    <nd ref="254678002"/>
    <nd ref="254678007"/>
    <nd ref="254678014"/>
    <nd ref="254678019"/>
    <nd ref="254678023"/>
    <nd ref="254678028"/>
    <nd ref="2400539653"/>
    <nd ref="254678031"/>
    <nd ref="254678037"/>
    <nd ref="254678042"/>
    <nd ref="254678072"/>
    <nd ref="254678078"/>
    <nd ref="254678082"/>
    <nd ref="254678088"/>
    <nd ref="254678153"/>
    <nd ref="254678204"/>
    <nd ref="254678266"/>
    <nd ref="254678321"/>
    <nd ref="254678330"/>
    <nd ref="32578592"/>
    <tag k="highway" v="tertiary"/>
    <tag k="lanes" v="2"/>
    <tag k="maxspeed" v="60 mph"/>
    <tag k="maxspeed:type" v="GB:nsl_single"/>
    <tag k="name" v="Windmill Lane"/>
    <tag k="surface" v="asphalt"/>
  </way>
  <way id="23525060" version="22" timestamp="2025-09-04T19:16:16Z" changeset="171466260" uid="12943226" user="Inkle">
    <nd ref="12844870967"/>
    <nd ref="32578593"/>
    <nd ref="32578594"/>
    <nd ref="32578595"/>
    <nd ref="32578596"/>
    <nd ref="32578597"/>
    <nd ref="32578598"/>
    <nd ref="32578599"/>
    <nd ref="32578600"/>
    <nd ref="32578601"/>
    <nd ref="32578602"/>
    <nd ref="32578603"/>
    <nd ref="32578604"/>
    <nd ref="32578605"/>
    <nd ref="32578606"/>
    <nd ref="32578607"/>
    <nd ref="32578608"/>
    <nd ref="32578609"/>
    <nd ref="32578610"/>
    <nd ref="32578611"/>
    <nd ref="2401536416"/>
    <nd ref="1674371708"/>
    <nd ref="32578612"/>
    <nd ref="32578613"/>
    <nd ref="32578614"/>
    <nd ref="32578615"/>
    <nd ref="32578616"/>
    <nd ref="32578617"/>
    <nd ref="32578618"/>
    <nd ref="32578619"/>
    <nd ref="32578620"/>
    <nd ref="32578621"/>
    <nd ref="1674371645"/>
    <nd ref="32578622"/>
    <nd ref="32578623"/>
    <nd ref="3171081451"/>
    <nd ref="32578624"/>
    <nd ref="7934352084"/>
    <nd ref="32578625"/>
    <nd ref="7187914062"/>
    <nd ref="7187914078"/>
    <nd ref="32578626"/>
    <nd ref="6870879232"/>
    <nd ref="32578627"/>
    <nd ref="6503535563"/>
    <nd ref="6503535566"/>
    <nd ref="32578628"/>
    <nd ref="1674371742"/>
    <nd ref="32578629"/>
    <nd ref="32578630"/>
    <nd ref="8763928355"/>
    <nd ref="4580076968"/>
    <nd ref="32578631"/>
    <nd ref="32578632"/>
    <nd ref="32578633"/>
    <nd ref="32578634"/>
    <nd ref="32578635"/>
    <nd ref="442907849"/>
    <nd ref="32578636"/>
    <nd ref="1353929559"/>
    <nd ref="32578637"/>
    <nd ref="32578638"/>
    <nd ref="1353929547"/>
    <nd ref="32578639"/>
    <tag k="gritting" v="yes"/>
    <tag k="gritting_depot" v="Coleshill Heath Road"/>
    <tag k="gritting_operator" v="Warwickshire County Council"/>
    <tag k="gritting_route_ref" v="4"/>
    <tag k="gritting_route_revision" v="201105"/>
    <tag k="highway" v="tertiary"/>
    <tag k="highway_authority_ref" v="C13"/>
    <tag k="lanes" v="2"/>
    <tag k="maintenance" v="gritting"/>
    <tag k="maxspeed" v="50 mph"/>
    <tag k="name" v="Astley Lane"/>
    <tag k="surface" v="asphalt"/>
  </way>
  <way id="23525061" version="12" timestamp="2025-05-17T21:19:38Z" changeset="166409268" uid="22318191" user="Feathers McGraw">
    <nd ref="13787311"/>
    <nd ref="13787307"/>
    <nd ref="9885293016"/>
    <nd ref="13787308"/>
    <nd ref="13787301"/>
    <nd ref="13787316"/>
    <nd ref="13787315"/>
    <nd ref="1394601518"/>
    <nd ref="13787531"/>
    <nd ref="878785763"/>
    <nd ref="1394601460"/>
    <nd ref="878785764"/>
    <nd ref="13787532"/>
    <nd ref="13787317"/>
    <nd ref="2396945627"/>
    <nd ref="2400539604"/>
    <nd ref="2396945628"/>
    <nd ref="13787533"/>
    <nd ref="13787278"/>
    <nd ref="13787536"/>
    <nd ref="6485199663"/>
    <nd ref="2396945638"/>
    <nd ref="13787537"/>
    <nd ref="2396945655"/>
    <nd ref="13787538"/>
    <nd ref="2396945676"/>
    <nd ref="13787539"/>
    <nd ref="2396945687"/>
    <nd ref="13787540"/>
    <nd ref="13787541"/>
    <nd ref="2396945711"/>
    <nd ref="13787542"/>
    <nd ref="13787544"/>
    <nd ref="13787545"/>
    <nd ref="13787543"/>
    <nd ref="2396945719"/>
    <nd ref="13787548"/>
    <nd ref="13787547"/>
    <nd ref="1674371680"/>
    <nd ref="1674371656"/>
    <nd ref="13787546"/>
    <nd ref="13787552"/>
    <nd ref="13787551"/>
    <nd ref="13787553"/>
    <nd ref="12844870968"/>
    <tag k="gritting" v="yes"/>
    <tag k="gritting_depot" v="Coleshill Heath Road"/>
    <tag k="gritting_operator" v="Warwickshire County Council"/>
    <tag k="gritting_route_ref" v="3"/>
    <tag k="gritting_route_revision" v="201105"/>
    <tag k="highway" v="secondary"/>
    <tag k="lanes" v="2"/>
    <tag k="maintenance" v="gritting"/>
    <tag k="maxspeed" v="50 mph"/>
    <tag k="name" v="Park Lane"/>
    <tag k="ref" v="B4102"/>
    <tag k="surface" v="paved"/>
  </way>
  <way id="23525519" version="8" timestamp="2025-01-14T22:39:14Z" changeset="161361613" uid="5229644" user="Nathan_A_RF">
    <nd ref="27396922"/>
    <nd ref="4195331018"/>
    <nd ref="254755669"/>
    <tag k="gritting" v="yes"/>
    <tag k="gritting_depot" v="Coleshill Heath Road"/>
    <tag k="gritting_operator" v="Warwickshire County Council"/>
    <tag k="gritting_route_ref" v="3"/>
    <tag k="gritting_route_revision" v="201105"/>
    <tag k="highway" v="tertiary"/>
    <tag k="lanes" v="1"/>
    <tag k="maintenance" v="gritting"/>
    <tag k="name" v="Arley Lane"/>
    <tag k="oneway" v="yes"/>
    <tag k="surface" v="paved"/>
  </way>
  <way id="23525521" version="3" timestamp="2017-01-23T10:05:12Z" changeset="45394933" uid="9065" user="brianboru">
    <nd ref="27396920"/>
    <nd ref="254755678"/>
    <tag k="highway" v="secondary"/>
    <tag k="lanes" v="1"/>
    <tag k="name" v="Birmingham Road"/>
    <tag k="oneway" v="yes"/>
    <tag k="ref" v="B4112"/>
  </way>
  <way id="42783466" version="4" timestamp="2025-01-14T22:39:14Z" changeset="161361613" uid="5229644" user="Nathan_A_RF">
    <nd ref="254755669"/>
    <nd ref="27396921"/>
    <tag k="highway" v="tertiary"/>
    <tag k="lanes" v="1"/>
    <tag k="name" v="Arley Lane"/>
    <tag k="oneway" v="yes"/>
    <tag k="surface" v="paved"/>
  </way>
  <way id="49682313" version="13" timestamp="2025-08-18T07:30:20Z" changeset="170598643" uid="12943226" user="Inkle">
    <nd ref="254677420"/>
    <nd ref="4054639251"/>
    <tag k="gritting" v="yes"/>
    <tag k="gritting_depot" v="Coleshill Heath Road"/>
    <tag k="gritting_operator" v="Warwickshire County Council"/>
    <tag k="gritting_route_ref" v="4"/>
    <tag k="gritting_route_revision" v="201105"/>
    <tag k="highway" v="tertiary"/>
    <tag k="highway_authority_ref" v="C64"/>
    <tag k="lanes" v="2"/>
    <tag k="maintenance" v="gritting"/>
    <tag k="maxspeed" v="60 mph"/>
    <tag k="maxspeed:type" v="GB:nsl_single"/>
    <tag k="name" v="Smorrall Lane"/>
    <tag k="surface" v="asphalt"/>
  </way>
  <way id="54615965" version="11" timestamp="2025-05-17T21:19:38Z" changeset="166409268" uid="22318191" user="Feathers McGraw">
    <nd ref="13787577"/>
    <nd ref="1674371706"/>
    <nd ref="6881138673"/>
    <nd ref="13787579"/>
    <nd ref="13787578"/>
    <nd ref="1674371683"/>
    <nd ref="13787574"/>
    <nd ref="13787576"/>
    <nd ref="8573826480"/>
    <nd ref="13787575"/>
    <nd ref="13787573"/>
    <nd ref="7843798522"/>
    <nd ref="13787572"/>
    <nd ref="1674371710"/>
    <nd ref="2400511772"/>
    <nd ref="13787571"/>
    <nd ref="13787560"/>
    <nd ref="13787570"/>
    <nd ref="8775037413"/>
    <nd ref="442907703"/>
    <nd ref="1674371703"/>
    <nd ref="13787569"/>
    <nd ref="13787564"/>
    <nd ref="13787568"/>
    <nd ref="13787567"/>
    <nd ref="13787565"/>
    <nd ref="13787566"/>
    <nd ref="13787563"/>
    <nd ref="13787562"/>
    <nd ref="3905081552"/>
    <nd ref="13787561"/>
    <nd ref="13787559"/>
    <nd ref="12844870966"/>
    <tag k="gritting" v="yes"/>
    <tag k="gritting_depot" v="Coleshill Heath Road"/>
    <tag k="gritting_operator" v="Warwickshire County Council"/>
    <tag k="gritting_route_ref" v="3"/>
    <tag k="gritting_route_revision" v="201105"/>
    <tag k="highway" v="secondary"/>
    <tag k="lanes" v="2"/>
    <tag k="maintenance" v="gritting"/>
    <tag k="maxspeed" v="50 mph"/>
    <tag k="name" v="Astley Lane"/>
    <tag k="ref" v="B4102"/>
    <tag k="surface" v="paved"/>
  </way>
  <way id="73689699" version="6" timestamp="2015-12-22T17:18:16Z" changeset="36109966" uid="9065" user="brianboru">
    <nd ref="872725698"/>
    <nd ref="872725699"/>
    <nd ref="872725700"/>
    <nd ref="2400494617"/>
    <nd ref="872725701"/>
    <nd ref="3905081602"/>
    <nd ref="872725703"/>
    <nd ref="2400494625"/>
    <nd ref="2400494634"/>
    <tag k="highway" v="residential"/>
    <tag k="name" v="Castle Drive"/>
  </way>
  <way id="73689706" version="6" timestamp="2018-02-08T19:16:23Z" changeset="56194279" uid="9065" user="brianboru">
    <nd ref="872725708"/>
    <nd ref="2400502623"/>
    <nd ref="2400502626"/>
    <nd ref="872725709"/>
    <nd ref="872725710"/>
    <nd ref="872725711"/>
    <nd ref="872725708"/>
    <tag k="addr:city" v="Nuneaton"/>
    <tag k="addr:housenumber" v="1"/>
    <tag k="addr:place" v="Astley"/>
    <tag k="addr:postcode" v="CV10 7QN"/>
    <tag k="addr:street" v="Church Lane"/>
    <tag k="building" v="yes"/>
    <tag k="castle_type" v="manor"/>
    <tag k="heritage" v="2"/>
    <tag k="heritage:operator" v="Historic England"/>
    <tag k="historic" v="castle"/>
    <tag k="listed_status" v="Grade II*"/>
    <tag k="name" v="Astley Castle"/>
    <tag k="number_of_apartments" v="1"/>
    <tag k="operator" v="Landmark Trust"/>
    <tag k="tourism" v="apartment"/>
    <tag k="wikidata" v="Q4810907"/>
    <tag k="wikipedia" v="en:Astley Castle"/>
  </way>
  <way id="74339838" version="12" timestamp="2025-01-14T22:39:14Z" changeset="161361613" uid="5229644" user="Nathan_A_RF">
    <nd ref="8841271193"/>
    <nd ref="878778368"/>
    <nd ref="2381351353"/>
    <nd ref="1619385768"/>
    <nd ref="9336693853"/>
    <nd ref="878778366"/>
    <nd ref="878778364"/>
    <nd ref="878778361"/>
    <nd ref="878778358"/>
    <nd ref="3924878256"/>
    <nd ref="878778355"/>
    <tag k="gritting" v="yes"/>
    <tag k="gritting_depot" v="Coleshill Heath Road"/>
    <tag k="gritting_operator" v="Warwickshire County Council"/>
    <tag k="gritting_route_ref" v="3"/>
    <tag k="gritting_route_revision" v="201105"/>
    <tag k="highway" v="tertiary"/>
    <tag k="maintenance" v="gritting"/>
    <tag k="maxspeed" v="60 mph"/>
    <tag k="maxspeed:type" v="GB:nsl_single"/>
    <tag k="name" v="Arley Lane"/>
    <tag k="source" v="NPE"/>
  </way>
  <way id="74339910" version="4" timestamp="2020-10-10T05:26:47Z" changeset="92263089" uid="10219386" user="bathines">
    <nd ref="872725701"/>
    <nd ref="3905081598"/>
    <nd ref="2400494619"/>
    <nd ref="7994070424"/>
    <nd ref="2400494621"/>
    <nd ref="878780188"/>
    <tag k="highway" v="residential"/>
  </way>
  <way id="85992370" version="6" timestamp="2025-01-14T22:39:14Z" changeset="161361613" uid="5229644" user="Nathan_A_RF">
    <nd ref="27396922"/>
    <nd ref="12502774639"/>
    <nd ref="998092462"/>
    <nd ref="27396919"/>
    <nd ref="998092467"/>
    <nd ref="998092470"/>
    <nd ref="998092472"/>
    <nd ref="998092473"/>
    <nd ref="27396921"/>
    <tag k="highway" v="secondary"/>
    <tag k="junction" v="roundabout"/>
    <tag k="lanes" v="1"/>
    <tag k="oneway" v="yes"/>
  </way>
  <way id="120839637" version="14" timestamp="2025-09-04T19:00:47Z" changeset="171466263" uid="12943226" user="Inkle">
    <nd ref="1353929543"/>
    <nd ref="32578645"/>
    <nd ref="32578643"/>
    <nd ref="32578642"/>
    <nd ref="32578641"/>
    <nd ref="3824718828"/>
    <tag k="gritting" v="yes"/>
    <tag k="gritting_depot" v="Coleshill Heath Road"/>
    <tag k="gritting_operator" v="Warwickshire County Council"/>
    <tag k="gritting_route_ref" v="4"/>
    <tag k="gritting_route_revision" v="201105"/>
    <tag k="highway" v="tertiary"/>
    <tag k="highway_authority_ref" v="C13"/>
    <tag k="lanes" v="2"/>
    <tag k="maintenance" v="gritting"/>
    <tag k="name" v="Astley Lane"/>
    <tag k="surface" v="asphalt"/>
  </way>
  <way id="120840112" version="10" timestamp="2024-12-24T13:35:45Z" changeset="160576166" uid="22318191" user="Feathers McGraw">
    <nd ref="1353941694"/>
    <nd ref="880030933"/>
    <nd ref="8411271943"/>
    <nd ref="8411271933"/>
    <nd ref="880030936"/>
    <nd ref="1353941698"/>
    <nd ref="1413639598"/>
    <nd ref="880030941"/>
    <nd ref="1353941692"/>
    <nd ref="1395042013"/>
    <tag k="highway" v="unclassified"/>
    <tag k="maxspeed" v="60 mph"/>
    <tag k="maxspeed:type" v="GB:nsl_single"/>
    <tag k="name" v="Breach Oak Lane"/>
  </way>
  <way id="120840115" version="4" timestamp="2024-12-24T13:35:45Z" changeset="160576166" uid="22318191" user="Feathers McGraw">
    <nd ref="1353941688"/>
    <nd ref="1353941685"/>
    <nd ref="1353941679"/>
    <tag k="highway" v="unclassified"/>
    <tag k="maxspeed" v="60 mph"/>
    <tag k="maxspeed:type" v="GB:nsl_single"/>
    <tag k="name" v="Breach Oak Lane"/>
  </way>
  <way id="120840722" version="5" timestamp="2019-04-13T00:39:41Z" changeset="69165871" uid="322039" user="MacLondon">
    <nd ref="1353941673"/>
    <nd ref="254677491"/>
    <tag k="highway" v="tertiary"/>
    <tag k="name" v="Breach Oak Lane"/>
    <tag k="surface" v="paved"/>
  </way>
  <way id="125630348" version="6" timestamp="2024-12-24T13:35:45Z" changeset="160576166" uid="22318191" user="Feathers McGraw">
    <nd ref="254677491"/>
    <nd ref="1353941679"/>
    <nd ref="1395042013"/>
    <tag k="highway" v="unclassified"/>
    <tag k="maxspeed" v="60 mph"/>
    <tag k="maxspeed:type" v="GB:nsl_single"/>
    <tag k="name" v="Breach Oak Lane"/>
  </way>
  <way id="125662696" version="8" timestamp="2025-08-15T07:05:05Z" changeset="170465947" uid="12943226" user="Inkle">
    <nd ref="1632656635"/>
    <nd ref="467451760"/>
    <nd ref="1632656636"/>
    <nd ref="685224811"/>
    <nd ref="3583899820"/>
    <nd ref="467451757"/>
    <tag k="gritting" v="yes"/>
    <tag k="gritting_depot" v="Coleshill Heath Road"/>
    <tag k="gritting_operator" v="Warwickshire County Council"/>
    <tag k="gritting_route_ref" v="4"/>
    <tag k="gritting_route_revision" v="201105"/>
    <tag k="highway" v="tertiary"/>
    <tag k="highway_authority_ref" v="C64"/>
    <tag k="lanes" v="2"/>
    <tag k="maintenance" v="gritting"/>
    <tag k="name" v="Smorrall Lane"/>
    <tag k="surface" v="asphalt"/>
  </way>
  <way id="125664784" version="9" timestamp="2025-08-18T07:28:59Z" changeset="170598643" uid="12943226" user="Inkle">
    <nd ref="1395170722"/>
    <nd ref="467451731"/>
    <nd ref="8831937209"/>
    <nd ref="467451727"/>
    <nd ref="8831937208"/>
    <nd ref="8831937207"/>
    <nd ref="467451711"/>
    <nd ref="2385480956"/>
    <nd ref="467451706"/>
    <nd ref="467451705"/>
    <nd ref="7992796448"/>
    <nd ref="467451697"/>
    <nd ref="467451694"/>
    <nd ref="467451686"/>
    <nd ref="2385480938"/>
    <nd ref="467451683"/>
    <nd ref="2385480935"/>
    <nd ref="467451677"/>
    <nd ref="2385480934"/>
    <nd ref="467452430"/>
    <nd ref="254677420"/>
    <tag k="gritting" v="yes"/>
    <tag k="gritting_depot" v="Coleshill Heath Road"/>
    <tag k="gritting_operator" v="Warwickshire County Council"/>
    <tag k="gritting_route_ref" v="4"/>
    <tag k="gritting_route_revision" v="201105"/>
    <tag k="highway" v="tertiary"/>
    <tag k="highway_authority_ref" v="C64"/>
    <tag k="lanes" v="2"/>
    <tag k="maintenance" v="gritting"/>
    <tag k="maxspeed" v="60 mph"/>
    <tag k="maxspeed:type" v="GB:nsl_single"/>
    <tag k="name" v="Smorrall Lane"/>
    <tag k="surface" v="asphalt"/>
  </way>
  <way id="125664785" version="6" timestamp="2025-08-18T07:28:52Z" changeset="170598643" uid="12943226" user="Inkle">
    <nd ref="467451733"/>
    <nd ref="1395170722"/>
    <tag k="gritting" v="yes"/>
    <tag k="gritting_depot" v="Coleshill Heath Road"/>
    <tag k="gritting_operator" v="Warwickshire County Council"/>
    <tag k="gritting_route_ref" v="4"/>
    <tag k="gritting_route_revision" v="201105"/>
    <tag k="highway" v="tertiary"/>
    <tag k="highway_authority_ref" v="C64"/>
    <tag k="lanes" v="2"/>
    <tag k="maintenance" v="gritting"/>
    <tag k="maxspeed" v="60 mph"/>
    <tag k="maxspeed:type" v="GB:nsl_single"/>
    <tag k="name" v="Smorrall Lane"/>
    <tag k="surface" v="asphalt"/>
  </way>
  <way id="196459669" version="4" timestamp="2014-10-01T13:18:46Z" changeset="25789848" uid="735" user="blackadder">
    <nd ref="13787281"/>
    <nd ref="254766324"/>
    <nd ref="13787283"/>
    <nd ref="13787282"/>
    <nd ref="13787286"/>
    <nd ref="13787289"/>
    <nd ref="13787291"/>
    <nd ref="13787292"/>
    <nd ref="13787285"/>
    <nd ref="13787293"/>
    <nd ref="2267016902"/>
    <nd ref="13787295"/>
    <nd ref="13787274"/>
    <nd ref="13787303"/>
    <nd ref="13787314"/>
    <nd ref="2267016903"/>
    <nd ref="13787304"/>
    <nd ref="13787302"/>
    <nd ref="13787313"/>
    <nd ref="13787306"/>
    <nd ref="13787311"/>
    <tag k="gritting" v="yes"/>
    <tag k="gritting_depot" v="Coleshill Heath Road"/>
    <tag k="gritting_operator" v="Warwickshire County Council"/>
    <tag k="gritting_route_ref" v="3"/>
    <tag k="gritting_route_revision" v="201105"/>
    <tag k="highway" v="secondary"/>
    <tag k="maintenance" v="gritting"/>
    <tag k="name" v="Park Lane"/>
    <tag k="ref" v="B4102"/>
    <tag k="source:name" v="OS_OpenData_Locator"/>
  </way>
  <way id="196459682" version="7" timestamp="2025-05-17T21:19:38Z" changeset="166409268" uid="22318191" user="Feathers McGraw">
    <nd ref="254678612"/>
    <nd ref="254678619"/>
    <nd ref="254678626"/>
    <nd ref="254678633"/>
    <nd ref="254678640"/>
    <nd ref="254678646"/>
    <nd ref="254678655"/>
    <nd ref="254678663"/>
    <nd ref="254678670"/>
    <nd ref="254678680"/>
    <nd ref="254678687"/>
    <nd ref="254678696"/>
    <nd ref="8239709535"/>
    <nd ref="4625127769"/>
    <nd ref="254678710"/>
    <tag k="gritting" v="yes"/>
    <tag k="gritting_depot" v="Coleshill Heath Road"/>
    <tag k="gritting_operator" v="Warwickshire County Council"/>
    <tag k="gritting_route_ref" v="4"/>
    <tag k="gritting_route_revision" v="201105"/>
    <tag k="highway" v="tertiary"/>
    <tag k="highway_authority_ref" v="C13"/>
    <tag k="lanes" v="2"/>
    <tag k="maintenance" v="gritting"/>
    <tag k="maxspeed" v="50 mph"/>
    <tag k="name" v="Nuthurst Lane"/>
    <tag k="surface" v="paved"/>
  </way>
  <way id="197529194" version="4" timestamp="2023-11-30T20:41:20Z" changeset="144639610" uid="504708" user="HillWithSmallFields">
    <nd ref="2077528122"/>
    <nd ref="2077528121"/>
    <nd ref="2077528120"/>
    <nd ref="2077528119"/>
    <nd ref="2077528115"/>
    <nd ref="2077528116"/>
    <nd ref="2077528113"/>
    <nd ref="2077528114"/>
    <nd ref="2077528117"/>
    <nd ref="2077528118"/>
    <nd ref="2077528122"/>
    <tag k="amenity" v="place_of_worship"/>
    <tag k="building" v="church"/>
    <tag k="denomination" v="anglican"/>
    <tag k="heritage" v="2"/>
    <tag k="heritage:operator" v="Historic England"/>
    <tag k="listed_status" v="Grade I"/>
    <tag k="name" v="St Mary the Virgin"/>
    <tag k="ref:dove" v="15505"/>
    <tag k="religion" v="christian"/>
    <tag k="source" v="bing;English Heritage"/>
    <tag k="wikidata" v="Q17528228"/>
  </way>
  <way id="305870645" version="6" timestamp="2025-08-18T07:25:54Z" changeset="170598643" uid="12943226" user="Inkle">
    <nd ref="467451757"/>
    <nd ref="467451753"/>
    <nd ref="467451749"/>
    <nd ref="467451745"/>
    <nd ref="8208667698"/>
    <nd ref="467451741"/>
    <nd ref="467451737"/>
    <nd ref="467451733"/>
    <tag k="gritting" v="yes"/>
    <tag k="gritting_depot" v="Coleshill Heath Road"/>
    <tag k="gritting_operator" v="Warwickshire County Council"/>
    <tag k="gritting_route_ref" v="4"/>
    <tag k="gritting_route_revision" v="201105"/>
    <tag k="highway" v="tertiary"/>
    <tag k="highway_authority_ref" v="C64"/>
    <tag k="lanes" v="2"/>
    <tag k="maintenance" v="gritting"/>
    <tag k="maxspeed" v="60 mph"/>
    <tag k="maxspeed:type" v="GB:nsl_single"/>
    <tag k="name" v="Smorrall Lane"/>
    <tag k="surface" v="asphalt"/>
  </way>
  <way id="311458906" version="2" timestamp="2017-09-03T16:50:03Z" changeset="51697271" uid="242345" user="confusedbuffalo">
    <nd ref="3171082073"/>
    <nd ref="3171082070"/>
    <nd ref="3171082067"/>
    <nd ref="3171082072"/>
    <nd ref="3171082077"/>
    <nd ref="3171082094"/>
    <nd ref="3171082086"/>
    <nd ref="3171082085"/>
    <nd ref="3171082093"/>
    <nd ref="3171082079"/>
    <nd ref="3171082080"/>
    <nd ref="3171082076"/>
    <nd ref="3171082073"/>
    <tag k="addr:city" v="Bedworth"/>
    <tag k="addr:postcode" v="CV12 0NE"/>
    <tag k="addr:street" v="Astley Lane"/>
    <tag k="building" v="commercial"/>
    <tag k="contact:phone" v="+44 2476490235"/>
    <tag k="contact:website" v="http://www.astleybookfarm.com/"/>
    <tag k="name" v="Astley Book Farm"/>
  </way>
  <way id="379102298" version="3" timestamp="2025-09-04T19:04:41Z" changeset="171466263" uid="12943226" user="Inkle">
    <nd ref="3583886995"/>
    <nd ref="32578639"/>
    <tag k="gritting" v="yes"/>
    <tag k="gritting_depot" v="Coleshill Heath Road"/>
    <tag k="gritting_operator" v="Warwickshire County Council"/>
    <tag k="gritting_route_ref" v="4"/>
    <tag k="gritting_route_revision" v="201105"/>
    <tag k="highway" v="tertiary"/>
    <tag k="highway_authority_ref" v="C13"/>
    <tag k="lanes" v="2"/>
    <tag k="maintenance" v="gritting"/>
    <tag k="name" v="Astley Lane"/>
    <tag k="surface" v="asphalt"/>
  </way>
  <way id="379102301" version="6" timestamp="2025-09-04T19:04:20Z" changeset="171466263" uid="12943226" user="Inkle">
    <nd ref="3824718828"/>
    <nd ref="3583886995"/>
    <tag k="bridge" v="yes"/>
    <tag k="gritting" v="yes"/>
    <tag k="gritting_depot" v="Coleshill Heath Road"/>
    <tag k="gritting_operator" v="Warwickshire County Council"/>
    <tag k="gritting_route_ref" v="4"/>
    <tag k="gritting_route_revision" v="201105"/>
    <tag k="highway" v="tertiary"/>
    <tag k="highway_authority_ref" v="C13"/>
    <tag k="lanes" v="2"/>
    <tag k="maintenance" v="gritting"/>
    <tag k="maxweight:signed" v="no"/>
    <tag k="name" v="Astley Lane"/>
    <tag k="surface" v="asphalt"/>
  </way>
  <way id="382662536" version="4" timestamp="2019-04-13T00:39:45Z" changeset="69165871" uid="322039" user="MacLondon">
    <nd ref="3858828461"/>
    <nd ref="254677766"/>
    <tag k="bridge" v="yes"/>
    <tag k="highway" v="unclassified"/>
    <tag k="name" v="Howe Green Lane"/>
    <tag k="surface" v="paved"/>
  </way>
  <way id="382662538" version="6" timestamp="2025-05-17T21:19:38Z" changeset="166409268" uid="22318191" user="Feathers McGraw">
    <nd ref="254677766"/>
    <nd ref="254677771"/>
    <nd ref="254677775"/>
    <nd ref="254677778"/>
    <nd ref="254677783"/>
    <nd ref="254677798"/>
    <nd ref="254677821"/>
    <nd ref="254677826"/>
    <nd ref="254677830"/>
    <nd ref="254677833"/>
    <nd ref="254677836"/>
    <nd ref="254677840"/>
    <nd ref="254677843"/>
    <nd ref="254677847"/>
    <nd ref="254677850"/>
    <nd ref="254677854"/>
    <nd ref="254677858"/>
    <nd ref="8240490131"/>
    <nd ref="2400539563"/>
    <nd ref="8240490137"/>
    <nd ref="254677866"/>
    <tag k="highway" v="tertiary"/>
    <tag k="lanes" v="2"/>
    <tag k="maxspeed" v="60 mph"/>
    <tag k="maxspeed:type" v="GB:nsl_single"/>
    <tag k="name" v="Howe Green Lane"/>
    <tag k="surface" v="paved"/>
  </way>
  <way id="387185494" version="1" timestamp="2015-12-22T17:18:13Z" changeset="36109966" uid="9065" user="brianboru">
    <nd ref="3905081584"/>
    <nd ref="3905081577"/>
    <nd ref="3905081572"/>
    <nd ref="3905081576"/>
    <nd ref="3905081570"/>
    <nd ref="3905081573"/>
    <nd ref="3905081579"/>
    <nd ref="3905081580"/>
    <nd ref="3905081585"/>
    <nd ref="3905081584"/>
    <tag k="building" v="residential"/>
    <tag k="heritage" v="2"/>
    <tag k="heritage:operator" v="Historic England"/>
    <tag k="listed_status" v="Grade II"/>
    <tag k="name" v="Astley Lodge"/>
    <tag k="source" v="Warwicks CC Aerial Imagery 2013"/>
  </way>
  <way id="403082942" version="5" timestamp="2025-08-18T07:30:56Z" changeset="170598643" uid="12943226" user="Inkle">
    <nd ref="4054639250"/>
    <nd ref="254677385"/>
    <nd ref="2385480940"/>
    <nd ref="254677380"/>
    <nd ref="254677348"/>
    <nd ref="2385480943"/>
    <nd ref="254677344"/>
    <nd ref="2104022184"/>
    <nd ref="254677336"/>
    <nd ref="254677332"/>
    <nd ref="254677329"/>
    <nd ref="254677321"/>
    <nd ref="1395042003"/>
    <nd ref="254677315"/>
    <nd ref="1395041911"/>
    <nd ref="32449781"/>
    <tag k="gritting" v="yes"/>
    <tag k="gritting_depot" v="Coleshill Heath Road"/>
    <tag k="gritting_operator" v="Warwickshire County Council"/>
    <tag k="gritting_route_ref" v="4"/>
    <tag k="gritting_route_revision" v="201105"/>
    <tag k="highway" v="tertiary"/>
    <tag k="highway_authority_ref" v="C64"/>
    <tag k="lanes" v="2"/>
    <tag k="maintenance" v="gritting"/>
    <tag k="maxspeed" v="60 mph"/>
    <tag k="maxspeed:type" v="GB:nsl_single"/>
    <tag k="name" v="Smorrall Lane"/>
    <tag k="surface" v="asphalt"/>
  </way>
  <way id="403082946" version="8" timestamp="2025-08-18T07:30:40Z" changeset="170598643" uid="12943226" user="Inkle">
    <nd ref="4054639251"/>
    <nd ref="4054639250"/>
    <tag k="bridge" v="yes"/>
    <tag k="gritting" v="yes"/>
    <tag k="gritting_depot" v="Coleshill Heath Road"/>
    <tag k="gritting_operator" v="Warwickshire County Council"/>
    <tag k="gritting_route_ref" v="4"/>
    <tag k="gritting_route_revision" v="201105"/>
    <tag k="highway" v="tertiary"/>
    <tag k="highway_authority_ref" v="C64"/>
    <tag k="lanes" v="2"/>
    <tag k="maintenance" v="gritting"/>
    <tag k="maxspeed" v="60 mph"/>
    <tag k="maxspeed:type" v="GB:nsl_single"/>
    <tag k="maxweight:signed" v="no"/>
    <tag k="name" v="Smorrall Lane"/>
    <tag k="surface" v="asphalt"/>
  </way>
  <way id="683463129" version="2" timestamp="2025-01-14T22:39:14Z" changeset="161361613" uid="5229644" user="Nathan_A_RF">
    <nd ref="27396923"/>
    <nd ref="998092620"/>
    <nd ref="998092621"/>
    <nd ref="27396922"/>
    <tag k="gritting" v="yes"/>
    <tag k="gritting_depot" v="Coleshill Heath Road"/>
    <tag k="gritting_operator" v="Warwickshire County Council"/>
    <tag k="gritting_route_ref" v="3"/>
    <tag k="gritting_route_revision" v="201105"/>
    <tag k="highway" v="secondary"/>
    <tag k="junction" v="roundabout"/>
    <tag k="lanes" v="1"/>
    <tag k="maintenance" v="gritting"/>
    <tag k="oneway" v="yes"/>
  </way>
  <way id="692730475" version="1" timestamp="2019-05-27T10:05:48Z" changeset="70655765" uid="9259465" user="alivelis">
    <nd ref="6503535563"/>
    <nd ref="6503535564"/>
    <nd ref="6503535565"/>
    <tag k="highway" v="residential"/>
  </way>
  <way id="692730476" version="1" timestamp="2019-05-27T10:05:48Z" changeset="70655765" uid="9259465" user="alivelis">
    <nd ref="6503535566"/>
    <nd ref="6503535567"/>
    <nd ref="6503535568"/>
    <nd ref="6503535569"/>
    <nd ref="6503535570"/>
    <tag k="highway" v="residential"/>
  </way>
  <way id="955246645" version="2" timestamp="2025-01-14T22:39:14Z" changeset="161361613" uid="5229644" user="Nathan_A_RF">
    <nd ref="254755669"/>
    <nd ref="12502774640"/>
    <nd ref="878778373"/>
    <nd ref="878778371"/>
    <nd ref="2381351372"/>
    <nd ref="2381351369"/>
    <nd ref="8841271193"/>
    <tag k="gritting" v="yes"/>
    <tag k="gritting_depot" v="Coleshill Heath Road"/>
    <tag k="gritting_operator" v="Warwickshire County Council"/>
    <tag k="gritting_route_ref" v="3"/>
    <tag k="gritting_route_revision" v="201105"/>
    <tag k="highway" v="tertiary"/>
    <tag k="maintenance" v="gritting"/>
    <tag k="name" v="Arley Lane"/>
    <tag k="source" v="NPE"/>
  </way>
  <way id="1125442537" version="2" timestamp="2025-01-14T22:39:14Z" changeset="161361613" uid="5229644" user="Nathan_A_RF">
    <nd ref="27396920"/>
    <nd ref="998092486"/>
    <nd ref="998092490"/>
    <nd ref="998092494"/>
    <nd ref="998092496"/>
    <nd ref="287307"/>
    <nd ref="998092497"/>
    <nd ref="998092498"/>
    <nd ref="998092499"/>
    <nd ref="27396926"/>
    <tag k="highway" v="secondary"/>
    <tag k="junction" v="roundabout"/>
    <tag k="lanes" v="1"/>
    <tag k="oneway" v="yes"/>
  </way>
  <way id="1125442538" version="2" timestamp="2025-01-14T22:39:14Z" changeset="161361613" uid="5229644" user="Nathan_A_RF">
    <nd ref="27396921"/>
    <nd ref="998092476"/>
    <nd ref="998092478"/>
    <nd ref="27396920"/>
    <tag k="highway" v="secondary"/>
    <tag k="junction" v="roundabout"/>
    <tag k="lanes" v="1"/>
    <tag k="oneway" v="yes"/>
  </way>
  <way id="1387623655" version="1" timestamp="2025-05-17T21:19:38Z" changeset="166409268" uid="22318191" user="Feathers McGraw">
    <nd ref="12844870966"/>
    <nd ref="3905081517"/>
    <nd ref="13787558"/>
    <nd ref="13787557"/>
    <nd ref="3905081502"/>
    <nd ref="13787275"/>
    <nd ref="3905081501"/>
    <nd ref="13787556"/>
    <tag k="gritting" v="yes"/>
    <tag k="gritting_depot" v="Coleshill Heath Road"/>
    <tag k="gritting_operator" v="Warwickshire County Council"/>
    <tag k="gritting_route_ref" v="3"/>
    <tag k="gritting_route_revision" v="201105"/>
    <tag k="highway" v="secondary"/>
    <tag k="lanes" v="2"/>
    <tag k="maintenance" v="gritting"/>
    <tag k="maxspeed" v="30 mph"/>
    <tag k="name" v="Astley Lane"/>
    <tag k="ref" v="B4102"/>
    <tag k="surface" v="paved"/>
  </way>
  <way id="1387623656" version="4" timestamp="2025-09-04T19:21:39Z" changeset="171466265" uid="12943226" user="Inkle">
    <nd ref="32578592"/>
    <nd ref="12844870967"/>
    <tag k="gritting" v="yes"/>
    <tag k="gritting_depot" v="Coleshill Heath Road"/>
    <tag k="gritting_operator" v="Warwickshire County Council"/>
    <tag k="gritting_route_ref" v="4"/>
    <tag k="gritting_route_revision" v="201105"/>
    <tag k="highway" v="tertiary"/>
    <tag k="highway_authority_ref" v="C13"/>
    <tag k="lanes" v="2"/>
    <tag k="lit" v="no"/>
    <tag k="maintenance" v="gritting"/>
    <tag k="maxspeed" v="30 mph"/>
    <tag k="name" v="Astley Lane"/>
    <tag k="sidewalk" v="no"/>
    <tag k="surface" v="asphalt"/>
  </way>
  <way id="1387623657" version="1" timestamp="2025-05-17T21:19:38Z" changeset="166409268" uid="22318191" user="Feathers McGraw">
    <nd ref="12844870968"/>
    <nd ref="13787550"/>
    <nd ref="13787554"/>
    <nd ref="3905081500"/>
    <nd ref="13787556"/>
    <tag k="gritting" v="yes"/>
    <tag k="gritting_depot" v="Coleshill Heath Road"/>
    <tag k="gritting_operator" v="Warwickshire County Council"/>
    <tag k="gritting_route_ref" v="3"/>
    <tag k="gritting_route_revision" v="201105"/>
    <tag k="highway" v="secondary"/>
    <tag k="lanes" v="2"/>
    <tag k="maintenance" v="gritting"/>
    <tag k="maxspeed" v="30 mph"/>
    <tag k="name" v="Park Lane"/>
    <tag k="ref" v="B4102"/>
    <tag k="surface" v="paved"/>
  </way>
  <way id="1387623658" version="1" timestamp="2025-05-17T21:19:38Z" changeset="166409268" uid="22318191" user="Feathers McGraw">
    <nd ref="13787556"/>
    <nd ref="254678380"/>
    <nd ref="872725698"/>
    <nd ref="254678386"/>
    <nd ref="878780188"/>
    <nd ref="254678391"/>
    <nd ref="3905081668"/>
    <nd ref="12844870969"/>
    <tag k="gritting" v="yes"/>
    <tag k="gritting_depot" v="Coleshill Heath Road"/>
    <tag k="gritting_operator" v="Warwickshire County Council"/>
    <tag k="gritting_route_ref" v="4"/>
    <tag k="gritting_route_revision" v="201105"/>
    <tag k="highway" v="tertiary"/>
    <tag k="highway_authority_ref" v="C13"/>
    <tag k="lanes" v="2"/>
    <tag k="maintenance" v="gritting"/>
    <tag k="maxspeed" v="30 mph"/>
    <tag k="name" v="Church Lane"/>
    <tag k="source:name" v="OS_OpenData_Locator"/>
    <tag k="surface" v="paved"/>
  </way>

</osm>
