<?xml version="1.0" encoding="UTF-8"?>
<osm version="0.6" generator="Overpass API 0.7.62.8 e802775f">
<note>The data included in this document is from www.openstreetmap.org. The data is made available under ODbL.</note>
<meta osm_base="2025-10-23T17:05:00Z" areas="2025-10-23T12:46:58Z"/>

  <node id="337449" lat="52.4285181" lon="-1.4250408" version="11" timestamp="2024-11-24T21:14:46Z" changeset="159550301" uid="5229644" user="Nathan_A_RF"/>
  <node id="337638" lat="52.4489026" lon="-1.4243125" version="7" timestamp="2014-03-29T23:16:34Z" changeset="21392121" uid="411244" user="RobJN"/>
  <node id="574180" lat="52.4397994" lon="-1.4397412" version="3" timestamp="2008-10-07T11:44:43Z" changeset="126680" uid="8235" user="chriscf"/>
  <node id="605659" lat="52.4339517" lon="-1.4344098" version="4" timestamp="2021-11-22T20:21:43Z" changeset="114113218" uid="12667" user="Curran1980"/>
  <node id="32637782" lat="52.4494402" lon="-1.4101773" version="6" timestamp="2025-05-23T17:18:48Z" changeset="166666671" uid="15363444" user="osmscstuff"/>
  <node id="260471128" lat="52.4360525" lon="-1.3949047" version="4" timestamp="2015-02-02T13:29:06Z" changeset="28566116" uid="154484" user="PeterP"/>
  <node id="1191701283" lat="52.4327595" lon="-1.4135035" version="10" timestamp="2019-10-24T15:15:56Z" changeset="76162432" uid="705850" user="Cebderby"/>
  <node id="1244754298" lat="52.4369211" lon="-1.3968312" version="1" timestamp="2011-04-14T19:30:25Z" changeset="7864172" uid="5926" user="c2r"/>
  <node id="1496363110" lat="52.4339045" lon="-1.4224496" version="5" timestamp="2024-11-24T21:14:46Z" changeset="159550301" uid="5229644" user="Nathan_A_RF"/>
  <node id="1560290438" lat="52.4406175" lon="-1.4418117" version="1" timestamp="2011-12-24T09:17:40Z" changeset="10192499" uid="5926" user="c2r"/>
  <node id="1560290653" lat="52.4257195" lon="-1.4265883" version="2" timestamp="2012-12-13T17:16:58Z" changeset="14262284" uid="154484" user="PeterP"/>
  <node id="1560312575" lat="52.4373709" lon="-1.4119752" version="2" timestamp="2013-05-01T14:54:49Z" changeset="15934479" uid="9065" user="brianboru"/>
  <node id="1560338763" lat="52.4550067" lon="-1.4183544" version="3" timestamp="2014-03-29T23:16:31Z" changeset="21392121" uid="411244" user="RobJN"/>
  <node id="2458235785" lat="52.4369284" lon="-1.4307476" version="1" timestamp="2013-09-14T16:50:52Z" changeset="17836361" uid="4951" user="PeterEastern"/>
  <way id="3092021" version="20" timestamp="2024-01-22T18:56:44Z" changeset="146565751" uid="16951803" user="Vas111">
    <nd ref="1560312575"/>
    <nd ref="574161"/>
    <nd ref="15890342"/>
    <nd ref="574159"/>
    <nd ref="15890344"/>
    <nd ref="574157"/>
    <nd ref="15890347"/>
    <nd ref="203144"/>
    <nd ref="2425034961"/>
    <nd ref="1244754284"/>
    <tag k="carriageway_ref" v="B"/>
    <tag k="highway" v="motorway"/>
    <tag k="int_ref" v="E 24"/>
    <tag k="lanes" v="3"/>
    <tag k="lit" v="no"/>
    <tag k="maxspeed" v="70 mph"/>
    <tag k="maxspeed:type" v="GB:motorway"/>
    <tag k="national_highways:area" v="9"/>
    <tag k="oneway" v="yes"/>
    <tag k="operator" v="National Highways"/>
    <tag k="operator:wikidata" v="Q5760006"/>
    <tag k="ref" v="M6"/>
    <tag k="surface" v="asphalt"/>
  </way>
  <way id="3092051" version="23" timestamp="2024-01-22T18:56:44Z" changeset="146565751" uid="16951803" user="Vas111">
    <nd ref="574162"/>
    <nd ref="14743608"/>
    <nd ref="15890351"/>
    <nd ref="208621"/>
    <nd ref="1915727322"/>
    <nd ref="15890339"/>
    <nd ref="574177"/>
    <nd ref="15890338"/>
    <nd ref="1496367960"/>
    <nd ref="1496367962"/>
    <nd ref="208623"/>
    <nd ref="15890337"/>
    <nd ref="14743660"/>
    <nd ref="208624"/>
    <nd ref="14743657"/>
    <nd ref="208625"/>
    <nd ref="574179"/>
    <nd ref="15890566"/>
    <nd ref="574180"/>
    <tag k="carriageway_ref" v="A"/>
    <tag k="highway" v="motorway"/>
    <tag k="int_ref" v="E 24"/>
    <tag k="lanes" v="3"/>
    <tag k="lit" v="yes"/>
    <tag k="maxheight" v="default"/>
    <tag k="maxspeed" v="70 mph"/>
    <tag k="maxspeed:type" v="GB:motorway"/>
    <tag k="national_highways:area" v="9"/>
    <tag k="oneway" v="yes"/>
    <tag k="operator" v="National Highways"/>
    <tag k="operator:wikidata" v="Q5760006"/>
    <tag k="proposed:active_traffic_management" v="yes"/>
    <tag k="ref" v="M6"/>
    <tag k="surface" v="asphalt"/>
  </way>
  <way id="3239975" version="15" timestamp="2022-10-28T19:13:44Z" changeset="128188142" uid="13666626" user="RedAuburn">
    <nd ref="14743608"/>
    <nd ref="15890350"/>
    <nd ref="14743609"/>
    <nd ref="1915914311"/>
    <nd ref="14743610"/>
    <nd ref="1915914314"/>
    <nd ref="14743611"/>
    <nd ref="1915914310"/>
    <nd ref="14743612"/>
    <nd ref="1915914280"/>
    <nd ref="1915914283"/>
    <nd ref="14743613"/>
    <tag k="bicycle" v="no"/>
    <tag k="highway" v="motorway_link"/>
    <tag k="lanes" v="2"/>
    <tag k="lit" v="yes"/>
    <tag k="maxspeed" v="70 mph"/>
    <tag k="national_highways:area" v="9"/>
    <tag k="oneway" v="yes"/>
    <tag k="operator" v="National Highways"/>
    <tag k="operator:wikidata" v="Q5760006"/>
  </way>
  <way id="3239976" version="19" timestamp="2025-08-22T07:19:16Z" changeset="170813999" uid="12943226" user="Inkle">
    <nd ref="1496367978"/>
    <nd ref="1496367977"/>
    <nd ref="1915352547"/>
    <nd ref="924137417"/>
    <nd ref="1560290370"/>
    <nd ref="1496367976"/>
    <nd ref="14743656"/>
    <nd ref="1496367972"/>
    <nd ref="1496367969"/>
    <nd ref="1496367968"/>
    <nd ref="1496367967"/>
    <nd ref="1915722784"/>
    <nd ref="1496367965"/>
    <nd ref="1915722772"/>
    <nd ref="1915722767"/>
    <nd ref="1915722763"/>
    <nd ref="1915722762"/>
    <nd ref="574176"/>
    <tag k="bicycle" v="no"/>
    <tag k="highway" v="motorway_link"/>
    <tag k="lanes" v="2"/>
    <tag k="lit" v="yes"/>
    <tag k="maxheight:signed" v="no"/>
    <tag k="maxspeed" v="70 mph"/>
    <tag k="national_highways:area" v="9"/>
    <tag k="oneway" v="yes"/>
    <tag k="operator" v="National Highways"/>
    <tag k="operator:wikidata" v="Q5760006"/>
  </way>
  <way id="3239997" version="12" timestamp="2022-10-28T19:13:44Z" changeset="128188142" uid="13666626" user="RedAuburn">
    <nd ref="14743635"/>
    <nd ref="1496367970"/>
    <nd ref="14743648"/>
    <nd ref="1496367975"/>
    <nd ref="14743649"/>
    <nd ref="14743650"/>
    <nd ref="14743651"/>
    <nd ref="14743652"/>
    <nd ref="14743653"/>
    <nd ref="574180"/>
    <tag k="bicycle" v="no"/>
    <tag k="highway" v="motorway_link"/>
    <tag k="lanes" v="2"/>
    <tag k="lit" v="yes"/>
    <tag k="maxspeed" v="70 mph"/>
    <tag k="national_highways:area" v="9"/>
    <tag k="oneway" v="yes"/>
    <tag k="operator" v="National Highways"/>
    <tag k="operator:wikidata" v="Q5760006"/>
  </way>
  <way id="3240004" version="18" timestamp="2024-11-28T22:03:47Z" changeset="159720970" uid="5229644" user="Nathan_A_RF">
    <nd ref="14743600"/>
    <nd ref="1496367994"/>
    <nd ref="1496367990"/>
    <nd ref="12383306887"/>
    <tag k="bicycle" v="no"/>
    <tag k="foot" v="no"/>
    <tag k="highway" v="motorway_link"/>
    <tag k="lanes" v="2"/>
    <tag k="lit" v="yes"/>
    <tag k="maxspeed" v="70 mph"/>
    <tag k="national_highways:area" v="9"/>
    <tag k="oneway" v="yes"/>
    <tag k="operator" v="National Highways"/>
    <tag k="operator:wikidata" v="Q5760006"/>
  </way>
  <way id="3289082" version="36" timestamp="2024-11-28T22:03:47Z" changeset="159720970" uid="5229644" user="Nathan_A_RF">
    <nd ref="337425"/>
    <nd ref="2062771032"/>
    <nd ref="2065188247"/>
    <nd ref="1133057555"/>
    <nd ref="2062771043"/>
    <nd ref="9907941937"/>
    <nd ref="337421"/>
    <nd ref="12372411568"/>
    <nd ref="258750020"/>
    <tag k="active_traffic_management" v="no"/>
    <tag k="destination:ref" v="M69"/>
    <tag k="highway" v="motorway"/>
    <tag k="lanes" v="2"/>
    <tag k="lit" v="yes"/>
    <tag k="maxspeed" v="70 mph"/>
    <tag k="maxspeed:type" v="GB:motorway"/>
    <tag k="maxspeed:variable" v="no"/>
    <tag k="national_highways:area" v="9"/>
    <tag k="oneway" v="yes"/>
    <tag k="operator" v="National Highways"/>
    <tag k="operator:wikidata" v="Q5760006"/>
    <tag k="ref" v="M69"/>
    <tag k="surface" v="asphalt"/>
  </way>
  <way id="4414283" version="19" timestamp="2024-11-28T22:03:47Z" changeset="159720970" uid="5229644" user="Nathan_A_RF">
    <nd ref="14743600"/>
    <nd ref="1496367997"/>
    <nd ref="1915352535"/>
    <nd ref="14743601"/>
    <nd ref="1496367995"/>
    <nd ref="1496367996"/>
    <nd ref="14743602"/>
    <nd ref="1915352533"/>
    <nd ref="1496367998"/>
    <nd ref="1496367999"/>
    <nd ref="14743603"/>
    <nd ref="1915352518"/>
    <nd ref="1496368000"/>
    <nd ref="14743604"/>
    <nd ref="14743605"/>
    <nd ref="1915354305"/>
    <nd ref="14743606"/>
    <nd ref="1915354303"/>
    <nd ref="14743607"/>
    <nd ref="1915354306"/>
    <nd ref="1523320522"/>
    <nd ref="1915354304"/>
    <nd ref="1523320523"/>
    <nd ref="1915352549"/>
    <nd ref="1915352562"/>
    <nd ref="1915352545"/>
    <nd ref="12383306883"/>
    <nd ref="605643"/>
    <tag k="bicycle" v="no"/>
    <tag k="highway" v="motorway_link"/>
    <tag k="lanes" v="1"/>
    <tag k="lit" v="yes"/>
    <tag k="maxspeed" v="70 mph"/>
    <tag k="national_highways:area" v="9"/>
    <tag k="oneway" v="yes"/>
    <tag k="operator" v="National Highways"/>
    <tag k="operator:wikidata" v="Q5760006"/>
    <tag k="parking:both" v="no"/>
    <tag k="parking:both:restriction" v="no_stopping"/>
    <tag k="ref" v="M69"/>
  </way>
  <way id="4414285" version="21" timestamp="2025-09-04T17:46:51Z" changeset="171464180" uid="405907" user="ohmanger">
    <nd ref="14743640"/>
    <nd ref="1915352526"/>
    <nd ref="1496367992"/>
    <nd ref="1915352523"/>
    <nd ref="1496367993"/>
    <nd ref="1915352550"/>
    <nd ref="14743641"/>
    <nd ref="1915352519"/>
    <nd ref="1496367991"/>
    <nd ref="14743647"/>
    <nd ref="1915352529"/>
    <nd ref="13119754986"/>
    <tag k="highway" v="trunk"/>
    <tag k="junction" v="roundabout"/>
    <tag k="lanes" v="4"/>
    <tag k="lit" v="yes"/>
    <tag k="maxspeed" v="60 mph"/>
    <tag k="maxspeed:type" v="GB:nsl_single"/>
    <tag k="name" v="Ansty Interchange"/>
    <tag k="oneway" v="yes"/>
    <tag k="sidewalk:right" v="separate"/>
  </way>
  <way id="4415111" version="14" timestamp="2025-08-22T06:27:07Z" changeset="170811466" uid="12943226" user="Inkle">
    <nd ref="605659"/>
    <nd ref="1496334175"/>
    <nd ref="1496334178"/>
    <nd ref="605661"/>
    <nd ref="337726"/>
    <nd ref="27025211"/>
    <nd ref="337727"/>
    <nd ref="605630"/>
    <nd ref="1496334285"/>
    <nd ref="605631"/>
    <nd ref="1496367954"/>
    <nd ref="14743654"/>
    <tag k="dual_carriageway" v="yes"/>
    <tag k="fixme" v="name from OS Opendata Locator as had to be removed to apply odbl clean"/>
    <tag k="highway" v="trunk"/>
    <tag k="lanes" v="2"/>
    <tag k="lit" v="yes"/>
    <tag k="maxspeed" v="40 mph"/>
    <tag k="name" v="Hinckley Road"/>
    <tag k="oneway" v="yes"/>
    <tag k="ref" v="A4600"/>
    <tag k="sidewalk" v="no"/>
    <tag k="source:name" v="OS Locator"/>
  </way>
  <way id="4415112" version="15" timestamp="2025-08-22T07:18:00Z" changeset="170811466" uid="12943226" user="Inkle">
    <nd ref="14743630"/>
    <nd ref="26059837"/>
    <nd ref="2458235785"/>
    <tag k="dual_carriageway" v="yes"/>
    <tag k="fixme" v="name from OS Opendata Locator as had to be removed to apply odbl clean"/>
    <tag k="highway" v="trunk"/>
    <tag k="lanes" v="2"/>
    <tag k="lit" v="yes"/>
    <tag k="maxspeed" v="70 mph"/>
    <tag k="name" v="Hinckley Road"/>
    <tag k="oneway" v="yes"/>
    <tag k="ref" v="A4600"/>
    <tag k="sidewalk" v="no"/>
    <tag k="source:name" v="OS Locator"/>
  </way>
  <way id="4415114" version="16" timestamp="2025-08-22T07:23:16Z" changeset="170811466" uid="12943226" user="Inkle">
    <nd ref="605639"/>
    <nd ref="12383306880"/>
    <nd ref="605641"/>
    <nd ref="1915352530"/>
    <nd ref="27025212"/>
    <tag k="cycleway:left" v="no"/>
    <tag k="highway" v="secondary"/>
    <tag k="lanes" v="1"/>
    <tag k="lit" v="yes"/>
    <tag k="maxspeed" v="70 mph"/>
    <tag k="maxspeed:type" v="GB:nsl_dual"/>
    <tag k="name" v="Hinckley Road"/>
    <tag k="oneway" v="yes"/>
    <tag k="ref" v="B4065"/>
    <tag k="sidewalk" v="right"/>
    <tag k="surface" v="asphalt"/>
  </way>
  <way id="5208417" version="12" timestamp="2025-09-04T17:43:24Z" changeset="171464075" uid="405907" user="ohmanger">
    <nd ref="27025212"/>
    <nd ref="1915352567"/>
    <nd ref="36430205"/>
    <nd ref="1560290470"/>
    <nd ref="36430206"/>
    <nd ref="1915352566"/>
    <nd ref="36430207"/>
    <nd ref="1915352559"/>
    <nd ref="36430208"/>
    <nd ref="13119754989"/>
    <nd ref="1915352548"/>
    <nd ref="36430204"/>
    <tag k="cycleway:left" v="no"/>
    <tag k="highway" v="secondary"/>
    <tag k="lanes" v="2"/>
    <tag k="lit" v="yes"/>
    <tag k="maxspeed" v="70 mph"/>
    <tag k="maxspeed:type" v="GB:nsl_dual"/>
    <tag k="name" v="Hinckley Road"/>
    <tag k="oneway" v="yes"/>
    <tag k="ref" v="B4065"/>
    <tag k="sidewalk" v="no"/>
    <tag k="surface" v="asphalt"/>
  </way>
  <way id="5208418" version="13" timestamp="2025-09-04T17:43:24Z" changeset="171464075" uid="405907" user="ohmanger">
    <nd ref="32637806"/>
    <nd ref="3375451411"/>
    <nd ref="32637805"/>
    <nd ref="2411689336"/>
    <nd ref="3375451422"/>
    <nd ref="12824204684"/>
    <nd ref="32637803"/>
    <nd ref="32637802"/>
    <nd ref="2148945329"/>
    <nd ref="2148945574"/>
    <nd ref="8258970583"/>
    <nd ref="32637801"/>
    <nd ref="32637800"/>
    <tag k="highway" v="secondary"/>
    <tag k="lanes" v="2"/>
    <tag k="maxspeed" v="50 mph"/>
    <tag k="name" v="Hinckley Road"/>
    <tag k="ref" v="B4065"/>
    <tag k="sidewalk:right" v="separate"/>
    <tag k="source" v="OS_OpenData_StreetView"/>
    <tag k="surface" v="asphalt"/>
  </way>
  <way id="5208419" version="15" timestamp="2025-08-26T07:36:41Z" changeset="171010476" uid="12943226" user="Inkle">
    <nd ref="32637782"/>
    <nd ref="1620321481"/>
    <nd ref="12858153948"/>
    <nd ref="32637781"/>
    <nd ref="12858153947"/>
    <nd ref="1620321487"/>
    <nd ref="2410617711"/>
    <nd ref="32637780"/>
    <nd ref="32637779"/>
    <nd ref="32637778"/>
    <nd ref="32637777"/>
    <nd ref="32637776"/>
    <nd ref="32637775"/>
    <nd ref="12858153946"/>
    <nd ref="36430209"/>
    <nd ref="8837266025"/>
    <nd ref="793162351"/>
    <tag k="highway" v="secondary"/>
    <tag k="lanes" v="2"/>
    <tag k="lit" v="yes"/>
    <tag k="maxspeed" v="30 mph"/>
    <tag k="name" v="Church Road"/>
    <tag k="ref" v="B4029"/>
    <tag k="sidewalk" v="left"/>
    <tag k="surface" v="asphalt"/>
  </way>
  <way id="5208478" version="9" timestamp="2025-08-22T07:23:24Z" changeset="170811684" uid="12943226" user="Inkle">
    <nd ref="27025212"/>
    <nd ref="12383306882"/>
    <nd ref="32637810"/>
    <nd ref="3375451399"/>
    <nd ref="32637808"/>
    <tag k="highway" v="secondary"/>
    <tag k="lanes" v="2"/>
    <tag k="lit" v="yes"/>
    <tag k="maxspeed" v="50 mph"/>
    <tag k="name" v="Hinckley Road"/>
    <tag k="oneway" v="no"/>
    <tag k="ref" v="B4065"/>
    <tag k="sidewalk" v="right"/>
    <tag k="surface" v="asphalt"/>
  </way>
  <way id="5208479" version="10" timestamp="2025-09-04T17:43:24Z" changeset="171464075" uid="405907" user="ohmanger">
    <nd ref="32637808"/>
    <nd ref="3375451405"/>
    <nd ref="3375451425"/>
    <nd ref="32637806"/>
    <tag k="bridge" v="yes"/>
    <tag k="cycleway:both" v="no"/>
    <tag k="highway" v="secondary"/>
    <tag k="lanes" v="2"/>
    <tag k="layer" v="1"/>
    <tag k="maxspeed" v="50 mph"/>
    <tag k="maxweight:signed" v="no"/>
    <tag k="name" v="Hinckley Road"/>
    <tag k="ref" v="B4065"/>
    <tag k="sidewalk:right" v="separate"/>
    <tag k="surface" v="asphalt"/>
  </way>
  <way id="8126587" version="20" timestamp="2024-01-22T18:56:44Z" changeset="146565751" uid="16951803" user="Vas111">
    <nd ref="1560290438"/>
    <nd ref="574182"/>
    <nd ref="574181"/>
    <tag k="carriageway_ref" v="B"/>
    <tag k="highway" v="motorway"/>
    <tag k="int_ref" v="E 24"/>
    <tag k="lanes" v="3"/>
    <tag k="lit" v="yes"/>
    <tag k="maxspeed" v="70 mph"/>
    <tag k="maxspeed:type" v="GB:motorway"/>
    <tag k="national_highways:area" v="9"/>
    <tag k="oneway" v="yes"/>
    <tag k="operator" v="National Highways"/>
    <tag k="operator:wikidata" v="Q5760006"/>
    <tag k="proposed:active_traffic_management" v="yes"/>
    <tag k="ref" v="M6"/>
    <tag k="surface" v="asphalt"/>
  </way>
  <way id="23873370" version="31" timestamp="2024-11-24T21:14:46Z" changeset="159550301" uid="5229644" user="Nathan_A_RF">
    <nd ref="1560290653"/>
    <nd ref="337447"/>
    <nd ref="1560290474"/>
    <nd ref="337448"/>
    <nd ref="337423"/>
    <tag k="dual_carriageway" v="yes"/>
    <tag k="expressway" v="yes"/>
    <tag k="highway" v="trunk"/>
    <tag k="lanes" v="2"/>
    <tag k="lit" v="yes"/>
    <tag k="maxspeed" v="70 mph"/>
    <tag k="maxspeed:type" v="GB:nsl_dual"/>
    <tag k="name" v="Coventry Eastern Bypass"/>
    <tag k="national_highways:area" v="9"/>
    <tag k="oneway" v="yes"/>
    <tag k="operator" v="National Highways"/>
    <tag k="operator:wikidata" v="Q5760006"/>
    <tag k="ref" v="A46"/>
    <tag k="sidewalk" v="no"/>
    <tag k="surface" v="asphalt"/>
  </way>
  <way id="23873376" version="18" timestamp="2024-11-28T22:03:47Z" changeset="159720970" uid="5229644" user="Nathan_A_RF">
    <nd ref="337411"/>
    <nd ref="337629"/>
    <nd ref="2752854926"/>
    <nd ref="337641"/>
    <nd ref="2065188249"/>
    <nd ref="337640"/>
    <tag k="active_traffic_management" v="no"/>
    <tag k="carriageway_ref" v="A"/>
    <tag k="highway" v="motorway"/>
    <tag k="lanes" v="3"/>
    <tag k="lit" v="yes"/>
    <tag k="maxspeed" v="70 mph"/>
    <tag k="maxspeed:type" v="GB:motorway"/>
    <tag k="maxspeed:variable" v="no"/>
    <tag k="national_highways:area" v="9"/>
    <tag k="oneway" v="yes"/>
    <tag k="operator" v="National Highways"/>
    <tag k="operator:wikidata" v="Q5760006"/>
    <tag k="ref" v="M69"/>
    <tag k="surface" v="asphalt"/>
  </way>
  <way id="24001511" version="20" timestamp="2024-11-28T22:03:47Z" changeset="159720970" uid="5229644" user="Nathan_A_RF">
    <nd ref="337638"/>
    <nd ref="337637"/>
    <nd ref="2752854928"/>
    <nd ref="337635"/>
    <nd ref="2065188237"/>
    <nd ref="2752854930"/>
    <nd ref="1560338761"/>
    <tag k="active_traffic_management" v="no"/>
    <tag k="carriageway_ref" v="A"/>
    <tag k="highway" v="motorway"/>
    <tag k="lanes" v="3"/>
    <tag k="lit" v="yes"/>
    <tag k="maxspeed" v="70 mph"/>
    <tag k="maxspeed:type" v="GB:motorway"/>
    <tag k="maxspeed:variable" v="no"/>
    <tag k="national_highways:area" v="9"/>
    <tag k="oneway" v="yes"/>
    <tag k="operator" v="National Highways"/>
    <tag k="operator:wikidata" v="Q5760006"/>
    <tag k="ref" v="M69"/>
    <tag k="surface" v="asphalt"/>
  </way>
  <way id="27406579" version="14" timestamp="2022-10-28T19:14:11Z" changeset="128188142" uid="13666626" user="RedAuburn">
    <nd ref="14743615"/>
    <nd ref="1496363165"/>
    <nd ref="1496363163"/>
    <nd ref="14743616"/>
    <nd ref="1496363164"/>
    <nd ref="14743617"/>
    <nd ref="1496363166"/>
    <nd ref="14743618"/>
    <nd ref="1496363167"/>
    <nd ref="14743619"/>
    <nd ref="1915914289"/>
    <nd ref="14743620"/>
    <nd ref="1915914299"/>
    <nd ref="14743621"/>
    <nd ref="1915914317"/>
    <nd ref="14743622"/>
    <nd ref="14743623"/>
    <nd ref="1915914307"/>
    <nd ref="1915914301"/>
    <nd ref="14743624"/>
    <tag k="bicycle" v="no"/>
    <tag k="highway" v="motorway_link"/>
    <tag k="lanes" v="2"/>
    <tag k="lit" v="yes"/>
    <tag k="maxheight" v="default"/>
    <tag k="maxspeed" v="70 mph"/>
    <tag k="national_highways:area" v="9"/>
    <tag k="oneway" v="yes"/>
    <tag k="operator" v="National Highways"/>
    <tag k="operator:wikidata" v="Q5760006"/>
  </way>
  <way id="27406580" version="11" timestamp="2022-10-28T19:14:11Z" changeset="128188142" uid="13666626" user="RedAuburn">
    <nd ref="300852420"/>
    <nd ref="1496363171"/>
    <tag k="bicycle" v="no"/>
    <tag k="highway" v="motorway_link"/>
    <tag k="lanes" v="1"/>
    <tag k="lit" v="yes"/>
    <tag k="maxspeed" v="70 mph"/>
    <tag k="national_highways:area" v="9"/>
    <tag k="oneway" v="yes"/>
    <tag k="operator" v="National Highways"/>
    <tag k="operator:wikidata" v="Q5760006"/>
  </way>
  <way id="27406581" version="18" timestamp="2024-11-28T22:03:47Z" changeset="159720970" uid="5229644" user="Nathan_A_RF">
    <nd ref="337420"/>
    <nd ref="258750021"/>
    <tag k="active_traffic_management" v="no"/>
    <tag k="bridge" v="yes"/>
    <tag k="highway" v="motorway"/>
    <tag k="lanes" v="2"/>
    <tag k="layer" v="1"/>
    <tag k="lit" v="yes"/>
    <tag k="maxspeed" v="70 mph"/>
    <tag k="maxspeed:type" v="GB:motorway"/>
    <tag k="maxspeed:variable" v="no"/>
    <tag k="national_highways:area" v="9"/>
    <tag k="oneway" v="yes"/>
    <tag k="operator" v="National Highways"/>
    <tag k="operator:wikidata" v="Q5760006"/>
    <tag k="ref" v="M69"/>
    <tag k="surface" v="asphalt"/>
  </way>
  <way id="27406582" version="17" timestamp="2024-11-28T22:03:47Z" changeset="159720970" uid="5229644" user="Nathan_A_RF">
    <nd ref="337419"/>
    <nd ref="12372411571"/>
    <nd ref="1496363158"/>
    <nd ref="1496363162"/>
    <nd ref="1496367953"/>
    <nd ref="337417"/>
    <tag k="active_traffic_management" v="no"/>
    <tag k="carriageway_ref" v="A"/>
    <tag k="highway" v="motorway"/>
    <tag k="lanes" v="2"/>
    <tag k="lit" v="yes"/>
    <tag k="maxspeed" v="70 mph"/>
    <tag k="maxspeed:type" v="GB:motorway"/>
    <tag k="maxspeed:variable" v="no"/>
    <tag k="national_highways:area" v="9"/>
    <tag k="oneway" v="yes"/>
    <tag k="operator" v="National Highways"/>
    <tag k="operator:wikidata" v="Q5760006"/>
    <tag k="ref" v="M69"/>
    <tag k="surface" v="asphalt"/>
  </way>
  <way id="27406583" version="17" timestamp="2024-11-28T22:03:47Z" changeset="159720970" uid="5229644" user="Nathan_A_RF">
    <nd ref="1560290390"/>
    <nd ref="1496367982"/>
    <nd ref="337415"/>
    <nd ref="1523321393"/>
    <nd ref="2752854918"/>
    <nd ref="337414"/>
    <nd ref="1523321395"/>
    <nd ref="258750016"/>
    <nd ref="2752854919"/>
    <nd ref="2752854922"/>
    <nd ref="337411"/>
    <tag k="active_traffic_management" v="no"/>
    <tag k="carriageway_ref" v="A"/>
    <tag k="highway" v="motorway"/>
    <tag k="lanes" v="2"/>
    <tag k="lit" v="yes"/>
    <tag k="maxheight" v="default"/>
    <tag k="maxspeed" v="70 mph"/>
    <tag k="maxspeed:type" v="GB:motorway"/>
    <tag k="maxspeed:variable" v="no"/>
    <tag k="national_highways:area" v="9"/>
    <tag k="oneway" v="yes"/>
    <tag k="operator" v="National Highways"/>
    <tag k="operator:wikidata" v="Q5760006"/>
    <tag k="ref" v="M69"/>
    <tag k="surface" v="asphalt"/>
  </way>
  <way id="27406584" version="19" timestamp="2024-11-28T22:03:47Z" changeset="159720970" uid="5229644" user="Nathan_A_RF">
    <nd ref="337631"/>
    <nd ref="385347613"/>
    <nd ref="337630"/>
    <nd ref="2752854925"/>
    <nd ref="337628"/>
    <nd ref="2752854924"/>
    <nd ref="2752854923"/>
    <nd ref="337412"/>
    <nd ref="2752854920"/>
    <nd ref="258750017"/>
    <nd ref="1523321390"/>
    <nd ref="337413"/>
    <nd ref="2065188272"/>
    <nd ref="337416"/>
    <nd ref="1496367973"/>
    <nd ref="12383306874"/>
    <nd ref="12383306872"/>
    <tag k="active_traffic_management" v="no"/>
    <tag k="carriageway_ref" v="B"/>
    <tag k="highway" v="motorway"/>
    <tag k="lanes" v="3"/>
    <tag k="lit" v="yes"/>
    <tag k="maxheight" v="default"/>
    <tag k="maxspeed" v="70 mph"/>
    <tag k="maxspeed:type" v="GB:motorway"/>
    <tag k="maxspeed:variable" v="no"/>
    <tag k="national_highways:area" v="9"/>
    <tag k="oneway" v="yes"/>
    <tag k="operator" v="National Highways"/>
    <tag k="operator:wikidata" v="Q5760006"/>
    <tag k="ref" v="M69"/>
    <tag k="surface" v="asphalt"/>
  </way>
  <way id="27406586" version="17" timestamp="2024-11-28T22:03:47Z" changeset="159720970" uid="5229644" user="Nathan_A_RF">
    <nd ref="12383306872"/>
    <nd ref="12383306873"/>
    <nd ref="2410597234"/>
    <tag k="active_traffic_management" v="no"/>
    <tag k="carriageway_ref" v="B"/>
    <tag k="highway" v="motorway"/>
    <tag k="lanes" v="4"/>
    <tag k="lit" v="yes"/>
    <tag k="maxspeed" v="70 mph"/>
    <tag k="maxspeed:type" v="GB:motorway"/>
    <tag k="maxspeed:variable" v="no"/>
    <tag k="national_highways:area" v="9"/>
    <tag k="oneway" v="yes"/>
    <tag k="operator" v="National Highways"/>
    <tag k="operator:wikidata" v="Q5760006"/>
    <tag k="ref" v="M69"/>
    <tag k="surface" v="asphalt"/>
  </way>
  <way id="27406587" version="17" timestamp="2024-11-28T22:03:47Z" changeset="159720970" uid="5229644" user="Nathan_A_RF">
    <nd ref="337417"/>
    <nd ref="2410597233"/>
    <nd ref="1560290390"/>
    <tag k="active_traffic_management" v="no"/>
    <tag k="bridge" v="yes"/>
    <tag k="carriageway_ref" v="A"/>
    <tag k="highway" v="motorway"/>
    <tag k="lanes" v="2"/>
    <tag k="layer" v="1"/>
    <tag k="lit" v="yes"/>
    <tag k="maxspeed" v="70 mph"/>
    <tag k="maxspeed:type" v="GB:motorway"/>
    <tag k="maxspeed:variable" v="no"/>
    <tag k="national_highways:area" v="9"/>
    <tag k="oneway" v="yes"/>
    <tag k="operator" v="National Highways"/>
    <tag k="operator:wikidata" v="Q5760006"/>
    <tag k="ref" v="M69"/>
    <tag k="surface" v="asphalt"/>
  </way>
  <way id="33706245" version="14" timestamp="2024-11-28T22:03:47Z" changeset="159720970" uid="5229644" user="Nathan_A_RF">
    <nd ref="337632"/>
    <nd ref="337631"/>
    <tag k="active_traffic_management" v="no"/>
    <tag k="bridge" v="yes"/>
    <tag k="bridge_ref" v="13A"/>
    <tag k="carriageway_ref" v="B"/>
    <tag k="highway" v="motorway"/>
    <tag k="lanes" v="3"/>
    <tag k="layer" v="1"/>
    <tag k="lit" v="yes"/>
    <tag k="maxspeed" v="70 mph"/>
    <tag k="maxspeed:type" v="GB:motorway"/>
    <tag k="maxspeed:variable" v="no"/>
    <tag k="national_highways:area" v="9"/>
    <tag k="oneway" v="yes"/>
    <tag k="operator" v="National Highways"/>
    <tag k="operator:wikidata" v="Q5760006"/>
    <tag k="ref" v="M69"/>
    <tag k="surface" v="asphalt"/>
  </way>
  <way id="33706247" version="15" timestamp="2024-11-28T22:03:47Z" changeset="159720970" uid="5229644" user="Nathan_A_RF">
    <nd ref="337640"/>
    <nd ref="337638"/>
    <tag k="active_traffic_management" v="no"/>
    <tag k="bridge" v="yes"/>
    <tag k="bridge_ref" v="13A"/>
    <tag k="carriageway_ref" v="A"/>
    <tag k="highway" v="motorway"/>
    <tag k="lanes" v="3"/>
    <tag k="layer" v="1"/>
    <tag k="lit" v="yes"/>
    <tag k="maxspeed" v="70 mph"/>
    <tag k="maxspeed:type" v="GB:motorway"/>
    <tag k="maxspeed:variable" v="no"/>
    <tag k="national_highways:area" v="9"/>
    <tag k="oneway" v="yes"/>
    <tag k="operator" v="National Highways"/>
    <tag k="operator:wikidata" v="Q5760006"/>
    <tag k="ref" v="M69"/>
    <tag k="surface" v="asphalt"/>
  </way>
  <way id="33706249" version="11" timestamp="2025-08-26T07:32:06Z" changeset="171010476" uid="12943226" user="Inkle">
    <nd ref="32637794"/>
    <nd ref="3375451418"/>
    <nd ref="3375451400"/>
    <nd ref="385347614"/>
    <tag k="bridge" v="yes"/>
    <tag k="bridge_ref" v="14"/>
    <tag k="cycleway:both" v="no"/>
    <tag k="highway" v="secondary"/>
    <tag k="lanes" v="2"/>
    <tag k="layer" v="1"/>
    <tag k="lit" v="no"/>
    <tag k="maxspeed" v="30 mph"/>
    <tag k="maxweight:signed" v="no"/>
    <tag k="name" v="Main Road"/>
    <tag k="ref" v="B4065"/>
    <tag k="sidewalk" v="left"/>
    <tag k="surface" v="asphalt"/>
  </way>
  <way id="33706250" version="13" timestamp="2025-08-26T07:32:26Z" changeset="171010476" uid="12943226" user="Inkle">
    <nd ref="32637791"/>
    <nd ref="32637792"/>
    <nd ref="3375451420"/>
    <nd ref="12858142328"/>
    <nd ref="32637794"/>
    <tag k="cycleway:both" v="no"/>
    <tag k="highway" v="secondary"/>
    <tag k="lanes" v="2"/>
    <tag k="lit" v="yes"/>
    <tag k="maxspeed" v="30 mph"/>
    <tag k="name" v="Main Road"/>
    <tag k="ref" v="B4065"/>
    <tag k="sidewalk" v="both"/>
    <tag k="surface" v="asphalt"/>
  </way>
  <way id="33706251" version="4" timestamp="2021-01-08T04:22:15Z" changeset="97140178" uid="322039" user="MacLondon">
    <nd ref="260471146"/>
    <nd ref="385347615"/>
    <tag k="bridge" v="yes"/>
    <tag k="bridge:name" v="Squires Bridge"/>
    <tag k="bridge:ref" v="17"/>
    <tag k="highway" v="secondary"/>
    <tag k="layer" v="1"/>
    <tag k="ref" v="B4029"/>
  </way>
  <way id="33706252" version="5" timestamp="2025-08-26T07:36:17Z" changeset="171010472" uid="12943226" user="Inkle">
    <nd ref="385347615"/>
    <nd ref="2773092038"/>
    <nd ref="32637782"/>
    <tag k="highway" v="secondary"/>
    <tag k="lanes" v="2"/>
    <tag k="ref" v="B4029"/>
    <tag k="surface" v="asphalt"/>
  </way>
  <way id="55570362" version="9" timestamp="2025-05-23T17:18:48Z" changeset="166666671" uid="15363444" user="osmscstuff">
    <nd ref="12858142341"/>
    <nd ref="2056041853"/>
    <nd ref="2056041755"/>
    <nd ref="698476683"/>
    <nd ref="2056041815"/>
    <nd ref="12065429901"/>
    <nd ref="1374656546"/>
    <nd ref="698476695"/>
    <nd ref="2891804315"/>
    <nd ref="2056041641"/>
    <nd ref="2891804317"/>
    <nd ref="2056041728"/>
    <nd ref="2891806641"/>
    <nd ref="698476662"/>
    <nd ref="2891806643"/>
    <nd ref="2891806644"/>
    <nd ref="2056041827"/>
    <nd ref="2056041629"/>
    <nd ref="2056041665"/>
    <nd ref="698476677"/>
    <nd ref="698476656"/>
    <nd ref="2056041790"/>
    <nd ref="698476659"/>
    <nd ref="698476651"/>
    <nd ref="698476653"/>
    <nd ref="698476654"/>
    <nd ref="2056041598"/>
    <nd ref="8277816897"/>
    <nd ref="698476646"/>
    <tag k="highway" v="residential"/>
    <tag k="name" v="Grove Road"/>
    <tag k="source" v="visual survey;OS_OpenData_StreetView"/>
  </way>
  <way id="55570367" version="2" timestamp="2011-07-26T12:01:52Z" changeset="8835104" uid="112997" user="sobbomapper">
    <nd ref="698476683"/>
    <nd ref="698476685"/>
    <nd ref="698476687"/>
    <tag k="highway" v="residential"/>
    <tag k="name" v="The Row"/>
    <tag k="source" v="visual survey;OS_OpenData_StreetView"/>
    <tag k="source:name" v="OS_Opendata_Locator"/>
  </way>
  <way id="78209235" version="14" timestamp="2023-03-14T10:12:08Z" changeset="133659752" uid="5589" user="user_5589">
    <nd ref="300852420"/>
    <nd ref="1496363172"/>
    <nd ref="208622"/>
    <nd ref="1496367955"/>
    <nd ref="1496367959"/>
    <nd ref="1496367963"/>
    <nd ref="208623"/>
    <tag k="bicycle" v="no"/>
    <tag k="highway" v="motorway_link"/>
    <tag k="lanes" v="1"/>
    <tag k="lit" v="yes"/>
    <tag k="maxheight" v="default"/>
    <tag k="maxspeed" v="70 mph"/>
    <tag k="national_highways:area" v="9"/>
    <tag k="oneway" v="yes"/>
    <tag k="operator" v="National Highways"/>
    <tag k="operator:wikidata" v="Q5760006"/>
    <tag k="parking:both" v="no"/>
    <tag k="parking:both:restriction" v="no_stopping"/>
  </way>
  <way id="78209249" version="17" timestamp="2025-09-04T17:46:51Z" changeset="171464180" uid="405907" user="ohmanger">
    <nd ref="14743629"/>
    <nd ref="1496367958"/>
    <nd ref="1496367956"/>
    <nd ref="27044696"/>
    <tag k="highway" v="trunk"/>
    <tag k="junction" v="roundabout"/>
    <tag k="lanes" v="3"/>
    <tag k="lit" v="yes"/>
    <tag k="maxspeed" v="60 mph"/>
    <tag k="maxspeed:type" v="GB:nsl_single"/>
    <tag k="name" v="Ansty Interchange"/>
    <tag k="oneway" v="yes"/>
    <tag k="sidewalk" v="no"/>
  </way>
  <way id="78209255" version="16" timestamp="2025-09-04T17:46:51Z" changeset="171464180" uid="405907" user="ohmanger">
    <nd ref="14743630"/>
    <nd ref="1496367957"/>
    <nd ref="14743631"/>
    <nd ref="13119754968"/>
    <tag k="highway" v="trunk"/>
    <tag k="junction" v="roundabout"/>
    <tag k="lanes" v="4"/>
    <tag k="lit" v="yes"/>
    <tag k="maxspeed" v="60 mph"/>
    <tag k="maxspeed:type" v="GB:nsl_single"/>
    <tag k="name" v="Ansty Interchange"/>
    <tag k="oneway" v="yes"/>
    <tag k="sidewalk" v="no"/>
    <tag k="surface" v="asphalt"/>
  </way>
  <way id="78209256" version="15" timestamp="2025-09-04T17:43:24Z" changeset="171464075" uid="405907" user="ohmanger">
    <nd ref="14743632"/>
    <nd ref="14743633"/>
    <nd ref="14743635"/>
    <tag k="highway" v="trunk"/>
    <tag k="junction" v="roundabout"/>
    <tag k="lanes" v="4"/>
    <tag k="lit" v="yes"/>
    <tag k="maxspeed" v="60 mph"/>
    <tag k="maxspeed:type" v="GB:nsl_single"/>
    <tag k="name" v="Ansty Interchange"/>
    <tag k="oneway" v="yes"/>
    <tag k="sidewalk:right" v="separate"/>
  </way>
  <way id="78209277" version="15" timestamp="2024-11-28T22:03:47Z" changeset="159720970" uid="5229644" user="Nathan_A_RF">
    <nd ref="605643"/>
    <nd ref="12383306886"/>
    <nd ref="12383306885"/>
    <nd ref="605646"/>
    <nd ref="605648"/>
    <nd ref="2752854921"/>
    <nd ref="12383306871"/>
    <nd ref="337411"/>
    <tag k="active_traffic_management" v="no"/>
    <tag k="highway" v="motorway_link"/>
    <tag k="lanes" v="2"/>
    <tag k="lit" v="yes"/>
    <tag k="maxspeed" v="70 mph"/>
    <tag k="maxspeed:type" v="GB:motorway"/>
    <tag k="maxspeed:variable" v="no"/>
    <tag k="national_highways:area" v="9"/>
    <tag k="oneway" v="yes"/>
    <tag k="operator" v="National Highways"/>
    <tag k="operator:wikidata" v="Q5760006"/>
    <tag k="ref" v="M69"/>
  </way>
  <way id="78212867" version="12" timestamp="2022-10-28T19:14:34Z" changeset="128188162" uid="13666626" user="RedAuburn">
    <nd ref="4330885150"/>
    <nd ref="14743626"/>
    <nd ref="14743627"/>
    <nd ref="1915914287"/>
    <nd ref="14743628"/>
    <nd ref="3595082745"/>
    <tag k="bicycle" v="no"/>
    <tag k="highway" v="motorway_link"/>
    <tag k="lanes" v="3"/>
    <tag k="lit" v="yes"/>
    <tag k="maxspeed" v="70 mph"/>
    <tag k="national_highways:area" v="9"/>
    <tag k="oneway" v="yes"/>
    <tag k="operator" v="National Highways"/>
    <tag k="operator:wikidata" v="Q5760006"/>
  </way>
  <way id="97900000" version="16" timestamp="2024-11-24T21:14:46Z" changeset="159550301" uid="5229644" user="Nathan_A_RF">
    <nd ref="1496363110"/>
    <nd ref="2072529308"/>
    <nd ref="2062770992"/>
    <nd ref="12372411567"/>
    <nd ref="2071782202"/>
    <nd ref="1496363089"/>
    <nd ref="1620325297"/>
    <nd ref="1620325296"/>
    <nd ref="2062771034"/>
    <nd ref="2752447969"/>
    <nd ref="2752447964"/>
    <nd ref="2752447962"/>
    <nd ref="1620325293"/>
    <nd ref="496139559"/>
    <nd ref="2752447966"/>
    <nd ref="1133057719"/>
    <nd ref="2752447972"/>
    <nd ref="1133057801"/>
    <nd ref="2752447978"/>
    <nd ref="1133057560"/>
    <nd ref="1133057579"/>
    <nd ref="1133057831"/>
    <nd ref="2752447986"/>
    <nd ref="2752447987"/>
    <nd ref="1133057701"/>
    <nd ref="2752447985"/>
    <nd ref="496139562"/>
    <nd ref="1133057591"/>
    <nd ref="2752447981"/>
    <nd ref="1133057585"/>
    <nd ref="2752447977"/>
    <nd ref="1133057576"/>
    <nd ref="2288095803"/>
    <nd ref="1133057611"/>
    <nd ref="1133057717"/>
    <nd ref="2806397600"/>
    <nd ref="1133057540"/>
    <nd ref="1192440837"/>
    <tag k="dual_carriageway" v="yes"/>
    <tag k="highway" v="unclassified"/>
    <tag k="name" v="Central Boulevard"/>
    <tag k="oneway" v="yes"/>
  </way>
  <way id="103211393" version="18" timestamp="2025-09-05T09:10:17Z" changeset="171487042" uid="405907" user="ohmanger">
    <nd ref="1191701283"/>
    <nd ref="2288095801"/>
    <nd ref="2752447924"/>
    <nd ref="1191701286"/>
    <nd ref="2752447929"/>
    <nd ref="1191701289"/>
    <nd ref="2752447943"/>
    <nd ref="2288095802"/>
    <nd ref="2752447948"/>
    <nd ref="1191701292"/>
    <nd ref="1191701294"/>
    <nd ref="2752447947"/>
    <nd ref="1191701295"/>
    <nd ref="6553836931"/>
    <nd ref="2752447944"/>
    <nd ref="1191701297"/>
    <nd ref="2752447946"/>
    <nd ref="2412078107"/>
    <nd ref="2752447955"/>
    <nd ref="1191708792"/>
    <nd ref="1191708799"/>
    <nd ref="1191708802"/>
    <tag k="dual_carriageway" v="yes"/>
    <tag k="highway" v="unclassified"/>
    <tag k="lanes" v="2"/>
    <tag k="name" v="Central Boulevard"/>
    <tag k="oneway" v="yes"/>
    <tag k="sidewalk:left" v="separate"/>
    <tag k="surface" v="asphalt"/>
  </way>
  <way id="104989061" version="15" timestamp="2025-09-04T17:43:24Z" changeset="171464075" uid="405907" user="ohmanger">
    <nd ref="14743635"/>
    <nd ref="1496367971"/>
    <nd ref="14743636"/>
    <tag k="highway" v="trunk"/>
    <tag k="junction" v="roundabout"/>
    <tag k="lanes" v="3"/>
    <tag k="lit" v="yes"/>
    <tag k="maxspeed" v="60 mph"/>
    <tag k="maxspeed:type" v="GB:nsl_single"/>
    <tag k="name" v="Ansty Interchange"/>
    <tag k="oneway" v="yes"/>
    <tag k="sidewalk:right" v="separate"/>
  </way>
  <way id="104989062" version="15" timestamp="2025-09-04T17:43:24Z" changeset="171464075" uid="405907" user="ohmanger">
    <nd ref="14743639"/>
    <nd ref="1496367989"/>
    <nd ref="14743640"/>
    <tag k="highway" v="trunk"/>
    <tag k="junction" v="roundabout"/>
    <tag k="lanes" v="3"/>
    <tag k="lit" v="yes"/>
    <tag k="maxspeed" v="60 mph"/>
    <tag k="maxspeed:type" v="GB:nsl_single"/>
    <tag k="name" v="Ansty Interchange"/>
    <tag k="oneway" v="yes"/>
    <tag k="sidewalk:right" v="separate"/>
  </way>
  <way id="108506188" version="17" timestamp="2024-01-22T18:56:44Z" changeset="146565751" uid="16951803" user="Vas111">
    <nd ref="1244754298"/>
    <nd ref="2425034960"/>
    <nd ref="208620"/>
    <nd ref="15890346"/>
    <nd ref="574158"/>
    <nd ref="15890345"/>
    <nd ref="574160"/>
    <nd ref="15890343"/>
    <nd ref="574162"/>
    <tag k="carriageway_ref" v="A"/>
    <tag k="highway" v="motorway"/>
    <tag k="int_ref" v="E 24"/>
    <tag k="lanes" v="3"/>
    <tag k="lit" v="no"/>
    <tag k="maxspeed" v="70 mph"/>
    <tag k="maxspeed:type" v="GB:motorway"/>
    <tag k="national_highways:area" v="9"/>
    <tag k="oneway" v="yes"/>
    <tag k="operator" v="National Highways"/>
    <tag k="operator:wikidata" v="Q5760006"/>
    <tag k="ref" v="M6"/>
    <tag k="surface" v="asphalt"/>
  </way>
  <way id="120835499" version="4" timestamp="2011-09-29T13:57:08Z" changeset="9426340" uid="5589" user="user_5589">
    <nd ref="260471142"/>
    <nd ref="1353905235"/>
    <tag k="highway" v="secondary"/>
    <tag k="ref" v="B4029"/>
  </way>
  <way id="120835500" version="13" timestamp="2025-08-26T07:35:49Z" changeset="171010476" uid="12943226" user="Inkle">
    <nd ref="698476696"/>
    <nd ref="12858141172"/>
    <nd ref="32637787"/>
    <nd ref="12858141171"/>
    <nd ref="2408176900"/>
    <nd ref="32637786"/>
    <nd ref="2410617640"/>
    <nd ref="2408176902"/>
    <nd ref="12858141164"/>
    <nd ref="1620321465"/>
    <nd ref="12858141165"/>
    <nd ref="32637784"/>
    <nd ref="2410617662"/>
    <nd ref="32637783"/>
    <nd ref="12858141163"/>
    <nd ref="32637782"/>
    <tag k="highway" v="secondary"/>
    <tag k="lanes" v="2"/>
    <tag k="lit" v="yes"/>
    <tag k="maxspeed" v="30 mph"/>
    <tag k="name" v="Main Road"/>
    <tag k="ref" v="B4065"/>
    <tag k="sidewalk" v="left"/>
    <tag k="surface" v="asphalt"/>
  </way>
  <way id="120835503" version="9" timestamp="2025-08-26T07:33:44Z" changeset="171010476" uid="12943226" user="Inkle">
    <nd ref="1353905238"/>
    <nd ref="32637791"/>
    <tag k="cycleway:both" v="no"/>
    <tag k="highway" v="secondary"/>
    <tag k="lanes" v="2"/>
    <tag k="lit" v="yes"/>
    <tag k="maxspeed" v="30 mph"/>
    <tag k="name" v="Main Road"/>
    <tag k="ref" v="B4065"/>
    <tag k="sidewalk" v="both"/>
    <tag k="surface" v="asphalt"/>
  </way>
  <way id="120836272" version="14" timestamp="2025-08-26T07:34:45Z" changeset="171010476" uid="12943226" user="Inkle">
    <nd ref="698476696"/>
    <nd ref="7934682265"/>
    <nd ref="32637788"/>
    <nd ref="12858141173"/>
    <nd ref="32637789"/>
    <nd ref="12858142302"/>
    <nd ref="1353905242"/>
    <nd ref="2408176874"/>
    <nd ref="32637790"/>
    <nd ref="1353905239"/>
    <nd ref="3210887179"/>
    <tag k="foot" v="designated"/>
    <tag k="highway" v="secondary"/>
    <tag k="lanes" v="2"/>
    <tag k="lit" v="yes"/>
    <tag k="maxspeed" v="30 mph"/>
    <tag k="name" v="Main Road"/>
    <tag k="ref" v="B4065"/>
    <tag k="sidewalk" v="both"/>
    <tag k="surface" v="asphalt"/>
  </way>
  <way id="121825773" version="3" timestamp="2014-02-04T15:58:18Z" changeset="20374566" uid="154484" user="PeterP">
    <nd ref="698603070"/>
    <nd ref="1353905235"/>
    <tag k="highway" v="secondary"/>
    <tag k="ref" v="B4029"/>
  </way>
  <way id="123202144" version="13" timestamp="2025-08-22T07:31:55Z" changeset="170814336" uid="12943226" user="Inkle">
    <nd ref="32637799"/>
    <nd ref="3375451397"/>
    <nd ref="3375451406"/>
    <nd ref="32637798"/>
    <nd ref="12858141162"/>
    <nd ref="7998631048"/>
    <nd ref="2056041829"/>
    <nd ref="12858142341"/>
    <nd ref="32637796"/>
    <nd ref="1401125756"/>
    <nd ref="32637795"/>
    <nd ref="698476693"/>
    <tag k="highway" v="secondary"/>
    <tag k="lanes" v="2"/>
    <tag k="lit" v="yes"/>
    <tag k="maxspeed" v="30 mph"/>
    <tag k="name" v="Main Road"/>
    <tag k="ref" v="B4065"/>
    <tag k="sidewalk" v="right"/>
    <tag k="surface" v="asphalt"/>
  </way>
  <way id="123202145" version="3" timestamp="2024-07-21T00:27:52Z" changeset="154199968" uid="493595" user="Yorvik Prestigitator">
    <nd ref="1374656542"/>
    <nd ref="12065429899"/>
    <nd ref="1374656549"/>
    <nd ref="2056041859"/>
    <nd ref="1374656546"/>
    <tag k="highway" v="residential"/>
    <tag k="name" v="Meadow Close"/>
    <tag k="source" v="OS_OpenData_StreetView"/>
  </way>
  <way id="125152039" version="2" timestamp="2015-02-27T10:57:05Z" changeset="29132834" uid="154484" user="PeterP">
    <nd ref="698603070"/>
    <nd ref="260471143"/>
    <nd ref="260471144"/>
    <nd ref="3374565248"/>
    <nd ref="260471146"/>
    <tag k="highway" v="secondary"/>
    <tag k="ref" v="B4029"/>
  </way>
  <way id="136412514" version="13" timestamp="2024-11-28T22:03:47Z" changeset="159720970" uid="5229644" user="Nathan_A_RF">
    <nd ref="258750020"/>
    <nd ref="337419"/>
    <tag k="active_traffic_management" v="no"/>
    <tag k="bridge" v="yes"/>
    <tag k="highway" v="motorway"/>
    <tag k="lanes" v="2"/>
    <tag k="layer" v="1"/>
    <tag k="lit" v="yes"/>
    <tag k="maxspeed" v="70 mph"/>
    <tag k="maxspeed:type" v="GB:motorway"/>
    <tag k="maxspeed:variable" v="no"/>
    <tag k="national_highways:area" v="9"/>
    <tag k="oneway" v="yes"/>
    <tag k="operator" v="National Highways"/>
    <tag k="operator:wikidata" v="Q5760006"/>
    <tag k="ref" v="M69"/>
    <tag k="surface" v="asphalt"/>
  </way>
  <way id="136412515" version="18" timestamp="2024-11-28T22:03:47Z" changeset="159720970" uid="5229644" user="Nathan_A_RF">
    <nd ref="258750021"/>
    <nd ref="12372411569"/>
    <nd ref="337422"/>
    <nd ref="2064489702"/>
    <nd ref="337426"/>
    <nd ref="2065188270"/>
    <nd ref="2065188256"/>
    <nd ref="2065188243"/>
    <nd ref="9907941938"/>
    <nd ref="2062771019"/>
    <nd ref="337424"/>
    <nd ref="2062771008"/>
    <nd ref="337449"/>
    <tag k="active_traffic_management" v="no"/>
    <tag k="highway" v="motorway"/>
    <tag k="lanes" v="2"/>
    <tag k="lit" v="yes"/>
    <tag k="maxspeed" v="70 mph"/>
    <tag k="maxspeed:type" v="GB:motorway"/>
    <tag k="maxspeed:variable" v="no"/>
    <tag k="national_highways:area" v="9"/>
    <tag k="oneway" v="yes"/>
    <tag k="operator" v="National Highways"/>
    <tag k="operator:wikidata" v="Q5760006"/>
    <tag k="ref" v="M69"/>
    <tag k="surface" v="asphalt"/>
  </way>
  <way id="136412517" version="10" timestamp="2022-10-28T19:14:50Z" changeset="128188162" uid="13666626" user="RedAuburn">
    <nd ref="14743613"/>
    <nd ref="1915914292"/>
    <nd ref="14743614"/>
    <nd ref="1915914295"/>
    <nd ref="14743615"/>
    <tag k="bicycle" v="no"/>
    <tag k="bridge" v="yes"/>
    <tag k="highway" v="motorway_link"/>
    <tag k="lanes" v="2"/>
    <tag k="layer" v="1"/>
    <tag k="lit" v="yes"/>
    <tag k="maxspeed" v="70 mph"/>
    <tag k="national_highways:area" v="9"/>
    <tag k="oneway" v="yes"/>
    <tag k="operator" v="National Highways"/>
    <tag k="operator:wikidata" v="Q5760006"/>
  </way>
  <way id="136413181" version="15" timestamp="2025-09-04T17:46:51Z" changeset="171464180" uid="405907" user="ohmanger">
    <nd ref="14743644"/>
    <nd ref="14743643"/>
    <tag k="bridge" v="yes"/>
    <tag k="highway" v="trunk"/>
    <tag k="junction" v="roundabout"/>
    <tag k="lanes" v="3"/>
    <tag k="layer" v="1"/>
    <tag k="lit" v="yes"/>
    <tag k="maxspeed" v="60 mph"/>
    <tag k="maxspeed:type" v="GB:nsl_single"/>
    <tag k="maxweight:signed" v="no"/>
    <tag k="name" v="Ansty Interchange"/>
    <tag k="oneway" v="yes"/>
    <tag k="sidewalk" v="both"/>
  </way>
  <way id="136413182" version="15" timestamp="2025-09-04T17:43:24Z" changeset="171464075" uid="405907" user="ohmanger">
    <nd ref="14743636"/>
    <nd ref="14743637"/>
    <nd ref="14743638"/>
    <tag k="bridge" v="yes"/>
    <tag k="highway" v="trunk"/>
    <tag k="junction" v="roundabout"/>
    <tag k="lanes" v="3"/>
    <tag k="layer" v="1"/>
    <tag k="lit" v="yes"/>
    <tag k="maxspeed" v="60 mph"/>
    <tag k="maxspeed:type" v="GB:nsl_single"/>
    <tag k="maxweight:signed" v="no"/>
    <tag k="name" v="Ansty Interchange"/>
    <tag k="oneway" v="yes"/>
    <tag k="sidewalk:left" v="yes"/>
    <tag k="sidewalk:right" v="separate"/>
    <tag k="surface" v="asphalt"/>
  </way>
  <way id="136413183" version="14" timestamp="2025-09-04T17:43:24Z" changeset="171464075" uid="405907" user="ohmanger">
    <nd ref="14743638"/>
    <nd ref="1496367984"/>
    <nd ref="14743639"/>
    <tag k="highway" v="trunk"/>
    <tag k="junction" v="roundabout"/>
    <tag k="lanes" v="3"/>
    <tag k="lit" v="yes"/>
    <tag k="maxspeed" v="60 mph"/>
    <tag k="maxspeed:type" v="GB:nsl_single"/>
    <tag k="name" v="Ansty Interchange"/>
    <tag k="oneway" v="yes"/>
    <tag k="sidewalk:right" v="separate"/>
  </way>
  <way id="136413184" version="15" timestamp="2025-08-22T07:17:38Z" changeset="170811466" uid="12943226" user="Inkle">
    <nd ref="14743643"/>
    <nd ref="14743642"/>
    <nd ref="1496367964"/>
    <nd ref="3595082745"/>
    <tag k="highway" v="trunk"/>
    <tag k="junction" v="roundabout"/>
    <tag k="lanes" v="3"/>
    <tag k="lit" v="yes"/>
    <tag k="maxspeed" v="60 mph"/>
    <tag k="maxspeed:type" v="GB:nsl_single"/>
    <tag k="name" v="Ansty Interchange"/>
    <tag k="oneway" v="yes"/>
    <tag k="sidewalk" v="no"/>
  </way>
  <way id="142576840" version="10" timestamp="2023-03-14T10:12:08Z" changeset="133659752" uid="5589" user="user_5589">
    <nd ref="1560290480"/>
    <nd ref="1496363113"/>
    <nd ref="574173"/>
    <nd ref="1496363108"/>
    <nd ref="1496363106"/>
    <nd ref="924137494"/>
    <nd ref="1496363100"/>
    <nd ref="574172"/>
    <nd ref="1496363093"/>
    <nd ref="924137497"/>
    <nd ref="1496363095"/>
    <nd ref="574171"/>
    <nd ref="1496363104"/>
    <nd ref="924137501"/>
    <nd ref="1496363109"/>
    <nd ref="574170"/>
    <nd ref="1496363111"/>
    <nd ref="924137504"/>
    <nd ref="1496363114"/>
    <nd ref="574169"/>
    <nd ref="1496363133"/>
    <nd ref="924137506"/>
    <nd ref="1496363153"/>
    <nd ref="574168"/>
    <nd ref="1496363155"/>
    <nd ref="924137509"/>
    <nd ref="1496363157"/>
    <nd ref="574167"/>
    <nd ref="1496363159"/>
    <nd ref="924137510"/>
    <nd ref="1496363161"/>
    <nd ref="574166"/>
    <nd ref="924137512"/>
    <nd ref="1496363168"/>
    <nd ref="574165"/>
    <nd ref="924137513"/>
    <nd ref="1496363169"/>
    <nd ref="574164"/>
    <nd ref="1496363170"/>
    <nd ref="924137514"/>
    <nd ref="574163"/>
    <nd ref="300852420"/>
    <tag k="bicycle" v="no"/>
    <tag k="highway" v="motorway_link"/>
    <tag k="lanes" v="2"/>
    <tag k="lit" v="yes"/>
    <tag k="maxheight" v="default"/>
    <tag k="maxspeed" v="70 mph"/>
    <tag k="national_highways:area" v="9"/>
    <tag k="oneway" v="yes"/>
    <tag k="operator" v="National Highways"/>
    <tag k="operator:wikidata" v="Q5760006"/>
    <tag k="parking:both" v="no"/>
    <tag k="parking:both:restriction" v="no_stopping"/>
  </way>
  <way id="142576859" version="9" timestamp="2023-03-14T10:12:08Z" changeset="133659752" uid="5589" user="user_5589">
    <nd ref="1560290662"/>
    <nd ref="924137491"/>
    <nd ref="1560290480"/>
    <tag k="bicycle" v="no"/>
    <tag k="bridge" v="yes"/>
    <tag k="highway" v="motorway_link"/>
    <tag k="lanes" v="2"/>
    <tag k="layer" v="1"/>
    <tag k="lit" v="yes"/>
    <tag k="maxspeed" v="70 mph"/>
    <tag k="national_highways:area" v="9"/>
    <tag k="oneway" v="yes"/>
    <tag k="operator" v="National Highways"/>
    <tag k="operator:wikidata" v="Q5760006"/>
    <tag k="parking:both" v="no"/>
    <tag k="parking:both:restriction" v="no_stopping"/>
  </way>
  <way id="142579752" version="14" timestamp="2024-11-28T22:03:47Z" changeset="159720970" uid="5229644" user="Nathan_A_RF">
    <nd ref="1560338763"/>
    <nd ref="2752854929"/>
    <nd ref="2065188257"/>
    <nd ref="337634"/>
    <nd ref="2752854927"/>
    <nd ref="337633"/>
    <nd ref="337632"/>
    <tag k="active_traffic_management" v="no"/>
    <tag k="carriageway_ref" v="B"/>
    <tag k="highway" v="motorway"/>
    <tag k="lanes" v="3"/>
    <tag k="lit" v="yes"/>
    <tag k="maxspeed" v="70 mph"/>
    <tag k="maxspeed:type" v="GB:motorway"/>
    <tag k="maxspeed:variable" v="no"/>
    <tag k="national_highways:area" v="9"/>
    <tag k="oneway" v="yes"/>
    <tag k="operator" v="National Highways"/>
    <tag k="operator:wikidata" v="Q5760006"/>
    <tag k="ref" v="M69"/>
    <tag k="surface" v="asphalt"/>
  </way>
  <way id="143399400" version="10" timestamp="2025-08-26T07:31:05Z" changeset="171010476" uid="12943226" user="Inkle">
    <nd ref="385347614"/>
    <nd ref="698476693"/>
    <tag k="cycleway:both" v="no"/>
    <tag k="highway" v="secondary"/>
    <tag k="lanes" v="2"/>
    <tag k="lit" v="no"/>
    <tag k="maxspeed" v="30 mph"/>
    <tag k="name" v="Main Road"/>
    <tag k="ref" v="B4065"/>
    <tag k="sidewalk" v="left"/>
    <tag k="surface" v="asphalt"/>
  </way>
  <way id="166168156" version="13" timestamp="2025-08-22T07:17:00Z" changeset="170811466" uid="12943226" user="Inkle">
    <nd ref="14743645"/>
    <nd ref="1915352540"/>
    <nd ref="1496367981"/>
    <nd ref="1915352522"/>
    <nd ref="1496367979"/>
    <nd ref="1915352555"/>
    <nd ref="14743644"/>
    <tag k="highway" v="trunk"/>
    <tag k="junction" v="roundabout"/>
    <tag k="lanes" v="3"/>
    <tag k="lit" v="yes"/>
    <tag k="maxspeed" v="60 mph"/>
    <tag k="maxspeed:type" v="GB:nsl_single"/>
    <tag k="name" v="Ansty Interchange"/>
    <tag k="oneway" v="yes"/>
    <tag k="sidewalk" v="no"/>
  </way>
  <way id="169250032" version="1" timestamp="2012-06-27T17:27:50Z" changeset="12038963" uid="705850" user="Cebderby">
    <nd ref="1804156724"/>
    <nd ref="1804156728"/>
    <tag k="highway" v="residential"/>
  </way>
  <way id="169250038" version="9" timestamp="2025-09-04T17:43:24Z" changeset="171464075" uid="405907" user="ohmanger">
    <nd ref="1804156718"/>
    <nd ref="1804156715"/>
    <nd ref="12858141160"/>
    <nd ref="1804156694"/>
    <nd ref="1804156690"/>
    <nd ref="1804156686"/>
    <nd ref="1804156708"/>
    <nd ref="1804156719"/>
    <nd ref="12858141161"/>
    <nd ref="13119776415"/>
    <nd ref="32637799"/>
    <tag k="highway" v="residential"/>
    <tag k="lane_markings" v="no"/>
    <tag k="lit" v="yes"/>
    <tag k="sidewalk" v="left"/>
    <tag k="surface" v="asphalt"/>
  </way>
  <way id="181088013" version="8" timestamp="2024-11-28T22:03:47Z" changeset="159720970" uid="5229644" user="Nathan_A_RF">
    <nd ref="1915352520"/>
    <nd ref="605642"/>
    <nd ref="1523320525"/>
    <nd ref="1915352542"/>
    <nd ref="12383306884"/>
    <nd ref="605643"/>
    <tag k="active_traffic_management" v="no"/>
    <tag k="highway" v="motorway_link"/>
    <tag k="lanes" v="2"/>
    <tag k="lit" v="yes"/>
    <tag k="maxspeed" v="70 mph"/>
    <tag k="maxspeed:type" v="GB:motorway"/>
    <tag k="maxspeed:variable" v="no"/>
    <tag k="national_highways:area" v="9"/>
    <tag k="oneway" v="yes"/>
    <tag k="operator" v="National Highways"/>
    <tag k="operator:wikidata" v="Q5760006"/>
    <tag k="ref" v="M69"/>
  </way>
  <way id="195866726" version="15" timestamp="2024-11-24T21:14:46Z" changeset="159550301" uid="5229644" user="Nathan_A_RF">
    <nd ref="24556053"/>
    <nd ref="2062771038"/>
    <nd ref="2071825378"/>
    <nd ref="2071782215"/>
    <nd ref="2062771000"/>
    <nd ref="2064489693"/>
    <nd ref="2062771026"/>
    <nd ref="2064489696"/>
    <nd ref="2062771024"/>
    <tag k="expressway" v="yes"/>
    <tag k="highway" v="trunk_link"/>
    <tag k="lit" v="yes"/>
    <tag k="maxspeed" v="50 mph"/>
    <tag k="maxspeed:type" v="sign"/>
    <tag k="national_highways:area" v="9"/>
    <tag k="oneway" v="yes"/>
    <tag k="operator" v="National Highways"/>
    <tag k="operator:wikidata" v="Q5760006"/>
    <tag k="ref" v="A46"/>
  </way>
  <way id="196080698" version="14" timestamp="2025-08-22T07:18:42Z" changeset="170811466" uid="12943226" user="Inkle">
    <nd ref="2752447993"/>
    <nd ref="2752447994"/>
    <nd ref="2752447995"/>
    <nd ref="24556057"/>
    <nd ref="258750095"/>
    <nd ref="258750094"/>
    <nd ref="1133057761"/>
    <nd ref="24556058"/>
    <nd ref="1133057559"/>
    <nd ref="258750096"/>
    <nd ref="1133057587"/>
    <nd ref="24556059"/>
    <nd ref="258750093"/>
    <nd ref="1133057648"/>
    <nd ref="11734455046"/>
    <nd ref="27044696"/>
    <tag k="dual_carriageway" v="yes"/>
    <tag k="highway" v="trunk"/>
    <tag k="lanes" v="3"/>
    <tag k="lit" v="yes"/>
    <tag k="maxspeed" v="50 mph"/>
    <tag k="name" v="Coventry Eastern Bypass"/>
    <tag k="national_highways:area" v="9"/>
    <tag k="oneway" v="yes"/>
    <tag k="operator" v="National Highways"/>
    <tag k="operator:wikidata" v="Q5760006"/>
    <tag k="ref" v="A46"/>
    <tag k="sidewalk" v="no"/>
  </way>
  <way id="196887714" version="7" timestamp="2024-11-24T21:14:46Z" changeset="159550301" uid="5229644" user="Nathan_A_RF">
    <nd ref="2062771023"/>
    <nd ref="2062770998"/>
    <nd ref="1198009895"/>
    <nd ref="258750083"/>
    <nd ref="1250345235"/>
    <nd ref="2062771041"/>
    <nd ref="2064489693"/>
    <nd ref="3208745742"/>
    <nd ref="2062771051"/>
    <nd ref="2064489699"/>
    <nd ref="1133057550"/>
    <tag k="dual_carriageway" v="yes"/>
    <tag k="highway" v="trunk"/>
    <tag k="lit" v="yes"/>
    <tag k="name" v="Coventry Eastern Bypass"/>
    <tag k="national_highways:area" v="9"/>
    <tag k="oneway" v="yes"/>
    <tag k="operator" v="National Highways"/>
    <tag k="operator:wikidata" v="Q5760006"/>
    <tag k="ref" v="A46"/>
  </way>
  <way id="230597668" version="11" timestamp="2024-01-22T18:56:44Z" changeset="146565751" uid="16951803" user="Vas111">
    <nd ref="574181"/>
    <nd ref="15890565"/>
    <nd ref="574178"/>
    <nd ref="203142"/>
    <nd ref="14743658"/>
    <nd ref="1915722788"/>
    <nd ref="208628"/>
    <nd ref="1915722768"/>
    <nd ref="1915722766"/>
    <nd ref="14743659"/>
    <nd ref="15890336"/>
    <nd ref="1915722765"/>
    <nd ref="1496367966"/>
    <nd ref="1915722764"/>
    <nd ref="203143"/>
    <nd ref="15890335"/>
    <nd ref="574176"/>
    <nd ref="1915722770"/>
    <nd ref="15890340"/>
    <nd ref="208629"/>
    <nd ref="15890341"/>
    <nd ref="1915914304"/>
    <nd ref="1560312575"/>
    <tag k="carriageway_ref" v="B"/>
    <tag k="highway" v="motorway"/>
    <tag k="int_ref" v="E 24"/>
    <tag k="lanes" v="3"/>
    <tag k="lit" v="yes"/>
    <tag k="maxheight" v="default"/>
    <tag k="maxspeed" v="70 mph"/>
    <tag k="maxspeed:type" v="GB:motorway"/>
    <tag k="national_highways:area" v="9"/>
    <tag k="oneway" v="yes"/>
    <tag k="operator" v="National Highways"/>
    <tag k="operator:wikidata" v="Q5760006"/>
    <tag k="proposed:active_traffic_management" v="yes"/>
    <tag k="ref" v="M6"/>
    <tag k="surface" v="asphalt"/>
  </way>
  <way id="230597670" version="10" timestamp="2024-01-22T18:56:44Z" changeset="146565751" uid="16951803" user="Vas111">
    <nd ref="574180"/>
    <nd ref="574183"/>
    <nd ref="1560290525"/>
    <tag k="carriageway_ref" v="A"/>
    <tag k="highway" v="motorway"/>
    <tag k="int_ref" v="E 24"/>
    <tag k="lanes" v="3"/>
    <tag k="lit" v="yes"/>
    <tag k="maxspeed" v="70 mph"/>
    <tag k="maxspeed:type" v="GB:motorway"/>
    <tag k="national_highways:area" v="9"/>
    <tag k="oneway" v="yes"/>
    <tag k="operator" v="National Highways"/>
    <tag k="operator:wikidata" v="Q5760006"/>
    <tag k="proposed:active_traffic_management" v="yes"/>
    <tag k="ref" v="M6"/>
    <tag k="surface" v="asphalt"/>
  </way>
  <way id="232447313" version="2" timestamp="2025-08-11T12:50:52Z" changeset="170292002" uid="5049" user="gistutor">
    <nd ref="2408002199"/>
    <nd ref="2408002269"/>
    <nd ref="2408002132"/>
    <nd ref="13063457135"/>
    <nd ref="2408002248"/>
    <nd ref="2408002305"/>
    <nd ref="2408002199"/>
    <tag k="building" v="yes"/>
    <tag k="name" v="Ansty Golf Club"/>
  </way>
  <way id="232467374" version="5" timestamp="2025-07-12T23:25:29Z" changeset="168854561" uid="8857" user="philipcullen">
    <nd ref="2408176916"/>
    <nd ref="2408176918"/>
    <nd ref="2408176913"/>
    <nd ref="2408176915"/>
    <nd ref="2408176912"/>
    <nd ref="2408176911"/>
    <nd ref="2408176916"/>
    <tag k="amenity" v="place_of_worship"/>
    <tag k="building" v="church"/>
    <tag k="denomination" v="anglican"/>
    <tag k="heritage" v="2"/>
    <tag k="heritage:operator" v="Historic England"/>
    <tag k="listed_status" v="Grade II*"/>
    <tag k="name" v="St James"/>
    <tag k="ref:GB:uprn" v="10010522494"/>
    <tag k="religion" v="christian"/>
    <tag k="wikidata" v="Q17550778"/>
  </way>
  <way id="232467386" version="2" timestamp="2014-05-11T13:03:37Z" changeset="22270508" uid="3422" user="Milliams">
    <nd ref="2408176938"/>
    <nd ref="2408176936"/>
    <nd ref="2850390377"/>
    <nd ref="2408176929"/>
    <nd ref="2408176930"/>
    <nd ref="2408176926"/>
    <nd ref="2408176931"/>
    <nd ref="2408176938"/>
    <tag k="building" v="hotel"/>
    <tag k="name" v="The Orangery"/>
    <tag k="tourism" v="hotel"/>
  </way>
  <way id="232467402" version="11" timestamp="2025-07-12T23:25:29Z" changeset="168854561" uid="8857" user="philipcullen">
    <nd ref="2408176924"/>
    <nd ref="2408176922"/>
    <nd ref="2408176920"/>
    <nd ref="2408176919"/>
    <nd ref="2850390362"/>
    <nd ref="2408176908"/>
    <nd ref="2408176910"/>
    <nd ref="2408176921"/>
    <nd ref="2408176923"/>
    <nd ref="2408176924"/>
    <tag k="addr:city" v="Ansty"/>
    <tag k="addr:postcode" v="CV7 9HZ"/>
    <tag k="alt_name" v="Ansty Hall Hotel"/>
    <tag k="building" v="hotel"/>
    <tag k="building:material" v="brick"/>
    <tag k="check_date" v="2024-10-19"/>
    <tag k="email" v="enquiries@anstyhall.com"/>
    <tag k="heritage" v="2"/>
    <tag k="heritage:operator" v="Historic England"/>
    <tag k="listed_status" v="Grade II*"/>
    <tag k="name" v="Ansty Hall"/>
    <tag k="phone" v="+44 24 7661 2222"/>
    <tag k="ref:GB:uprn" v="10010504338"/>
    <tag k="source" v="local knowledge"/>
    <tag k="tourism" v="hotel"/>
    <tag k="website" v="https://www.exclusive.co.uk/ansty-hall/"/>
    <tag k="wikidata" v="Q4770794"/>
    <tag k="wikimedia_commons" v="Category:Ansty Hall"/>
    <tag k="wikipedia" v="en:Ansty Hall"/>
  </way>
  <way id="232730738" version="8" timestamp="2024-11-28T22:03:47Z" changeset="159720970" uid="5229644" user="Nathan_A_RF">
    <nd ref="2410597234"/>
    <nd ref="337418"/>
    <tag k="active_traffic_management" v="no"/>
    <tag k="bridge" v="yes"/>
    <tag k="carriageway_ref" v="B"/>
    <tag k="highway" v="motorway"/>
    <tag k="lanes" v="4"/>
    <tag k="layer" v="1"/>
    <tag k="lit" v="yes"/>
    <tag k="maxspeed" v="70 mph"/>
    <tag k="maxspeed:type" v="GB:motorway"/>
    <tag k="maxspeed:variable" v="no"/>
    <tag k="national_highways:area" v="9"/>
    <tag k="oneway" v="yes"/>
    <tag k="operator" v="National Highways"/>
    <tag k="operator:wikidata" v="Q5760006"/>
    <tag k="ref" v="M69"/>
    <tag k="surface" v="asphalt"/>
  </way>
  <way id="232730739" version="9" timestamp="2024-11-28T22:03:47Z" changeset="159720970" uid="5229644" user="Nathan_A_RF">
    <nd ref="2410597226"/>
    <nd ref="1496363160"/>
    <nd ref="1496363156"/>
    <nd ref="12372411570"/>
    <nd ref="337420"/>
    <tag k="active_traffic_management" v="no"/>
    <tag k="carriageway_ref" v="B"/>
    <tag k="highway" v="motorway"/>
    <tag k="lanes" v="2"/>
    <tag k="lit" v="yes"/>
    <tag k="maxspeed" v="70 mph"/>
    <tag k="maxspeed:type" v="GB:motorway"/>
    <tag k="maxspeed:variable" v="no"/>
    <tag k="national_highways:area" v="9"/>
    <tag k="oneway" v="yes"/>
    <tag k="operator" v="National Highways"/>
    <tag k="operator:wikidata" v="Q5760006"/>
    <tag k="ref" v="M69"/>
    <tag k="surface" v="asphalt"/>
  </way>
  <way id="232730740" version="8" timestamp="2024-11-28T22:03:47Z" changeset="159720970" uid="5229644" user="Nathan_A_RF">
    <nd ref="337418"/>
    <nd ref="2410597225"/>
    <tag k="bicycle" v="no"/>
    <tag k="bridge" v="yes"/>
    <tag k="highway" v="motorway_link"/>
    <tag k="lanes" v="2"/>
    <tag k="layer" v="1"/>
    <tag k="lit" v="yes"/>
    <tag k="maxspeed" v="70 mph"/>
    <tag k="national_highways:area" v="9"/>
    <tag k="oneway" v="yes"/>
    <tag k="operator" v="National Highways"/>
    <tag k="operator:wikidata" v="Q5760006"/>
    <tag k="parking:both" v="no"/>
    <tag k="parking:both:restriction" v="no_stopping"/>
  </way>
  <way id="232730741" version="7" timestamp="2023-03-14T10:12:08Z" changeset="133659752" uid="5589" user="user_5589">
    <nd ref="2410597225"/>
    <nd ref="574175"/>
    <nd ref="924137518"/>
    <nd ref="1496363154"/>
    <nd ref="924137520"/>
    <nd ref="1496363140"/>
    <nd ref="574174"/>
    <nd ref="1496363116"/>
    <nd ref="1560290662"/>
    <tag k="bicycle" v="no"/>
    <tag k="highway" v="motorway_link"/>
    <tag k="lanes" v="2"/>
    <tag k="lit" v="yes"/>
    <tag k="maxspeed" v="70 mph"/>
    <tag k="national_highways:area" v="9"/>
    <tag k="oneway" v="yes"/>
    <tag k="operator" v="National Highways"/>
    <tag k="operator:wikidata" v="Q5760006"/>
    <tag k="parking:both" v="no"/>
    <tag k="parking:both:restriction" v="no_stopping"/>
  </way>
  <way id="237966236" version="5" timestamp="2024-08-16T23:37:31Z" changeset="155347442" uid="5589" user="user_5589">
    <nd ref="2458235785"/>
    <nd ref="26059836"/>
    <nd ref="1496334287"/>
    <nd ref="1496334286"/>
    <nd ref="1496334284"/>
    <nd ref="26059835"/>
    <nd ref="26059834"/>
    <nd ref="26059833"/>
    <nd ref="26059832"/>
    <nd ref="1496334188"/>
    <nd ref="26059831"/>
    <nd ref="1496334173"/>
    <nd ref="4620540181"/>
    <nd ref="1496334171"/>
    <nd ref="26059838"/>
    <tag k="dual_carriageway" v="yes"/>
    <tag k="fixme" v="name from OS Opendata Locator as had to be removed to apply odbl clean"/>
    <tag k="highway" v="trunk"/>
    <tag k="lanes" v="2"/>
    <tag k="lit" v="yes"/>
    <tag k="maxspeed" v="40 mph"/>
    <tag k="name" v="Hinckley Road"/>
    <tag k="oneway" v="yes"/>
    <tag k="ref" v="A4600"/>
    <tag k="source:name" v="OS Locator"/>
  </way>
  <way id="237966241" version="8" timestamp="2025-09-04T17:43:24Z" changeset="171464075" uid="405907" user="ohmanger">
    <nd ref="14743654"/>
    <nd ref="14743632"/>
    <tag k="dual_carriageway" v="yes"/>
    <tag k="fixme" v="name from OS Opendata Locator as had to be removed to apply odbl clean"/>
    <tag k="highway" v="trunk"/>
    <tag k="lanes" v="2"/>
    <tag k="lit" v="yes"/>
    <tag k="maxspeed" v="70 mph"/>
    <tag k="name" v="Hinckley Road"/>
    <tag k="oneway" v="yes"/>
    <tag k="ref" v="A4600"/>
    <tag k="sidewalk:right" v="separate"/>
    <tag k="source:name" v="OS Locator"/>
  </way>
  <way id="258779055" version="10" timestamp="2025-08-22T07:18:39Z" changeset="170811466" uid="12943226" user="Inkle">
    <nd ref="14743629"/>
    <nd ref="2752448000"/>
    <nd ref="2752447999"/>
    <nd ref="2752447998"/>
    <nd ref="2752447997"/>
    <nd ref="2752447996"/>
    <nd ref="258750097"/>
    <nd ref="1133057691"/>
    <nd ref="258750098"/>
    <nd ref="1133057618"/>
    <nd ref="258750099"/>
    <nd ref="2148922280"/>
    <nd ref="258750100"/>
    <nd ref="258750101"/>
    <nd ref="2148922212"/>
    <nd ref="258750102"/>
    <nd ref="2062771020"/>
    <nd ref="258750081"/>
    <nd ref="1496363139"/>
    <nd ref="2063311433"/>
    <nd ref="2752447992"/>
    <nd ref="2062771024"/>
    <tag k="dual_carriageway" v="yes"/>
    <tag k="highway" v="trunk"/>
    <tag k="lanes" v="2"/>
    <tag k="lit" v="yes"/>
    <tag k="maxspeed" v="50 mph"/>
    <tag k="name" v="Coventry Eastern Bypass"/>
    <tag k="national_highways:area" v="9"/>
    <tag k="oneway" v="yes"/>
    <tag k="operator" v="National Highways"/>
    <tag k="operator:wikidata" v="Q5760006"/>
    <tag k="ref" v="A46"/>
    <tag k="sidewalk" v="no"/>
  </way>
  <way id="270190101" version="9" timestamp="2024-11-24T21:14:46Z" changeset="159550301" uid="5229644" user="Nathan_A_RF">
    <nd ref="24556053"/>
    <nd ref="1250345245"/>
    <nd ref="12372411566"/>
    <nd ref="1248984610"/>
    <nd ref="1133057729"/>
    <nd ref="258750105"/>
    <nd ref="1496363145"/>
    <nd ref="1133057550"/>
    <tag k="expressway" v="yes"/>
    <tag k="highway" v="trunk_link"/>
    <tag k="lanes" v="2"/>
    <tag k="lit" v="yes"/>
    <tag k="maxspeed" v="50 mph"/>
    <tag k="maxspeed:type" v="sign"/>
    <tag k="national_highways:area" v="9"/>
    <tag k="oneway" v="yes"/>
    <tag k="operator" v="National Highways"/>
    <tag k="operator:wikidata" v="Q5760006"/>
    <tag k="ref" v="A46"/>
    <tag k="source:maxspeed" v="Stats19"/>
  </way>
  <way id="270190102" version="13" timestamp="2024-11-24T21:14:46Z" changeset="159550301" uid="5229644" user="Nathan_A_RF">
    <nd ref="1133057792"/>
    <nd ref="12372411560"/>
    <nd ref="2752447886"/>
    <nd ref="1133057663"/>
    <nd ref="1133057682"/>
    <nd ref="1133057782"/>
    <nd ref="12372411565"/>
    <nd ref="337449"/>
    <tag k="expressway" v="yes"/>
    <tag k="highway" v="trunk_link"/>
    <tag k="lanes" v="2"/>
    <tag k="lit" v="yes"/>
    <tag k="maxspeed" v="70 mph"/>
    <tag k="maxspeed:type" v="GB:nsl_dual"/>
    <tag k="national_highways:area" v="9"/>
    <tag k="oneway" v="yes"/>
    <tag k="operator" v="National Highways"/>
    <tag k="operator:wikidata" v="Q5760006"/>
    <tag k="ref" v="A46"/>
    <tag k="sidewalk" v="no"/>
    <tag k="surface" v="asphalt"/>
  </way>
  <way id="270190103" version="15" timestamp="2024-11-24T21:14:46Z" changeset="159550301" uid="5229644" user="Nathan_A_RF">
    <nd ref="337425"/>
    <nd ref="12372411562"/>
    <nd ref="2062771047"/>
    <nd ref="1133057799"/>
    <nd ref="1133057549"/>
    <nd ref="1133057730"/>
    <nd ref="12372411561"/>
    <tag k="expressway" v="yes"/>
    <tag k="highway" v="trunk_link"/>
    <tag k="lanes" v="2"/>
    <tag k="lit" v="yes"/>
    <tag k="maxspeed" v="50 mph"/>
    <tag k="maxspeed:type" v="sign"/>
    <tag k="national_highways:area" v="9"/>
    <tag k="oneway" v="yes"/>
    <tag k="operator" v="National Highways"/>
    <tag k="operator:wikidata" v="Q5760006"/>
    <tag k="ref" v="A46"/>
    <tag k="sidewalk" v="no"/>
    <tag k="source:maxspeed" v="Stats19"/>
  </way>
  <way id="275996276" version="7" timestamp="2024-08-16T23:31:31Z" changeset="155347442" uid="5589" user="user_5589">
    <nd ref="2062771024"/>
    <nd ref="1560290428"/>
    <nd ref="1496363110"/>
    <tag k="dual_carriageway" v="yes"/>
    <tag k="highway" v="trunk"/>
    <tag k="lanes" v="2"/>
    <tag k="lit" v="yes"/>
    <tag k="maxspeed" v="50 mph"/>
    <tag k="name" v="Coventry Eastern Bypass"/>
    <tag k="national_highways:area" v="9"/>
    <tag k="oneway" v="yes"/>
    <tag k="operator" v="National Highways"/>
    <tag k="operator:wikidata" v="Q5760006"/>
    <tag k="ref" v="A46"/>
  </way>
  <way id="275996284" version="10" timestamp="2024-11-24T21:14:46Z" changeset="159550301" uid="5229644" user="Nathan_A_RF">
    <nd ref="1496363110"/>
    <nd ref="2072529305"/>
    <nd ref="2062770991"/>
    <nd ref="2062771023"/>
    <nd ref="2071782230"/>
    <nd ref="2062771009"/>
    <nd ref="2062770990"/>
    <nd ref="2752447956"/>
    <nd ref="1133057792"/>
    <tag k="expressway" v="yes"/>
    <tag k="highway" v="trunk_link"/>
    <tag k="lanes" v="2"/>
    <tag k="lit" v="yes"/>
    <tag k="maxspeed" v="50 mph"/>
    <tag k="national_highways:area" v="9"/>
    <tag k="oneway" v="yes"/>
    <tag k="operator" v="National Highways"/>
    <tag k="operator:wikidata" v="Q5760006"/>
    <tag k="ref" v="A46"/>
  </way>
  <way id="315005040" version="6" timestamp="2025-08-26T07:34:29Z" changeset="171010476" uid="12943226" user="Inkle">
    <nd ref="3210887179"/>
    <nd ref="1353905238"/>
    <tag k="cycleway:both" v="no"/>
    <tag k="foot" v="designated"/>
    <tag k="highway" v="secondary"/>
    <tag k="lanes" v="2"/>
    <tag k="lit" v="no"/>
    <tag k="maxspeed" v="30 mph"/>
    <tag k="name" v="Main Road"/>
    <tag k="ref" v="B4065"/>
    <tag k="sidewalk" v="both"/>
    <tag k="surface" v="asphalt"/>
  </way>
  <way id="435137558" version="11" timestamp="2025-08-22T07:17:29Z" changeset="170811684" uid="12943226" user="Inkle">
    <nd ref="605637"/>
    <nd ref="12383306875"/>
    <nd ref="12858114901"/>
    <nd ref="12383306876"/>
    <nd ref="12383306877"/>
    <nd ref="12383306881"/>
    <nd ref="605639"/>
    <tag k="destination:ref:lanes" v="M69|B4065"/>
    <tag k="highway" v="secondary"/>
    <tag k="lanes" v="2"/>
    <tag k="lit" v="yes"/>
    <tag k="maxspeed" v="70 mph"/>
    <tag k="maxspeed:type" v="GB:nsl_dual"/>
    <tag k="name" v="Hinckley Road"/>
    <tag k="note" v="Clearly signposted as B4065 at roundabout exit."/>
    <tag k="oneway" v="yes"/>
    <tag k="ref" v="B4065"/>
    <tag k="sidewalk" v="no"/>
    <tag k="surface" v="asphalt"/>
    <tag k="turn:lanes" v="slight_left|through"/>
  </way>
  <way id="435137561" version="6" timestamp="2024-11-28T22:03:47Z" changeset="159720970" uid="5229644" user="Nathan_A_RF">
    <nd ref="605639"/>
    <nd ref="12383306879"/>
    <nd ref="12383306878"/>
    <nd ref="1915352520"/>
    <tag k="active_traffic_management" v="no"/>
    <tag k="highway" v="motorway_link"/>
    <tag k="lanes" v="1"/>
    <tag k="lit" v="yes"/>
    <tag k="maxspeed" v="70 mph"/>
    <tag k="maxspeed:type" v="GB:motorway"/>
    <tag k="maxspeed:variable" v="no"/>
    <tag k="national_highways:area" v="9"/>
    <tag k="oneway" v="yes"/>
    <tag k="operator" v="National Highways"/>
    <tag k="operator:wikidata" v="Q5760006"/>
    <tag k="ref" v="M69"/>
  </way>
  <way id="435137563" version="6" timestamp="2022-10-28T19:15:37Z" changeset="128188196" uid="13666626" user="RedAuburn">
    <nd ref="1496363171"/>
    <nd ref="14743624"/>
    <tag k="bicycle" v="no"/>
    <tag k="highway" v="motorway_link"/>
    <tag k="lanes" v="2"/>
    <tag k="lit" v="yes"/>
    <tag k="maxheight" v="default"/>
    <tag k="maxspeed" v="70 mph"/>
    <tag k="national_highways:area" v="9"/>
    <tag k="oneway" v="yes"/>
    <tag k="operator" v="National Highways"/>
    <tag k="operator:wikidata" v="Q5760006"/>
  </way>
  <way id="435137570" version="11" timestamp="2025-09-04T17:46:51Z" changeset="171464180" uid="405907" user="ohmanger">
    <nd ref="27044696"/>
    <nd ref="1248984605"/>
    <nd ref="14743630"/>
    <tag k="highway" v="trunk"/>
    <tag k="junction" v="roundabout"/>
    <tag k="lanes" v="4"/>
    <tag k="lit" v="yes"/>
    <tag k="maxspeed" v="60 mph"/>
    <tag k="maxspeed:type" v="GB:nsl_single"/>
    <tag k="name" v="Ansty Interchange"/>
    <tag k="oneway" v="yes"/>
    <tag k="sidewalk" v="no"/>
  </way>
  <way id="435137573" version="10" timestamp="2025-08-22T07:16:55Z" changeset="170811466" uid="12943226" user="Inkle">
    <nd ref="36430204"/>
    <nd ref="1496367983"/>
    <nd ref="14743645"/>
    <tag k="highway" v="trunk"/>
    <tag k="junction" v="roundabout"/>
    <tag k="lanes" v="4"/>
    <tag k="lit" v="yes"/>
    <tag k="maxspeed" v="60 mph"/>
    <tag k="maxspeed:type" v="GB:nsl_single"/>
    <tag k="name" v="Ansty Interchange"/>
    <tag k="oneway" v="yes"/>
    <tag k="sidewalk" v="no"/>
  </way>
  <way id="435137575" version="6" timestamp="2025-08-22T07:19:05Z" changeset="170811470" uid="12943226" user="Inkle">
    <nd ref="14743624"/>
    <nd ref="14743625"/>
    <nd ref="4330885150"/>
    <tag k="bicycle" v="no"/>
    <tag k="highway" v="motorway_link"/>
    <tag k="lanes" v="3"/>
    <tag k="lit" v="yes"/>
    <tag k="maxspeed" v="70 mph"/>
    <tag k="national_highways:area" v="9"/>
    <tag k="oneway" v="yes"/>
    <tag k="operator" v="National Highways"/>
    <tag k="operator:wikidata" v="Q5760006"/>
  </way>
  <way id="622104013" version="6" timestamp="2025-08-22T07:17:40Z" changeset="170811466" uid="12943226" user="Inkle">
    <nd ref="3595082745"/>
    <nd ref="14743629"/>
    <tag k="highway" v="trunk"/>
    <tag k="junction" v="circular"/>
    <tag k="lanes" v="3"/>
    <tag k="lit" v="yes"/>
    <tag k="maxspeed" v="60 mph"/>
    <tag k="maxspeed:type" v="GB:nsl_single"/>
    <tag k="name" v="Ansty Interchange"/>
    <tag k="oneway" v="yes"/>
    <tag k="sidewalk" v="no"/>
    <tag k="source:maxspeed" v="Stats19"/>
  </way>
  <way id="890652928" version="1" timestamp="2020-12-31T10:33:38Z" changeset="96724043" uid="10170582" user="priymose">
    <nd ref="8277816896"/>
    <nd ref="8277816897"/>
    <tag k="highway" v="residential"/>
  </way>
  <way id="1074522637" version="3" timestamp="2023-03-14T10:12:08Z" changeset="133659752" uid="5589" user="user_5589">
    <nd ref="574181"/>
    <nd ref="14743599"/>
    <nd ref="1915352543"/>
    <nd ref="1915352564"/>
    <nd ref="14743600"/>
    <tag k="bicycle" v="no"/>
    <tag k="foot" v="no"/>
    <tag k="highway" v="motorway_link"/>
    <tag k="lanes" v="2"/>
    <tag k="lit" v="yes"/>
    <tag k="maxspeed" v="70 mph"/>
    <tag k="national_highways:area" v="9"/>
    <tag k="oneway" v="yes"/>
    <tag k="operator" v="National Highways"/>
    <tag k="operator:wikidata" v="Q5760006"/>
    <tag k="parking:both" v="no"/>
    <tag k="parking:both:restriction" v="no_stopping"/>
  </way>
  <way id="1080978934" version="3" timestamp="2024-11-24T21:14:46Z" changeset="159550301" uid="5229644" user="Nathan_A_RF">
    <nd ref="1191708802"/>
    <nd ref="2752447973"/>
    <nd ref="2062770993"/>
    <nd ref="2071782237"/>
    <nd ref="2062771040"/>
    <nd ref="2071782238"/>
    <nd ref="2062771021"/>
    <nd ref="1133057792"/>
    <tag k="expressway" v="yes"/>
    <tag k="highway" v="trunk_link"/>
    <tag k="national_highways:area" v="9"/>
    <tag k="oneway" v="yes"/>
    <tag k="operator" v="National Highways"/>
    <tag k="operator:wikidata" v="Q5760006"/>
    <tag k="ref" v="A46"/>
  </way>
  <way id="1091092222" version="2" timestamp="2022-10-28T19:16:22Z" changeset="128188239" uid="13666626" user="RedAuburn">
    <nd ref="14743645"/>
    <nd ref="1915352552"/>
    <nd ref="1915352532"/>
    <nd ref="14743655"/>
    <nd ref="1496367978"/>
    <tag k="bicycle" v="no"/>
    <tag k="highway" v="motorway_link"/>
    <tag k="lanes" v="2"/>
    <tag k="lit" v="yes"/>
    <tag k="maxspeed" v="70 mph"/>
    <tag k="national_highways:area" v="9"/>
    <tag k="oneway" v="yes"/>
    <tag k="operator" v="National Highways"/>
    <tag k="operator:wikidata" v="Q5760006"/>
  </way>
  <way id="1102611548" version="7" timestamp="2024-11-24T21:14:46Z" changeset="159550301" uid="5229644" user="Nathan_A_RF">
    <nd ref="337423"/>
    <nd ref="12372411563"/>
    <nd ref="337425"/>
    <tag k="dual_carriageway" v="yes"/>
    <tag k="expressway" v="yes"/>
    <tag k="highway" v="trunk"/>
    <tag k="lanes" v="2"/>
    <tag k="lit" v="yes"/>
    <tag k="maxspeed" v="70 mph"/>
    <tag k="maxspeed:type" v="GB:nsl_dual"/>
    <tag k="name" v="Coventry Eastern Bypass"/>
    <tag k="national_highways:area" v="9"/>
    <tag k="oneway" v="yes"/>
    <tag k="operator" v="National Highways"/>
    <tag k="operator:wikidata" v="Q5760006"/>
    <tag k="ref" v="A46"/>
    <tag k="sidewalk" v="no"/>
    <tag k="surface" v="asphalt"/>
  </way>
  <way id="1102612765" version="4" timestamp="2024-08-16T23:33:53Z" changeset="155347442" uid="5589" user="user_5589">
    <nd ref="1133057550"/>
    <nd ref="2752447993"/>
    <tag k="dual_carriageway" v="yes"/>
    <tag k="highway" v="trunk"/>
    <tag k="lanes" v="3"/>
    <tag k="lit" v="yes"/>
    <tag k="maxspeed" v="50 mph"/>
    <tag k="name" v="Coventry Eastern Bypass"/>
    <tag k="national_highways:area" v="9"/>
    <tag k="oneway" v="yes"/>
    <tag k="operator" v="National Highways"/>
    <tag k="operator:wikidata" v="Q5760006"/>
    <tag k="ref" v="A46"/>
  </way>
  <way id="1195103271" version="4" timestamp="2024-11-24T21:14:46Z" changeset="159550301" uid="5229644" user="Nathan_A_RF">
    <nd ref="337449"/>
    <nd ref="12372411564"/>
    <nd ref="337446"/>
    <nd ref="1560290468"/>
    <tag k="dual_carriageway" v="yes"/>
    <tag k="expressway" v="yes"/>
    <tag k="highway" v="trunk"/>
    <tag k="lanes" v="2"/>
    <tag k="lit" v="yes"/>
    <tag k="maxspeed" v="70 mph"/>
    <tag k="maxspeed:type" v="GB:nsl_dual"/>
    <tag k="name" v="Coventry Eastern Bypass"/>
    <tag k="national_highways:area" v="9"/>
    <tag k="oneway" v="yes"/>
    <tag k="operator" v="National Highways"/>
    <tag k="operator:wikidata" v="Q5760006"/>
    <tag k="ref" v="A46"/>
    <tag k="sidewalk" v="no"/>
    <tag k="surface" v="asphalt"/>
  </way>
  <way id="1246977910" version="1" timestamp="2024-02-06T19:59:08Z" changeset="147149573" uid="563773" user="mrpacmanmap">
    <nd ref="260471128"/>
    <nd ref="3326875373"/>
    <nd ref="260471129"/>
    <nd ref="260471130"/>
    <nd ref="260471131"/>
    <nd ref="260471132"/>
    <nd ref="260471133"/>
    <nd ref="2408002265"/>
    <nd ref="260471134"/>
    <nd ref="1389754072"/>
    <nd ref="260471135"/>
    <tag k="highway" v="secondary"/>
    <tag k="ref" v="B4029"/>
  </way>
  <way id="1246977911" version="1" timestamp="2024-02-06T19:59:08Z" changeset="147149573" uid="563773" user="mrpacmanmap">
    <nd ref="260471135"/>
    <nd ref="2056440223"/>
    <nd ref="1389754134"/>
    <nd ref="260471136"/>
    <nd ref="260471137"/>
    <nd ref="260471138"/>
    <nd ref="2408002212"/>
    <nd ref="260471139"/>
    <nd ref="260471140"/>
    <nd ref="1353905228"/>
    <nd ref="260471141"/>
    <nd ref="1353905229"/>
    <nd ref="1353905230"/>
    <nd ref="1353905231"/>
    <nd ref="3374565243"/>
    <nd ref="260471142"/>
    <tag k="highway" v="secondary"/>
    <tag k="ref" v="B4029"/>
  </way>
  <way id="1337576993" version="2" timestamp="2025-09-05T09:01:10Z" changeset="171486569" uid="405907" user="ohmanger">
    <nd ref="1191708802"/>
    <nd ref="2752447976"/>
    <nd ref="1191708804"/>
    <nd ref="2071782220"/>
    <nd ref="2062771023"/>
    <tag k="dual_carriageway" v="yes"/>
    <tag k="highway" v="unclassified"/>
    <tag k="lit" v="yes"/>
    <tag k="name" v="Central Boulevard"/>
    <tag k="oneway" v="yes"/>
    <tag k="surface" v="asphalt"/>
  </way>
  <way id="1337576994" version="1" timestamp="2024-11-24T21:14:46Z" changeset="159550301" uid="5229644" user="Nathan_A_RF">
    <nd ref="12372411561"/>
    <nd ref="258750106"/>
    <tag k="expressway" v="yes"/>
    <tag k="highway" v="trunk_link"/>
    <tag k="lanes" v="3"/>
    <tag k="lit" v="yes"/>
    <tag k="maxspeed" v="50 mph"/>
    <tag k="maxspeed:type" v="sign"/>
    <tag k="national_highways:area" v="9"/>
    <tag k="oneway" v="yes"/>
    <tag k="operator" v="National Highways"/>
    <tag k="operator:wikidata" v="Q5760006"/>
    <tag k="ref" v="A46"/>
    <tag k="sidewalk" v="no"/>
    <tag k="source:maxspeed" v="Stats19"/>
  </way>
  <way id="1337576995" version="1" timestamp="2024-11-24T21:14:46Z" changeset="159550301" uid="5229644" user="Nathan_A_RF">
    <nd ref="258750106"/>
    <nd ref="24556053"/>
    <tag k="expressway" v="yes"/>
    <tag k="highway" v="trunk_link"/>
    <tag k="lanes" v="4"/>
    <tag k="lit" v="yes"/>
    <tag k="maxspeed" v="50 mph"/>
    <tag k="maxspeed:type" v="sign"/>
    <tag k="national_highways:area" v="9"/>
    <tag k="oneway" v="yes"/>
    <tag k="operator" v="National Highways"/>
    <tag k="operator:wikidata" v="Q5760006"/>
    <tag k="ref" v="A46"/>
    <tag k="sidewalk" v="no"/>
    <tag k="source:maxspeed" v="Stats19"/>
  </way>
  <way id="1338732184" version="1" timestamp="2024-11-28T22:03:47Z" changeset="159720970" uid="5229644" user="Nathan_A_RF">
    <nd ref="337418"/>
    <nd ref="2410597226"/>
    <tag k="active_traffic_management" v="no"/>
    <tag k="bridge" v="yes"/>
    <tag k="carriageway_ref" v="B"/>
    <tag k="highway" v="motorway"/>
    <tag k="lanes" v="2"/>
    <tag k="layer" v="1"/>
    <tag k="lit" v="yes"/>
    <tag k="maxspeed" v="70 mph"/>
    <tag k="maxspeed:type" v="GB:motorway"/>
    <tag k="maxspeed:variable" v="no"/>
    <tag k="national_highways:area" v="9"/>
    <tag k="oneway" v="yes"/>
    <tag k="operator" v="National Highways"/>
    <tag k="operator:wikidata" v="Q5760006"/>
    <tag k="ref" v="M69"/>
    <tag k="surface" v="asphalt"/>
  </way>
  <way id="1338732185" version="1" timestamp="2024-11-28T22:03:47Z" changeset="159720970" uid="5229644" user="Nathan_A_RF">
    <nd ref="12383306887"/>
    <nd ref="924137423"/>
    <nd ref="1496367987"/>
    <nd ref="924137424"/>
    <nd ref="1496367985"/>
    <nd ref="1496367986"/>
    <nd ref="1915722761"/>
    <nd ref="14743639"/>
    <tag k="bicycle" v="no"/>
    <tag k="foot" v="no"/>
    <tag k="highway" v="motorway_link"/>
    <tag k="lanes" v="3"/>
    <tag k="lit" v="yes"/>
    <tag k="maxspeed" v="70 mph"/>
    <tag k="national_highways:area" v="9"/>
    <tag k="oneway" v="yes"/>
    <tag k="operator" v="National Highways"/>
    <tag k="operator:wikidata" v="Q5760006"/>
  </way>
  <way id="1385154359" version="6" timestamp="2025-09-04T17:43:24Z" changeset="171464075" uid="405907" user="ohmanger">
    <nd ref="32637800"/>
    <nd ref="2056041833"/>
    <nd ref="32637799"/>
    <tag k="highway" v="secondary"/>
    <tag k="lanes" v="2"/>
    <tag k="lit" v="no"/>
    <tag k="maxspeed" v="30 mph"/>
    <tag k="name" v="Hinckley Road"/>
    <tag k="ref" v="B4065"/>
    <tag k="sidewalk:right" v="separate"/>
    <tag k="source" v="OS_OpenData_StreetView"/>
    <tag k="surface" v="asphalt"/>
  </way>
  <way id="1389075111" version="3" timestamp="2025-08-22T07:17:24Z" changeset="170811684" uid="12943226" user="Inkle">
    <nd ref="14743640"/>
    <nd ref="1915352551"/>
    <nd ref="1915352528"/>
    <nd ref="605637"/>
    <tag k="highway" v="secondary"/>
    <tag k="lanes" v="2"/>
    <tag k="lit" v="yes"/>
    <tag k="maxspeed" v="70 mph"/>
    <tag k="maxspeed:type" v="GB:nsl_dual"/>
    <tag k="name" v="Hinckley Road"/>
    <tag k="note" v="Clearly signposted as B4065 at roundabout exit."/>
    <tag k="oneway" v="yes"/>
    <tag k="ref" v="B4065"/>
    <tag k="sidewalk" v="no"/>
    <tag k="surface" v="asphalt"/>
  </way>
  <way id="1427154148" version="1" timestamp="2025-09-04T17:46:51Z" changeset="171464180" uid="405907" user="ohmanger">
    <nd ref="13119754968"/>
    <nd ref="1496367961"/>
    <nd ref="14743632"/>
    <tag k="highway" v="trunk"/>
    <tag k="junction" v="roundabout"/>
    <tag k="lanes" v="4"/>
    <tag k="lit" v="yes"/>
    <tag k="maxspeed" v="60 mph"/>
    <tag k="maxspeed:type" v="GB:nsl_single"/>
    <tag k="name" v="Ansty Interchange"/>
    <tag k="oneway" v="yes"/>
    <tag k="sidewalk:right" v="separate"/>
    <tag k="surface" v="asphalt"/>
  </way>
  <way id="1427154149" version="1" timestamp="2025-09-04T17:46:51Z" changeset="171464180" uid="405907" user="ohmanger">
    <nd ref="13119754986"/>
    <nd ref="1496367988"/>
    <nd ref="36430204"/>
    <tag k="highway" v="trunk"/>
    <tag k="junction" v="roundabout"/>
    <tag k="lanes" v="4"/>
    <tag k="lit" v="yes"/>
    <tag k="maxspeed" v="60 mph"/>
    <tag k="maxspeed:type" v="GB:nsl_single"/>
    <tag k="name" v="Ansty Interchange"/>
    <tag k="oneway" v="yes"/>
    <tag k="sidewalk" v="no"/>
  </way>

</osm>
