<?xml version="1.0" encoding="UTF-8"?>
<osm version="0.6" generator="Overpass API 0.7.62.8 e802775f">
<note>The data included in this document is from www.openstreetmap.org. The data is made available under ODbL.</note>
<meta osm_base="2025-10-23T17:00:49Z" areas="2025-10-23T12:46:58Z"/>

  <node id="119445383" lat="52.2178601" lon="-1.6729505" version="4" timestamp="2013-04-23T11:32:43Z" changeset="15835520" uid="9065" user="brianboru">
    <tag k="source" v="gps_survey"/>
  </node>
  <node id="119445721" lat="52.2164408" lon="-1.6559635" version="4" timestamp="2013-04-23T11:32:44Z" changeset="15835520" uid="9065" user="brianboru">
    <tag k="source" v="gps_survey"/>
  </node>
  <node id="279539304" lat="52.2120805" lon="-1.6246316" version="3" timestamp="2013-04-21T13:57:24Z" changeset="15811082" uid="51722" user="Chris Parker"/>
  <node id="298850013" lat="52.2107457" lon="-1.6797806" version="3" timestamp="2014-01-24T16:15:10Z" changeset="20179642" uid="3560" user="Firefishy"/>
  <node id="1375046164" lat="52.2384286" lon="-1.6291889" version="1" timestamp="2011-07-26T18:05:34Z" changeset="8838255" uid="154484" user="PeterP"/>
  <node id="1375163623" lat="52.2093438" lon="-1.6810470" version="2" timestamp="2018-07-20T14:38:54Z" changeset="60909778" uid="9065" user="brianboru"/>
  <node id="1462980431" lat="52.2193994" lon="-1.6701528" version="1" timestamp="2011-10-11T18:51:19Z" changeset="9533139" uid="12667" user="Curran1980"/>
  <node id="2278224100" lat="52.2147748" lon="-1.6758086" version="2" timestamp="2018-07-20T15:24:12Z" changeset="60910962" uid="9065" user="brianboru"/>
  <way id="5318571" version="13" timestamp="2019-07-23T18:45:38Z" changeset="72572108" uid="115894" user="DaveF">
    <nd ref="37869703"/>
    <nd ref="1472897585"/>
    <nd ref="37869705"/>
    <nd ref="37869706"/>
    <nd ref="37869707"/>
    <nd ref="37869708"/>
    <nd ref="37869710"/>
    <nd ref="37869711"/>
    <nd ref="3266605860"/>
    <nd ref="37869713"/>
    <nd ref="37869714"/>
    <nd ref="1472042496"/>
    <nd ref="37869715"/>
    <nd ref="37874302"/>
    <nd ref="37874304"/>
    <nd ref="37874305"/>
    <nd ref="37874306"/>
    <nd ref="37874308"/>
    <nd ref="37874310"/>
    <nd ref="2266008617"/>
    <nd ref="37874312"/>
    <nd ref="37874315"/>
    <nd ref="37874316"/>
    <nd ref="37874318"/>
    <nd ref="37874319"/>
    <nd ref="37874321"/>
    <nd ref="37874323"/>
    <nd ref="37874324"/>
    <nd ref="37874325"/>
    <nd ref="2278198560"/>
    <nd ref="6567547065"/>
    <nd ref="2278198555"/>
    <nd ref="37874328"/>
    <tag k="highway" v="unclassified"/>
  </way>
  <way id="12990479" version="10" timestamp="2022-11-12T12:36:47Z" changeset="128811033" uid="5761017" user="FSHero">
    <nd ref="119445383"/>
    <nd ref="1462980422"/>
    <nd ref="2278224164"/>
    <nd ref="119445429"/>
    <nd ref="8142958879"/>
    <nd ref="119445558"/>
    <nd ref="2278224175"/>
    <nd ref="2278224176"/>
    <nd ref="2278224174"/>
    <nd ref="2278224169"/>
    <nd ref="119445607"/>
    <nd ref="119445628"/>
    <nd ref="119445642"/>
    <nd ref="2278224167"/>
    <nd ref="119445652"/>
    <nd ref="119445668"/>
    <nd ref="2278224152"/>
    <nd ref="119445681"/>
    <nd ref="2278224151"/>
    <nd ref="2278224148"/>
    <nd ref="2278224146"/>
    <nd ref="1375163655"/>
    <nd ref="2278224145"/>
    <nd ref="2278224142"/>
    <nd ref="119445721"/>
    <nd ref="1375163625"/>
    <nd ref="1375163651"/>
    <nd ref="1375163627"/>
    <nd ref="119445743"/>
    <tag k="cycleway:both" v="no"/>
    <tag k="highway" v="unclassified"/>
    <tag k="lane_markings" v="no"/>
    <tag k="name" v="Stratford Road"/>
    <tag k="source" v="gps_survey"/>
    <tag k="surface" v="asphalt"/>
  </way>
  <way id="25643591" version="5" timestamp="2025-09-16T14:28:46Z" changeset="172018450" uid="5589" user="user_5589">
    <nd ref="279539304"/>
    <nd ref="279539305"/>
    <tag k="bridge" v="yes"/>
    <tag k="highway" v="unclassified"/>
    <tag k="layer" v="1"/>
    <tag k="maxspeed" v="30 mph"/>
    <tag k="maxweightrating" v="7.5"/>
  </way>
  <way id="26446933" version="8" timestamp="2021-08-27T04:23:18Z" changeset="110315071" uid="10127749" user="nbhiss">
    <nd ref="37874328"/>
    <nd ref="2278198553"/>
    <nd ref="289820071"/>
    <nd ref="2278198548"/>
    <nd ref="2266008581"/>
    <nd ref="2278198550"/>
    <nd ref="289820072"/>
    <nd ref="6726208001"/>
    <nd ref="289820073"/>
    <nd ref="2278198621"/>
    <nd ref="289820074"/>
    <nd ref="2278198631"/>
    <nd ref="2266008607"/>
    <nd ref="2278198648"/>
    <nd ref="289820075"/>
    <nd ref="289820076"/>
    <nd ref="289820077"/>
    <nd ref="2266008621"/>
    <nd ref="2266008625"/>
    <nd ref="9039393903"/>
    <nd ref="2278198672"/>
    <nd ref="2266008632"/>
    <nd ref="289820078"/>
    <nd ref="289820079"/>
    <nd ref="289820080"/>
    <nd ref="493921488"/>
    <nd ref="2266008656"/>
    <nd ref="289820081"/>
    <nd ref="289820082"/>
    <nd ref="289820083"/>
    <nd ref="289820084"/>
    <nd ref="289820085"/>
    <nd ref="289820086"/>
    <nd ref="2278233193"/>
    <nd ref="1743313723"/>
    <nd ref="2278233199"/>
    <nd ref="2278233202"/>
    <nd ref="289820087"/>
    <tag k="highway" v="unclassified"/>
    <tag k="source" v="NPE"/>
  </way>
  <way id="26446934" version="11" timestamp="2019-10-23T12:24:43Z" changeset="76101249" uid="10252542" user="karmsudi">
    <nd ref="119445721"/>
    <nd ref="2278224149"/>
    <nd ref="289820088"/>
    <nd ref="289820089"/>
    <nd ref="289820090"/>
    <nd ref="289820091"/>
    <nd ref="289820092"/>
    <nd ref="289820093"/>
    <nd ref="289820094"/>
    <nd ref="289820095"/>
    <nd ref="6908931027"/>
    <nd ref="289820096"/>
    <nd ref="2278233151"/>
    <nd ref="1743313659"/>
    <nd ref="1743313738"/>
    <nd ref="289820087"/>
    <nd ref="1743313855"/>
    <nd ref="2278233212"/>
    <nd ref="632690947"/>
    <nd ref="289820097"/>
    <nd ref="289820098"/>
    <nd ref="1743313871"/>
    <nd ref="1743313874"/>
    <nd ref="289820099"/>
    <nd ref="2266010547"/>
    <nd ref="1743313880"/>
    <nd ref="289820100"/>
    <nd ref="289820101"/>
    <nd ref="5773496337"/>
    <nd ref="1743313941"/>
    <tag k="highway" v="unclassified"/>
    <tag k="name" v="Hatton Bank Lane"/>
    <tag k="source" v="NPE;survey"/>
    <tag k="source:name" v="OS_OpenData_Locator"/>
  </way>
  <way id="35473166" version="10" timestamp="2023-02-15T06:47:47Z" changeset="132566437" uid="14512471" user="SOWMMGAD">
    <nd ref="37869703"/>
    <nd ref="415999669"/>
    <nd ref="1472897567"/>
    <nd ref="1472897563"/>
    <nd ref="1472897594"/>
    <nd ref="415999670"/>
    <nd ref="415999671"/>
    <nd ref="1472897609"/>
    <nd ref="1472897555"/>
    <nd ref="1472897612"/>
    <nd ref="415999672"/>
    <nd ref="1472897608"/>
    <nd ref="1472899908"/>
    <nd ref="415999673"/>
    <nd ref="1472897619"/>
    <nd ref="415999674"/>
    <nd ref="1375046228"/>
    <nd ref="415999675"/>
    <nd ref="1472897577"/>
    <nd ref="1472897552"/>
    <nd ref="415999676"/>
    <nd ref="1472897582"/>
    <nd ref="415999677"/>
    <nd ref="415999678"/>
    <nd ref="415999540"/>
    <nd ref="8163185374"/>
    <nd ref="1472897601"/>
    <nd ref="1472897600"/>
    <nd ref="1472897606"/>
    <nd ref="1472897616"/>
    <nd ref="1472897584"/>
    <nd ref="1472897549"/>
    <nd ref="1472897557"/>
    <nd ref="1472897572"/>
    <nd ref="1472897599"/>
    <nd ref="1472897618"/>
    <nd ref="1472897589"/>
    <nd ref="1472897565"/>
    <nd ref="9495436662"/>
    <nd ref="1472897590"/>
    <nd ref="1472897604"/>
    <nd ref="1472897556"/>
    <nd ref="1472897617"/>
    <nd ref="1472897591"/>
    <nd ref="1472897614"/>
    <nd ref="1472897595"/>
    <nd ref="1472897586"/>
    <nd ref="1472897550"/>
    <nd ref="1472897610"/>
    <nd ref="10660541253"/>
    <nd ref="1472897613"/>
    <nd ref="1472897602"/>
    <nd ref="1472897553"/>
    <nd ref="6776927316"/>
    <nd ref="1472897611"/>
    <nd ref="1472897615"/>
    <nd ref="7166556455"/>
    <nd ref="1472897596"/>
    <nd ref="1472897551"/>
    <nd ref="1472897571"/>
    <nd ref="1472897559"/>
    <nd ref="1472897580"/>
    <tag k="highway" v="unclassified"/>
    <tag k="source" v="Bing"/>
    <tag k="surface" v="paved"/>
  </way>
  <way id="64746219" version="1" timestamp="2010-06-28T14:54:13Z" changeset="5098280" uid="291986" user="stourcliff">
    <nd ref="37874353"/>
    <nd ref="794385967"/>
    <nd ref="794385951"/>
    <nd ref="794385964"/>
    <nd ref="794385961"/>
    <nd ref="794385968"/>
    <nd ref="794385957"/>
    <tag k="highway" v="residential"/>
    <tag k="name" v="The Close"/>
  </way>
  <way id="64746272" version="4" timestamp="2021-05-03T11:09:48Z" changeset="104047660" uid="5589" user="user_5589">
    <nd ref="794389301"/>
    <nd ref="2035851924"/>
    <nd ref="794389300"/>
    <nd ref="2035851921"/>
    <tag k="highway" v="residential"/>
    <tag k="name" v="The Langlands"/>
    <tag k="surface" v="asphalt"/>
  </way>
  <way id="123246402" version="2" timestamp="2019-07-23T18:45:38Z" changeset="72572108" uid="115894" user="DaveF">
    <nd ref="1375046165"/>
    <nd ref="37869702"/>
    <nd ref="1375046168"/>
    <nd ref="37869703"/>
    <tag k="highway" v="unclassified"/>
    <tag k="name" v="Fulbrook Lane"/>
    <tag k="source:name" v="OS_Locator"/>
  </way>
  <way id="123246406" version="4" timestamp="2023-09-07T13:26:51Z" changeset="140941304" uid="18869198" user="TB-E">
    <nd ref="1375046164"/>
    <nd ref="1469842024"/>
    <nd ref="37869692"/>
    <nd ref="1469842022"/>
    <nd ref="37869694"/>
    <nd ref="37869695"/>
    <nd ref="37869697"/>
    <nd ref="37869699"/>
    <nd ref="11174578953"/>
    <nd ref="37869700"/>
    <nd ref="1375046165"/>
    <tag k="highway" v="unclassified"/>
    <tag k="name" v="Fulbrook Lane"/>
    <tag k="source:name" v="OS_Locator"/>
  </way>
  <way id="123256815" version="6" timestamp="2021-05-03T11:10:03Z" changeset="104047660" uid="5589" user="user_5589">
    <nd ref="37874360"/>
    <nd ref="37874361"/>
    <nd ref="279539304"/>
    <tag k="cycleway:both" v="no"/>
    <tag k="highway" v="unclassified"/>
    <tag k="maxspeed" v="30 mph"/>
    <tag k="name" v="Bridge Street"/>
    <tag k="surface" v="asphalt"/>
  </way>
  <way id="123256816" version="8" timestamp="2024-08-21T09:18:48Z" changeset="155546651" uid="9121" user="dalejefferson">
    <nd ref="1375163623"/>
    <nd ref="1375163641"/>
    <nd ref="298850013"/>
    <tag k="highway" v="primary"/>
    <tag k="lanes" v="2"/>
    <tag k="lanes:backward" v="1"/>
    <tag k="lanes:forward" v="1"/>
    <tag k="maxspeed" v="40 mph"/>
    <tag k="name" v="Warwick Road"/>
    <tag k="parking:both" v="no"/>
    <tag k="parking:both:restriction" v="no_stopping"/>
    <tag k="parking:both:restriction:reason" v="clearway"/>
    <tag k="ref" v="A439"/>
    <tag k="surface" v="asphalt"/>
  </way>
  <way id="123256819" version="9" timestamp="2022-11-12T12:34:06Z" changeset="128811033" uid="5761017" user="FSHero">
    <nd ref="119445743"/>
    <nd ref="119445773"/>
    <nd ref="2278155176"/>
    <nd ref="1375163653"/>
    <nd ref="1375163632"/>
    <nd ref="2278155181"/>
    <nd ref="119445824"/>
    <nd ref="1375163634"/>
    <nd ref="119445860"/>
    <nd ref="119445904"/>
    <nd ref="2278155159"/>
    <nd ref="632690949"/>
    <nd ref="2278155155"/>
    <nd ref="119445933"/>
    <nd ref="2278155151"/>
    <nd ref="119445978"/>
    <nd ref="2278155142"/>
    <nd ref="119446012"/>
    <nd ref="2278155137"/>
    <nd ref="2278155113"/>
    <nd ref="2278155100"/>
    <nd ref="5044829517"/>
    <nd ref="119446271"/>
    <nd ref="2274346514"/>
    <tag k="cycleway:both" v="no"/>
    <tag k="highway" v="unclassified"/>
    <tag k="lane_markings" v="no"/>
    <tag k="name" v="Stratford Road"/>
    <tag k="source" v="gps_survey"/>
    <tag k="surface" v="asphalt"/>
  </way>
  <way id="123256821" version="17" timestamp="2023-12-30T10:01:18Z" changeset="145689650" uid="5589" user="user_5589">
    <nd ref="2278224100"/>
    <nd ref="26623273"/>
    <nd ref="2278224126"/>
    <nd ref="1462980450"/>
    <nd ref="2278224137"/>
    <nd ref="1462980437"/>
    <nd ref="4573445946"/>
    <nd ref="26623274"/>
    <nd ref="119445383"/>
    <nd ref="2278224170"/>
    <nd ref="1462980447"/>
    <nd ref="15830896"/>
    <nd ref="2278298621"/>
    <nd ref="1462980431"/>
    <tag k="cycleway:both" v="no"/>
    <tag k="highway" v="primary"/>
    <tag k="lanes" v="2"/>
    <tag k="lanes:backward" v="1"/>
    <tag k="lanes:forward" v="1"/>
    <tag k="maxspeed" v="50 mph"/>
    <tag k="name" v="Warwick Road"/>
    <tag k="old_ref" v="A46"/>
    <tag k="parking:both" v="no"/>
    <tag k="parking:both:restriction" v="no_stopping"/>
    <tag k="parking:both:restriction:reason" v="clearway"/>
    <tag k="ref" v="A439"/>
    <tag k="sidewalk" v="left"/>
    <tag k="surface" v="asphalt"/>
  </way>
  <way id="133836637" version="2" timestamp="2011-10-19T07:53:54Z" changeset="9597364" uid="51722" user="Chris Parker">
    <nd ref="1472899900"/>
    <nd ref="1472899892"/>
    <nd ref="1472899905"/>
    <nd ref="1472899889"/>
    <nd ref="1472899903"/>
    <nd ref="1472899887"/>
    <nd ref="1472899885"/>
    <nd ref="1472899880"/>
    <nd ref="1472899882"/>
    <nd ref="1472899898"/>
    <nd ref="1472899900"/>
    <tag k="building" v="yes"/>
    <tag k="name" v="The Wood Cottage"/>
    <tag k="source" v="Bing"/>
  </way>
  <way id="144315326" version="6" timestamp="2021-01-25T21:36:35Z" changeset="98145339" uid="493595" user="Yorvik Prestigitator">
    <nd ref="2274346514"/>
    <nd ref="2260822145"/>
    <nd ref="2260822122"/>
    <nd ref="8362567352"/>
    <nd ref="119446314"/>
    <nd ref="2260822089"/>
    <nd ref="2260822087"/>
    <nd ref="2260822091"/>
    <nd ref="119446387"/>
    <nd ref="2260822107"/>
    <nd ref="2260822119"/>
    <nd ref="2260822135"/>
    <nd ref="2260822153"/>
    <nd ref="2260822157"/>
    <nd ref="2260822171"/>
    <nd ref="2260822229"/>
    <nd ref="5044829523"/>
    <nd ref="119446419"/>
    <nd ref="37874360"/>
    <tag k="highway" v="unclassified"/>
    <tag k="maxspeed" v="30 mph"/>
    <tag k="name" v="Church Street"/>
    <tag k="source" v="gps_survey"/>
  </way>
  <way id="144315327" version="6" timestamp="2019-10-21T07:16:15Z" changeset="75977893" uid="10255276" user="contrai1">
    <nd ref="37874328"/>
    <nd ref="2278198542"/>
    <nd ref="37874330"/>
    <nd ref="6901899900"/>
    <nd ref="37874333"/>
    <nd ref="37874336"/>
    <nd ref="37874337"/>
    <nd ref="37874339"/>
    <nd ref="37874341"/>
    <nd ref="794389301"/>
    <nd ref="37874343"/>
    <nd ref="2260822478"/>
    <nd ref="37874345"/>
    <nd ref="2260822437"/>
    <nd ref="37874349"/>
    <nd ref="37874350"/>
    <nd ref="2260822376"/>
    <nd ref="37874353"/>
    <nd ref="37874354"/>
    <nd ref="37874355"/>
    <nd ref="2260822362"/>
    <nd ref="37874356"/>
    <nd ref="2260822348"/>
    <nd ref="37874359"/>
    <nd ref="37874360"/>
    <tag k="highway" v="unclassified"/>
    <tag k="name" v="Snitterfield Street"/>
    <tag k="source:name" v="OS_OpenData_Locator"/>
  </way>
  <way id="193051889" version="1" timestamp="2012-11-27T04:41:15Z" changeset="14054326" uid="4951" user="PeterEastern">
    <nd ref="2035851922"/>
    <nd ref="2035851923"/>
    <nd ref="794389300"/>
    <tag k="highway" v="residential"/>
    <tag k="name" v="Farther Sand Close"/>
    <tag k="source" v="OS_OpenData_StreetView"/>
    <tag k="source:name" v="OS_OpenData_Locator"/>
  </way>
  <way id="193051890" version="2" timestamp="2013-04-09T22:30:01Z" changeset="15672000" uid="82783" user="Paul The Archivist">
    <nd ref="2035851926"/>
    <nd ref="2035851925"/>
    <nd ref="2260822441"/>
    <nd ref="2035851924"/>
    <tag k="highway" v="residential"/>
    <tag k="name" v="Hithersand Close"/>
    <tag k="source" v="OS_OpenData_StreetView"/>
    <tag k="source:name" v="OS_OpenData_Locator"/>
  </way>
  <way id="216689191" version="3" timestamp="2020-10-05T21:10:37Z" changeset="92007731" uid="364" user="Edward">
    <nd ref="2260821904"/>
    <nd ref="2260821921"/>
    <nd ref="2260821917"/>
    <nd ref="2260821942"/>
    <nd ref="2260821944"/>
    <nd ref="2260821964"/>
    <nd ref="2260821966"/>
    <nd ref="2260821974"/>
    <nd ref="2260821976"/>
    <nd ref="2260821968"/>
    <nd ref="2260821970"/>
    <nd ref="2260821962"/>
    <nd ref="2260821960"/>
    <nd ref="2260821952"/>
    <nd ref="2260821940"/>
    <nd ref="2260821934"/>
    <nd ref="2260821923"/>
    <nd ref="2260821927"/>
    <nd ref="2260821910"/>
    <nd ref="2260821912"/>
    <nd ref="2260821906"/>
    <nd ref="2260821904"/>
    <tag k="addr:postcode" v="CV35 8BE"/>
    <tag k="amenity" v="place_of_worship"/>
    <tag k="building" v="church"/>
    <tag k="denomination" v="anglican"/>
    <tag k="heritage" v="2"/>
    <tag k="heritage:operator" v="Historic England"/>
    <tag k="listed_status" v="Grade I"/>
    <tag k="name" v="Saint Peter Ad Vincula"/>
    <tag k="religion" v="christian"/>
    <tag k="source" v="Bing;survey"/>
    <tag k="wikidata" v="Q17528420"/>
  </way>
  <way id="216689193" version="2" timestamp="2022-08-25T14:19:52Z" changeset="125364975" uid="61942" user="SomeoneElse">
    <nd ref="793067220"/>
    <nd ref="2260821994"/>
    <nd ref="2260822005"/>
    <nd ref="2260821946"/>
    <nd ref="2260821938"/>
    <nd ref="2260821954"/>
    <nd ref="2260821948"/>
    <nd ref="2260821986"/>
    <nd ref="793067220"/>
    <tag k="amenity" v="pub"/>
    <tag k="building" v="yes"/>
    <tag k="floor:material" v="rough_wood"/>
    <tag k="food" v="yes"/>
    <tag k="name" v="The Boars Head"/>
    <tag k="outdoor_seating" v="yes"/>
    <tag k="real_ale" v="yes"/>
    <tag k="source" v="Bing;survey"/>
    <tag k="website" v="http://www.theboarsheadhamptonlucy.co.uk/"/>
    <tag k="wheelchair" v="limited"/>
    <tag k="wheelchair:description" v="Small lip at rear entrance, but otherwise flat"/>
  </way>
  <way id="216689206" version="1" timestamp="2013-04-09T22:29:45Z" changeset="15672000" uid="82783" user="Paul The Archivist">
    <nd ref="2260822069"/>
    <nd ref="2260822083"/>
    <nd ref="2260822107"/>
    <tag k="highway" v="unclassified"/>
    <tag k="maxspeed" v="30 mph"/>
    <tag k="source" v="Bing"/>
  </way>
  <way id="216689209" version="2" timestamp="2020-03-19T13:50:12Z" changeset="82392958" uid="10170580" user="wellasus">
    <nd ref="2260822157"/>
    <nd ref="2260822069"/>
    <nd ref="7309141975"/>
    <nd ref="2260821992"/>
    <tag k="highway" v="unclassified"/>
    <tag k="maxspeed" v="30 mph"/>
    <tag k="source" v="Bing"/>
  </way>
  <way id="217187425" version="15" timestamp="2025-05-08T18:43:03Z" changeset="165998277" uid="3199858" user="Mateusz Konieczny - bot account">
    <nd ref="1462980431"/>
    <nd ref="2278224194"/>
    <nd ref="2278224197"/>
    <nd ref="26623275"/>
    <nd ref="1462980429"/>
    <nd ref="1462980433"/>
    <nd ref="2278224204"/>
    <nd ref="1462980442"/>
    <nd ref="1462980434"/>
    <nd ref="15830895"/>
    <nd ref="1462980445"/>
    <nd ref="1462980457"/>
    <nd ref="1462980446"/>
    <nd ref="2264791239"/>
    <nd ref="2264791300"/>
    <nd ref="26623276"/>
    <nd ref="2278254141"/>
    <nd ref="6521768462"/>
    <nd ref="1743313602"/>
    <nd ref="15830894"/>
    <nd ref="1743313637"/>
    <nd ref="5773496477"/>
    <nd ref="1743313863"/>
    <nd ref="5773496478"/>
    <nd ref="1743313867"/>
    <nd ref="1743313868"/>
    <nd ref="5773496460"/>
    <nd ref="15830893"/>
    <nd ref="1743313869"/>
    <nd ref="1743313870"/>
    <nd ref="5773496243"/>
    <nd ref="5773496459"/>
    <nd ref="1743313872"/>
    <nd ref="1743313875"/>
    <nd ref="5773496458"/>
    <nd ref="1743313876"/>
    <nd ref="1743313878"/>
    <nd ref="15830892"/>
    <nd ref="5773496457"/>
    <nd ref="1743313897"/>
    <nd ref="5773496456"/>
    <nd ref="10008722994"/>
    <nd ref="1743313941"/>
    <tag k="cycleway:both" v="no"/>
    <tag k="highway" v="primary"/>
    <tag k="lanes" v="2"/>
    <tag k="maxspeed" v="50 mph"/>
    <tag k="name" v="Warwick Road"/>
    <tag k="old_ref" v="A49"/>
    <tag k="parking:both" v="no"/>
    <tag k="parking:both:restriction" v="no_stopping"/>
    <tag k="parking:both:restriction:reason" v="clearway"/>
    <tag k="ref" v="A439"/>
    <tag k="shoulder" v="no"/>
    <tag k="sidewalk" v="no"/>
    <tag k="surface" v="asphalt"/>
  </way>
  <way id="218587263" version="2" timestamp="2013-09-12T15:15:07Z" changeset="17801500" uid="11418" user="Dunstan">
    <nd ref="2278223991"/>
    <nd ref="2278223993"/>
    <nd ref="2278223978"/>
    <nd ref="2278223982"/>
    <nd ref="2278223979"/>
    <nd ref="2278223980"/>
    <nd ref="2278223973"/>
    <nd ref="2278223972"/>
    <nd ref="2278223968"/>
    <nd ref="2278223955"/>
    <nd ref="2278223991"/>
    <tag k="building" v="office"/>
    <tag k="name" v="Woodlands"/>
  </way>
  <way id="218587264" version="3" timestamp="2016-04-06T12:31:35Z" changeset="38349892" uid="9065" user="brianboru">
    <nd ref="2278224028"/>
    <nd ref="2278224019"/>
    <nd ref="2278224013"/>
    <nd ref="2278224011"/>
    <nd ref="2278224015"/>
    <nd ref="2278224012"/>
    <nd ref="2278223984"/>
    <nd ref="2278223987"/>
    <nd ref="2278223997"/>
    <nd ref="2278224000"/>
    <nd ref="2278223994"/>
    <nd ref="2278223998"/>
    <nd ref="2278224028"/>
    <tag k="addr:city" v="Stratford upon Avon"/>
    <tag k="addr:postcode" v="CV37 0UY"/>
    <tag k="building" v="office"/>
    <tag k="name" v="Avon House"/>
    <tag k="source" v="Warwicks CC Aerial Imagery 2013"/>
  </way>
  <way id="218587265" version="2" timestamp="2013-09-12T15:15:07Z" changeset="17801500" uid="11418" user="Dunstan">
    <nd ref="2278223965"/>
    <nd ref="2278223969"/>
    <nd ref="2278223964"/>
    <nd ref="2278223967"/>
    <nd ref="2278223932"/>
    <nd ref="2278223936"/>
    <nd ref="2278223933"/>
    <nd ref="2278223934"/>
    <nd ref="2278223930"/>
    <nd ref="2278223929"/>
    <nd ref="2278223927"/>
    <nd ref="2278223926"/>
    <nd ref="2278223959"/>
    <nd ref="2278223960"/>
    <nd ref="2278223965"/>
    <tag k="building" v="office"/>
    <tag k="name" v="The Pavilion"/>
  </way>
  <way id="218587266" version="2" timestamp="2013-09-12T15:15:07Z" changeset="17801500" uid="11418" user="Dunstan">
    <nd ref="2278223970"/>
    <nd ref="2278223976"/>
    <nd ref="2278223961"/>
    <nd ref="2278223954"/>
    <nd ref="2278223951"/>
    <nd ref="2278223944"/>
    <nd ref="2278223942"/>
    <nd ref="2278223938"/>
    <nd ref="2278223940"/>
    <nd ref="2278223935"/>
    <nd ref="2278223937"/>
    <nd ref="2278223931"/>
    <nd ref="2278223939"/>
    <nd ref="2278223950"/>
    <nd ref="2278223956"/>
    <nd ref="2278223971"/>
    <nd ref="2278223970"/>
    <tag k="building" v="office"/>
    <tag k="name" v="Ryon Hill House"/>
  </way>
  <way id="218587268" version="2" timestamp="2013-09-12T15:13:47Z" changeset="17801500" uid="11418" user="Dunstan">
    <nd ref="2278224085"/>
    <nd ref="2278224073"/>
    <nd ref="2278224059"/>
    <nd ref="2278224066"/>
    <nd ref="2278224052"/>
    <nd ref="2278224044"/>
    <nd ref="2278224030"/>
    <nd ref="2278224040"/>
    <nd ref="2278224085"/>
    <tag k="building" v="office"/>
    <tag k="name" v="The Lakehouse"/>
    <tag k="source" v="bing"/>
  </way>
  <way id="218587271" version="1" timestamp="2013-04-23T11:32:40Z" changeset="15835520" uid="9065" user="brianboru">
    <nd ref="2278224149"/>
    <nd ref="2278224145"/>
    <tag k="highway" v="unclassified"/>
    <tag k="source" v="bing"/>
  </way>
  <way id="237687339" version="1" timestamp="2013-09-12T15:21:35Z" changeset="17801656" uid="11418" user="Dunstan">
    <nd ref="2455737280"/>
    <nd ref="2455737283"/>
    <nd ref="2455737282"/>
    <nd ref="2455737284"/>
    <nd ref="2455737280"/>
    <tag k="building" v="office"/>
    <tag k="name" v="The Boathouse"/>
  </way>
  <way id="408280636" version="1" timestamp="2016-04-06T12:31:33Z" changeset="38349892" uid="9065" user="brianboru">
    <nd ref="4102377755"/>
    <nd ref="4102377752"/>
    <nd ref="4102377750"/>
    <nd ref="4102377751"/>
    <nd ref="4102377755"/>
    <tag k="addr:city" v="Stratford upon Avon"/>
    <tag k="addr:postcode" v="CV37 0NZ"/>
    <tag k="building" v="residential"/>
    <tag k="name" v="Avon Lodge"/>
    <tag k="source" v="Warwicks CC Aerial Imagery 2013"/>
    <tag k="tourism" v="guest_house"/>
  </way>
  <way id="516839955" version="2" timestamp="2018-09-14T10:14:20Z" changeset="62578102" uid="9065" user="brianboru">
    <nd ref="5044829517"/>
    <nd ref="5044829518"/>
    <nd ref="5906011991"/>
    <nd ref="5044829519"/>
    <nd ref="5906011990"/>
    <nd ref="5906011989"/>
    <nd ref="5044829522"/>
    <nd ref="5906011893"/>
    <nd ref="5044829520"/>
    <tag k="highway" v="residential"/>
    <tag k="name" v="The Spinney"/>
    <tag k="source" v="GPS survey"/>
  </way>
  <way id="516839956" version="2" timestamp="2018-09-14T10:14:20Z" changeset="62578102" uid="9065" user="brianboru">
    <nd ref="5044829521"/>
    <nd ref="5906011924"/>
    <nd ref="5906011988"/>
    <nd ref="5044829522"/>
    <tag k="highway" v="residential"/>
    <tag k="name" v="The Spinney"/>
    <tag k="source" v="GPS survey"/>
  </way>
  <way id="516839957" version="4" timestamp="2021-05-03T11:09:53Z" changeset="104047660" uid="5589" user="user_5589">
    <nd ref="2260822348"/>
    <nd ref="5044829523"/>
    <tag k="cycleway:both" v="no"/>
    <tag k="highway" v="unclassified"/>
    <tag k="name" v="Church Street"/>
    <tag k="surface" v="asphalt"/>
  </way>
  <way id="609547723" version="6" timestamp="2023-03-09T21:19:15Z" changeset="133495398" uid="5589" user="user_5589">
    <nd ref="298850013"/>
    <nd ref="5773370209"/>
    <nd ref="26623272"/>
    <nd ref="5773496997"/>
    <nd ref="2278223919"/>
    <nd ref="5773496998"/>
    <nd ref="15830898"/>
    <nd ref="2264791183"/>
    <nd ref="6361717255"/>
    <nd ref="5773496996"/>
    <nd ref="6361717239"/>
    <nd ref="2278224082"/>
    <nd ref="2278224083"/>
    <nd ref="2278224100"/>
    <tag k="cycleway:both" v="no"/>
    <tag k="highway" v="primary"/>
    <tag k="lanes" v="2"/>
    <tag k="maxspeed" v="50 mph"/>
    <tag k="name" v="Warwick Road"/>
    <tag k="old_ref" v="A46"/>
    <tag k="parking:both" v="no"/>
    <tag k="parking:both:restriction" v="no_stopping"/>
    <tag k="parking:both:restriction:reason" v="clearway"/>
    <tag k="ref" v="A439"/>
    <tag k="sidewalk" v="left"/>
    <tag k="surface" v="asphalt"/>
  </way>
  <way id="625527618" version="1" timestamp="2018-09-14T10:14:12Z" changeset="62578102" uid="9065" user="brianboru">
    <nd ref="5906011924"/>
    <nd ref="5906011891"/>
    <tag k="highway" v="residential"/>
    <tag k="name" v="The Spinney"/>
    <tag k="source" v="Warwicks CC Aerial Imagery 2013"/>
  </way>
  <way id="625527619" version="1" timestamp="2018-09-14T10:14:12Z" changeset="62578102" uid="9065" user="brianboru">
    <nd ref="5906011893"/>
    <nd ref="5906011892"/>
    <tag k="highway" v="residential"/>
    <tag k="name" v="The Spinney"/>
    <tag k="source" v="Warwicks CC Aerial Imagery 2013"/>
  </way>
  <way id="625527624" version="4" timestamp="2020-10-03T15:47:26Z" changeset="91906965" uid="5589" user="user_5589">
    <nd ref="5906011936"/>
    <nd ref="5906011935"/>
    <nd ref="5906011934"/>
    <nd ref="5906011933"/>
    <nd ref="5906011936"/>
    <tag k="addr:housenumber" v="10"/>
    <tag k="addr:street" v="The Spinney"/>
    <tag k="building" v="residential"/>
    <tag k="building:levels" v="2"/>
    <tag k="roof:levels" v="0"/>
    <tag k="source" v="Digital Globe Standard"/>
  </way>
  <way id="625527625" version="4" timestamp="2020-10-03T15:47:26Z" changeset="91906965" uid="5589" user="user_5589">
    <nd ref="5906011940"/>
    <nd ref="5906011939"/>
    <nd ref="5906011938"/>
    <nd ref="5906011937"/>
    <nd ref="5906011940"/>
    <tag k="addr:housenumber" v="9"/>
    <tag k="addr:street" v="The Spinney"/>
    <tag k="building" v="residential"/>
    <tag k="building:levels" v="2"/>
    <tag k="roof:levels" v="0"/>
    <tag k="source" v="Digital Globe Standard"/>
  </way>
  <way id="625527626" version="4" timestamp="2020-10-03T15:47:26Z" changeset="91906965" uid="5589" user="user_5589">
    <nd ref="5906011946"/>
    <nd ref="5906011945"/>
    <nd ref="5906011944"/>
    <nd ref="5906011943"/>
    <nd ref="5906011942"/>
    <nd ref="5906011941"/>
    <nd ref="5906011946"/>
    <tag k="addr:housenumber" v="8"/>
    <tag k="addr:street" v="The Spinney"/>
    <tag k="building" v="residential"/>
    <tag k="building:levels" v="2"/>
    <tag k="roof:levels" v="0"/>
    <tag k="source" v="Digital Globe Standard"/>
  </way>
  <way id="625527627" version="4" timestamp="2020-10-03T15:47:26Z" changeset="91906965" uid="5589" user="user_5589">
    <nd ref="5906011952"/>
    <nd ref="5906011951"/>
    <nd ref="5906011950"/>
    <nd ref="5906011949"/>
    <nd ref="5906011948"/>
    <nd ref="5906011947"/>
    <nd ref="5906011952"/>
    <tag k="addr:housenumber" v="7"/>
    <tag k="addr:street" v="The Spinney"/>
    <tag k="building" v="residential"/>
    <tag k="building:levels" v="2"/>
    <tag k="roof:levels" v="0"/>
    <tag k="source" v="Digital Globe Standard"/>
  </way>
  <way id="625527628" version="4" timestamp="2020-10-03T15:47:26Z" changeset="91906965" uid="5589" user="user_5589">
    <nd ref="5906011956"/>
    <nd ref="5906011955"/>
    <nd ref="5906011954"/>
    <nd ref="5906011953"/>
    <nd ref="5906011956"/>
    <tag k="addr:housenumber" v="6"/>
    <tag k="addr:street" v="The Spinney"/>
    <tag k="building" v="residential"/>
    <tag k="building:levels" v="2"/>
    <tag k="roof:levels" v="0"/>
    <tag k="source" v="Digital Globe Standard"/>
  </way>
  <way id="625527629" version="4" timestamp="2020-10-03T15:47:26Z" changeset="91906965" uid="5589" user="user_5589">
    <nd ref="5906011711"/>
    <nd ref="5906011961"/>
    <nd ref="5906011960"/>
    <nd ref="5906011959"/>
    <nd ref="5906011958"/>
    <nd ref="5906011957"/>
    <nd ref="5906011711"/>
    <tag k="addr:housenumber" v="5"/>
    <tag k="addr:street" v="The Spinney"/>
    <tag k="building" v="residential"/>
    <tag k="building:levels" v="2"/>
    <tag k="roof:levels" v="0"/>
    <tag k="source" v="Digital Globe Standard"/>
  </way>
  <way id="625527630" version="4" timestamp="2020-10-03T15:47:26Z" changeset="91906965" uid="5589" user="user_5589">
    <nd ref="5906011717"/>
    <nd ref="5906011716"/>
    <nd ref="5906011715"/>
    <nd ref="5906011714"/>
    <nd ref="5906011713"/>
    <nd ref="5906011712"/>
    <nd ref="5906011717"/>
    <tag k="addr:housenumber" v="4"/>
    <tag k="addr:street" v="The Spinney"/>
    <tag k="building" v="residential"/>
    <tag k="building:levels" v="2"/>
    <tag k="roof:levels" v="0"/>
    <tag k="source" v="Digital Globe Standard"/>
  </way>
  <way id="625527631" version="4" timestamp="2020-10-03T15:47:26Z" changeset="91906965" uid="5589" user="user_5589">
    <nd ref="5906011721"/>
    <nd ref="5906011720"/>
    <nd ref="5906011719"/>
    <nd ref="5906011718"/>
    <nd ref="5906011721"/>
    <tag k="addr:housenumber" v="3"/>
    <tag k="addr:street" v="The Spinney"/>
    <tag k="building" v="residential"/>
    <tag k="building:levels" v="2"/>
    <tag k="roof:levels" v="0"/>
    <tag k="source" v="Digital Globe Standard"/>
  </way>
  <way id="625527632" version="4" timestamp="2020-10-03T15:47:26Z" changeset="91906965" uid="5589" user="user_5589">
    <nd ref="5906011725"/>
    <nd ref="5906011724"/>
    <nd ref="5906011723"/>
    <nd ref="5906011722"/>
    <nd ref="5906011725"/>
    <tag k="addr:housenumber" v="2"/>
    <tag k="addr:street" v="The Spinney"/>
    <tag k="building" v="residential"/>
    <tag k="building:levels" v="2"/>
    <tag k="roof:levels" v="0"/>
    <tag k="source" v="Digital Globe Standard"/>
  </way>
  <way id="625527633" version="4" timestamp="2020-10-03T15:47:26Z" changeset="91906965" uid="5589" user="user_5589">
    <nd ref="5906011731"/>
    <nd ref="5906011730"/>
    <nd ref="5906011729"/>
    <nd ref="5906011728"/>
    <nd ref="5906011727"/>
    <nd ref="5906011726"/>
    <nd ref="5906011731"/>
    <tag k="addr:housenumber" v="1"/>
    <tag k="addr:street" v="The Spinney"/>
    <tag k="building" v="residential"/>
    <tag k="building:levels" v="2"/>
    <tag k="roof:levels" v="0"/>
    <tag k="source" v="Digital Globe Standard"/>
  </way>
  <way id="722479743" version="2" timestamp="2019-09-11T07:40:01Z" changeset="74339645" uid="10219381" user="shhys">
    <nd ref="6776927316"/>
    <nd ref="6776927317"/>
    <nd ref="6776927318"/>
    <nd ref="6776927319"/>
    <nd ref="6776927320"/>
    <tag k="highway" v="residential"/>
  </way>
  <way id="853187542" version="1" timestamp="2020-09-30T06:15:17Z" changeset="91745315" uid="11558580" user="jaabhil">
    <nd ref="37874345"/>
    <nd ref="7958543655"/>
    <tag k="highway" v="residential"/>
    <tag k="source" v="maxar"/>
  </way>
  <way id="853187543" version="2" timestamp="2024-01-10T16:41:46Z" changeset="146111143" uid="353317" user="neonKnight">
    <nd ref="7958543656"/>
    <nd ref="11506293092"/>
    <nd ref="7958543657"/>
    <nd ref="794385957"/>
    <tag k="highway" v="residential"/>
    <tag k="source" v="maxar"/>
  </way>
  <way id="900149373" version="1" timestamp="2021-01-25T21:36:35Z" changeset="98145339" uid="493595" user="Yorvik Prestigitator">
    <nd ref="8362567354"/>
    <nd ref="8362567355"/>
    <nd ref="8362567361"/>
    <nd ref="8362567360"/>
    <nd ref="8362567356"/>
    <nd ref="8362567358"/>
    <nd ref="7861724368"/>
    <nd ref="8362567362"/>
    <nd ref="8362567364"/>
    <nd ref="8362567359"/>
    <nd ref="8362567363"/>
    <nd ref="8362567357"/>
    <nd ref="8362567354"/>
    <tag k="addr:city" v="Hampton Lucy"/>
    <tag k="addr:postcode" v="CV35 8BE"/>
    <tag k="addr:street" v="Church Street"/>
    <tag k="amenity" v="community_centre"/>
    <tag k="building" v="public"/>
    <tag k="community_centre" v="village_hall"/>
    <tag k="name" v="Hampton Lucy Village Hall"/>
  </way>

</osm>
