<?xml version="1.0" encoding="UTF-8"?>
<osm version="0.6" generator="Overpass API 0.7.62.8 e802775f">
<note>The data included in this document is from www.openstreetmap.org. The data is made available under ODbL.</note>
<meta osm_base="2025-10-23T17:07:00Z" areas="2025-10-23T14:54:58Z"/>

  <node id="21294367" lat="52.2091935" lon="-1.8800869" version="5" timestamp="2019-04-03T16:09:21Z" changeset="68846215" uid="9065" user="brianboru"/>
  <node id="21294383" lat="52.2078596" lon="-1.8782336" version="3" timestamp="2011-05-22T17:36:58Z" changeset="8218853" uid="1703" user="Andrew Findlay"/>
  <node id="21294400" lat="52.2191460" lon="-1.8832522" version="2" timestamp="2025-01-02T23:58:54Z" changeset="160930227" uid="5229644" user="Nathan_A_RF"/>
  <node id="21319756" lat="52.2117973" lon="-1.9212445" version="13" timestamp="2019-04-03T16:27:46Z" changeset="68846998" uid="9065" user="brianboru"/>
  <node id="283157303" lat="52.1924453" lon="-1.9882470" version="5" timestamp="2018-03-07T22:43:16Z" changeset="56983079" uid="9065" user="brianboru"/>
  <node id="303271151" lat="52.1946515" lon="-1.8818466" version="6" timestamp="2025-01-03T00:37:42Z" changeset="160930925" uid="5229644" user="Nathan_A_RF"/>
  <node id="313146701" lat="52.1874694" lon="-1.8914757" version="3" timestamp="2013-06-25T06:49:50Z" changeset="16694680" uid="9065" user="brianboru"/>
  <node id="597262556" lat="52.1884614" lon="-1.8770101" version="3" timestamp="2011-08-17T16:50:29Z" changeset="9049621" uid="9065" user="brianboru"/>
  <node id="730708474" lat="52.2130119" lon="-1.8768901" version="2" timestamp="2019-04-03T15:18:55Z" changeset="68843994" uid="9065" user="brianboru"/>
  <node id="1542123423" lat="52.2124627" lon="-1.9211454" version="2" timestamp="2019-04-03T16:27:47Z" changeset="68846998" uid="9065" user="brianboru"/>
  <node id="11337875366" lat="52.2111968" lon="-1.8778842" version="1" timestamp="2023-11-10T10:50:04Z" changeset="143857511" uid="165" user="Richard"/>
  <way id="4017543" version="5" timestamp="2025-01-02T23:55:20Z" changeset="160930172" uid="5229644" user="Nathan_A_RF">
    <nd ref="21294385"/>
    <nd ref="12469938018"/>
    <nd ref="21294383"/>
    <tag k="highway" v="trunk"/>
    <tag k="lanes" v="4"/>
    <tag k="maxspeed" v="60 mph"/>
    <tag k="maxspeed:type" v="GB:nsl_single"/>
    <tag k="ref" v="A435"/>
    <tag k="restriction" v="no_stopping"/>
    <tag k="source" v="survey"/>
    <tag k="source:maxspeed" v="survey"/>
  </way>
  <way id="4017544" version="5" timestamp="2025-07-07T11:10:26Z" changeset="168599504" uid="5589" user="user_5589">
    <nd ref="21294385"/>
    <nd ref="21294386"/>
    <nd ref="12469938020"/>
    <nd ref="21294387"/>
    <nd ref="21294366"/>
    <tag k="highway" v="trunk"/>
    <tag k="lanes" v="2"/>
    <tag k="maxspeed" v="60 mph"/>
    <tag k="maxspeed:type" v="GB:nsl_single"/>
    <tag k="oneway" v="yes"/>
    <tag k="ref" v="A435"/>
    <tag k="restriction" v="no_stopping"/>
    <tag k="source" v="survey"/>
    <tag k="source:maxspeed" v="survey"/>
  </way>
  <way id="4017546" version="8" timestamp="2025-01-02T23:55:20Z" changeset="160930172" uid="5229644" user="Nathan_A_RF">
    <nd ref="21294365"/>
    <nd ref="21294366"/>
    <nd ref="6381201499"/>
    <nd ref="24555923"/>
    <nd ref="6381201498"/>
    <nd ref="21294368"/>
    <nd ref="302967487"/>
    <nd ref="6381201497"/>
    <nd ref="21294367"/>
    <nd ref="6381201496"/>
    <nd ref="21294369"/>
    <nd ref="6381201495"/>
    <nd ref="21294370"/>
    <nd ref="6381201494"/>
    <nd ref="21294371"/>
    <nd ref="6381201493"/>
    <nd ref="21294372"/>
    <nd ref="6381201492"/>
    <nd ref="6381201491"/>
    <nd ref="21294373"/>
    <nd ref="6381201490"/>
    <nd ref="534919490"/>
    <nd ref="6381201489"/>
    <nd ref="21294365"/>
    <tag k="highway" v="trunk"/>
    <tag k="junction" v="roundabout"/>
    <tag k="name" v="Arrow Roundabout"/>
    <tag k="oneway" v="yes"/>
  </way>
  <way id="4017548" version="9" timestamp="2025-01-02T23:58:54Z" changeset="160930227" uid="5229644" user="Nathan_A_RF">
    <nd ref="21294367"/>
    <nd ref="21294374"/>
    <nd ref="2438808773"/>
    <nd ref="21294375"/>
    <nd ref="2438808807"/>
    <nd ref="21294413"/>
    <nd ref="2438808829"/>
    <nd ref="21294388"/>
    <nd ref="2438808844"/>
    <nd ref="21294415"/>
    <nd ref="2438808861"/>
    <nd ref="5676608659"/>
    <nd ref="21294390"/>
    <nd ref="21294392"/>
    <nd ref="21294394"/>
    <nd ref="1472901194"/>
    <tag k="dual_carriageway" v="yes"/>
    <tag k="highway" v="trunk"/>
    <tag k="lanes" v="2"/>
    <tag k="maxspeed" v="70 mph"/>
    <tag k="maxspeed:type" v="GB:nsl_dual"/>
    <tag k="oneway" v="yes"/>
    <tag k="ref" v="A435"/>
    <tag k="restriction" v="no_stopping"/>
    <tag k="source" v="survey"/>
    <tag k="source:maxspeed" v="survey"/>
  </way>
  <way id="13506235" version="16" timestamp="2021-07-05T07:43:11Z" changeset="107423622" uid="12265621" user="wwunjo">
    <nd ref="21319756"/>
    <nd ref="1720620452"/>
    <nd ref="1720620449"/>
    <nd ref="1720620427"/>
    <nd ref="21319757"/>
    <nd ref="534836604"/>
    <nd ref="1720620426"/>
    <nd ref="21319758"/>
    <nd ref="705944763"/>
    <nd ref="21319759"/>
    <nd ref="2359871303"/>
    <nd ref="21319760"/>
    <nd ref="1720620420"/>
    <nd ref="1720620418"/>
    <nd ref="21319761"/>
    <nd ref="1720620415"/>
    <nd ref="21319762"/>
    <nd ref="1720620412"/>
    <nd ref="21319763"/>
    <nd ref="1720620409"/>
    <nd ref="21319764"/>
    <nd ref="21319765"/>
    <nd ref="1720620406"/>
    <nd ref="1720620403"/>
    <nd ref="21319766"/>
    <nd ref="1720620401"/>
    <nd ref="21319767"/>
    <nd ref="1720620399"/>
    <nd ref="1720620382"/>
    <nd ref="7409728923"/>
    <nd ref="21319768"/>
    <nd ref="8574202465"/>
    <nd ref="1720620380"/>
    <nd ref="8894324022"/>
    <nd ref="21319769"/>
    <nd ref="8239337562"/>
    <nd ref="21319770"/>
    <nd ref="21319771"/>
    <nd ref="1720620377"/>
    <nd ref="21319772"/>
    <nd ref="1720620374"/>
    <nd ref="1720620369"/>
    <nd ref="1720620363"/>
    <nd ref="21319773"/>
    <nd ref="1296399644"/>
    <nd ref="21319774"/>
    <nd ref="21319775"/>
    <nd ref="1720620348"/>
    <nd ref="21319776"/>
    <nd ref="1720620343"/>
    <nd ref="1720620340"/>
    <nd ref="21319777"/>
    <nd ref="1720620337"/>
    <nd ref="1720620327"/>
    <nd ref="1720620324"/>
    <nd ref="21319778"/>
    <nd ref="1720620320"/>
    <nd ref="21319779"/>
    <nd ref="8894188509"/>
    <nd ref="1720620316"/>
    <nd ref="1720620311"/>
    <nd ref="21319780"/>
    <nd ref="1720620307"/>
    <nd ref="1720620302"/>
    <nd ref="21319781"/>
    <nd ref="1720620298"/>
    <nd ref="1720620294"/>
    <nd ref="21319782"/>
    <nd ref="1720620292"/>
    <nd ref="1720620288"/>
    <nd ref="21319783"/>
    <nd ref="1720620270"/>
    <nd ref="21319784"/>
    <nd ref="1720620268"/>
    <nd ref="21319785"/>
    <nd ref="1720620265"/>
    <nd ref="21319786"/>
    <nd ref="21319787"/>
    <nd ref="21319788"/>
    <nd ref="1720620262"/>
    <nd ref="21319789"/>
    <nd ref="1720620260"/>
    <nd ref="21319790"/>
    <nd ref="21319791"/>
    <nd ref="6908437173"/>
    <nd ref="21319792"/>
    <nd ref="1720620256"/>
    <nd ref="21319793"/>
    <nd ref="1720620254"/>
    <nd ref="1720620249"/>
    <nd ref="1720620244"/>
    <nd ref="21319794"/>
    <tag k="highway" v="secondary"/>
    <tag k="lanes" v="2"/>
    <tag k="maxspeed" v="50 mph"/>
    <tag k="name" v="Evesham Road"/>
    <tag k="old_ref" v="A441"/>
    <tag k="ref" v="B4088"/>
    <tag k="source:name" v="OS Opendata Locator"/>
  </way>
  <way id="24061996" version="10" timestamp="2017-11-25T21:00:12Z" changeset="54082001" uid="2700471" user="JayCBR">
    <nd ref="261032780"/>
    <nd ref="21294372"/>
    <tag k="highway" v="tertiary"/>
    <tag k="name" v="Evesham Street"/>
    <tag k="oneway" v="yes"/>
    <tag k="source" v="NPE"/>
  </way>
  <way id="27591371" version="16" timestamp="2022-10-05T06:12:51Z" changeset="127028983" uid="9026132" user="PulisakZ">
    <nd ref="6315983039"/>
    <nd ref="1236532947"/>
    <nd ref="302967464"/>
    <nd ref="302967465"/>
    <nd ref="1296399672"/>
    <nd ref="302967466"/>
    <nd ref="1826571533"/>
    <nd ref="302967485"/>
    <tag k="highway" v="trunk"/>
    <tag k="lanes" v="2"/>
    <tag k="maxspeed" v="40 mph"/>
    <tag k="ref" v="A422"/>
    <tag k="source" v="survey"/>
    <tag k="source:maxspeed" v="survey"/>
  </way>
  <way id="27591375" version="7" timestamp="2011-08-17T15:48:17Z" changeset="9049151" uid="9065" user="brianboru">
    <nd ref="302967485"/>
    <nd ref="302967486"/>
    <nd ref="21294368"/>
    <tag k="highway" v="trunk"/>
    <tag k="maxspeed" v="40 mph"/>
    <tag k="oneway" v="yes"/>
    <tag k="ref" v="A422"/>
    <tag k="source" v="survey"/>
    <tag k="source:maxspeed" v="survey"/>
  </way>
  <way id="27617603" version="10" timestamp="2025-01-03T00:37:42Z" changeset="160930925" uid="5229644" user="Nathan_A_RF">
    <nd ref="1542123654"/>
    <nd ref="1967661996"/>
    <nd ref="1773753772"/>
    <nd ref="1402386910"/>
    <tag k="highway" v="tertiary"/>
    <tag k="maxspeed" v="40 mph"/>
    <tag k="source" v="survey"/>
    <tag k="source:maxspeed" v="survey"/>
  </way>
  <way id="42781539" version="3" timestamp="2011-08-17T15:48:17Z" changeset="9049151" uid="9065" user="brianboru">
    <nd ref="24555923"/>
    <nd ref="302967467"/>
    <nd ref="302967485"/>
    <tag k="highway" v="trunk"/>
    <tag k="maxspeed" v="40 mph"/>
    <tag k="oneway" v="yes"/>
    <tag k="ref" v="A422"/>
    <tag k="source" v="survey"/>
    <tag k="source:maxspeed" v="survey"/>
  </way>
  <way id="42781540" version="4" timestamp="2025-07-07T11:10:19Z" changeset="168599504" uid="5589" user="user_5589">
    <nd ref="21294373"/>
    <nd ref="21294382"/>
    <nd ref="21294385"/>
    <tag k="highway" v="trunk"/>
    <tag k="lanes" v="2"/>
    <tag k="maxspeed" v="60 mph"/>
    <tag k="maxspeed:type" v="GB:nsl_single"/>
    <tag k="oneway" v="yes"/>
    <tag k="ref" v="A435"/>
    <tag k="restriction" v="no_stopping"/>
    <tag k="source" v="survey"/>
    <tag k="source:maxspeed" v="survey"/>
  </way>
  <way id="46712081" version="7" timestamp="2023-08-24T19:33:19Z" changeset="140339507" uid="165" user="Richard">
    <nd ref="313146701"/>
    <nd ref="2359923211"/>
    <nd ref="597218685"/>
    <nd ref="2359923214"/>
    <nd ref="2359923213"/>
    <nd ref="2359923212"/>
    <nd ref="597218686"/>
    <nd ref="1402484678"/>
    <nd ref="1402484680"/>
    <nd ref="597218687"/>
    <nd ref="1402484683"/>
    <nd ref="1542123638"/>
    <tag k="highway" v="unclassified"/>
    <tag k="maxspeed" v="60 mph"/>
    <tag k="maxspeed:type" v="GB:nsl_single"/>
  </way>
  <way id="46712082" version="7" timestamp="2025-01-03T00:37:42Z" changeset="160930925" uid="5229644" user="Nathan_A_RF">
    <nd ref="303271151"/>
    <nd ref="12470223279"/>
    <nd ref="5247829548"/>
    <nd ref="1542123606"/>
    <tag k="highway" v="tertiary"/>
    <tag k="maxspeed" v="60 mph"/>
    <tag k="maxspeed:type" v="GB:nsl_single"/>
    <tag k="oneway" v="yes"/>
    <tag k="source" v="survey"/>
    <tag k="source:maxspeed" v="survey"/>
  </way>
  <way id="58964780" version="4" timestamp="2020-11-27T18:41:15Z" changeset="94910299" uid="115894" user="DaveF">
    <nd ref="730708474"/>
    <nd ref="730708477"/>
    <nd ref="6376372785"/>
    <nd ref="730708414"/>
    <nd ref="730708415"/>
    <nd ref="730708416"/>
    <tag k="highway" v="residential"/>
    <tag k="highway_authority_ref" v="D5388"/>
    <tag k="name" v="Hadrians Walk"/>
  </way>
  <way id="107619677" version="2" timestamp="2017-11-25T21:00:12Z" changeset="54082001" uid="2700471" user="JayCBR">
    <nd ref="21294371"/>
    <nd ref="1236532945"/>
    <nd ref="261032780"/>
    <tag k="highway" v="tertiary"/>
    <tag k="name" v="Evesham Street"/>
    <tag k="oneway" v="yes"/>
    <tag k="source" v="NPE"/>
  </way>
  <way id="107619678" version="11" timestamp="2025-01-02T23:55:20Z" changeset="160930172" uid="5229644" user="Nathan_A_RF">
    <nd ref="261032780"/>
    <nd ref="12469938021"/>
    <nd ref="364789463"/>
    <nd ref="1826571570"/>
    <nd ref="1232933488"/>
    <nd ref="8567856291"/>
    <nd ref="261032781"/>
    <nd ref="8900840054"/>
    <nd ref="11337875365"/>
    <tag k="highway" v="tertiary"/>
    <tag k="name" v="Evesham Street"/>
    <tag k="source" v="NPE"/>
  </way>
  <way id="110559856" version="21" timestamp="2022-04-15T19:32:46Z" changeset="119763304" uid="540739" user="robbob700">
    <nd ref="283157303"/>
    <nd ref="249268634"/>
    <nd ref="8874081889"/>
    <nd ref="809349706"/>
    <nd ref="8874081904"/>
    <nd ref="6902317563"/>
    <nd ref="249268635"/>
    <nd ref="8559253198"/>
    <nd ref="809349713"/>
    <nd ref="6558065103"/>
    <nd ref="809349715"/>
    <nd ref="8204075919"/>
    <nd ref="809349717"/>
    <nd ref="2548905967"/>
    <nd ref="249268636"/>
    <nd ref="7512973546"/>
    <nd ref="809349724"/>
    <nd ref="1265317282"/>
    <nd ref="809349727"/>
    <nd ref="249268637"/>
    <nd ref="1265318859"/>
    <nd ref="705930498"/>
    <nd ref="8575689562"/>
    <nd ref="809349734"/>
    <nd ref="1265318164"/>
    <nd ref="809349737"/>
    <nd ref="249268638"/>
    <nd ref="1265315637"/>
    <nd ref="809349744"/>
    <nd ref="705963289"/>
    <nd ref="1265313442"/>
    <nd ref="1265316378"/>
    <nd ref="1265316244"/>
    <nd ref="249268639"/>
    <nd ref="809349761"/>
    <nd ref="249268640"/>
    <nd ref="705930504"/>
    <nd ref="809349766"/>
    <nd ref="809349767"/>
    <nd ref="809349769"/>
    <nd ref="249268641"/>
    <nd ref="809349775"/>
    <nd ref="809349778"/>
    <nd ref="809349782"/>
    <nd ref="809349785"/>
    <nd ref="249268642"/>
    <nd ref="809349786"/>
    <nd ref="2973804586"/>
    <nd ref="249268643"/>
    <nd ref="809349787"/>
    <nd ref="809349789"/>
    <nd ref="809349792"/>
    <nd ref="809349796"/>
    <nd ref="2548936605"/>
    <nd ref="249268644"/>
    <nd ref="809349801"/>
    <nd ref="809349804"/>
    <nd ref="8563015159"/>
    <nd ref="249268645"/>
    <nd ref="809349819"/>
    <nd ref="809348714"/>
    <nd ref="249268646"/>
    <nd ref="809349822"/>
    <nd ref="809349823"/>
    <nd ref="809349826"/>
    <nd ref="809349829"/>
    <nd ref="249268647"/>
    <nd ref="926676865"/>
    <nd ref="705930535"/>
    <nd ref="809349838"/>
    <nd ref="809349840"/>
    <nd ref="249268648"/>
    <nd ref="809349841"/>
    <nd ref="249268649"/>
    <nd ref="809349849"/>
    <nd ref="705930540"/>
    <nd ref="809349856"/>
    <nd ref="809349859"/>
    <nd ref="249268650"/>
    <nd ref="809349860"/>
    <nd ref="809349861"/>
    <nd ref="249268651"/>
    <nd ref="809349863"/>
    <nd ref="809349877"/>
    <nd ref="809349878"/>
    <nd ref="249268652"/>
    <nd ref="809349879"/>
    <nd ref="809349880"/>
    <nd ref="809349882"/>
    <nd ref="809349887"/>
    <nd ref="249268653"/>
    <nd ref="809349893"/>
    <nd ref="1720620192"/>
    <nd ref="1720620197"/>
    <nd ref="809349896"/>
    <nd ref="1720620201"/>
    <nd ref="1720620204"/>
    <nd ref="1720620208"/>
    <nd ref="1720620217"/>
    <nd ref="809349898"/>
    <nd ref="1720620234"/>
    <nd ref="809349899"/>
    <nd ref="1720620237"/>
    <nd ref="1720620241"/>
    <nd ref="21319794"/>
    <tag k="highway" v="tertiary"/>
    <tag k="source" v="GPS"/>
  </way>
  <way id="114440917" version="7" timestamp="2025-07-07T11:10:08Z" changeset="168599493" uid="5589" user="user_5589">
    <nd ref="21294383"/>
    <nd ref="21294384"/>
    <tag k="bridge" v="yes"/>
    <tag k="highway" v="trunk"/>
    <tag k="lanes" v="4"/>
    <tag k="layer" v="1"/>
    <tag k="maxspeed" v="60 mph"/>
    <tag k="maxspeed:type" v="GB:nsl_single"/>
    <tag k="maxweight:signed" v="no"/>
    <tag k="ref" v="A435"/>
    <tag k="restriction" v="no_stopping"/>
    <tag k="source" v="survey"/>
    <tag k="source:maxspeed" v="survey"/>
  </way>
  <way id="114440926" version="6" timestamp="2023-01-01T14:09:43Z" changeset="130749790" uid="11626527" user="Janescott">
    <nd ref="1296399644"/>
    <nd ref="1720620353"/>
    <nd ref="1296399557"/>
    <nd ref="1296399431"/>
    <nd ref="1296399624"/>
    <nd ref="2359871170"/>
    <nd ref="8544593486"/>
    <nd ref="10298206334"/>
    <nd ref="1296399661"/>
    <nd ref="2359871157"/>
    <nd ref="8563020015"/>
    <nd ref="1296399474"/>
    <nd ref="2359871150"/>
    <nd ref="1296399599"/>
    <nd ref="1296399515"/>
    <tag k="highway" v="unclassified"/>
  </way>
  <way id="126521476" version="9" timestamp="2025-01-03T00:37:42Z" changeset="160930925" uid="5229644" user="Nathan_A_RF">
    <nd ref="1402386910"/>
    <nd ref="831085965"/>
    <nd ref="1773743313"/>
    <nd ref="1542123546"/>
    <nd ref="1402484779"/>
    <nd ref="1542123484"/>
    <nd ref="2360954396"/>
    <nd ref="1542123415"/>
    <nd ref="1542123418"/>
    <nd ref="8264915786"/>
    <nd ref="2360954394"/>
    <nd ref="1542123588"/>
    <nd ref="2360954391"/>
    <nd ref="1542123459"/>
    <nd ref="2360954390"/>
    <nd ref="2360954389"/>
    <nd ref="1542123659"/>
    <nd ref="1542123406"/>
    <nd ref="313146711"/>
    <nd ref="12470223278"/>
    <nd ref="303271151"/>
    <tag k="highway" v="tertiary"/>
    <tag k="maxspeed" v="60 mph"/>
    <tag k="maxspeed:type" v="GB:nsl_single"/>
    <tag k="source" v="survey"/>
    <tag k="source:maxspeed" v="survey"/>
  </way>
  <way id="126531346" version="11" timestamp="2025-01-03T00:37:42Z" changeset="160930925" uid="5229644" user="Nathan_A_RF">
    <nd ref="303271151"/>
    <nd ref="5247829549"/>
    <nd ref="1402484774"/>
    <nd ref="313146709"/>
    <nd ref="1402484773"/>
    <nd ref="313146708"/>
    <nd ref="303271152"/>
    <nd ref="1402484767"/>
    <nd ref="1402484765"/>
    <nd ref="313146707"/>
    <nd ref="8544580014"/>
    <nd ref="313146706"/>
    <nd ref="303271153"/>
    <nd ref="1537467811"/>
    <nd ref="2360954232"/>
    <nd ref="313146704"/>
    <nd ref="313146703"/>
    <nd ref="303271154"/>
    <nd ref="2359923218"/>
    <nd ref="2360954154"/>
    <nd ref="313146702"/>
    <nd ref="2288132401"/>
    <nd ref="2359923206"/>
    <nd ref="313146701"/>
    <nd ref="2359923202"/>
    <nd ref="303271155"/>
    <nd ref="2359923193"/>
    <nd ref="313146700"/>
    <nd ref="2359923192"/>
    <nd ref="313146698"/>
    <nd ref="2359923180"/>
    <nd ref="303271156"/>
    <nd ref="313146697"/>
    <nd ref="313146696"/>
    <nd ref="2360965188"/>
    <nd ref="2359923179"/>
    <nd ref="2359923177"/>
    <nd ref="313146695"/>
    <nd ref="2359923175"/>
    <nd ref="303271157"/>
    <nd ref="1537467628"/>
    <nd ref="303271158"/>
    <nd ref="1537467611"/>
    <nd ref="1537467604"/>
    <nd ref="2360193541"/>
    <nd ref="303271159"/>
    <nd ref="303271160"/>
    <nd ref="2360193485"/>
    <tag k="highway" v="tertiary"/>
    <tag k="maxspeed" v="60 mph"/>
    <tag k="maxspeed:type" v="GB:nsl_single"/>
    <tag k="source" v="survey"/>
  </way>
  <way id="126532917" version="7" timestamp="2021-04-01T15:27:04Z" changeset="102136393" uid="30587" user="IknowJoseph">
    <nd ref="1402532247"/>
    <nd ref="1402532255"/>
    <nd ref="1402532246"/>
    <nd ref="1402532254"/>
    <nd ref="1402532256"/>
    <nd ref="1402532257"/>
    <nd ref="1402532253"/>
    <nd ref="1402532251"/>
    <nd ref="1402532243"/>
    <nd ref="1402532245"/>
    <nd ref="1402532239"/>
    <nd ref="1402532237"/>
    <nd ref="1402532235"/>
    <nd ref="1402532236"/>
    <nd ref="1402532232"/>
    <nd ref="1402532223"/>
    <nd ref="1402532233"/>
    <nd ref="1402532229"/>
    <nd ref="1402532222"/>
    <nd ref="1402532219"/>
    <nd ref="1402532228"/>
    <nd ref="1402532231"/>
    <nd ref="1402532242"/>
    <nd ref="1402532240"/>
    <nd ref="1402532247"/>
    <tag k="addr:postcode" v="B49 5NJ"/>
    <tag k="building" v="yes"/>
    <tag k="heritage" v="2"/>
    <tag k="heritage:operator" v="Historic England"/>
    <tag k="listed_status" v="Grade I"/>
    <tag k="name" v="Ragley Hall"/>
    <tag k="source" v="bing"/>
    <tag k="tourism" v="attraction"/>
    <tag k="website" v="https://www.ragley.co.uk/"/>
    <tag k="wikidata" v="Q7283125"/>
  </way>
  <way id="133837901" version="4" timestamp="2025-01-02T23:58:54Z" changeset="160930227" uid="5229644" user="Nathan_A_RF">
    <nd ref="21294400"/>
    <nd ref="12469938970"/>
    <nd ref="21294399"/>
    <nd ref="21294418"/>
    <nd ref="21294397"/>
    <nd ref="21294395"/>
    <nd ref="21294393"/>
    <nd ref="2438808870"/>
    <nd ref="21294391"/>
    <nd ref="2438808862"/>
    <nd ref="21294416"/>
    <nd ref="2438808845"/>
    <nd ref="21294389"/>
    <nd ref="2438808828"/>
    <nd ref="21294414"/>
    <nd ref="2438808804"/>
    <nd ref="21294376"/>
    <nd ref="2438808772"/>
    <nd ref="2438808765"/>
    <nd ref="21294377"/>
    <nd ref="21294412"/>
    <nd ref="21294370"/>
    <tag k="dual_carriageway" v="yes"/>
    <tag k="highway" v="trunk"/>
    <tag k="lanes" v="2"/>
    <tag k="maxspeed" v="70 mph"/>
    <tag k="maxspeed:type" v="GB:nsl_dual"/>
    <tag k="oneway" v="yes"/>
    <tag k="ref" v="A435"/>
    <tag k="restriction" v="no_stopping"/>
    <tag k="source" v="survey"/>
    <tag k="source:maxspeed" v="survey"/>
  </way>
  <way id="140836807" version="6" timestamp="2025-01-03T00:37:42Z" changeset="160930925" uid="5229644" user="Nathan_A_RF">
    <nd ref="597262556"/>
    <nd ref="1542123570"/>
    <nd ref="1542123444"/>
    <nd ref="1542123638"/>
    <nd ref="1542123677"/>
    <nd ref="1402484690"/>
    <nd ref="1542123385"/>
    <nd ref="1402484749"/>
    <nd ref="1542123500"/>
    <nd ref="1542123412"/>
    <nd ref="9654514667"/>
    <nd ref="1542123464"/>
    <nd ref="1542123688"/>
    <nd ref="1542123581"/>
    <nd ref="1542123629"/>
    <nd ref="1542123450"/>
    <nd ref="1402484763"/>
    <nd ref="2360954352"/>
    <nd ref="2288132436"/>
    <nd ref="1542123606"/>
    <tag k="highway" v="tertiary"/>
    <tag k="maxspeed" v="60 mph"/>
    <tag k="maxspeed:type" v="GB:nsl_single"/>
    <tag k="source" v="survey"/>
    <tag k="source:maxspeed" v="survey"/>
  </way>
  <way id="140836812" version="6" timestamp="2021-02-16T09:48:45Z" changeset="99368014" uid="11626527" user="Janescott">
    <nd ref="1542123423"/>
    <nd ref="1542123631"/>
    <nd ref="1542123640"/>
    <nd ref="1542123507"/>
    <nd ref="1542123501"/>
    <nd ref="1542123575"/>
    <nd ref="1542123531"/>
    <nd ref="1322909197"/>
    <nd ref="1542123724"/>
    <nd ref="1542123456"/>
    <nd ref="1542123489"/>
    <nd ref="1542123721"/>
    <nd ref="1542123493"/>
    <nd ref="1542123409"/>
    <nd ref="1542123494"/>
    <nd ref="1542123488"/>
    <nd ref="1542123421"/>
    <nd ref="1542123591"/>
    <nd ref="1542123594"/>
    <nd ref="1542123388"/>
    <nd ref="1542123712"/>
    <nd ref="1542123656"/>
    <nd ref="1542123381"/>
    <nd ref="1542123675"/>
    <nd ref="1542123539"/>
    <nd ref="1542123393"/>
    <nd ref="8380997500"/>
    <nd ref="1542123543"/>
    <nd ref="1542123715"/>
    <nd ref="1542123425"/>
    <nd ref="1542123706"/>
    <nd ref="1542123509"/>
    <nd ref="1542123465"/>
    <nd ref="1542123477"/>
    <nd ref="1542123496"/>
    <nd ref="1232943697"/>
    <nd ref="1542123612"/>
    <nd ref="1542123530"/>
    <nd ref="1542123481"/>
    <nd ref="1542123419"/>
    <nd ref="8428368483"/>
    <nd ref="1542123537"/>
    <nd ref="1542123621"/>
    <nd ref="1542123671"/>
    <nd ref="6381200238"/>
    <nd ref="1542123609"/>
    <nd ref="6381200239"/>
    <nd ref="1542123497"/>
    <nd ref="1542123498"/>
    <nd ref="6381200240"/>
    <nd ref="1542123649"/>
    <nd ref="6381200236"/>
    <tag k="highway" v="trunk"/>
    <tag k="lanes" v="2"/>
    <tag k="ref" v="A422"/>
  </way>
  <way id="159992794" version="1" timestamp="2012-04-17T14:19:14Z" changeset="11333323" uid="411244" user="RobJN">
    <nd ref="1720600099"/>
    <nd ref="1720600097"/>
    <nd ref="1720600096"/>
    <nd ref="1720600094"/>
    <nd ref="1720600087"/>
    <nd ref="1720600085"/>
    <nd ref="1720600083"/>
    <nd ref="1720600080"/>
    <nd ref="1720600077"/>
    <nd ref="1720600073"/>
    <nd ref="1720600070"/>
    <nd ref="1720600065"/>
    <nd ref="1720600062"/>
    <nd ref="1720600059"/>
    <nd ref="1720600055"/>
    <nd ref="1720600047"/>
    <tag k="highway" v="residential"/>
    <tag k="name" v="Park View"/>
    <tag k="source" v="Bing"/>
    <tag k="source:name" v="OS Opendata Locator"/>
  </way>
  <way id="166123351" version="4" timestamp="2025-02-19T22:49:18Z" changeset="162719720" uid="493595" user="Yorvik Prestigitator">
    <nd ref="1776058164"/>
    <nd ref="1776058161"/>
    <nd ref="1776058162"/>
    <nd ref="1776058163"/>
    <nd ref="1776058164"/>
    <tag k="addr:city" v="Arrow"/>
    <tag k="amenity" v="community_centre"/>
    <tag k="building" v="public"/>
    <tag k="community_centre" v="village_hall"/>
    <tag k="name" v="Arrow Village Hall"/>
  </way>
  <way id="166123520" version="3" timestamp="2023-09-03T11:54:08Z" changeset="140755009" uid="384887" user="robw">
    <nd ref="1776062173"/>
    <nd ref="1776062175"/>
    <nd ref="2439413176"/>
    <nd ref="1776062163"/>
    <nd ref="1776062174"/>
    <nd ref="2439413180"/>
    <nd ref="1776062148"/>
    <nd ref="1776062146"/>
    <nd ref="1776062177"/>
    <nd ref="1776062143"/>
    <nd ref="1776062165"/>
    <nd ref="1776062176"/>
    <nd ref="1776062142"/>
    <nd ref="1776062169"/>
    <nd ref="1776062178"/>
    <nd ref="1776062145"/>
    <nd ref="1776062150"/>
    <nd ref="1776062167"/>
    <nd ref="1776062171"/>
    <nd ref="1776062173"/>
    <tag k="addr:city" v="Alcester"/>
    <tag k="addr:postcode" v="B49 5NL"/>
    <tag k="addr:street" v="Arrow"/>
    <tag k="amenity" v="restaurant"/>
    <tag k="building" v="yes"/>
    <tag k="name" v="Arrow Mill"/>
    <tag k="website" v="https://www.brunningandprice.co.uk/arrowmill/"/>
  </way>
  <way id="227275131" version="3" timestamp="2020-10-05T21:13:29Z" changeset="92007731" uid="364" user="Edward">
    <nd ref="2359871143"/>
    <nd ref="2359871139"/>
    <nd ref="2359871141"/>
    <nd ref="2359871140"/>
    <nd ref="2359871137"/>
    <nd ref="2359871134"/>
    <nd ref="2359871127"/>
    <nd ref="2359871129"/>
    <nd ref="2359871126"/>
    <nd ref="2359871128"/>
    <nd ref="2359871131"/>
    <nd ref="2359871132"/>
    <nd ref="2359871138"/>
    <nd ref="2359871142"/>
    <nd ref="2359871143"/>
    <tag k="amenity" v="place_of_worship"/>
    <tag k="building" v="church"/>
    <tag k="denomination" v="anglican"/>
    <tag k="name" v="St James"/>
    <tag k="religion" v="christian"/>
    <tag k="wikidata" v="Q26275526"/>
  </way>
  <way id="235868818" version="4" timestamp="2020-10-16T09:01:07Z" changeset="92570746" uid="281267" user="smb1001">
    <nd ref="2439413337"/>
    <nd ref="2439413338"/>
    <nd ref="2439413327"/>
    <nd ref="2439413325"/>
    <nd ref="2439413329"/>
    <nd ref="2439413330"/>
    <nd ref="2439413337"/>
    <tag k="amenity" v="place_of_worship"/>
    <tag k="building" v="church"/>
    <tag k="denomination" v="anglican"/>
    <tag k="name" v="Holy Trinity"/>
    <tag k="religion" v="christian"/>
    <tag k="source" v="bing"/>
    <tag k="wikidata" v="Q26275602"/>
  </way>
  <way id="542830720" version="2" timestamp="2025-01-03T00:37:42Z" changeset="160930925" uid="5229644" user="Nathan_A_RF">
    <nd ref="1542123606"/>
    <nd ref="5247829550"/>
    <nd ref="313146709"/>
    <tag k="highway" v="tertiary"/>
    <tag k="maxspeed" v="60 mph"/>
    <tag k="maxspeed:type" v="GB:nsl_single"/>
    <tag k="source" v="survey"/>
    <tag k="source:maxspeed" v="survey"/>
  </way>
  <way id="674419253" version="3" timestamp="2021-02-17T16:04:49Z" changeset="99464370" uid="11626527" user="Janescott">
    <nd ref="6315983030"/>
    <nd ref="6315983031"/>
    <nd ref="6381201400"/>
    <nd ref="6315983032"/>
    <nd ref="6381201401"/>
    <nd ref="6315983033"/>
    <nd ref="6381201402"/>
    <nd ref="6381201403"/>
    <nd ref="6315983034"/>
    <nd ref="6381201405"/>
    <nd ref="6315983035"/>
    <nd ref="6381201406"/>
    <nd ref="6315983040"/>
    <nd ref="6315983036"/>
    <nd ref="6381201408"/>
    <nd ref="6381201407"/>
    <nd ref="6381201404"/>
    <nd ref="6315983037"/>
    <nd ref="6315983038"/>
    <nd ref="6315983039"/>
    <tag k="access" v="private"/>
    <tag k="highway" v="residential"/>
  </way>
  <way id="681413381" version="2" timestamp="2022-10-05T06:12:51Z" changeset="127028983" uid="9026132" user="PulisakZ">
    <nd ref="6381200236"/>
    <nd ref="1542123491"/>
    <nd ref="1542123636"/>
    <nd ref="1720600099"/>
    <nd ref="6315983030"/>
    <tag k="highway" v="trunk"/>
    <tag k="lanes" v="2"/>
    <tag k="maxspeed" v="40 mph"/>
    <tag k="ref" v="A422"/>
  </way>
  <way id="681433065" version="2" timestamp="2021-02-27T19:12:18Z" changeset="100112868" uid="11626527" user="Janescott">
    <nd ref="6381381939"/>
    <nd ref="6381381938"/>
    <nd ref="6381381937"/>
    <nd ref="6381381936"/>
    <nd ref="6381381935"/>
    <nd ref="6381381934"/>
    <nd ref="6381381933"/>
    <nd ref="6381381932"/>
    <nd ref="6381381931"/>
    <nd ref="6381381930"/>
    <nd ref="6381381939"/>
    <tag k="building" v="residential"/>
    <tag k="name" v="Keeper's Cottage"/>
    <tag k="source" v="Warwicks CC Aerial Imagery 2013"/>
  </way>
  <way id="902308060" version="1" timestamp="2021-01-31T15:56:21Z" changeset="98454827" uid="11626527" user="Janescott">
    <nd ref="8380997487"/>
    <nd ref="8380997488"/>
    <nd ref="8380997489"/>
    <nd ref="8380997490"/>
    <nd ref="8380997491"/>
    <nd ref="8380997487"/>
    <tag k="addr:city" v="Alcester"/>
    <tag k="addr:housename" v="Deerings Cottage"/>
    <tag k="addr:street" v="Arrow Lane"/>
    <tag k="building" v="house"/>
    <tag k="name" v="Deerings Cottage"/>
  </way>
  <way id="911592926" version="1" timestamp="2021-02-27T19:14:52Z" changeset="100112969" uid="11626527" user="Janescott">
    <nd ref="8464306793"/>
    <nd ref="8464306794"/>
    <nd ref="8464306795"/>
    <nd ref="8464306796"/>
    <nd ref="8464306793"/>
    <tag k="building" v="house"/>
    <tag k="name" v="The Gorrals"/>
  </way>
  <way id="1100994654" version="1" timestamp="2022-10-05T06:12:51Z" changeset="127028983" uid="9026132" user="PulisakZ">
    <nd ref="6315983030"/>
    <nd ref="1720600067"/>
    <nd ref="1542123391"/>
    <nd ref="1720600051"/>
    <nd ref="1542123654"/>
    <tag k="highway" v="trunk"/>
    <tag k="lanes" v="2"/>
    <tag k="maxspeed" v="40 mph"/>
    <tag k="ref" v="A422"/>
  </way>
  <way id="1100994656" version="1" timestamp="2022-10-05T06:12:51Z" changeset="127028983" uid="9026132" user="PulisakZ">
    <nd ref="1542123654"/>
    <nd ref="1967661999"/>
    <nd ref="1967662001"/>
    <nd ref="302967463"/>
    <nd ref="6315983039"/>
    <tag k="highway" v="trunk"/>
    <tag k="lanes" v="2"/>
    <tag k="maxspeed" v="40 mph"/>
    <tag k="ref" v="A422"/>
    <tag k="source" v="survey"/>
    <tag k="source:maxspeed" v="survey"/>
  </way>
  <way id="1222469004" version="1" timestamp="2023-11-10T10:50:04Z" changeset="143857511" uid="165" user="Richard">
    <nd ref="11337875366"/>
    <nd ref="261032782"/>
    <nd ref="261032783"/>
    <nd ref="5902335822"/>
    <nd ref="730708413"/>
    <nd ref="2637414707"/>
    <nd ref="2637414711"/>
    <nd ref="730708433"/>
    <nd ref="6376372484"/>
    <nd ref="261032785"/>
    <nd ref="730708493"/>
    <nd ref="261032786"/>
    <nd ref="730708492"/>
    <nd ref="730708564"/>
    <nd ref="7156194690"/>
    <nd ref="261032787"/>
    <tag k="highway" v="tertiary"/>
    <tag k="name" v="Evesham Street"/>
    <tag k="source" v="NPE"/>
  </way>
  <way id="1222469005" version="1" timestamp="2023-11-10T10:50:04Z" changeset="143857511" uid="165" user="Richard">
    <nd ref="11337875365"/>
    <nd ref="11337875366"/>
    <tag k="bridge" v="yes"/>
    <tag k="highway" v="tertiary"/>
    <tag k="layer" v="1"/>
    <tag k="name" v="Evesham Street"/>
    <tag k="source" v="NPE"/>
  </way>

</osm>
