<?xml version="1.0" encoding="UTF-8"?>
<osm version="0.6" generator="Overpass API 0.7.62.8 e802775f">
<note>The data included in this document is from www.openstreetmap.org. The data is made available under ODbL.</note>
<meta osm_base="2025-10-23T17:14:15Z" areas="2025-10-23T14:54:58Z"/>

  <node id="130154745" lat="52.3568143" lon="-1.4411885" version="1" timestamp="2007-11-23T23:57:52Z" changeset="605715" uid="661" user="mapcaster"/>
  <node id="267933047" lat="52.3453420" lon="-1.4958515" version="8" timestamp="2020-12-18T06:10:31Z" changeset="96044631" uid="11734032" user="daitv"/>
  <node id="415369815" lat="52.3349920" lon="-1.4689079" version="4" timestamp="2022-12-20T00:22:01Z" changeset="130267756" uid="7463" user="kesterlester"/>
  <node id="705773939" lat="52.3495405" lon="-1.4599120" version="4" timestamp="2014-11-04T19:46:44Z" changeset="26556349" uid="154484" user="PeterP"/>
  <node id="2420565992" lat="52.3536241" lon="-1.4848018" version="1" timestamp="2013-08-16T09:06:12Z" changeset="17368806" uid="9065" user="brianboru"/>
  <node id="6565466735" lat="52.3407234" lon="-1.4794944" version="2" timestamp="2023-05-30T06:35:14Z" changeset="136727519" uid="322785" user="BCNorwich"/>
  <way id="24649326" version="13" timestamp="2018-07-31T19:50:23Z" changeset="61239982" uid="115894" user="DaveF">
    <nd ref="267933047"/>
    <nd ref="1381789981"/>
    <nd ref="705021713"/>
    <tag k="highway" v="tertiary"/>
    <tag k="highway_authority_ref" v="C23"/>
    <tag k="source" v="survey"/>
    <tag k="source:ref" v="plannning notice"/>
  </way>
  <way id="24730480" version="9" timestamp="2020-08-22T09:25:01Z" changeset="89775111" uid="10455640" user="madnikhi">
    <nd ref="268788166"/>
    <nd ref="1080823083"/>
    <nd ref="1080823134"/>
    <nd ref="7834464019"/>
    <nd ref="268788167"/>
    <nd ref="1080822951"/>
    <nd ref="1080823141"/>
    <nd ref="268788168"/>
    <nd ref="1080823139"/>
    <nd ref="1080823218"/>
    <nd ref="268788169"/>
    <nd ref="705021724"/>
    <tag k="highway" v="tertiary"/>
    <tag k="name" v="Watery Lane"/>
  </way>
  <way id="41111452" version="7" timestamp="2021-08-09T16:18:51Z" changeset="109415734" uid="5589" user="user_5589">
    <nd ref="2420558444"/>
    <nd ref="1383258726"/>
    <tag k="cycleway:both" v="no"/>
    <tag k="highway" v="unclassified"/>
    <tag k="name" v="Paget's Lane"/>
    <tag k="unsigned_ref" v="D2226"/>
  </way>
  <way id="56181920" version="4" timestamp="2024-07-06T19:37:28Z" changeset="153637233" uid="493595" user="Yorvik Prestigitator">
    <nd ref="705016700"/>
    <nd ref="3375029581"/>
    <nd ref="705016728"/>
    <nd ref="3375029552"/>
    <nd ref="7937537492"/>
    <nd ref="3375029554"/>
    <nd ref="705016729"/>
    <nd ref="3375029588"/>
    <nd ref="705016730"/>
    <nd ref="705016735"/>
    <nd ref="3375029559"/>
    <nd ref="705016736"/>
    <nd ref="705016737"/>
    <nd ref="705016738"/>
    <nd ref="3375029563"/>
    <nd ref="12038212196"/>
    <nd ref="3375029553"/>
    <nd ref="705016707"/>
    <nd ref="705016706"/>
    <tag k="highway" v="residential"/>
    <tag k="name" v="Home Close"/>
    <tag k="source" v="OS_OpenData_StreetView"/>
  </way>
  <way id="56181921" version="4" timestamp="2019-05-22T11:55:29Z" changeset="70512241" uid="9065" user="brianboru">
    <nd ref="705016716"/>
    <nd ref="3494870554"/>
    <nd ref="3375029569"/>
    <nd ref="3375029561"/>
    <nd ref="705016704"/>
    <nd ref="705016700"/>
    <nd ref="705016697"/>
    <nd ref="705016698"/>
    <nd ref="3375029589"/>
    <nd ref="6490819657"/>
    <nd ref="6490819656"/>
    <nd ref="3375029570"/>
    <nd ref="705016699"/>
    <nd ref="705016706"/>
    <tag k="highway" v="residential"/>
    <tag k="name" v="Coopers Walk"/>
    <tag k="source" v="OS_OpenData_StreetView"/>
  </way>
  <way id="56181922" version="11" timestamp="2020-02-18T11:41:00Z" changeset="81167787" uid="10205154" user="mundlk">
    <nd ref="705016682"/>
    <nd ref="6901595964"/>
    <nd ref="6901595965"/>
    <nd ref="2391715932"/>
    <nd ref="7222414860"/>
    <nd ref="6901595966"/>
    <nd ref="1080823029"/>
    <nd ref="3494867187"/>
    <nd ref="267933060"/>
    <tag k="highway" v="residential"/>
    <tag k="name" v="Church Road"/>
    <tag k="source" v="survey"/>
  </way>
  <way id="56181923" version="14" timestamp="2024-07-06T19:37:28Z" changeset="153637233" uid="493595" user="Yorvik Prestigitator">
    <nd ref="1725857321"/>
    <nd ref="1725857368"/>
    <nd ref="705016719"/>
    <nd ref="1725857377"/>
    <nd ref="1725857310"/>
    <nd ref="1383171355"/>
    <nd ref="1725857400"/>
    <nd ref="705016716"/>
    <nd ref="1725857300"/>
    <nd ref="7937537486"/>
    <nd ref="7937537497"/>
    <nd ref="7937537491"/>
    <nd ref="1383171352"/>
    <nd ref="2420558486"/>
    <nd ref="2420558479"/>
    <nd ref="12038212194"/>
    <tag k="highway" v="residential"/>
    <tag k="name" v="Lower End"/>
    <tag k="source" v="visual survey;OS_OpenData_StreetView"/>
  </way>
  <way id="56181924" version="2" timestamp="2015-02-27T16:24:23Z" changeset="29137283" uid="154484" user="PeterP">
    <nd ref="705016706"/>
    <nd ref="705016708"/>
    <nd ref="3375029551"/>
    <nd ref="705016709"/>
    <nd ref="705016713"/>
    <nd ref="705016710"/>
    <tag k="highway" v="residential"/>
    <tag k="name" v="Orchard Way"/>
    <tag k="source" v="OS_OpenData_StreetView"/>
  </way>
  <way id="56181925" version="3" timestamp="2023-08-16T11:54:23Z" changeset="139960695" uid="9026132" user="PulisakZ">
    <nd ref="705016711"/>
    <nd ref="11118834896"/>
    <tag k="highway" v="residential"/>
    <tag k="source" v="OS_OpenData_StreetView"/>
  </way>
  <way id="56181926" version="4" timestamp="2020-09-24T11:29:40Z" changeset="91429901" uid="11733990" user="yagyikh">
    <nd ref="705016701"/>
    <nd ref="705016702"/>
    <nd ref="7937534382"/>
    <nd ref="3375029582"/>
    <nd ref="705016703"/>
    <nd ref="705016704"/>
    <tag k="highway" v="residential"/>
    <tag k="name" v="Waggoners Close"/>
    <tag k="source" v="OS_OpenData_StreetView"/>
  </way>
  <way id="56181927" version="3" timestamp="2015-05-03T11:48:02Z" changeset="30745628" uid="9065" user="brianboru">
    <nd ref="705016705"/>
    <nd ref="705016696"/>
    <nd ref="3494867138"/>
    <tag k="highway" v="residential"/>
    <tag k="name" v="Spring Court"/>
    <tag k="source" v="OS_OpenData_StreetView"/>
  </way>
  <way id="56181928" version="13" timestamp="2019-05-18T18:52:36Z" changeset="70394354" uid="12667" user="Curran1980">
    <nd ref="3494867141"/>
    <nd ref="3494867139"/>
    <nd ref="705016693"/>
    <nd ref="1080823117"/>
    <nd ref="705016689"/>
    <nd ref="1725857363"/>
    <nd ref="2391638093"/>
    <nd ref="705016690"/>
    <nd ref="705016687"/>
    <nd ref="1080823227"/>
    <nd ref="1080823185"/>
    <nd ref="705016685"/>
    <nd ref="1080823122"/>
    <nd ref="1080822909"/>
    <nd ref="2420558366"/>
    <nd ref="2420558365"/>
    <nd ref="3667297308"/>
    <nd ref="2651967327"/>
    <nd ref="705016684"/>
    <tag k="highway" v="unclassified"/>
    <tag k="name" v="Pit Hill"/>
    <tag k="oneway" v="no"/>
    <tag k="source" v="OS_OpenData_StreetView"/>
  </way>
  <way id="56181929" version="2" timestamp="2010-08-31T12:41:37Z" changeset="5644853" uid="44659" user="Phil Shipley">
    <nd ref="705016691"/>
    <nd ref="705016692"/>
    <nd ref="705016693"/>
    <tag k="highway" v="residential"/>
    <tag k="name" v="Darfield Court"/>
    <tag k="source" v="OS_OpenData_StreetView"/>
  </way>
  <way id="56181930" version="10" timestamp="2024-07-06T19:37:28Z" changeset="153637233" uid="493595" user="Yorvik Prestigitator">
    <nd ref="267933060"/>
    <nd ref="1080823224"/>
    <nd ref="267933061"/>
    <nd ref="1725857375"/>
    <nd ref="1080823119"/>
    <nd ref="12038212194"/>
    <tag k="highway" v="tertiary"/>
    <tag k="name" v="Stoneleigh Road"/>
    <tag k="source" v="survey"/>
  </way>
  <way id="56181931" version="10" timestamp="2024-07-06T19:37:28Z" changeset="153637233" uid="493595" user="Yorvik Prestigitator">
    <nd ref="12038212194"/>
    <nd ref="2420558476"/>
    <nd ref="6901595963"/>
    <nd ref="6901595961"/>
    <nd ref="6901595962"/>
    <nd ref="267933063"/>
    <nd ref="1725857306"/>
    <nd ref="7937534380"/>
    <nd ref="1080823115"/>
    <nd ref="3494867141"/>
    <tag k="highway" v="tertiary"/>
    <tag k="name" v="Spring Hill"/>
    <tag k="source" v="survey"/>
  </way>
  <way id="56181932" version="4" timestamp="2019-05-22T15:32:26Z" changeset="70519763" uid="9065" user="brianboru">
    <nd ref="705016719"/>
    <nd ref="705016720"/>
    <nd ref="6491411882"/>
    <nd ref="6491411881"/>
    <nd ref="705016724"/>
    <nd ref="1725857319"/>
    <nd ref="1725857341"/>
    <nd ref="1725857301"/>
    <nd ref="1725857293"/>
    <tag k="highway" v="residential"/>
    <tag k="name" v="Moat Close"/>
    <tag k="source" v="OS_OpenData_StreetView"/>
  </way>
  <way id="56181933" version="4" timestamp="2019-05-22T15:32:27Z" changeset="70519763" uid="9065" user="brianboru">
    <nd ref="705016724"/>
    <nd ref="1725857392"/>
    <nd ref="1725857393"/>
    <nd ref="1725857428"/>
    <nd ref="1725857336"/>
    <nd ref="1725857417"/>
    <nd ref="1725857395"/>
    <nd ref="1725857413"/>
    <nd ref="705016725"/>
    <nd ref="1725857406"/>
    <nd ref="1725857360"/>
    <nd ref="1725857335"/>
    <nd ref="1725857403"/>
    <nd ref="705016726"/>
    <nd ref="705016727"/>
    <tag k="highway" v="residential"/>
    <tag k="name" v="Moat Close"/>
    <tag k="source" v="OS_OpenData_StreetView"/>
  </way>
  <way id="56181994" version="3" timestamp="2015-06-21T08:22:09Z" changeset="32111824" uid="133272" user="wongataa">
    <nd ref="267933053"/>
    <nd ref="1080823089"/>
    <nd ref="1080823043"/>
    <nd ref="1080823079"/>
    <nd ref="705017110"/>
    <tag k="highway" v="tertiary"/>
    <tag k="name" v="Bubbenhall Road"/>
    <tag k="source" v="OS_OpenData_StreetView"/>
  </way>
  <way id="56182595" version="5" timestamp="2015-06-21T08:22:19Z" changeset="32111824" uid="133272" user="wongataa">
    <nd ref="267933056"/>
    <nd ref="2420558431"/>
    <nd ref="267933057"/>
    <nd ref="1080823016"/>
    <nd ref="2391638086"/>
    <nd ref="1080823178"/>
    <nd ref="705016681"/>
    <nd ref="1080823167"/>
    <nd ref="267933058"/>
    <nd ref="1080822923"/>
    <nd ref="1080823047"/>
    <nd ref="1080823222"/>
    <nd ref="267933059"/>
    <nd ref="1080823061"/>
    <nd ref="1080823098"/>
    <nd ref="267933060"/>
    <tag k="highway" v="tertiary"/>
    <tag k="name" v="Stoneleigh Road"/>
    <tag k="source" v="survey"/>
  </way>
  <way id="56182596" version="15" timestamp="2021-02-23T14:17:36Z" changeset="99834213" uid="9259458" user="aepunavy">
    <nd ref="267933056"/>
    <nd ref="2420558429"/>
    <nd ref="3668606403"/>
    <nd ref="8449683720"/>
    <nd ref="1080823194"/>
    <nd ref="267933055"/>
    <nd ref="1080822885"/>
    <nd ref="6902622793"/>
    <nd ref="705017111"/>
    <tag k="highway" v="tertiary"/>
    <tag k="name" v="Stoneleigh Road"/>
    <tag k="source" v="survey"/>
  </way>
  <way id="56182597" version="8" timestamp="2021-06-11T12:38:25Z" changeset="106215093" uid="10252551" user="amanura">
    <nd ref="705021713"/>
    <nd ref="267933049"/>
    <nd ref="1080823041"/>
    <nd ref="1080823100"/>
    <nd ref="1080822852"/>
    <nd ref="267933050"/>
    <nd ref="1080822930"/>
    <nd ref="6490821817"/>
    <nd ref="1080822982"/>
    <nd ref="6490821818"/>
    <nd ref="8824480239"/>
    <nd ref="267933051"/>
    <nd ref="1080823053"/>
    <nd ref="1080823102"/>
    <nd ref="268788174"/>
    <tag k="highway" v="tertiary"/>
    <tag k="name" v="Stoneleigh Road"/>
    <tag k="oneway" v="no"/>
    <tag k="source" v="survey"/>
  </way>
  <way id="56238166" version="10" timestamp="2024-08-19T12:34:07Z" changeset="155454630" uid="5589" user="user_5589">
    <nd ref="705773939"/>
    <nd ref="12120025922"/>
    <nd ref="705773911"/>
    <nd ref="2675150748"/>
    <nd ref="12120025920"/>
    <nd ref="705773891"/>
    <nd ref="2675150745"/>
    <nd ref="12120025923"/>
    <nd ref="2675150764"/>
    <nd ref="705774076"/>
    <nd ref="12120025921"/>
    <nd ref="2675150762"/>
    <nd ref="705774052"/>
    <nd ref="705773919"/>
    <nd ref="705774028"/>
    <nd ref="2675250397"/>
    <nd ref="705774001"/>
    <nd ref="2675150727"/>
    <nd ref="2675150732"/>
    <nd ref="3166216227"/>
    <nd ref="705773976"/>
    <nd ref="705773954"/>
    <nd ref="2675150751"/>
    <nd ref="12120025924"/>
    <nd ref="2675150766"/>
    <nd ref="3512657793"/>
    <nd ref="3512657091"/>
    <nd ref="705773933"/>
    <nd ref="2675150775"/>
    <nd ref="3512657795"/>
    <nd ref="705773905"/>
    <nd ref="705774021"/>
    <nd ref="3512640891"/>
    <nd ref="3512642893"/>
    <nd ref="705773996"/>
    <nd ref="705773972"/>
    <nd ref="705773950"/>
    <nd ref="3445482491"/>
    <tag k="highway" v="unclassified"/>
    <tag k="maxspeed" v="15 mph"/>
    <tag k="surface" v="asphalt"/>
  </way>
  <way id="76255524" version="5" timestamp="2015-07-27T12:09:52Z" changeset="32908090" uid="154484" user="PeterP">
    <nd ref="268788174"/>
    <nd ref="1080823057"/>
    <nd ref="267933052"/>
    <nd ref="1080823166"/>
    <nd ref="267933053"/>
    <nd ref="1080823009"/>
    <nd ref="1080823020"/>
    <nd ref="1080823150"/>
    <nd ref="3668606352"/>
    <nd ref="1725857343"/>
    <nd ref="1080822932"/>
    <nd ref="267933054"/>
    <nd ref="705017111"/>
    <tag k="highway" v="tertiary"/>
    <tag k="name" v="Stoneleigh Road"/>
    <tag k="source" v="survey"/>
  </way>
  <way id="76255527" version="9" timestamp="2023-01-08T12:11:22Z" changeset="131010664" uid="12667" user="Curran1980">
    <nd ref="3494867121"/>
    <nd ref="3494867120"/>
    <nd ref="10314587822"/>
    <nd ref="3494867119"/>
    <tag k="highway" v="tertiary"/>
    <tag k="name" v="Spring Hill"/>
    <tag k="oneway" v="no"/>
    <tag k="source" v="survey"/>
  </way>
  <way id="76255528" version="14" timestamp="2024-08-21T09:54:07Z" changeset="155548065" uid="5589" user="user_5589">
    <nd ref="6526565864"/>
    <nd ref="130154763"/>
    <nd ref="11823053521"/>
    <nd ref="130154764"/>
    <nd ref="130154765"/>
    <nd ref="130154766"/>
    <nd ref="268788166"/>
    <tag k="cycleway:both" v="no"/>
    <tag k="highway" v="primary"/>
    <tag k="lanes" v="2"/>
    <tag k="lit" v="no"/>
    <tag k="maxspeed" v="50 mph"/>
    <tag k="name" v="Leamington Road"/>
    <tag k="oneway" v="no"/>
    <tag k="ref" v="A445"/>
    <tag k="shoulder" v="no"/>
    <tag k="sidewalk" v="no"/>
    <tag k="surface" v="asphalt"/>
  </way>
  <way id="76255531" version="9" timestamp="2024-08-21T09:54:12Z" changeset="155548065" uid="5589" user="user_5589">
    <nd ref="268788166"/>
    <nd ref="268787979"/>
    <tag k="cycleway:both" v="no"/>
    <tag k="highway" v="primary"/>
    <tag k="lanes" v="2"/>
    <tag k="lit" v="no"/>
    <tag k="maxspeed" v="50 mph"/>
    <tag k="name" v="Leamington Road"/>
    <tag k="ref" v="A445"/>
    <tag k="shoulder" v="no"/>
    <tag k="sidewalk" v="no"/>
    <tag k="surface" v="asphalt"/>
  </way>
  <way id="93244059" version="3" timestamp="2024-08-19T14:01:49Z" changeset="155462646" uid="5589" user="user_5589">
    <nd ref="3494867121"/>
    <nd ref="1080823045"/>
    <nd ref="1080823191"/>
    <nd ref="1080823156"/>
    <nd ref="1080822976"/>
    <nd ref="1080823182"/>
    <nd ref="1080822897"/>
    <tag k="highway" v="tertiary"/>
    <tag k="name" v="Spring Hill"/>
    <tag k="surface" v="asphalt"/>
  </way>
  <way id="123216200" version="4" timestamp="2021-07-29T13:31:26Z" changeset="108829015" uid="1486336" user="Wyken Seagrave">
    <nd ref="268787976"/>
    <nd ref="705495171"/>
    <nd ref="705495170"/>
    <nd ref="1381801592"/>
    <nd ref="8960106015"/>
    <nd ref="1381801572"/>
    <tag k="highway" v="tertiary"/>
    <tag k="name" v="Weston Lane"/>
    <tag k="oneway" v="no"/>
    <tag k="source" v="survey;OS_OpenData_StreetView"/>
  </way>
  <way id="123216207" version="14" timestamp="2024-08-21T09:53:28Z" changeset="155548065" uid="5589" user="user_5589">
    <nd ref="6565466735"/>
    <nd ref="1381801583"/>
    <nd ref="130154770"/>
    <nd ref="130154771"/>
    <nd ref="130154772"/>
    <nd ref="130154773"/>
    <nd ref="130154774"/>
    <nd ref="130154775"/>
    <nd ref="130154776"/>
    <nd ref="130154777"/>
    <nd ref="1898817691"/>
    <nd ref="1898817735"/>
    <nd ref="130154778"/>
    <nd ref="1898817737"/>
    <nd ref="1898817729"/>
    <nd ref="1898817686"/>
    <nd ref="27477340"/>
    <tag k="highway" v="primary"/>
    <tag k="lanes" v="2"/>
    <tag k="lit" v="no"/>
    <tag k="maxspeed" v="50 mph"/>
    <tag k="name" v="Leamington Road"/>
    <tag k="oneway" v="no"/>
    <tag k="ref" v="A445"/>
    <tag k="shoulder" v="no"/>
    <tag k="sidewalk" v="no"/>
    <tag k="surface" v="asphalt"/>
  </way>
  <way id="123216216" version="3" timestamp="2014-11-26T20:17:37Z" changeset="27053904" uid="154484" user="PeterP">
    <nd ref="705021724"/>
    <nd ref="3206737562"/>
    <nd ref="705128353"/>
    <nd ref="268788170"/>
    <nd ref="1080823151"/>
    <nd ref="1080823059"/>
    <nd ref="1080823225"/>
    <nd ref="268788171"/>
    <nd ref="1080822882"/>
    <nd ref="268788172"/>
    <nd ref="268788650"/>
    <nd ref="268788651"/>
    <nd ref="1080823027"/>
    <nd ref="1080822929"/>
    <nd ref="268788652"/>
    <nd ref="268788173"/>
    <nd ref="1080823007"/>
    <nd ref="1080822908"/>
    <nd ref="1080823105"/>
    <nd ref="268788174"/>
    <tag k="highway" v="tertiary"/>
    <tag k="maxspeed" v="50 mph"/>
    <tag k="name" v="Watery Lane"/>
    <tag k="oneway" v="no"/>
  </way>
  <way id="124067638" version="4" timestamp="2022-12-20T00:22:01Z" changeset="130267756" uid="7463" user="kesterlester">
    <nd ref="415369815"/>
    <nd ref="10274486494"/>
    <nd ref="268787974"/>
    <nd ref="6541990102"/>
    <nd ref="268787976"/>
    <tag k="highway" v="tertiary"/>
    <tag k="name" v="Weston Lane"/>
    <tag k="oneway" v="no"/>
    <tag k="source" v="survey;OS_OpenData_StreetView"/>
  </way>
  <way id="124067643" version="8" timestamp="2024-08-21T09:54:26Z" changeset="155548065" uid="5589" user="user_5589">
    <nd ref="705016684"/>
    <nd ref="1381778116"/>
    <tag k="cycleway:both" v="no"/>
    <tag k="highway" v="primary"/>
    <tag k="lanes" v="2"/>
    <tag k="lit" v="no"/>
    <tag k="maxspeed" v="50 mph"/>
    <tag k="name" v="Leamington Road"/>
    <tag k="ref" v="A445"/>
    <tag k="surface" v="asphalt"/>
  </way>
  <way id="124069868" version="4" timestamp="2023-05-29T11:43:56Z" changeset="136695651" uid="4339666" user="stephengmatthews">
    <nd ref="1381801572"/>
    <nd ref="705495169"/>
    <nd ref="705495202"/>
    <nd ref="1381801595"/>
    <nd ref="705495203"/>
    <nd ref="1381801608"/>
    <nd ref="1381801575"/>
    <nd ref="268787977"/>
    <nd ref="10936766098"/>
    <nd ref="8448752015"/>
    <nd ref="1381801604"/>
    <nd ref="1381801567"/>
    <nd ref="268787979"/>
    <tag k="highway" v="tertiary"/>
    <tag k="name" v="Weston Lane"/>
    <tag k="oneway" v="no"/>
    <tag k="source" v="survey;OS_OpenData_StreetView"/>
  </way>
  <way id="142686261" version="7" timestamp="2024-08-21T09:54:31Z" changeset="155548065" uid="5589" user="user_5589">
    <nd ref="1381778116"/>
    <nd ref="130154762"/>
    <nd ref="1080823219"/>
    <nd ref="3170210680"/>
    <nd ref="1080823078"/>
    <tag k="highway" v="primary"/>
    <tag k="lanes" v="2"/>
    <tag k="lanes:backward" v="1"/>
    <tag k="lanes:forward" v="1"/>
    <tag k="lit" v="no"/>
    <tag k="maxspeed" v="50 mph"/>
    <tag k="name" v="Leamington Road"/>
    <tag k="ref" v="A445"/>
    <tag k="surface" v="asphalt"/>
  </way>
  <way id="142686262" version="5" timestamp="2024-08-21T09:54:38Z" changeset="155548188" uid="5589" user="user_5589">
    <nd ref="2420558417"/>
    <nd ref="3494867123"/>
    <nd ref="3494867121"/>
    <tag k="highway" v="tertiary"/>
    <tag k="name" v="Spring Hill"/>
    <tag k="source" v="survey"/>
    <tag k="surface" v="asphalt"/>
  </way>
  <way id="142686265" version="6" timestamp="2025-02-05T17:21:05Z" changeset="162174376" uid="5589" user="user_5589">
    <nd ref="1080823078"/>
    <nd ref="1080822897"/>
    <tag k="highway" v="primary"/>
    <tag k="lanes" v="2"/>
    <tag k="lanes:backward" v="1"/>
    <tag k="lanes:forward" v="1"/>
    <tag k="lit" v="no"/>
    <tag k="maxspeed" v="50 mph"/>
    <tag k="name" v="Leamington Road"/>
    <tag k="ref" v="A445"/>
    <tag k="surface" v="asphalt"/>
  </way>
  <way id="160531903" version="6" timestamp="2025-07-12T23:49:17Z" changeset="168854943" uid="8857" user="philipcullen">
    <nd ref="1725857412"/>
    <nd ref="1725857398"/>
    <nd ref="1725857415"/>
    <nd ref="1725857431"/>
    <nd ref="1725857311"/>
    <nd ref="1725857433"/>
    <nd ref="1725857390"/>
    <nd ref="1725857385"/>
    <nd ref="1725857372"/>
    <nd ref="1725857298"/>
    <nd ref="1725857344"/>
    <nd ref="1725857364"/>
    <nd ref="1725857412"/>
    <tag k="addr:city" v="Bubbenhall"/>
    <tag k="addr:street" v="Church Road"/>
    <tag k="amenity" v="place_of_worship"/>
    <tag k="building" v="yes"/>
    <tag k="denomination" v="anglican"/>
    <tag k="heritage" v="2"/>
    <tag k="heritage:operator" v="Historic England"/>
    <tag k="listed_status" v="Grade II"/>
    <tag k="name" v="St Giles"/>
    <tag k="ref:GB:uprn" v="10000211075"/>
    <tag k="ref:dove" v="14847"/>
    <tag k="religion" v="christian"/>
    <tag k="source" v="Warwicks CC Aerial Imagery 2013"/>
    <tag k="wikidata" v="Q26286794"/>
  </way>
  <way id="160531905" version="3" timestamp="2025-07-12T23:49:17Z" changeset="168854943" uid="8857" user="philipcullen">
    <nd ref="1725857294"/>
    <nd ref="1725857388"/>
    <nd ref="6490821185"/>
    <nd ref="6490821190"/>
    <nd ref="1725857292"/>
    <nd ref="1725857387"/>
    <nd ref="1725857323"/>
    <nd ref="1725857294"/>
    <tag k="amenity" v="pub"/>
    <tag k="building" v="yes"/>
    <tag k="name" v="The Three Horseshoes"/>
    <tag k="ref:GB:uprn" v="100071521373;10000207868"/>
  </way>
  <way id="160531906" version="9" timestamp="2025-07-12T23:49:17Z" changeset="168854943" uid="8857" user="philipcullen">
    <nd ref="1725857307"/>
    <nd ref="1725857354"/>
    <nd ref="1725857369"/>
    <nd ref="1725857357"/>
    <nd ref="1725857405"/>
    <nd ref="1725857288"/>
    <nd ref="1725857326"/>
    <nd ref="1725857345"/>
    <nd ref="1725857314"/>
    <nd ref="1725857332"/>
    <nd ref="1725857307"/>
    <tag k="addr:city" v="Bubbenhall"/>
    <tag k="addr:postcode" v="CV8 3BW"/>
    <tag k="addr:street" v="Lower End"/>
    <tag k="amenity" v="pub"/>
    <tag k="building" v="yes"/>
    <tag k="heritage" v="2"/>
    <tag k="heritage:operator" v="Historic England"/>
    <tag k="listed_status" v="Grade II"/>
    <tag k="name" v="The Malt Shovel"/>
    <tag k="phone" v="+44 24 76301141"/>
    <tag k="ref:GB:uprn" v="100071250918;10013182032"/>
    <tag k="wikidata" v="Q26286796"/>
  </way>
  <way id="160625039" version="6" timestamp="2025-02-05T17:21:00Z" changeset="162174376" uid="5589" user="user_5589">
    <nd ref="1080822897"/>
    <nd ref="2420558417"/>
    <tag k="highway" v="primary"/>
    <tag k="lanes" v="2"/>
    <tag k="lanes:backward" v="1"/>
    <tag k="lanes:forward" v="1"/>
    <tag k="lit" v="no"/>
    <tag k="maxspeed" v="50 mph"/>
    <tag k="name" v="Leamington Road"/>
    <tag k="ref" v="A445"/>
    <tag k="surface" v="asphalt"/>
  </way>
  <way id="229896487" version="19" timestamp="2024-08-21T09:56:02Z" changeset="155548065" uid="5589" user="user_5589">
    <nd ref="130154745"/>
    <nd ref="2675082548"/>
    <nd ref="3095144077"/>
    <nd ref="3095144098"/>
    <nd ref="130154747"/>
    <nd ref="3092743004"/>
    <nd ref="2675081964"/>
    <nd ref="130154748"/>
    <nd ref="2619816444"/>
    <nd ref="2309686370"/>
    <nd ref="442922310"/>
    <nd ref="130154749"/>
    <nd ref="3167175040"/>
    <nd ref="130154750"/>
    <nd ref="130154751"/>
    <nd ref="130154752"/>
    <nd ref="2675150780"/>
    <nd ref="130154753"/>
    <nd ref="2291259641"/>
    <nd ref="2675150778"/>
    <nd ref="130154754"/>
    <nd ref="2675150772"/>
    <nd ref="130154755"/>
    <nd ref="705773939"/>
    <nd ref="130154756"/>
    <nd ref="130154757"/>
    <nd ref="3167175536"/>
    <nd ref="705774051"/>
    <nd ref="5853877385"/>
    <nd ref="11079042377"/>
    <nd ref="3168934192"/>
    <tag k="highway" v="primary"/>
    <tag k="lanes" v="2"/>
    <tag k="lit" v="no"/>
    <tag k="maxspeed" v="50 mph"/>
    <tag k="name" v="Leamington Road"/>
    <tag k="oneway" v="no"/>
    <tag k="ref" v="A445"/>
    <tag k="shoulder" v="no"/>
    <tag k="surface" v="asphalt"/>
  </way>
  <way id="230711498" version="3" timestamp="2017-04-14T17:59:28Z" changeset="47789100" uid="411244" user="RobJN">
    <nd ref="1725857402"/>
    <nd ref="705016734"/>
    <nd ref="1725857321"/>
    <tag k="highway" v="residential"/>
    <tag k="maxspeed" v="30 mph"/>
    <tag k="motor_vehicle" v="no"/>
    <tag k="name" v="Cherry Lane"/>
    <tag k="oneway" v="no"/>
    <tag k="source" v="visual survey;OS_OpenData_StreetView"/>
    <tag k="surface" v="ground"/>
  </way>
  <way id="233712686" version="4" timestamp="2023-01-08T12:11:22Z" changeset="131010664" uid="12667" user="Curran1980">
    <nd ref="279231778"/>
    <nd ref="279231779"/>
    <nd ref="2643379212"/>
    <nd ref="279231780"/>
    <nd ref="2643379207"/>
    <nd ref="2420565971"/>
    <nd ref="2420565968"/>
    <nd ref="2420565962"/>
    <nd ref="2420565958"/>
    <nd ref="2420565946"/>
    <nd ref="279231781"/>
    <nd ref="10314587829"/>
    <nd ref="10314587820"/>
    <nd ref="279231782"/>
    <nd ref="10314587828"/>
    <nd ref="279231783"/>
    <nd ref="705017110"/>
    <nd ref="1080823203"/>
    <nd ref="279231784"/>
    <nd ref="1080822854"/>
    <nd ref="1080823180"/>
    <nd ref="1080823057"/>
    <tag k="highway" v="tertiary"/>
    <tag k="name" v="Bubbenhall Road"/>
  </way>
  <way id="233712687" version="3" timestamp="2019-05-22T11:56:40Z" changeset="70512309" uid="9065" user="brianboru">
    <nd ref="2420565992"/>
    <nd ref="279231778"/>
    <tag k="bridge" v="yes"/>
    <tag k="heritage" v="2"/>
    <tag k="heritage:operator" v="Historic England"/>
    <tag k="highway" v="tertiary"/>
    <tag k="layer" v="1"/>
    <tag k="listed_status" v="Grade II"/>
    <tag k="name" v="Bubbenhall Bridge"/>
    <tag k="source" v="Warwicks CC Aerial Imagery 2013"/>
  </way>
  <way id="261892220" version="5" timestamp="2024-08-19T10:41:54Z" changeset="155453759" uid="5589" user="user_5589">
    <nd ref="12120052614"/>
    <nd ref="2675250325"/>
    <nd ref="2675250327"/>
    <nd ref="2675250330"/>
    <nd ref="2675250321"/>
    <nd ref="12120052614"/>
    <tag k="building" v="retail"/>
    <tag k="name" v="Visitor Centre"/>
    <tag k="source" v="Warwicks CC Aerial Imagery OGLv2"/>
  </way>
  <way id="261892222" version="4" timestamp="2024-08-19T10:35:41Z" changeset="155453517" uid="5589" user="user_5589">
    <nd ref="2675250384"/>
    <nd ref="2675250377"/>
    <nd ref="2675250352"/>
    <nd ref="2675250345"/>
    <nd ref="2675250384"/>
    <tag k="amenity" v="cafe"/>
    <tag k="building" v="yes"/>
    <tag k="check_date:opening_hours" v="2024-08-19"/>
    <tag k="name" v="Courtyard Cafe"/>
    <tag k="opening_hours:signed" v="no"/>
    <tag k="source" v="Warwicks CC Aerial Imagery OGLv2"/>
  </way>
  <way id="305674006" version="5" timestamp="2025-07-12T23:49:22Z" changeset="168854943" uid="8857" user="philipcullen">
    <nd ref="3103398467"/>
    <nd ref="3103398468"/>
    <nd ref="3103398469"/>
    <nd ref="7257975825"/>
    <nd ref="3103398470"/>
    <nd ref="3103398467"/>
    <tag k="addr:city" v="Bubbenhall"/>
    <tag k="addr:housename" v="Village Hall"/>
    <tag k="addr:postcode" v="CV8 3BW"/>
    <tag k="addr:street" v="Lower End"/>
    <tag k="amenity" v="community_centre"/>
    <tag k="building" v="public"/>
    <tag k="building:levels" v="1"/>
    <tag k="community_centre" v="village_hall"/>
    <tag k="name" v="Bubbenhall Village Hall"/>
    <tag k="ref:GB:uprn" v="10013183455"/>
  </way>
  <way id="311115719" version="2" timestamp="2020-03-02T14:22:33Z" changeset="81685097" uid="346039" user="fitzsimons">
    <nd ref="3166641461"/>
    <nd ref="3166640854"/>
    <nd ref="3166641468"/>
    <nd ref="705773957"/>
    <nd ref="3166640851"/>
    <nd ref="3166641461"/>
    <tag k="building" v="yes"/>
    <tag k="name" v="Bird Hide"/>
  </way>
  <way id="311291802" version="5" timestamp="2024-08-21T09:54:50Z" changeset="155548065" uid="5589" user="user_5589">
    <nd ref="3168934192"/>
    <nd ref="2420558450"/>
    <nd ref="6490819666"/>
    <nd ref="3167175512"/>
    <nd ref="2420558444"/>
    <nd ref="2420558441"/>
    <nd ref="6490819673"/>
    <nd ref="2420558433"/>
    <nd ref="7513399926"/>
    <nd ref="7513399917"/>
    <nd ref="2420558417"/>
    <tag k="highway" v="primary"/>
    <tag k="lit" v="no"/>
    <tag k="maxspeed" v="50 mph"/>
    <tag k="name" v="Leamington Road"/>
    <tag k="oneway" v="no"/>
    <tag k="ref" v="A445"/>
    <tag k="surface" v="asphalt"/>
  </way>
  <way id="311291803" version="6" timestamp="2025-01-19T15:12:01Z" changeset="161528367" uid="384887" user="robw">
    <nd ref="501593443"/>
    <nd ref="3167175054"/>
    <nd ref="12514442487"/>
    <nd ref="3170210679"/>
    <tag k="highway" v="unclassified"/>
    <tag k="name" v="Paget's Lane"/>
    <tag k="unsigned_ref" v="D2226"/>
  </way>
  <way id="311384179" version="3" timestamp="2023-01-08T12:11:22Z" changeset="131010664" uid="12667" user="Curran1980">
    <nd ref="3494867119"/>
    <nd ref="10314587830"/>
    <nd ref="3494867122"/>
    <nd ref="10314587818"/>
    <nd ref="10314587823"/>
    <nd ref="3494867124"/>
    <nd ref="3494867126"/>
    <nd ref="10314587826"/>
    <nd ref="3494867138"/>
    <nd ref="10314587817"/>
    <nd ref="3494867141"/>
    <tag k="highway" v="tertiary"/>
    <tag k="name" v="Spring Hill"/>
    <tag k="oneway" v="no"/>
    <tag k="source" v="survey"/>
  </way>
  <way id="311384180" version="2" timestamp="2021-02-06T18:52:03Z" changeset="98825585" uid="5589" user="user_5589">
    <nd ref="3170210679"/>
    <nd ref="3167175506"/>
    <nd ref="3166217680"/>
    <nd ref="2675150584"/>
    <nd ref="3167175514"/>
    <nd ref="501593442"/>
    <nd ref="3167175470"/>
    <nd ref="501593441"/>
    <nd ref="3167175498"/>
    <nd ref="3167175532"/>
    <nd ref="501593440"/>
    <nd ref="501593439"/>
    <nd ref="3167175052"/>
    <nd ref="1383258761"/>
    <nd ref="3167175045"/>
    <nd ref="501593437"/>
    <nd ref="3167175516"/>
    <nd ref="501593436"/>
    <nd ref="3167175049"/>
    <nd ref="1383258747"/>
    <nd ref="501593435"/>
    <nd ref="1383258754"/>
    <nd ref="501593434"/>
    <nd ref="3167175039"/>
    <nd ref="1383258731"/>
    <nd ref="501593433"/>
    <nd ref="3167175531"/>
    <nd ref="501593432"/>
    <nd ref="3167175511"/>
    <nd ref="3167175540"/>
    <nd ref="1383258753"/>
    <nd ref="501593431"/>
    <nd ref="1383258720"/>
    <nd ref="1383258745"/>
    <nd ref="3167175047"/>
    <nd ref="1383258726"/>
    <tag k="highway" v="unclassified"/>
    <tag k="name" v="Paget's Lane"/>
    <tag k="unsigned_ref" v="D2226"/>
  </way>
  <way id="363564815" version="1" timestamp="2015-08-02T10:08:16Z" changeset="33044861" uid="154484" user="PeterP">
    <nd ref="3677324824"/>
    <nd ref="3677327362"/>
    <nd ref="3677327286"/>
    <nd ref="3677327179"/>
    <nd ref="3677327356"/>
    <nd ref="3677327242"/>
    <nd ref="3677327229"/>
    <nd ref="3677327312"/>
    <nd ref="3677327160"/>
    <nd ref="3677327284"/>
    <nd ref="3677327259"/>
    <nd ref="3677327234"/>
    <nd ref="3677327317"/>
    <nd ref="3677327185"/>
    <nd ref="3677327230"/>
    <nd ref="3677327301"/>
    <nd ref="3677327346"/>
    <nd ref="3677327276"/>
    <nd ref="3677327189"/>
    <nd ref="3677327278"/>
    <nd ref="3677327343"/>
    <nd ref="3677327184"/>
    <nd ref="3677327318"/>
    <nd ref="3677327326"/>
    <nd ref="3677327364"/>
    <nd ref="3677327202"/>
    <nd ref="3677327183"/>
    <nd ref="3677327270"/>
    <nd ref="3677327252"/>
    <nd ref="3677327372"/>
    <nd ref="3677327208"/>
    <nd ref="3677324824"/>
    <tag k="building" v="yes"/>
    <tag k="name" v="Bubbenhall House"/>
  </way>
  <way id="691658162" version="1" timestamp="2019-05-22T11:55:16Z" changeset="70512241" uid="9065" user="brianboru">
    <nd ref="6490819658"/>
    <nd ref="6490819657"/>
    <tag k="highway" v="residential"/>
    <tag k="name" v="Coopers Walk"/>
    <tag k="source" v="Warwicks CC Aerial Imagery 2013"/>
  </way>
  <way id="1198624689" version="1" timestamp="2023-08-16T11:54:23Z" changeset="139960695" uid="9026132" user="PulisakZ">
    <nd ref="11118834896"/>
    <nd ref="3375029576"/>
    <nd ref="705016712"/>
    <nd ref="705016713"/>
    <tag k="highway" v="residential"/>
    <tag k="name" v="Orchard Way"/>
    <tag k="source" v="OS_OpenData_StreetView"/>
  </way>
  <way id="1280115344" version="3" timestamp="2024-08-21T09:53:43Z" changeset="155548065" uid="5589" user="user_5589">
    <nd ref="268787979"/>
    <nd ref="130154767"/>
    <nd ref="130154768"/>
    <nd ref="11883202241"/>
    <tag k="highway" v="primary"/>
    <tag k="lanes" v="2"/>
    <tag k="lit" v="no"/>
    <tag k="maxspeed" v="50 mph"/>
    <tag k="name" v="Leamington Road"/>
    <tag k="oneway" v="no"/>
    <tag k="ref" v="A445"/>
    <tag k="shoulder" v="no"/>
    <tag k="sidewalk" v="no"/>
    <tag k="surface" v="asphalt"/>
  </way>
  <way id="1280115345" version="3" timestamp="2024-08-21T09:53:46Z" changeset="155548065" uid="5589" user="user_5589">
    <nd ref="11883202241"/>
    <nd ref="1381801596"/>
    <nd ref="6565466735"/>
    <tag k="highway" v="primary"/>
    <tag k="lanes" v="2"/>
    <tag k="lit" v="no"/>
    <tag k="maxspeed" v="50 mph"/>
    <tag k="name" v="Leamington Road"/>
    <tag k="oneway" v="no"/>
    <tag k="ref" v="A445"/>
    <tag k="shoulder" v="no"/>
    <tag k="sidewalk" v="left"/>
    <tag k="surface" v="asphalt"/>
  </way>
  <way id="1280115421" version="2" timestamp="2024-08-21T09:54:22Z" changeset="155548065" uid="5589" user="user_5589">
    <nd ref="705016684"/>
    <nd ref="6526565864"/>
    <tag k="cycleway:both" v="no"/>
    <tag k="highway" v="primary"/>
    <tag k="lanes" v="2"/>
    <tag k="lit" v="no"/>
    <tag k="maxspeed" v="50 mph"/>
    <tag k="name" v="Leamington Road"/>
    <tag k="oneway" v="no"/>
    <tag k="ref" v="A445"/>
    <tag k="shoulder" v="no"/>
    <tag k="surface" v="asphalt"/>
  </way>
  <way id="1308782034" version="1" timestamp="2024-08-19T10:41:54Z" changeset="155453759" uid="5589" user="user_5589">
    <nd ref="12120052614"/>
    <nd ref="2675250318"/>
    <nd ref="2675250323"/>
    <nd ref="2675250325"/>
    <nd ref="12120052614"/>
    <tag k="building" v="roof"/>
    <tag k="name" v="Visitor Centre"/>
    <tag k="source" v="Warwicks CC Aerial Imagery OGLv2"/>
  </way>

</osm>
