<?xml version="1.0" encoding="UTF-8"?>
<osm version="0.6" generator="Overpass API 0.7.62.8 e802775f">
<note>The data included in this document is from www.openstreetmap.org. The data is made available under ODbL.</note>
<meta osm_base="2025-10-23T17:13:15Z" areas="2025-10-23T12:46:58Z"/>

  <node id="20622481" lat="52.2069071" lon="-1.8221705" version="4" timestamp="2021-03-19T16:44:16Z" changeset="101342001" uid="9065" user="brianboru"/>
  <node id="20622496" lat="52.2032009" lon="-1.7960091" version="3" timestamp="2013-05-14T12:31:35Z" changeset="16124855" uid="84263" user="Robert Whittaker"/>
  <node id="255396936" lat="52.2180032" lon="-1.7844018" version="2" timestamp="2013-09-03T19:00:00Z" changeset="17659511" uid="9065" user="brianboru"/>
  <node id="307737383" lat="52.2134660" lon="-1.7871700" version="2" timestamp="2013-09-03T19:00:01Z" changeset="17659511" uid="9065" user="brianboru"/>
  <node id="2445014763" lat="52.2088566" lon="-1.7748245" version="1" timestamp="2013-09-03T20:47:31Z" changeset="17661481" uid="9065" user="brianboru"/>
  <way id="8026674" version="12" timestamp="2023-12-30T12:02:55Z" changeset="145694271" uid="7438650" user="Matt Aardvar">
    <nd ref="255396688"/>
    <nd ref="255396689"/>
    <nd ref="2445054240"/>
    <nd ref="11469012664"/>
    <nd ref="2445014717"/>
    <nd ref="2445054266"/>
    <nd ref="2445014726"/>
    <nd ref="2445014747"/>
    <nd ref="255396690"/>
    <nd ref="2445014767"/>
    <nd ref="2445014753"/>
    <nd ref="2445054311"/>
    <nd ref="255396691"/>
    <nd ref="2445014749"/>
    <nd ref="2445054303"/>
    <nd ref="2445054315"/>
    <nd ref="2445014763"/>
    <tag k="highway" v="unclassified"/>
    <tag k="source" v="NPE"/>
  </way>
  <way id="28026436" version="2" timestamp="2013-09-03T19:00:00Z" changeset="17659511" uid="9065" user="brianboru">
    <nd ref="255396936"/>
    <nd ref="307737385"/>
    <nd ref="2444896553"/>
    <nd ref="2444896552"/>
    <nd ref="255396937"/>
    <nd ref="2444896551"/>
    <nd ref="2444896550"/>
    <nd ref="255396938"/>
    <nd ref="2444896549"/>
    <nd ref="255396939"/>
    <nd ref="2444896548"/>
    <nd ref="255396940"/>
    <nd ref="2444896547"/>
    <nd ref="307737383"/>
    <tag k="highway" v="unclassified"/>
    <tag k="source" v="survey"/>
  </way>
  <way id="28026437" version="4" timestamp="2013-09-03T21:25:02Z" changeset="17662073" uid="9065" user="brianboru">
    <nd ref="307737383"/>
    <nd ref="307737688"/>
    <nd ref="2444896546"/>
    <nd ref="255396941"/>
    <nd ref="2444896545"/>
    <nd ref="255396942"/>
    <nd ref="2444896544"/>
    <nd ref="2445054441"/>
    <nd ref="2445054430"/>
    <nd ref="255396943"/>
    <nd ref="2445014720"/>
    <nd ref="255396688"/>
    <nd ref="2445054212"/>
    <nd ref="255396944"/>
    <nd ref="255396945"/>
    <tag k="highway" v="unclassified"/>
    <tag k="source" v="NPE"/>
  </way>
  <way id="48768448" version="6" timestamp="2015-06-09T08:09:18Z" changeset="31836544" uid="5589" user="user_5589">
    <nd ref="20622496"/>
    <nd ref="618870361"/>
    <nd ref="618870363"/>
    <nd ref="618870365"/>
    <nd ref="618870367"/>
    <nd ref="2445072433"/>
    <nd ref="1600349492"/>
    <nd ref="1684756049"/>
    <nd ref="1684756042"/>
    <nd ref="1600349481"/>
    <tag k="highway" v="unclassified"/>
    <tag k="lanes" v="1"/>
    <tag k="maxweight" v="7.5"/>
    <tag k="oneway" v="no"/>
  </way>
  <way id="144200686" version="6" timestamp="2021-06-07T13:30:58Z" changeset="105975581" uid="3199858" user="Mateusz Konieczny - bot account">
    <nd ref="2445014763"/>
    <nd ref="2445054344"/>
    <nd ref="2444994264"/>
    <nd ref="2445054345"/>
    <nd ref="631640793"/>
    <nd ref="2444994265"/>
    <nd ref="2444994266"/>
    <nd ref="2444994269"/>
    <nd ref="8711746028"/>
    <nd ref="8711746029"/>
    <nd ref="8711746030"/>
    <nd ref="2444994272"/>
    <nd ref="2444994277"/>
    <nd ref="2444994278"/>
    <nd ref="6527710001"/>
    <nd ref="31597199"/>
    <nd ref="307737468"/>
    <nd ref="2444994281"/>
    <nd ref="2444994282"/>
    <nd ref="31596578"/>
    <tag k="highway" v="unclassified"/>
    <tag k="name" v="Billesley Road"/>
    <tag k="source" v="NPE"/>
  </way>
  <way id="236479421" version="7" timestamp="2021-04-01T15:27:11Z" changeset="102136393" uid="30587" user="IknowJoseph">
    <nd ref="2445054425"/>
    <nd ref="2445054422"/>
    <nd ref="2445054408"/>
    <nd ref="2445054409"/>
    <nd ref="2445054380"/>
    <nd ref="2445054379"/>
    <nd ref="2445054365"/>
    <nd ref="2445054366"/>
    <nd ref="2445054367"/>
    <nd ref="2445054359"/>
    <nd ref="2445054360"/>
    <nd ref="2445054363"/>
    <nd ref="2445054370"/>
    <nd ref="2445054383"/>
    <nd ref="2445054384"/>
    <nd ref="2445054390"/>
    <nd ref="2445054389"/>
    <nd ref="2445054388"/>
    <nd ref="2445054395"/>
    <nd ref="2445054398"/>
    <nd ref="2445054397"/>
    <nd ref="2445054410"/>
    <nd ref="2445054411"/>
    <nd ref="2445054425"/>
    <tag k="building" v="hotel"/>
    <tag k="heritage" v="2"/>
    <tag k="heritage:operator" v="Historic England"/>
    <tag k="listed_status" v="Grade II*"/>
    <tag k="name" v="Billesley Manor Hotel"/>
    <tag k="tourism" v="hotel"/>
    <tag k="wikidata" v="Q17552042"/>
  </way>
  <way id="236479434" version="4" timestamp="2022-08-01T08:33:16Z" changeset="124332500" uid="7345137" user="magrej">
    <nd ref="2445054433"/>
    <nd ref="2445054434"/>
    <nd ref="2445054428"/>
    <nd ref="2445054421"/>
    <nd ref="2445054418"/>
    <nd ref="2445054432"/>
    <nd ref="2445054433"/>
    <tag k="building" v="church"/>
    <tag k="heritage" v="2"/>
    <tag k="heritage:operator" v="Historic England"/>
    <tag k="listed_status" v="Grade I"/>
    <tag k="name" v="All Saints"/>
    <tag k="source" v="bing"/>
    <tag k="wikidata" v="Q4729447"/>
    <tag k="wikipedia" v="en:All Saints Church, Billesley"/>
  </way>
  <way id="410927615" version="13" timestamp="2025-10-14T11:24:26Z" changeset="173269757" uid="384887" user="robw">
    <nd ref="20622481"/>
    <nd ref="2303731517"/>
    <nd ref="20622482"/>
    <nd ref="2303731538"/>
    <nd ref="20622484"/>
    <nd ref="20622485"/>
    <nd ref="20622487"/>
    <nd ref="20622488"/>
    <nd ref="1261254410"/>
    <nd ref="2445464554"/>
    <nd ref="20622489"/>
    <nd ref="20622491"/>
    <nd ref="1261254310"/>
    <nd ref="20622492"/>
    <nd ref="20622493"/>
    <nd ref="20622495"/>
    <nd ref="618870334"/>
    <nd ref="2303731579"/>
    <nd ref="20622496"/>
    <nd ref="20622497"/>
    <nd ref="2187799986"/>
    <nd ref="1261254275"/>
    <nd ref="20622498"/>
    <nd ref="255396945"/>
    <nd ref="20622499"/>
    <nd ref="20622501"/>
    <nd ref="1261254195"/>
    <nd ref="1261254446"/>
    <nd ref="20622502"/>
    <nd ref="1261254384"/>
    <nd ref="20622503"/>
    <nd ref="20622504"/>
    <nd ref="20622505"/>
    <nd ref="2329763063"/>
    <nd ref="20622506"/>
    <nd ref="1261254333"/>
    <nd ref="1261254255"/>
    <nd ref="20622508"/>
    <nd ref="1261254170"/>
    <nd ref="20622509"/>
    <nd ref="1261254249"/>
    <nd ref="20622510"/>
    <nd ref="20622511"/>
    <nd ref="1261254158"/>
    <nd ref="20622513"/>
    <nd ref="1261254422"/>
    <nd ref="20622514"/>
    <nd ref="13232611492"/>
    <nd ref="2020099681"/>
    <nd ref="13232611491"/>
    <nd ref="20622515"/>
    <nd ref="1526239458"/>
    <nd ref="20622516"/>
    <nd ref="6904549460"/>
    <nd ref="20622518"/>
    <nd ref="12469917477"/>
    <nd ref="20622520"/>
    <tag k="highway" v="trunk"/>
    <tag k="lanes" v="2"/>
    <tag k="maxspeed" v="60 mph"/>
    <tag k="maxspeed:type" v="GB:nsl_single"/>
    <tag k="name" v="Alcester Road"/>
    <tag k="national_highways:area" v="9"/>
    <tag k="old_ref" v="A422"/>
    <tag k="operator" v="National Highways"/>
    <tag k="operator:wikidata" v="Q5760006"/>
    <tag k="ref" v="A46"/>
    <tag k="shoulder" v="no"/>
    <tag k="sidewalk" v="no"/>
    <tag k="surface" v="asphalt"/>
  </way>

</osm>
