<?xml version="1.0" encoding="UTF-8"?>
<osm version="0.6" generator="Overpass API 0.7.62.8 e802775f">
<note>The data included in this document is from www.openstreetmap.org. The data is made available under ODbL.</note>
<meta osm_base="2025-10-23T16:48:45Z" areas="2025-10-23T08:56:18Z"/>

  <node id="322595" lat="52.2634638" lon="-1.7675866" version="2" timestamp="2012-04-05T10:29:12Z" changeset="11187432" uid="9065" user="brianboru"/>
  <node id="61093823" lat="52.2872054" lon="-1.7764115" version="4" timestamp="2011-03-17T16:56:50Z" changeset="7587297" uid="9065" user="brianboru"/>
  <node id="61093825" lat="52.2871066" lon="-1.7761947" version="5" timestamp="2011-08-01T07:46:29Z" changeset="8888052" uid="9065" user="brianboru"/>
  <node id="61093841" lat="52.2868572" lon="-1.7673378" version="6" timestamp="2011-03-17T16:56:47Z" changeset="7587297" uid="9065" user="brianboru"/>
  <node id="70995252" lat="52.2516218" lon="-1.7972352" version="3" timestamp="2013-05-25T15:46:31Z" changeset="16280835" uid="9065" user="brianboru"/>
  <node id="274073298" lat="52.2900372" lon="-1.8400856" version="3" timestamp="2017-10-01T14:17:21Z" changeset="52537941" uid="545369" user="bigfatfrog67"/>
  <node id="297304777" lat="52.2714700" lon="-1.8091129" version="3" timestamp="2013-04-24T17:52:41Z" changeset="15852064" uid="9065" user="brianboru"/>
  <node id="366904576" lat="52.2470258" lon="-1.7507333" version="5" timestamp="2013-05-25T16:14:50Z" changeset="16281292" uid="9065" user="brianboru">
    <tag k="name" v="Bearley Cross"/>
  </node>
  <node id="674460654" lat="52.2569675" lon="-1.7199076" version="2" timestamp="2013-05-05T19:02:26Z" changeset="15988479" uid="9065" user="brianboru"/>
  <node id="1205852393" lat="52.2855913" lon="-1.7558276" version="1" timestamp="2011-03-17T16:56:43Z" changeset="7587297" uid="9065" user="brianboru"/>
  <node id="1205852422" lat="52.2869295" lon="-1.7583326" version="2" timestamp="2018-04-20T18:37:18Z" changeset="58272371" uid="9065" user="brianboru"/>
  <node id="1381479009" lat="52.2734328" lon="-1.7650281" version="1" timestamp="2011-08-01T07:44:59Z" changeset="8888052" uid="9065" user="brianboru"/>
  <node id="1590146302" lat="52.2867463" lon="-1.7942101" version="2" timestamp="2015-03-06T13:32:01Z" changeset="29289581" uid="545369" user="bigfatfrog67"/>
  <node id="1945125284" lat="52.2856412" lon="-1.7617573" version="1" timestamp="2012-10-03T22:32:37Z" changeset="13354508" uid="5589" user="user_5589"/>
  <node id="5106844951" lat="52.2531471" lon="-1.7311963" version="1" timestamp="2017-09-15T07:10:26Z" changeset="52059551" uid="2540407" user="JC49"/>
  <node id="5152292996" lat="52.2798332" lon="-1.7822007" version="1" timestamp="2017-10-06T18:27:23Z" changeset="52690770" uid="705850" user="Cebderby"/>
  <way id="9368037" version="16" timestamp="2023-05-07T12:13:50Z" changeset="135808533" uid="545369" user="bigfatfrog67">
    <nd ref="4809468344"/>
    <nd ref="2300926899"/>
    <nd ref="70994872"/>
    <nd ref="2300926914"/>
    <nd ref="2300926925"/>
    <nd ref="70994883"/>
    <nd ref="2292900964"/>
    <nd ref="2292900969"/>
    <nd ref="2292900971"/>
    <nd ref="2292900978"/>
    <nd ref="70994893"/>
    <nd ref="425539257"/>
    <nd ref="70995079"/>
    <nd ref="425537269"/>
    <nd ref="1381478984"/>
    <tag k="highway" v="unclassified"/>
    <tag k="name" v="Pettiford Lane"/>
    <tag k="sidewalk" v="no"/>
    <tag k="surface" v="asphalt"/>
  </way>
  <way id="14964199" version="17" timestamp="2021-06-07T03:01:03Z" changeset="105938330" uid="10305811" user="kumrnls">
    <nd ref="61093841"/>
    <nd ref="2169879863"/>
    <nd ref="8810291168"/>
    <nd ref="754005309"/>
    <nd ref="2169879826"/>
    <nd ref="2169879849"/>
    <nd ref="754005334"/>
    <nd ref="2169879832"/>
    <nd ref="2169879797"/>
    <nd ref="1381479608"/>
    <nd ref="2169879839"/>
    <nd ref="147791960"/>
    <nd ref="2169879855"/>
    <nd ref="2169879822"/>
    <nd ref="425523294"/>
    <nd ref="1380395400"/>
    <nd ref="147791961"/>
    <nd ref="147791963"/>
    <nd ref="1380395458"/>
    <nd ref="1380395462"/>
    <nd ref="147791965"/>
    <nd ref="1380395460"/>
    <nd ref="6544342895"/>
    <nd ref="147791968"/>
    <nd ref="6726255426"/>
    <nd ref="5567401969"/>
    <nd ref="5567401970"/>
    <nd ref="5567401971"/>
    <nd ref="147791969"/>
    <nd ref="147791972"/>
    <nd ref="5567401709"/>
    <nd ref="425523293"/>
    <nd ref="147791975"/>
    <nd ref="5567401710"/>
    <nd ref="5567401711"/>
    <nd ref="147791976"/>
    <nd ref="5567401712"/>
    <nd ref="754005396"/>
    <tag k="highway" v="unclassified"/>
    <tag k="name" v="Edge Lane"/>
    <tag k="source" v="GPS"/>
    <tag k="source:name" v="OS_OpenData_Locator"/>
  </way>
  <way id="23380242" version="4" timestamp="2009-07-03T08:59:07Z" changeset="1717065" uid="35576" user="pdgtips">
    <nd ref="253145077"/>
    <nd ref="305674681"/>
    <nd ref="305674679"/>
    <nd ref="432787646"/>
    <tag k="created_by" v="JOSM"/>
    <tag k="highway" v="unclassified"/>
    <tag k="name" v="Pennyford Lane"/>
  </way>
  <way id="27388387" version="12" timestamp="2021-03-25T05:43:42Z" changeset="101689276" uid="9196107" user="bashwith">
    <nd ref="297304777"/>
    <nd ref="2279807292"/>
    <nd ref="2279658844"/>
    <nd ref="2279658826"/>
    <nd ref="300661706"/>
    <nd ref="6726609500"/>
    <nd ref="2319706770"/>
    <nd ref="2279658808"/>
    <nd ref="300661707"/>
    <nd ref="3366686985"/>
    <nd ref="2279807029"/>
    <nd ref="6472230879"/>
    <nd ref="2319706715"/>
    <nd ref="300661709"/>
    <nd ref="8057527073"/>
    <nd ref="2279806977"/>
    <nd ref="300661710"/>
    <nd ref="2279806963"/>
    <nd ref="300661711"/>
    <nd ref="2279806954"/>
    <nd ref="2279806942"/>
    <nd ref="2279806932"/>
    <nd ref="300661712"/>
    <nd ref="300661714"/>
    <nd ref="300661715"/>
    <nd ref="300661716"/>
    <nd ref="2279806838"/>
    <nd ref="2279806836"/>
    <nd ref="300661718"/>
    <nd ref="2279806813"/>
    <nd ref="2319723241"/>
    <nd ref="300661721"/>
    <nd ref="300661726"/>
    <nd ref="2319723238"/>
    <nd ref="300661730"/>
    <nd ref="3366697823"/>
    <nd ref="300661733"/>
    <nd ref="2279806761"/>
    <nd ref="300661737"/>
    <nd ref="300661741"/>
    <nd ref="300661745"/>
    <nd ref="2279806724"/>
    <nd ref="8559072643"/>
    <nd ref="1720705336"/>
    <nd ref="300661748"/>
    <tag k="highway" v="unclassified"/>
    <tag k="source" v="survey"/>
  </way>
  <way id="27388389" version="3" timestamp="2019-03-01T20:08:16Z" changeset="67698149" uid="9065" user="brianboru">
    <nd ref="300661753"/>
    <nd ref="300661771"/>
    <nd ref="300661757"/>
    <nd ref="300661759"/>
    <nd ref="6311534042"/>
    <nd ref="300661761"/>
    <nd ref="6311534043"/>
    <nd ref="300661762"/>
    <nd ref="2279807659"/>
    <nd ref="300661763"/>
    <nd ref="2279807665"/>
    <nd ref="300661764"/>
    <nd ref="300661768"/>
    <nd ref="2279807684"/>
    <nd ref="300661769"/>
    <nd ref="300661770"/>
    <tag k="highway" v="unclassified"/>
    <tag k="source" v="survey"/>
  </way>
  <way id="27388390" version="2" timestamp="2019-03-01T20:08:16Z" changeset="67698149" uid="9065" user="brianboru">
    <nd ref="300661771"/>
    <nd ref="6311534041"/>
    <nd ref="300661773"/>
    <tag k="highway" v="unclassified"/>
    <tag k="source" v="survey"/>
  </way>
  <way id="27388392" version="3" timestamp="2014-05-23T20:50:29Z" changeset="22512921" uid="346039" user="fitzsimons">
    <nd ref="297304794"/>
    <nd ref="300661774"/>
    <nd ref="2279658724"/>
    <nd ref="2279658728"/>
    <nd ref="2279658744"/>
    <nd ref="2279658762"/>
    <nd ref="300661775"/>
    <nd ref="300661777"/>
    <nd ref="300661780"/>
    <nd ref="2279658817"/>
    <nd ref="2279658831"/>
    <nd ref="300661783"/>
    <nd ref="2279658866"/>
    <nd ref="300661786"/>
    <nd ref="2876791593"/>
    <nd ref="2279658880"/>
    <nd ref="300661788"/>
    <tag k="highway" v="unclassified"/>
    <tag k="name" v="Gorse Lane"/>
    <tag k="source" v="survey"/>
  </way>
  <way id="27413914" version="14" timestamp="2021-03-30T12:00:17Z" changeset="101983515" uid="10205154" user="mundlk">
    <nd ref="297304777"/>
    <nd ref="2279807282"/>
    <nd ref="2279658853"/>
    <nd ref="3366686984"/>
    <nd ref="2279658786"/>
    <nd ref="297304781"/>
    <nd ref="297304784"/>
    <nd ref="6776933646"/>
    <nd ref="2876778149"/>
    <nd ref="2876778150"/>
    <nd ref="6532143679"/>
    <nd ref="297304785"/>
    <nd ref="7719066308"/>
    <nd ref="297304786"/>
    <nd ref="2279658673"/>
    <nd ref="297304787"/>
    <nd ref="2279658668"/>
    <nd ref="297304788"/>
    <nd ref="2279658666"/>
    <nd ref="2279658670"/>
    <nd ref="2279658682"/>
    <nd ref="297304789"/>
    <nd ref="2279658684"/>
    <nd ref="2279658695"/>
    <nd ref="297304790"/>
    <nd ref="2279658691"/>
    <nd ref="2279658688"/>
    <nd ref="2279658664"/>
    <nd ref="297304791"/>
    <nd ref="297304792"/>
    <nd ref="2279658680"/>
    <nd ref="8575024193"/>
    <nd ref="2279658693"/>
    <nd ref="297304793"/>
    <nd ref="3957707468"/>
    <tag k="highway" v="unclassified"/>
    <tag k="name" v="Wawensmere Road"/>
    <tag k="source" v="survey"/>
  </way>
  <way id="27419120" version="13" timestamp="2013-06-22T16:50:03Z" changeset="16658898" uid="9065" user="brianboru">
    <nd ref="70995252"/>
    <nd ref="2319706275"/>
    <nd ref="2319706278"/>
    <nd ref="792340907"/>
    <nd ref="2319706285"/>
    <nd ref="70995254"/>
    <nd ref="2319706292"/>
    <nd ref="2319706294"/>
    <nd ref="2319706296"/>
    <nd ref="2319706298"/>
    <nd ref="2319706297"/>
    <nd ref="70995257"/>
    <nd ref="2204844664"/>
    <nd ref="2356237753"/>
    <nd ref="70995259"/>
    <nd ref="2319706295"/>
    <nd ref="792340925"/>
    <nd ref="70995262"/>
    <nd ref="2319706310"/>
    <nd ref="1676094107"/>
    <nd ref="2319706319"/>
    <nd ref="305674686"/>
    <nd ref="2319706327"/>
    <nd ref="2319706330"/>
    <nd ref="2319706333"/>
    <nd ref="2319706335"/>
    <nd ref="70995264"/>
    <nd ref="2319706338"/>
    <nd ref="2319706340"/>
    <nd ref="253145077"/>
    <tag k="highway" v="secondary"/>
    <tag k="ref" v="B4089"/>
    <tag k="source" v="survey"/>
  </way>
  <way id="27841745" version="7" timestamp="2016-03-23T17:24:24Z" changeset="38024662" uid="9065" user="brianboru">
    <nd ref="432787646"/>
    <nd ref="253145079"/>
    <nd ref="305674676"/>
    <nd ref="2320333598"/>
    <nd ref="305674673"/>
    <nd ref="305674670"/>
    <nd ref="305674668"/>
    <nd ref="4075481980"/>
    <nd ref="2320333589"/>
    <nd ref="305674665"/>
    <tag k="highway" v="unclassified"/>
    <tag k="name" v="Pennyford Lane"/>
  </way>
  <way id="30339353" version="10" timestamp="2025-02-23T14:36:38Z" changeset="162854799" uid="563773" user="mrpacmanmap">
    <nd ref="322509"/>
    <nd ref="12612927595"/>
    <nd ref="6495425590"/>
    <nd ref="6495425591"/>
    <nd ref="1205914380"/>
    <nd ref="1205914377"/>
    <nd ref="1205914202"/>
    <nd ref="6495425592"/>
    <nd ref="334595160"/>
    <nd ref="1205914385"/>
    <nd ref="3118116352"/>
    <tag k="highway" v="primary"/>
    <tag k="lanes" v="1"/>
    <tag k="maxspeed" v="30 mph"/>
    <tag k="oneway" v="yes"/>
    <tag k="ref" v="A3400"/>
  </way>
  <way id="30339355" version="11" timestamp="2025-02-23T14:36:38Z" changeset="162854799" uid="563773" user="mrpacmanmap">
    <nd ref="322507"/>
    <nd ref="3118116350"/>
    <nd ref="1205914284"/>
    <nd ref="322508"/>
    <nd ref="3957707426"/>
    <nd ref="1205914310"/>
    <nd ref="6495431099"/>
    <nd ref="6495425587"/>
    <nd ref="6495425588"/>
    <nd ref="6495425589"/>
    <nd ref="12612927596"/>
    <nd ref="12612927592"/>
    <nd ref="322509"/>
    <tag k="highway" v="primary"/>
    <tag k="lanes" v="1"/>
    <tag k="maxspeed" v="30 mph"/>
    <tag k="oneway" v="yes"/>
    <tag k="ref" v="A3400"/>
  </way>
  <way id="30339356" version="7" timestamp="2025-02-23T14:36:38Z" changeset="162854799" uid="563773" user="mrpacmanmap">
    <nd ref="322509"/>
    <nd ref="334603133"/>
    <tag k="highway" v="primary"/>
    <tag k="maxspeed" v="30 mph"/>
    <tag k="ref" v="A3400"/>
  </way>
  <way id="30339358" version="4" timestamp="2025-02-23T14:36:38Z" changeset="162854799" uid="563773" user="mrpacmanmap">
    <nd ref="334595175"/>
    <nd ref="12612927565"/>
    <nd ref="1676119593"/>
    <nd ref="334595179"/>
    <tag k="highway" v="residential"/>
    <tag k="maxspeed" v="30 mph"/>
    <tag k="name" v="The Dale"/>
    <tag k="source" v="survey"/>
  </way>
  <way id="30339360" version="10" timestamp="2020-06-16T07:53:39Z" changeset="86706362" uid="10170574" user="asnghpi">
    <nd ref="334595260"/>
    <nd ref="305674661"/>
    <nd ref="305674659"/>
    <nd ref="2903191113"/>
    <nd ref="305674657"/>
    <nd ref="2320333580"/>
    <nd ref="253145083"/>
    <nd ref="2235597929"/>
    <nd ref="2235597928"/>
    <nd ref="2320333575"/>
    <nd ref="2320333577"/>
    <nd ref="2320333582"/>
    <nd ref="253145084"/>
    <nd ref="2320333599"/>
    <nd ref="2320333603"/>
    <nd ref="2322872794"/>
    <nd ref="2320333649"/>
    <nd ref="253145086"/>
    <nd ref="2322872800"/>
    <nd ref="2320333664"/>
    <nd ref="2322872804"/>
    <nd ref="2322872806"/>
    <nd ref="253145089"/>
    <nd ref="2322872810"/>
    <nd ref="2322872813"/>
    <nd ref="2322872814"/>
    <nd ref="253145090"/>
    <nd ref="253145092"/>
    <nd ref="2300976673"/>
    <nd ref="7625058753"/>
    <nd ref="334603105"/>
    <tag k="highway" v="unclassified"/>
    <tag k="name" v="Pennyford Lane"/>
  </way>
  <way id="30339361" version="1" timestamp="2009-01-21T14:52:52Z" changeset="820950" uid="9065" user="brianboru">
    <nd ref="334595257"/>
    <nd ref="334595260"/>
    <tag k="bridge" v="yes"/>
    <tag k="created_by" v="JOSM"/>
    <tag k="highway" v="unclassified"/>
    <tag k="layer" v="1"/>
    <tag k="name" v="Pennyford Lane"/>
    <tag k="source" v="survey"/>
  </way>
  <way id="30339640" version="2" timestamp="2025-02-23T14:36:38Z" changeset="162854799" uid="563773" user="mrpacmanmap">
    <nd ref="334603130"/>
    <nd ref="334603136"/>
    <nd ref="12612927591"/>
    <nd ref="334603133"/>
    <tag k="highway" v="residential"/>
    <tag k="source" v="survey"/>
  </way>
  <way id="30339778" version="6" timestamp="2025-02-23T14:36:38Z" changeset="162854799" uid="563773" user="mrpacmanmap">
    <nd ref="334595160"/>
    <nd ref="3118116348"/>
    <nd ref="1205914191"/>
    <nd ref="3118116345"/>
    <nd ref="12612927574"/>
    <nd ref="70995290"/>
    <tag k="highway" v="secondary"/>
    <tag k="lanes" v="1"/>
    <tag k="maxspeed" v="30 mph"/>
    <tag k="name" v="Alcester Road"/>
    <tag k="oneway" v="yes"/>
    <tag k="source" v="survey"/>
    <tag k="source:name" v="OS_Locator"/>
  </way>
  <way id="30340017" version="4" timestamp="2024-08-15T13:30:31Z" changeset="155281704" uid="5589" user="user_5589">
    <nd ref="322588"/>
    <nd ref="322589"/>
    <tag k="bridge" v="yes"/>
    <tag k="highway" v="primary"/>
    <tag k="layer" v="1"/>
    <tag k="maxspeed" v="30 mph"/>
    <tag k="ref" v="A3400"/>
  </way>
  <way id="30340019" version="15" timestamp="2025-02-23T14:36:38Z" changeset="162854799" uid="563773" user="mrpacmanmap">
    <nd ref="322589"/>
    <nd ref="6523979075"/>
    <nd ref="8026983720"/>
    <nd ref="322590"/>
    <nd ref="1682556368"/>
    <nd ref="3957725232"/>
    <nd ref="1653701586"/>
    <nd ref="322592"/>
    <nd ref="3957725205"/>
    <tag k="highway" v="primary"/>
    <tag k="maxspeed" v="30 mph"/>
    <tag k="name" v="Stratford Road"/>
    <tag k="ref" v="A3400"/>
  </way>
  <way id="32628889" version="14" timestamp="2021-11-07T11:20:21Z" changeset="113475661" uid="9065" user="brianboru">
    <nd ref="366904576"/>
    <nd ref="366904580"/>
    <nd ref="2204844438"/>
    <nd ref="1676127465"/>
    <nd ref="2204844436"/>
    <nd ref="366904585"/>
    <nd ref="366904588"/>
    <nd ref="366904590"/>
    <nd ref="1676127461"/>
    <nd ref="366904592"/>
    <nd ref="2320729849"/>
    <nd ref="366904593"/>
    <nd ref="2953240321"/>
    <nd ref="366904596"/>
    <nd ref="2319732362"/>
    <nd ref="366904597"/>
    <nd ref="366904602"/>
    <nd ref="366904604"/>
    <nd ref="2204844399"/>
    <nd ref="1962955714"/>
    <nd ref="9232806360"/>
    <nd ref="9232806361"/>
    <nd ref="9232806363"/>
    <nd ref="366904616"/>
    <nd ref="2500693200"/>
    <nd ref="2698261778"/>
    <nd ref="366904618"/>
    <nd ref="9232806347"/>
    <nd ref="2698261772"/>
    <nd ref="2698356993"/>
    <nd ref="366904625"/>
    <nd ref="2698357003"/>
    <nd ref="2698357014"/>
    <nd ref="366904628"/>
    <nd ref="2369272682"/>
    <nd ref="366904631"/>
    <nd ref="334595153"/>
    <tag k="highway" v="tertiary"/>
    <tag k="maxspeed" v="60 mph"/>
    <tag k="maxspeed:type" v="GB:nsl_single"/>
    <tag k="name" v="Salters Lane"/>
    <tag k="oneway" v="no"/>
    <tag k="source" v="survey"/>
  </way>
  <way id="37189847" version="5" timestamp="2024-08-15T13:31:03Z" changeset="155281704" uid="5589" user="user_5589">
    <nd ref="334603133"/>
    <nd ref="1205914092"/>
    <nd ref="322511"/>
    <tag k="highway" v="primary"/>
    <tag k="maxspeed" v="30 mph"/>
    <tag k="name" v="Stratford Road"/>
    <tag k="ref" v="A3400"/>
  </way>
  <way id="37189952" version="15" timestamp="2024-08-15T13:30:09Z" changeset="155281704" uid="5589" user="user_5589">
    <nd ref="3957725205"/>
    <nd ref="3659269119"/>
    <nd ref="322593"/>
    <nd ref="11140531355"/>
    <nd ref="322594"/>
    <nd ref="2207331587"/>
    <nd ref="1702507983"/>
    <nd ref="322595"/>
    <tag k="highway" v="primary"/>
    <tag k="maxspeed" v="30 mph"/>
    <tag k="ref" v="A3400"/>
  </way>
  <way id="37189953" version="5" timestamp="2025-02-23T14:36:38Z" changeset="162854799" uid="563773" user="mrpacmanmap">
    <nd ref="12612928918"/>
    <nd ref="253145096"/>
    <nd ref="432788182"/>
    <nd ref="3659226702"/>
    <nd ref="3957725205"/>
    <tag k="highway" v="unclassified"/>
    <tag k="maxweight" v="7.5"/>
    <tag k="name" v="Pennyford Lane"/>
  </way>
  <way id="53323371" version="10" timestamp="2025-02-23T22:01:34Z" changeset="162870292" uid="563773" user="mrpacmanmap">
    <nd ref="5106844951"/>
    <nd ref="7697860664"/>
    <nd ref="366904543"/>
    <nd ref="419236882"/>
    <nd ref="6726281535"/>
    <nd ref="366904545"/>
    <nd ref="6501705396"/>
    <nd ref="366904546"/>
    <nd ref="366904550"/>
    <nd ref="2292887394"/>
    <nd ref="366904552"/>
    <nd ref="2292887389"/>
    <nd ref="366904553"/>
    <nd ref="2292887383"/>
    <nd ref="366904555"/>
    <nd ref="2292887365"/>
    <nd ref="366904557"/>
    <nd ref="366904558"/>
    <nd ref="4250230238"/>
    <nd ref="366904561"/>
    <nd ref="366904562"/>
    <nd ref="366904564"/>
    <nd ref="2292887309"/>
    <nd ref="366904567"/>
    <nd ref="2292887305"/>
    <nd ref="2292887301"/>
    <nd ref="366904569"/>
    <nd ref="2292887293"/>
    <nd ref="366904570"/>
    <nd ref="2292887283"/>
    <nd ref="366904573"/>
    <nd ref="366904574"/>
    <nd ref="366904576"/>
    <tag k="highway" v="tertiary"/>
    <tag k="maxspeed" v="60 mph"/>
    <tag k="maxspeed:type" v="GB:nsl_single"/>
    <tag k="name" v="Langley Road"/>
    <tag k="source" v="survey"/>
  </way>
  <way id="61308041" version="11" timestamp="2024-08-15T13:32:02Z" changeset="155281704" uid="5589" user="user_5589">
    <nd ref="334595174"/>
    <nd ref="1676108631"/>
    <nd ref="322502"/>
    <nd ref="1205914359"/>
    <nd ref="322501"/>
    <nd ref="322500"/>
    <nd ref="322484"/>
    <nd ref="322483"/>
    <nd ref="6908314118"/>
    <nd ref="322482"/>
    <tag k="highway" v="primary"/>
    <tag k="maxspeed" v="30 mph"/>
    <tag k="name" v="Stratford Road"/>
    <tag k="ref" v="A3400"/>
  </way>
  <way id="104519036" version="1" timestamp="2011-03-17T16:56:45Z" changeset="7587297" uid="9065" user="brianboru">
    <nd ref="1205852393"/>
    <nd ref="1205852323"/>
    <nd ref="1205852310"/>
    <tag k="highway" v="residential"/>
    <tag k="source" v="bing"/>
  </way>
  <way id="104519039" version="2" timestamp="2018-04-20T18:37:20Z" changeset="58272371" uid="9065" user="brianboru">
    <nd ref="1205852422"/>
    <nd ref="1205852379"/>
    <nd ref="1205852477"/>
    <nd ref="1205852345"/>
    <nd ref="1205852446"/>
    <nd ref="1205852470"/>
    <nd ref="1205852393"/>
    <nd ref="1205852403"/>
    <nd ref="1205852438"/>
    <tag k="highway" v="residential"/>
    <tag k="source" v="bing"/>
  </way>
  <way id="104524407" version="1" timestamp="2011-03-17T17:44:54Z" changeset="7587748" uid="9065" user="brianboru">
    <nd ref="1205914206"/>
    <nd ref="1205914232"/>
    <nd ref="1205914312"/>
    <nd ref="1205914348"/>
    <nd ref="1205914114"/>
    <nd ref="1205914172"/>
    <nd ref="1205914273"/>
    <tag k="highway" v="residential"/>
    <tag k="name" v="The Square"/>
    <tag k="source" v="bing"/>
    <tag k="source:name" v="OS_Locator"/>
  </way>
  <way id="104524409" version="2" timestamp="2017-10-14T16:20:43Z" changeset="52927376" uid="346039" user="fitzsimons">
    <nd ref="1205914232"/>
    <nd ref="1205914371"/>
    <nd ref="1205914395"/>
    <nd ref="1205914221"/>
    <nd ref="1205914218"/>
    <nd ref="1205914294"/>
    <nd ref="1205914317"/>
    <nd ref="1205914392"/>
    <nd ref="1205914070"/>
    <nd ref="1205914237"/>
    <nd ref="1205914252"/>
    <nd ref="1205914332"/>
    <nd ref="1205914277"/>
    <tag k="access" v="private"/>
    <tag k="highway" v="residential"/>
    <tag k="name" v="School Hill"/>
    <tag k="source" v="bing"/>
    <tag k="source:name" v="OS_Locator"/>
  </way>
  <way id="104524678" version="5" timestamp="2021-01-25T22:30:18Z" changeset="98146733" uid="9065" user="brianboru">
    <nd ref="253145077"/>
    <nd ref="70995270"/>
    <nd ref="2235597941"/>
    <nd ref="2235597943"/>
    <nd ref="2235597947"/>
    <nd ref="2235597950"/>
    <nd ref="8362719291"/>
    <nd ref="8362733733"/>
    <nd ref="70995274"/>
    <nd ref="1582183994"/>
    <nd ref="1582183993"/>
    <nd ref="70995276"/>
    <nd ref="1582183991"/>
    <nd ref="1582183992"/>
    <nd ref="366904689"/>
    <nd ref="8068691319"/>
    <nd ref="1582183988"/>
    <tag k="highway" v="secondary"/>
    <tag k="name" v="Alcester Road"/>
    <tag k="ref" v="B4089"/>
    <tag k="source" v="survey"/>
    <tag k="source:name" v="OS_Locator"/>
  </way>
  <way id="117037556" version="7" timestamp="2024-06-20T10:50:22Z" changeset="152937844" uid="21506645" user="mgousiya">
    <nd ref="246631337"/>
    <nd ref="1590146269"/>
    <nd ref="246631339"/>
    <nd ref="246631340"/>
    <nd ref="11993577637"/>
    <nd ref="246631341"/>
    <nd ref="5598696764"/>
    <nd ref="2876791592"/>
    <nd ref="246631342"/>
    <nd ref="11993571022"/>
    <nd ref="246631343"/>
    <nd ref="1205914354"/>
    <nd ref="1205914279"/>
    <nd ref="1205914301"/>
    <nd ref="246631345"/>
    <nd ref="1205914206"/>
    <nd ref="3953907219"/>
    <nd ref="3953907218"/>
    <nd ref="3953907217"/>
    <nd ref="322477"/>
    <tag k="highway" v="unclassified"/>
    <tag k="name" v="Mayswood Road"/>
    <tag k="source" v="survey"/>
  </way>
  <way id="117037563" version="1" timestamp="2011-06-10T07:00:46Z" changeset="8394569" uid="364" user="Edward">
    <nd ref="246631336"/>
    <nd ref="246631337"/>
    <tag k="bridge" v="yes"/>
    <tag k="highway" v="unclassified"/>
    <tag k="layer" v="1"/>
    <tag k="name" v="Mayswood Road"/>
    <tag k="source" v="survey;Bing"/>
  </way>
  <way id="124024065" version="2" timestamp="2021-04-01T15:27:37Z" changeset="102136393" uid="30587" user="IknowJoseph">
    <nd ref="1381479254"/>
    <nd ref="1381479252"/>
    <nd ref="1381479255"/>
    <nd ref="1381479261"/>
    <nd ref="1381479278"/>
    <nd ref="1381479280"/>
    <nd ref="1381479265"/>
    <nd ref="1381479266"/>
    <nd ref="1381479273"/>
    <nd ref="1381479275"/>
    <nd ref="1381479256"/>
    <nd ref="1381479262"/>
    <nd ref="1381479254"/>
    <tag k="building" v="yes"/>
    <tag k="name" v="Blackford Mill"/>
    <tag k="source" v="visual survey; bing"/>
    <tag k="wikidata" v="Q26662281"/>
  </way>
  <way id="124024071" version="5" timestamp="2021-03-25T11:33:50Z" changeset="101714891" uid="10305810" user="peddil">
    <nd ref="1381479009"/>
    <nd ref="432789077"/>
    <nd ref="1381479156"/>
    <nd ref="70995083"/>
    <nd ref="1381479172"/>
    <nd ref="8404732125"/>
    <nd ref="2280607716"/>
    <nd ref="70995086"/>
    <nd ref="70995089"/>
    <nd ref="2280607739"/>
    <nd ref="2280607749"/>
    <nd ref="8560186304"/>
    <nd ref="8560186309"/>
    <nd ref="2280607774"/>
    <nd ref="2280607791"/>
    <nd ref="70995090"/>
    <nd ref="300659769"/>
    <nd ref="2204765791"/>
    <nd ref="1205852365"/>
    <nd ref="1205852315"/>
    <nd ref="1205852425"/>
    <nd ref="61093862"/>
    <tag k="highway" v="unclassified"/>
    <tag k="name" v="Pettiford Lane"/>
  </way>
  <way id="124024072" version="1" timestamp="2011-08-01T07:45:37Z" changeset="8888052" uid="9065" user="brianboru">
    <nd ref="1381478984"/>
    <nd ref="1381479009"/>
    <tag k="bridge" v="yes"/>
    <tag k="highway" v="unclassified"/>
    <tag k="layer" v="1"/>
    <tag k="name" v="Pettiford Lane"/>
  </way>
  <way id="124024075" version="10" timestamp="2022-08-18T15:03:52Z" changeset="125064766" uid="5589" user="user_5589">
    <nd ref="61093823"/>
    <nd ref="61093825"/>
    <tag k="bridge" v="yes"/>
    <tag k="cycleway:both" v="no"/>
    <tag k="highway" v="primary"/>
    <tag k="lanes" v="2"/>
    <tag k="lanes:backward" v="1"/>
    <tag k="lanes:forward" v="1"/>
    <tag k="layer" v="1"/>
    <tag k="lit" v="yes"/>
    <tag k="maxspeed" v="30 mph"/>
    <tag k="maxweight:signed" v="no"/>
    <tag k="name" v="Blackford Bridge"/>
    <tag k="ref" v="A4189"/>
    <tag k="shoulder" v="no"/>
    <tag k="source:name" v="OS_Locator"/>
    <tag k="surface" v="asphalt"/>
  </way>
  <way id="124024077" version="8" timestamp="2022-08-18T09:32:57Z" changeset="125051422" uid="5589" user="user_5589">
    <nd ref="61093825"/>
    <nd ref="61093826"/>
    <nd ref="61093827"/>
    <nd ref="2172402642"/>
    <nd ref="61093828"/>
    <nd ref="773140147"/>
    <nd ref="674460472"/>
    <nd ref="61093829"/>
    <nd ref="3839365046"/>
    <nd ref="61093830"/>
    <nd ref="1945113447"/>
    <tag k="cycleway:both" v="no"/>
    <tag k="highway" v="primary"/>
    <tag k="lanes" v="2"/>
    <tag k="lanes:backward" v="1"/>
    <tag k="lanes:forward" v="1"/>
    <tag k="maxspeed" v="30 mph"/>
    <tag k="name" v="Warwick Road"/>
    <tag k="ref" v="A4189"/>
    <tag k="source:name" v="OS_Locator"/>
    <tag k="surface" v="asphalt"/>
  </way>
  <way id="132776079" version="1" timestamp="2011-10-10T00:40:06Z" changeset="9518350" uid="186212" user="srbrook">
    <nd ref="305674663"/>
    <nd ref="334595257"/>
    <tag k="highway" v="unclassified"/>
    <tag k="name" v="Pennyford Lane"/>
  </way>
  <way id="144687826" version="2" timestamp="2012-08-16T19:38:47Z" changeset="12754377" uid="5589" user="user_5589">
    <nd ref="1582183988"/>
    <nd ref="1869002597"/>
    <nd ref="1869002605"/>
    <nd ref="1582183985"/>
    <tag k="bridge" v="yes"/>
    <tag k="highway" v="secondary"/>
    <tag k="layer" v="1"/>
    <tag k="name" v="Alcester Road"/>
    <tag k="ref" v="B4089"/>
    <tag k="source" v="survey;Bing"/>
    <tag k="source:name" v="OS_Locator"/>
  </way>
  <way id="144687828" version="11" timestamp="2025-02-23T14:36:38Z" changeset="162854799" uid="563773" user="mrpacmanmap">
    <nd ref="1582183985"/>
    <nd ref="70995280"/>
    <nd ref="1582183990"/>
    <nd ref="3957706040"/>
    <nd ref="1582183986"/>
    <nd ref="70995284"/>
    <nd ref="1205914033"/>
    <nd ref="1205914326"/>
    <nd ref="1205914306"/>
    <nd ref="3927560226"/>
    <nd ref="12612927573"/>
    <nd ref="12612927549"/>
    <nd ref="70995286"/>
    <nd ref="8556313770"/>
    <nd ref="1886072901"/>
    <nd ref="1886072904"/>
    <nd ref="1886072900"/>
    <nd ref="70995289"/>
    <nd ref="1205914227"/>
    <nd ref="1676118923"/>
    <nd ref="334595175"/>
    <nd ref="3927560223"/>
    <nd ref="8237240504"/>
    <nd ref="334606588"/>
    <nd ref="70995290"/>
    <tag k="highway" v="secondary"/>
    <tag k="maxspeed" v="30 mph"/>
    <tag k="name" v="Alcester Road"/>
    <tag k="ref" v="B4089"/>
    <tag k="source" v="survey"/>
    <tag k="source:name" v="OS_Locator"/>
  </way>
  <way id="145640026" version="1" timestamp="2012-01-15T00:03:35Z" changeset="10393911" uid="165" user="Richard">
    <nd ref="1590146284"/>
    <nd ref="1590146166"/>
    <nd ref="246631336"/>
    <tag k="highway" v="unclassified"/>
    <tag k="name" v="Mayswood Road"/>
    <tag k="source" v="Bing"/>
    <tag k="source:name" v="OSSV"/>
  </way>
  <way id="155192142" version="5" timestamp="2021-06-29T07:48:44Z" changeset="107130231" uid="10455633" user="tnayini">
    <nd ref="1676094067"/>
    <nd ref="8874314732"/>
    <nd ref="2356237723"/>
    <nd ref="2356237728"/>
    <nd ref="1676094072"/>
    <nd ref="2356237732"/>
    <nd ref="1676094078"/>
    <nd ref="8411208115"/>
    <nd ref="8411208114"/>
    <nd ref="1676094082"/>
    <nd ref="8874314723"/>
    <nd ref="2319706301"/>
    <nd ref="1676094094"/>
    <nd ref="2319706306"/>
    <nd ref="1676094096"/>
    <nd ref="1676094107"/>
    <tag k="highway" v="unclassified"/>
    <tag k="name" v="Grey Mill Lane"/>
    <tag k="source" v="OS_OpenData_StreetView"/>
  </way>
  <way id="155193355" version="8" timestamp="2023-12-01T09:06:34Z" changeset="144654010" uid="504708" user="HillWithSmallFields">
    <nd ref="1676108606"/>
    <nd ref="1676108600"/>
    <nd ref="1676108594"/>
    <nd ref="1676108589"/>
    <nd ref="1676108587"/>
    <nd ref="1676108551"/>
    <nd ref="1676108552"/>
    <nd ref="1676108560"/>
    <nd ref="1676108563"/>
    <nd ref="1676108555"/>
    <nd ref="1676108557"/>
    <nd ref="1676108566"/>
    <nd ref="1676108575"/>
    <nd ref="1676108606"/>
    <tag k="amenity" v="place_of_worship"/>
    <tag k="building" v="church"/>
    <tag k="denomination" v="anglican"/>
    <tag k="heritage" v="2"/>
    <tag k="heritage:operator" v="Historic England"/>
    <tag k="listed_status" v="Grade I"/>
    <tag k="name" v="St Peter"/>
    <tag k="note" v="Of saxon origin: the oldest church in Warwickshire"/>
    <tag k="ref:dove" v="10550"/>
    <tag k="religion" v="christian"/>
    <tag k="website" v="https://www.saxonsanctuary.org.uk/"/>
    <tag k="wikidata" v="Q17528436"/>
  </way>
  <way id="155193357" version="1" timestamp="2012-03-15T19:34:15Z" changeset="10991929" uid="9065" user="brianboru">
    <nd ref="1676108646"/>
    <nd ref="1676108641"/>
    <tag k="highway" v="residential"/>
    <tag k="name" v="The Glebe"/>
    <tag k="source" v="OS_OpenData_StreetView"/>
    <tag k="source:name" v="OS_Locator"/>
  </way>
  <way id="155193358" version="1" timestamp="2012-03-15T19:34:15Z" changeset="10991929" uid="9065" user="brianboru">
    <nd ref="1676108644"/>
    <nd ref="1676108641"/>
    <nd ref="1676108634"/>
    <nd ref="1676108631"/>
    <tag k="highway" v="residential"/>
    <tag k="name" v="The Glebe"/>
    <tag k="source" v="OS_OpenData_StreetView"/>
    <tag k="source:name" v="OS_Locator"/>
  </way>
  <way id="155194555" version="3" timestamp="2021-10-21T15:58:01Z" changeset="112799115" uid="493595" user="Yorvik Prestigitator">
    <nd ref="1676118916"/>
    <nd ref="1676118915"/>
    <nd ref="1682556451"/>
    <nd ref="1676118909"/>
    <nd ref="1676118910"/>
    <nd ref="1676118906"/>
    <nd ref="1676118907"/>
    <nd ref="1676118912"/>
    <nd ref="1676118913"/>
    <nd ref="1682556473"/>
    <nd ref="1676118916"/>
    <tag k="addr:city" v="Wootton Wawen"/>
    <tag k="building" v="retail"/>
    <tag k="name" v="The General Store"/>
    <tag k="shop" v="convenience"/>
  </way>
  <way id="155195670" version="1" timestamp="2012-03-15T19:51:47Z" changeset="10992115" uid="9065" user="brianboru">
    <nd ref="1676127433"/>
    <nd ref="1676127442"/>
    <nd ref="1676127461"/>
    <tag k="highway" v="residential"/>
    <tag k="name" v="The Crescent"/>
    <tag k="source" v="OS_OpenData_StreetView"/>
    <tag k="source:name" v="OS_Locator"/>
  </way>
  <way id="155910057" version="5" timestamp="2024-01-20T18:12:10Z" changeset="146488626" uid="13445" user="zorque">
    <nd ref="1682556521"/>
    <nd ref="1682556520"/>
    <nd ref="1682556515"/>
    <nd ref="1682556514"/>
    <nd ref="1682556512"/>
    <nd ref="1682556513"/>
    <nd ref="1682556521"/>
    <tag k="addr:city" v="Henley-in-Arden"/>
    <tag k="addr:postcode" v="B95 6EE"/>
    <tag k="addr:suburb" v="Wootton Wawen"/>
    <tag k="building" v="residential"/>
    <tag k="heritage" v="2"/>
    <tag k="heritage:operator" v="Historic England"/>
    <tag k="listed_status" v="Grade II*"/>
    <tag k="name" v="Wootton Hall"/>
    <tag k="source" v="bing"/>
    <tag k="wikidata" v="Q17551900"/>
  </way>
  <way id="155910074" version="2" timestamp="2015-07-20T19:02:27Z" changeset="32761120" uid="22643" user="James Derrick">
    <nd ref="1682556360"/>
    <nd ref="1682556358"/>
    <nd ref="1682556354"/>
    <nd ref="1682556356"/>
    <nd ref="1682556360"/>
    <tag k="building" v="retail"/>
    <tag k="name" v="Yew Tree Farm Craft Centre"/>
    <tag k="shop" v="mall"/>
    <tag k="source" v="Bing;survey"/>
  </way>
  <way id="155910083" version="6" timestamp="2024-01-20T18:12:10Z" changeset="146488626" uid="13445" user="zorque">
    <nd ref="1682556412"/>
    <nd ref="1682556393"/>
    <nd ref="1682556383"/>
    <nd ref="1682556384"/>
    <nd ref="8037917353"/>
    <nd ref="1682556373"/>
    <nd ref="8037917352"/>
    <nd ref="1682556377"/>
    <nd ref="1682556412"/>
    <tag k="addr:city" v="Henley-in-Arden"/>
    <tag k="addr:postcode" v="B95 6BY"/>
    <tag k="addr:street" v="Stratford Road"/>
    <tag k="addr:suburb" v="Wootton Wawen"/>
    <tag k="building" v="retail"/>
    <tag k="name" v="The Garden Furniture Centre"/>
    <tag k="source" v="bing"/>
    <tag k="website" v="https://www.gardenfurniturecentre.co.uk/"/>
  </way>
  <way id="158014179" version="3" timestamp="2024-08-15T13:30:45Z" changeset="155281704" uid="5589" user="user_5589">
    <nd ref="322511"/>
    <nd ref="322588"/>
    <tag k="highway" v="primary"/>
    <tag k="maxspeed" v="30 mph"/>
    <tag k="ref" v="A3400"/>
  </way>
  <way id="158014180" version="11" timestamp="2024-08-15T13:29:23Z" changeset="155281704" uid="5589" user="user_5589">
    <nd ref="322595"/>
    <nd ref="1702507982"/>
    <nd ref="1702507980"/>
    <nd ref="1653701539"/>
    <nd ref="1653701582"/>
    <nd ref="1702589731"/>
    <nd ref="2826247136"/>
    <nd ref="1702507979"/>
    <nd ref="6759205085"/>
    <nd ref="2826247122"/>
    <nd ref="322604"/>
    <nd ref="2320730091"/>
    <nd ref="322603"/>
    <nd ref="322606"/>
    <nd ref="1702589728"/>
    <nd ref="322607"/>
    <nd ref="322608"/>
    <nd ref="1702589486"/>
    <nd ref="322609"/>
    <nd ref="1702589448"/>
    <nd ref="322611"/>
    <nd ref="322610"/>
    <nd ref="2320730028"/>
    <nd ref="322612"/>
    <nd ref="2320730012"/>
    <nd ref="322613"/>
    <nd ref="1702589380"/>
    <nd ref="9484617999"/>
    <nd ref="1702589378"/>
    <nd ref="322614"/>
    <nd ref="1702589376"/>
    <nd ref="322615"/>
    <nd ref="1702589373"/>
    <nd ref="2320729951"/>
    <nd ref="322616"/>
    <nd ref="322617"/>
    <nd ref="1702589363"/>
    <nd ref="322618"/>
    <nd ref="366904576"/>
    <nd ref="6604036274"/>
    <nd ref="322619"/>
    <nd ref="6604036269"/>
    <nd ref="2319732376"/>
    <nd ref="1676127457"/>
    <nd ref="322620"/>
    <nd ref="2319732369"/>
    <nd ref="7679923405"/>
    <nd ref="5172630098"/>
    <tag k="highway" v="primary"/>
    <tag k="maxspeed" v="50 mph"/>
    <tag k="ref" v="A3400"/>
  </way>
  <way id="158014181" version="6" timestamp="2024-08-15T13:32:14Z" changeset="155281704" uid="5589" user="user_5589">
    <nd ref="322482"/>
    <nd ref="322481"/>
    <nd ref="1205914397"/>
    <nd ref="1205914373"/>
    <nd ref="1205914302"/>
    <nd ref="1205914275"/>
    <nd ref="322480"/>
    <nd ref="1205914183"/>
    <nd ref="322479"/>
    <nd ref="1205914115"/>
    <nd ref="1205914350"/>
    <nd ref="322478"/>
    <nd ref="3953907212"/>
    <nd ref="3953907215"/>
    <nd ref="322477"/>
    <nd ref="322476"/>
    <nd ref="322475"/>
    <tag k="highway" v="primary"/>
    <tag k="maxspeed" v="30 mph"/>
    <tag k="name" v="Stratford Road"/>
    <tag k="ref" v="A3400"/>
  </way>
  <way id="158019915" version="3" timestamp="2015-07-20T19:02:27Z" changeset="32761120" uid="22643" user="James Derrick">
    <nd ref="1702572840"/>
    <nd ref="1702572839"/>
    <nd ref="1702572837"/>
    <nd ref="1702572838"/>
    <nd ref="1702572840"/>
    <tag k="amenity" v="place_of_worship"/>
    <tag k="building" v="yes"/>
    <tag k="denomination" v="catholic"/>
    <tag k="name" v="Our Lady &amp; St. Benedict Catholic Cemetery Chapel"/>
    <tag k="note" v="The wych gate and chapel building do not have visible signs, but research suggests the nearby Catholic parish church has a separate chapel."/>
    <tag k="religion" v="christian"/>
    <tag k="source" v="visual survey;bing;survey"/>
    <tag k="wheelchair" v="limited"/>
  </way>
  <way id="158021409" version="1" timestamp="2012-04-05T11:57:25Z" changeset="11188333" uid="9065" user="brianboru">
    <nd ref="1702589800"/>
    <nd ref="1702589777"/>
    <nd ref="1702589762"/>
    <nd ref="1702589773"/>
    <nd ref="1702589775"/>
    <nd ref="1702589785"/>
    <nd ref="1702589772"/>
    <nd ref="1702589761"/>
    <nd ref="1702589759"/>
    <nd ref="1702589755"/>
    <nd ref="1702589750"/>
    <nd ref="1702589754"/>
    <nd ref="1702589774"/>
    <nd ref="1702589781"/>
    <nd ref="1702589783"/>
    <nd ref="1702589788"/>
    <nd ref="1702589800"/>
    <tag k="building" v="residential"/>
    <tag k="name" v="Austy Manor"/>
    <tag k="source" v="visual survey;bing"/>
  </way>
  <way id="158021412" version="2" timestamp="2025-02-24T02:14:31Z" changeset="162874061" uid="563773" user="mrpacmanmap">
    <nd ref="1702589581"/>
    <nd ref="1702589579"/>
    <nd ref="1702589528"/>
    <nd ref="1702589526"/>
    <nd ref="1702589548"/>
    <nd ref="1702589527"/>
    <nd ref="1702589504"/>
    <nd ref="1702589506"/>
    <nd ref="1702589507"/>
    <nd ref="1702589516"/>
    <nd ref="1702589508"/>
    <nd ref="1702589511"/>
    <nd ref="1702589531"/>
    <nd ref="1702589529"/>
    <nd ref="1702589556"/>
    <nd ref="1702589558"/>
    <nd ref="1702589581"/>
    <tag k="building" v="yes"/>
    <tag k="historic" v="manor"/>
    <tag k="name" v="Edstone Hall"/>
    <tag k="source" v="bing"/>
  </way>
  <way id="184076290" version="8" timestamp="2022-08-18T15:04:43Z" changeset="125064528" uid="5589" user="user_5589">
    <nd ref="1945113447"/>
    <nd ref="1205852396"/>
    <nd ref="61093831"/>
    <nd ref="61093832"/>
    <nd ref="1205852337"/>
    <nd ref="61093833"/>
    <nd ref="2169879804"/>
    <nd ref="61093834"/>
    <nd ref="61093835"/>
    <nd ref="2169879864"/>
    <nd ref="61093837"/>
    <nd ref="61093838"/>
    <nd ref="61093839"/>
    <nd ref="61093840"/>
    <nd ref="61093841"/>
    <tag k="cycleway:both" v="no"/>
    <tag k="highway" v="primary"/>
    <tag k="lanes" v="2"/>
    <tag k="maxspeed" v="40 mph"/>
    <tag k="name" v="Warwick Road"/>
    <tag k="ref" v="A4189"/>
    <tag k="shoulder" v="no"/>
    <tag k="source:name" v="OS_Locator"/>
    <tag k="surface" v="asphalt"/>
  </way>
  <way id="184077427" version="13" timestamp="2022-08-18T09:31:54Z" changeset="125051400" uid="5589" user="user_5589">
    <nd ref="1945125284"/>
    <nd ref="61093852"/>
    <nd ref="7396933543"/>
    <nd ref="61093853"/>
    <nd ref="61093854"/>
    <nd ref="8831545505"/>
    <nd ref="61093855"/>
    <nd ref="1205852463"/>
    <nd ref="2364158182"/>
    <nd ref="61093857"/>
    <nd ref="2364158181"/>
    <nd ref="61093858"/>
    <nd ref="6906263241"/>
    <nd ref="1205852361"/>
    <nd ref="7912462658"/>
    <nd ref="61093859"/>
    <nd ref="1205852461"/>
    <nd ref="1205852310"/>
    <nd ref="61093860"/>
    <nd ref="1205852438"/>
    <nd ref="300659771"/>
    <nd ref="6569131195"/>
    <nd ref="61093862"/>
    <nd ref="1205852419"/>
    <nd ref="1205852443"/>
    <nd ref="1205852376"/>
    <nd ref="61093867"/>
    <nd ref="1205852415"/>
    <nd ref="1205852342"/>
    <nd ref="61093868"/>
    <nd ref="425523320"/>
    <nd ref="9237796803"/>
    <nd ref="5566979522"/>
    <nd ref="1381479357"/>
    <tag k="cycleway:both" v="no"/>
    <tag k="highway" v="primary"/>
    <tag k="lanes" v="2"/>
    <tag k="maxspeed" v="50 mph"/>
    <tag k="name" v="Warwick Road"/>
    <tag k="ref" v="A4189"/>
    <tag k="source:name" v="OS_Locator"/>
    <tag k="surface" v="asphalt"/>
  </way>
  <way id="206921321" version="2" timestamp="2018-04-20T18:37:21Z" changeset="58272371" uid="9065" user="brianboru">
    <nd ref="2169884791"/>
    <nd ref="2169884733"/>
    <nd ref="5567402197"/>
    <nd ref="2169884769"/>
    <nd ref="2169884720"/>
    <nd ref="2169884704"/>
    <nd ref="5567402196"/>
    <nd ref="2169884688"/>
    <nd ref="61093851"/>
    <tag k="highway" v="residential"/>
    <tag k="source" v="OS_OpenData_StreetView"/>
  </way>
  <way id="210655349" version="3" timestamp="2023-05-07T12:07:31Z" changeset="135808360" uid="545369" user="bigfatfrog67">
    <nd ref="2207331623"/>
    <nd ref="2207331621"/>
    <nd ref="2207331614"/>
    <nd ref="2207331617"/>
    <nd ref="2207331618"/>
    <nd ref="2207331620"/>
    <nd ref="2207331623"/>
    <tag k="building" v="retail"/>
    <tag k="name" v="Anglo-Welsh Waterway Holidays"/>
    <tag k="operator" v="Anglo-Welsh"/>
    <tag k="source" v="bing;survey"/>
  </way>
  <way id="210655350" version="3" timestamp="2021-04-27T17:19:10Z" changeset="103722647" uid="10370720" user="okwithmydecay">
    <nd ref="2207331617"/>
    <nd ref="2207331613"/>
    <nd ref="2207331616"/>
    <nd ref="2207331607"/>
    <nd ref="2207331608"/>
    <nd ref="2207331604"/>
    <nd ref="2207331603"/>
    <nd ref="2207331598"/>
    <nd ref="2207331593"/>
    <nd ref="2207331606"/>
    <nd ref="2207331609"/>
    <nd ref="2207331610"/>
    <nd ref="2207331614"/>
    <nd ref="2207331617"/>
    <tag k="amenity" v="pub"/>
    <tag k="building" v="yes"/>
    <tag k="food" v="yes"/>
    <tag k="name" v="The Navigation"/>
    <tag k="outdoor_seating" v="yes"/>
    <tag k="source" v="survey;bing"/>
    <tag k="website" v="http://www.the-navigationinn.co.uk/"/>
  </way>
  <way id="213913545" version="1" timestamp="2013-03-29T21:21:50Z" changeset="15544343" uid="9065" user="brianboru">
    <nd ref="2235597979"/>
    <nd ref="2235597980"/>
    <nd ref="2235597977"/>
    <nd ref="2235597978"/>
    <nd ref="2235597982"/>
    <nd ref="2235597985"/>
    <nd ref="2235597987"/>
    <nd ref="2235597986"/>
    <nd ref="2235597990"/>
    <nd ref="2235597991"/>
    <nd ref="2235597988"/>
    <nd ref="2235597989"/>
    <nd ref="2235597984"/>
    <nd ref="2235597983"/>
    <nd ref="2235597971"/>
    <nd ref="2235597972"/>
    <nd ref="2235597966"/>
    <nd ref="2235597965"/>
    <nd ref="2235597969"/>
    <nd ref="2235597967"/>
    <nd ref="2235597974"/>
    <nd ref="2235597973"/>
    <nd ref="2235597976"/>
    <nd ref="2235597975"/>
    <nd ref="2235597979"/>
    <tag k="amenity" v="place_of_worship"/>
    <tag k="building" v="church"/>
    <tag k="denomination" v="catholic"/>
    <tag k="name" v="Our Lady &amp; St Benedict's"/>
    <tag k="religion" v="christian"/>
  </way>
  <way id="218756914" version="1" timestamp="2013-04-24T17:52:29Z" changeset="15852064" uid="9065" user="brianboru">
    <nd ref="2279807292"/>
    <nd ref="2279807291"/>
    <nd ref="2279807282"/>
    <tag k="highway" v="unclassified"/>
    <tag k="source" v="bing"/>
  </way>
  <way id="223140979" version="2" timestamp="2015-07-20T18:24:05Z" changeset="32760235" uid="22643" user="James Derrick">
    <nd ref="2320730123"/>
    <nd ref="2320730126"/>
    <nd ref="2320730121"/>
    <nd ref="2320730120"/>
    <nd ref="2320730123"/>
    <tag k="amenity" v="car_wash"/>
    <tag k="building" v="yes"/>
    <tag k="name" v="Navigation Garage"/>
    <tag k="operator" v="Arden Auto-Val"/>
    <tag k="source" v="bing;survey"/>
  </way>
  <way id="227753196" version="1" timestamp="2013-06-28T08:28:23Z" changeset="16736363" uid="64" user="lsces">
    <nd ref="2364158182"/>
    <nd ref="2364158161"/>
    <nd ref="2364158187"/>
    <nd ref="2364158177"/>
    <nd ref="2364158175"/>
    <nd ref="2364158180"/>
    <nd ref="2364158178"/>
    <nd ref="2279700542"/>
    <nd ref="2364158181"/>
    <tag k="highway" v="residential"/>
  </way>
  <way id="277626388" version="9" timestamp="2025-02-22T22:41:45Z" changeset="162833995" uid="563773" user="mrpacmanmap">
    <nd ref="274073298"/>
    <nd ref="2624169438"/>
    <nd ref="274073300"/>
    <nd ref="2624169430"/>
    <nd ref="2624169425"/>
    <nd ref="8545158131"/>
    <nd ref="297304725"/>
    <nd ref="2624169421"/>
    <nd ref="2624169419"/>
    <nd ref="297304729"/>
    <nd ref="297304731"/>
    <nd ref="297304734"/>
    <nd ref="1833285331"/>
    <nd ref="8797389545"/>
    <nd ref="297304738"/>
    <nd ref="297304742"/>
    <nd ref="297304749"/>
    <nd ref="1858858240"/>
    <nd ref="263861057"/>
    <nd ref="2261840785"/>
    <nd ref="297304753"/>
    <nd ref="2279807924"/>
    <nd ref="297304755"/>
    <nd ref="8829854267"/>
    <nd ref="2279807919"/>
    <nd ref="297304756"/>
    <nd ref="297304757"/>
    <nd ref="2261840783"/>
    <nd ref="2261840782"/>
    <nd ref="297304759"/>
    <tag k="highway" v="unclassified"/>
    <tag k="source" v="survey"/>
  </way>
  <way id="306804739" version="4" timestamp="2019-05-23T15:52:20Z" changeset="70556973" uid="8893201" user="JonKrato">
    <nd ref="70995290"/>
    <nd ref="3957707429"/>
    <nd ref="1205914249"/>
    <nd ref="1205914245"/>
    <nd ref="6495445058"/>
    <nd ref="6495445060"/>
    <nd ref="3118116343"/>
    <nd ref="6495445059"/>
    <nd ref="1205914143"/>
    <tag k="highway" v="secondary"/>
    <tag k="lanes" v="1"/>
    <tag k="maxspeed" v="30 mph"/>
    <tag k="name" v="Alcester Road"/>
    <tag k="oneway" v="yes"/>
    <tag k="ref" v="B4089"/>
    <tag k="source" v="survey"/>
    <tag k="source:name" v="OS_Locator"/>
  </way>
  <way id="306804741" version="6" timestamp="2019-05-23T15:52:20Z" changeset="70556973" uid="8893201" user="JonKrato">
    <nd ref="70995293"/>
    <nd ref="322507"/>
    <tag k="highway" v="primary_link"/>
    <tag k="lanes" v="2"/>
    <tag k="maxspeed" v="30 mph"/>
    <tag k="source" v="survey"/>
  </way>
  <way id="306804743" version="6" timestamp="2024-08-15T13:31:28Z" changeset="155281704" uid="5589" user="user_5589">
    <nd ref="70995293"/>
    <nd ref="1205914265"/>
    <nd ref="6495445057"/>
    <nd ref="1205914143"/>
    <nd ref="1205914261"/>
    <nd ref="334595162"/>
    <nd ref="6495425593"/>
    <nd ref="1205914135"/>
    <nd ref="334595165"/>
    <nd ref="1205914357"/>
    <nd ref="334595169"/>
    <nd ref="334595171"/>
    <nd ref="334595174"/>
    <tag k="highway" v="primary"/>
    <tag k="lanes" v="1"/>
    <tag k="maxspeed" v="30 mph"/>
    <tag k="oneway" v="yes"/>
    <tag k="ref" v="A3400"/>
  </way>
  <way id="306804744" version="5" timestamp="2024-08-15T13:31:35Z" changeset="155281704" uid="5589" user="user_5589">
    <nd ref="3118116352"/>
    <nd ref="70995293"/>
    <tag k="highway" v="primary"/>
    <tag k="lanes" v="1"/>
    <tag k="maxspeed" v="30 mph"/>
    <tag k="oneway" v="yes"/>
    <tag k="ref" v="A3400"/>
  </way>
  <way id="330038138" version="3" timestamp="2024-01-20T18:12:10Z" changeset="146488626" uid="13445" user="zorque">
    <nd ref="3369959410"/>
    <nd ref="3369959412"/>
    <nd ref="3369959411"/>
    <nd ref="3369959409"/>
    <nd ref="3369959414"/>
    <nd ref="3369959413"/>
    <nd ref="3369959410"/>
    <tag k="addr:city" v="Henley-in-Arden"/>
    <tag k="addr:housenumber" v="24"/>
    <tag k="addr:postcode" v="B95 6AT"/>
    <tag k="addr:street" v="Mayswood Road"/>
    <tag k="addr:suburb" v="Wootton Wawen"/>
    <tag k="building" v="house"/>
  </way>
  <way id="330038213" version="2" timestamp="2018-01-24T19:36:11Z" changeset="55722189" uid="9065" user="brianboru">
    <nd ref="3369959409"/>
    <nd ref="3369960479"/>
    <nd ref="3369960485"/>
    <nd ref="3369960481"/>
    <nd ref="3369960486"/>
    <nd ref="3369960484"/>
    <nd ref="3369960482"/>
    <nd ref="3369960480"/>
    <nd ref="3369959411"/>
    <nd ref="3369959409"/>
    <tag k="addr:city" v="Wootton Wawen"/>
    <tag k="addr:housenumber" v="23"/>
    <tag k="addr:street" v="Mayswood Road"/>
    <tag k="building" v="house"/>
  </way>
  <way id="330038225" version="2" timestamp="2018-01-24T19:36:11Z" changeset="55722189" uid="9065" user="brianboru">
    <nd ref="3369967621"/>
    <nd ref="3369967625"/>
    <nd ref="3369967622"/>
    <nd ref="3369967623"/>
    <nd ref="3369967624"/>
    <nd ref="3369967626"/>
    <nd ref="3369967621"/>
    <tag k="addr:city" v="Wootton Wawen"/>
    <tag k="addr:housenumber" v="22"/>
    <tag k="addr:street" v="Mayswood Road"/>
    <tag k="building" v="yes"/>
  </way>
  <way id="330038230" version="2" timestamp="2018-01-24T19:36:11Z" changeset="55722189" uid="9065" user="brianboru">
    <nd ref="3369959708"/>
    <nd ref="3369959707"/>
    <nd ref="3369959705"/>
    <nd ref="3369967623"/>
    <nd ref="3369967624"/>
    <nd ref="3369959706"/>
    <nd ref="3369959708"/>
    <tag k="addr:city" v="Wootton Wawen"/>
    <tag k="addr:street" v="Mayswood Road"/>
    <tag k="building" v="yes"/>
    <tag k="name" v="21 Mayswood Road"/>
  </way>
  <way id="331521018" version="3" timestamp="2020-10-25T06:19:22Z" changeset="93006705" uid="10219379" user="jaravn">
    <nd ref="1590146302"/>
    <nd ref="2204754114"/>
    <nd ref="1590146299"/>
    <nd ref="1590145971"/>
    <nd ref="1590146036"/>
    <nd ref="1590146034"/>
    <nd ref="1590146338"/>
    <nd ref="5359507477"/>
    <nd ref="1590146292"/>
    <nd ref="1590145862"/>
    <nd ref="8043687611"/>
    <nd ref="2876686449"/>
    <nd ref="1590146070"/>
    <nd ref="1590146066"/>
    <nd ref="5359507483"/>
    <nd ref="1590145701"/>
    <nd ref="1590145975"/>
    <nd ref="1590145755"/>
    <nd ref="1590145732"/>
    <nd ref="1590146062"/>
    <nd ref="1590146284"/>
    <tag k="highway" v="unclassified"/>
    <tag k="name" v="May's Hill"/>
    <tag k="source" v="Bing"/>
    <tag k="source:name" v="OSSV"/>
  </way>
  <way id="380617811" version="1" timestamp="2015-11-16T17:14:58Z" changeset="35356546" uid="9065" user="brianboru">
    <nd ref="305674665"/>
    <nd ref="305674663"/>
    <tag k="highway" v="unclassified"/>
    <tag k="name" v="Pennyford Lane"/>
  </way>
  <way id="392121947" version="3" timestamp="2024-01-10T21:36:35Z" changeset="146120097" uid="6816132" user="CjMalone">
    <nd ref="3953878076"/>
    <nd ref="3953878072"/>
    <nd ref="3953878074"/>
    <nd ref="3953878073"/>
    <nd ref="3953878068"/>
    <nd ref="3953878069"/>
    <nd ref="3953878061"/>
    <nd ref="3953878062"/>
    <nd ref="3953878065"/>
    <nd ref="3953878066"/>
    <nd ref="3953878076"/>
    <tag k="amenity" v="pub"/>
    <tag k="brand" v="Marston's"/>
    <tag k="brand:wikidata" v="Q6773982"/>
    <tag k="building" v="pub"/>
    <tag k="name" v="Bulls Head"/>
    <tag k="website" v="https://www.thebullshead.pub/"/>
    <tag k="wikidata" v="Q26662266"/>
  </way>
  <way id="392121951" version="2" timestamp="2020-10-22T18:02:38Z" changeset="92912994" uid="9065" user="brianboru">
    <nd ref="3953877841"/>
    <nd ref="3953877840"/>
    <nd ref="3953877838"/>
    <nd ref="3953877839"/>
    <nd ref="3953877841"/>
    <tag k="amenity" v="nightclub"/>
    <tag k="building" v="yes"/>
    <tag k="name" v="Wootton Wawen Social Club"/>
    <tag k="source" v="survey"/>
  </way>
  <way id="392121962" version="3" timestamp="2021-07-19T23:11:17Z" changeset="108277947" uid="493595" user="Yorvik Prestigitator">
    <nd ref="3953877847"/>
    <nd ref="3953877846"/>
    <nd ref="3953877842"/>
    <nd ref="3953877843"/>
    <nd ref="3953877845"/>
    <nd ref="3953877844"/>
    <nd ref="3953877847"/>
    <tag k="amenity" v="community_centre"/>
    <tag k="building" v="public"/>
    <tag k="community_centre" v="village_hall"/>
    <tag k="name" v="Wootton Wawen Village Hall"/>
    <tag k="source" v="Warwicks CC Aerial Imagery 2013"/>
  </way>
  <way id="392553844" version="1" timestamp="2016-01-21T07:20:56Z" changeset="36714377" uid="9065" user="brianboru">
    <nd ref="3957707468"/>
    <nd ref="297304794"/>
    <nd ref="1676118930"/>
    <nd ref="1676118931"/>
    <nd ref="1205914082"/>
    <nd ref="1676118932"/>
    <nd ref="297304795"/>
    <nd ref="1886072902"/>
    <nd ref="70995286"/>
    <tag k="highway" v="unclassified"/>
    <tag k="maxspeed" v="30 mph"/>
    <tag k="name" v="Wawensmere Road"/>
    <tag k="source" v="survey"/>
  </way>
  <way id="392553953" version="1" timestamp="2016-01-21T07:21:02Z" changeset="36714377" uid="9065" user="brianboru">
    <nd ref="3957707426"/>
    <nd ref="1205914377"/>
    <tag k="highway" v="primary_link"/>
  </way>
  <way id="488647770" version="4" timestamp="2023-05-07T12:12:06Z" changeset="135808608" uid="545369" user="bigfatfrog67">
    <nd ref="322592"/>
    <nd ref="3957725218"/>
    <nd ref="3957725223"/>
    <nd ref="3957725229"/>
    <nd ref="3957725242"/>
    <nd ref="6777205371"/>
    <nd ref="2300970424"/>
    <nd ref="6777205363"/>
    <nd ref="4809468344"/>
    <tag k="highway" v="unclassified"/>
    <tag k="maxspeed" v="30 mph"/>
    <tag k="name" v="Pettiford Lane"/>
    <tag k="sidewalk" v="no"/>
    <tag k="surface" v="asphalt"/>
  </way>
  <way id="522891973" version="3" timestamp="2022-10-06T11:45:21Z" changeset="127098883" uid="17299016" user="Russ (mechanical edit account)">
    <nd ref="5091726787"/>
    <nd ref="5091726788"/>
    <nd ref="9232352723"/>
    <nd ref="9232351382"/>
    <nd ref="5091726789"/>
    <nd ref="5091726790"/>
    <nd ref="5091726787"/>
    <tag k="brand" v="National Grid"/>
    <tag k="brand:wikidata" v="Q1465461"/>
    <tag k="building" v="industrial"/>
    <tag k="name" v="The Pound"/>
    <tag k="operator" v="National Grid Electricity Distribution Plc"/>
    <tag k="operator:old" v="Western Power Distribution"/>
    <tag k="operator:wikidata" v="Q7988183"/>
    <tag k="owner" v="National Grid Electricity Distribution (East Midlands) Plc"/>
    <tag k="owner:wikidata" v="Q114348127"/>
    <tag k="power" v="substation"/>
    <tag k="ref" v="2077"/>
    <tag k="ref:wpd" v="931558"/>
    <tag k="substation" v="yes"/>
  </way>
  <way id="530626794" version="5" timestamp="2024-08-15T13:32:40Z" changeset="155281704" uid="5589" user="user_5589">
    <nd ref="322475"/>
    <nd ref="1205914382"/>
    <nd ref="322474"/>
    <nd ref="5598696766"/>
    <nd ref="5660566893"/>
    <tag k="highway" v="primary"/>
    <tag k="maxspeed" v="30 mph"/>
    <tag k="name" v="Stratford Road"/>
    <tag k="ref" v="A3400"/>
  </way>
  <way id="530626795" version="5" timestamp="2024-08-15T13:32:55Z" changeset="155281704" uid="5589" user="user_5589">
    <nd ref="5152292996"/>
    <nd ref="8035695870"/>
    <nd ref="322470"/>
    <nd ref="4204784740"/>
    <nd ref="322469"/>
    <nd ref="5359507042"/>
    <nd ref="432789102"/>
    <nd ref="2180613933"/>
    <nd ref="322468"/>
    <nd ref="1409824529"/>
    <nd ref="322467"/>
    <tag k="highway" v="primary"/>
    <tag k="maxspeed" v="40 mph"/>
    <tag k="name" v="Stratford Road"/>
    <tag k="ref" v="A3400"/>
  </way>
  <way id="593326278" version="2" timestamp="2024-08-15T13:32:47Z" changeset="155281704" uid="5589" user="user_5589">
    <nd ref="5660566893"/>
    <nd ref="5359502907"/>
    <nd ref="322473"/>
    <nd ref="322472"/>
    <nd ref="322471"/>
    <nd ref="5152292996"/>
    <tag k="highway" v="primary"/>
    <tag k="maxspeed" v="40 mph"/>
    <tag k="name" v="Stratford Road"/>
    <tag k="ref" v="A3400"/>
  </way>
  <way id="593326279" version="2" timestamp="2018-10-16T15:00:32Z" changeset="63579527" uid="545369" user="bigfatfrog67">
    <nd ref="5990260276"/>
    <nd ref="5990260283"/>
    <nd ref="5990260278"/>
    <nd ref="5990260273"/>
    <nd ref="5990260281"/>
    <nd ref="5990260279"/>
    <nd ref="5990260282"/>
    <nd ref="5990260275"/>
    <nd ref="5990260276"/>
    <tag k="highway" v="residential"/>
    <tag k="junction" v="roundabout"/>
    <tag k="maxspeed" v="30 mph"/>
    <tag k="name" v="Keyte Gardens"/>
  </way>
  <way id="634881011" version="1" timestamp="2018-10-16T15:00:32Z" changeset="63579527" uid="545369" user="bigfatfrog67">
    <nd ref="5990260276"/>
    <nd ref="5990260280"/>
    <nd ref="5990260274"/>
    <nd ref="5990260277"/>
    <nd ref="5660566889"/>
    <nd ref="1205914350"/>
    <tag k="highway" v="residential"/>
    <tag k="maxspeed" v="30 mph"/>
    <tag k="name" v="Keyte Gardens"/>
  </way>
  <way id="691992035" version="2" timestamp="2024-08-15T13:31:45Z" changeset="155281704" uid="5589" user="user_5589">
    <nd ref="6495425586"/>
    <nd ref="322506"/>
    <nd ref="6495425585"/>
    <nd ref="6495431101"/>
    <nd ref="322507"/>
    <tag k="highway" v="primary"/>
    <tag k="lanes" v="2"/>
    <tag k="maxspeed" v="30 mph"/>
    <tag k="oneway" v="yes"/>
    <tag k="ref" v="A3400"/>
    <tag k="turn:lanes" v="through|right"/>
  </way>
  <way id="691992036" version="2" timestamp="2024-08-15T13:31:40Z" changeset="155281704" uid="5589" user="user_5589">
    <nd ref="1205914222"/>
    <nd ref="6495431100"/>
    <nd ref="322505"/>
    <nd ref="1205914341"/>
    <nd ref="6495425586"/>
    <tag k="highway" v="primary"/>
    <tag k="lanes" v="2"/>
    <tag k="maxspeed" v="30 mph"/>
    <tag k="oneway" v="yes"/>
    <tag k="ref" v="A3400"/>
  </way>
  <way id="691992037" version="2" timestamp="2024-08-15T13:31:53Z" changeset="155281704" uid="5589" user="user_5589">
    <nd ref="334595174"/>
    <nd ref="322503"/>
    <nd ref="322504"/>
    <nd ref="1205914222"/>
    <tag k="highway" v="primary"/>
    <tag k="lanes" v="1"/>
    <tag k="maxspeed" v="30 mph"/>
    <tag k="oneway" v="yes"/>
    <tag k="ref" v="A3400"/>
  </way>
  <way id="691993839" version="2" timestamp="2025-02-23T14:36:38Z" changeset="162854799" uid="563773" user="mrpacmanmap">
    <nd ref="6495445058"/>
    <nd ref="12612927575"/>
    <nd ref="70995293"/>
    <tag k="highway" v="secondary"/>
    <tag k="lanes" v="1"/>
    <tag k="maxspeed" v="30 mph"/>
    <tag k="name" v="Alcester Road"/>
    <tag k="oneway" v="yes"/>
    <tag k="ref" v="B4089"/>
    <tag k="source" v="survey"/>
    <tag k="source:name" v="OS_Locator"/>
  </way>
  <way id="691993840" version="1" timestamp="2019-05-23T15:52:19Z" changeset="70556973" uid="8893201" user="JonKrato">
    <nd ref="70995293"/>
    <nd ref="1205914191"/>
    <tag k="highway" v="secondary_link"/>
    <tag k="lanes" v="1"/>
    <tag k="maxspeed" v="30 mph"/>
    <tag k="oneway" v="yes"/>
    <tag k="ref" v="B4089"/>
    <tag k="source" v="survey"/>
  </way>
  <way id="900160895" version="2" timestamp="2021-09-25T09:58:54Z" changeset="111681377" uid="10019232" user="stevewm">
    <nd ref="8362733553"/>
    <nd ref="8362733552"/>
    <nd ref="8362733551"/>
    <nd ref="8362733550"/>
    <nd ref="8362733549"/>
    <nd ref="8362733548"/>
    <nd ref="8362733547"/>
    <nd ref="8362733546"/>
    <nd ref="8362733553"/>
    <tag k="amenity" v="restaurant"/>
    <tag k="building" v="yes"/>
    <tag k="name" v="The View"/>
    <tag k="source" v="bing"/>
  </way>
  <way id="998882920" version="2" timestamp="2024-10-31T19:56:58Z" changeset="158595930" uid="411244" user="RobJN">
    <nd ref="9222341208"/>
    <nd ref="9222341207"/>
    <nd ref="9222341206"/>
    <nd ref="9222341205"/>
    <nd ref="9222341208"/>
    <tag k="building" v="stable"/>
    <tag k="name" v="Equine Learning"/>
    <tag k="source" v="bing"/>
    <tag k="website" v="https://www.equinelearning.org.uk/"/>
  </way>
  <way id="1087246078" version="2" timestamp="2022-08-18T15:05:00Z" changeset="125064528" uid="5589" user="user_5589">
    <nd ref="61093841"/>
    <nd ref="61093842"/>
    <nd ref="61093843"/>
    <nd ref="61093845"/>
    <nd ref="61093846"/>
    <nd ref="61093847"/>
    <nd ref="1205852369"/>
    <nd ref="61093848"/>
    <nd ref="61093849"/>
    <nd ref="61093850"/>
    <nd ref="61093851"/>
    <nd ref="1945125284"/>
    <tag k="cycleway:both" v="no"/>
    <tag k="highway" v="primary"/>
    <tag k="lanes" v="2"/>
    <tag k="maxspeed" v="40 mph"/>
    <tag k="name" v="Warwick Road"/>
    <tag k="ref" v="A4189"/>
    <tag k="shoulder" v="no"/>
    <tag k="sidewalk" v="no"/>
    <tag k="source:name" v="OS_Locator"/>
    <tag k="surface" v="asphalt"/>
  </way>
  <way id="1362055876" version="1" timestamp="2025-02-22T22:41:45Z" changeset="162833995" uid="563773" user="mrpacmanmap">
    <nd ref="297304759"/>
    <nd ref="2279659121"/>
    <nd ref="297304760"/>
    <nd ref="5479015865"/>
    <nd ref="297304761"/>
    <nd ref="5479015891"/>
    <nd ref="2279659073"/>
    <nd ref="297304762"/>
    <nd ref="297304763"/>
    <nd ref="297304764"/>
    <nd ref="8829854269"/>
    <nd ref="8829854270"/>
    <nd ref="2279658997"/>
    <nd ref="8829854271"/>
    <nd ref="8829854272"/>
    <nd ref="2279658980"/>
    <nd ref="297304765"/>
    <nd ref="297304766"/>
    <nd ref="297304768"/>
    <nd ref="297304769"/>
    <nd ref="6311534040"/>
    <nd ref="297304770"/>
    <nd ref="297304771"/>
    <nd ref="300661773"/>
    <nd ref="300661753"/>
    <nd ref="297304773"/>
    <nd ref="2876686480"/>
    <tag k="highway" v="unclassified"/>
    <tag k="source" v="survey"/>
  </way>
  <way id="1362055877" version="1" timestamp="2025-02-22T22:41:45Z" changeset="162833995" uid="563773" user="mrpacmanmap">
    <nd ref="2876686480"/>
    <nd ref="2279658901"/>
    <nd ref="297304777"/>
    <tag k="highway" v="unclassified"/>
    <tag k="source" v="survey"/>
  </way>
  <way id="1362309342" version="1" timestamp="2025-02-23T14:36:38Z" changeset="162854799" uid="563773" user="mrpacmanmap">
    <nd ref="12612928918"/>
    <nd ref="253145094"/>
    <nd ref="334603105"/>
    <tag k="highway" v="unclassified"/>
    <tag k="maxweight" v="7.5"/>
    <tag k="name" v="Pennyford Lane"/>
  </way>
  <way id="1362391856" version="1" timestamp="2025-02-23T22:01:34Z" changeset="162870292" uid="563773" user="mrpacmanmap">
    <nd ref="674460654"/>
    <nd ref="2292887753"/>
    <nd ref="419241121"/>
    <nd ref="366904530"/>
    <nd ref="2292887727"/>
    <nd ref="2292887712"/>
    <nd ref="9022069549"/>
    <nd ref="366904532"/>
    <nd ref="2292887653"/>
    <nd ref="366904533"/>
    <nd ref="366904535"/>
    <nd ref="366904536"/>
    <nd ref="366904537"/>
    <nd ref="2292887506"/>
    <nd ref="2292887494"/>
    <nd ref="366904539"/>
    <nd ref="5106844950"/>
    <tag k="highway" v="tertiary"/>
    <tag k="maxspeed" v="60 mph"/>
    <tag k="maxspeed:type" v="GB:nsl_single"/>
    <tag k="name" v="Langley Road"/>
    <tag k="source" v="survey"/>
  </way>
  <way id="1362391857" version="1" timestamp="2025-02-23T22:01:34Z" changeset="162870292" uid="563773" user="mrpacmanmap">
    <nd ref="5106844951"/>
    <nd ref="366904541"/>
    <nd ref="5106844950"/>
    <tag k="highway" v="tertiary"/>
    <tag k="maxspeed" v="60 mph"/>
    <tag k="maxspeed:type" v="GB:nsl_single"/>
    <tag k="name" v="Langley Road"/>
    <tag k="source" v="survey"/>
  </way>

</osm>
