<?xml version="1.0" encoding="UTF-8"?>
<osm version="0.6" generator="Overpass API 0.7.62.8 e802775f">
<note>The data included in this document is from www.openstreetmap.org. The data is made available under ODbL.</note>
<meta osm_base="2025-10-23T16:52:46Z" areas="2025-10-23T08:56:18Z"/>

  <node id="28137711" lat="52.1933953" lon="-1.4602528" version="7" timestamp="2024-11-25T16:26:01Z" changeset="159580867" uid="5229644" user="Nathan_A_RF">
    <tag k="destination" v="B4451 Gaydon"/>
    <tag k="highway" v="motorway_junction"/>
    <tag k="ref" v="12"/>
  </node>
  <node id="262833216" lat="52.1596130" lon="-1.4353706" version="2" timestamp="2011-01-03T12:22:27Z" changeset="6848951" uid="9065" user="brianboru"/>
  <node id="278388254" lat="52.1383528" lon="-1.4121788" version="2" timestamp="2013-06-09T19:09:51Z" changeset="16486873" uid="9065" user="brianboru"/>
  <node id="1197376129" lat="52.1406580" lon="-1.3812203" version="2" timestamp="2013-05-02T04:55:26Z" changeset="15941737" uid="9065" user="brianboru"/>
  <node id="1197454869" lat="52.1406709" lon="-1.3810535" version="2" timestamp="2013-05-02T04:55:27Z" changeset="15941737" uid="9065" user="brianboru"/>
  <node id="1304474628" lat="52.0842092" lon="-1.3261157" version="1" timestamp="2011-05-29T07:41:26Z" changeset="8278070" uid="9065" user="brianboru"/>
  <node id="2029429284" lat="52.1464178" lon="-1.3772920" version="1" timestamp="2012-11-24T05:08:17Z" changeset="14008372" uid="4951" user="PeterEastern"/>
  <node id="3796250958" lat="52.1515647" lon="-1.4004118" version="2" timestamp="2017-01-07T16:26:53Z" changeset="44982686" uid="411244" user="RobJN"/>
  <node id="13076833245" lat="52.1441524" lon="-1.3723942" version="1" timestamp="2025-08-18T00:50:44Z" changeset="170590894" uid="13247722" user="TheCanMan"/>
  <way id="25544010" version="9" timestamp="2015-06-18T15:05:02Z" changeset="32052950" uid="154484" user="PeterP">
    <nd ref="278388256"/>
    <nd ref="2288710662"/>
    <nd ref="755815144"/>
    <nd ref="278388255"/>
    <nd ref="278388254"/>
    <tag k="highway" v="tertiary"/>
    <tag k="lanes" v="2"/>
    <tag k="source" v="survey"/>
  </way>
  <way id="37264710" version="19" timestamp="2024-01-20T09:18:48Z" changeset="146470516" uid="242345" user="confusedbuffalo">
    <nd ref="278388254"/>
    <nd ref="27504884"/>
    <nd ref="27504886"/>
    <nd ref="15830457"/>
    <nd ref="2373363748"/>
    <nd ref="27504888"/>
    <nd ref="1197375693"/>
    <nd ref="2373363736"/>
    <nd ref="15830456"/>
    <nd ref="1197376126"/>
    <nd ref="1197374783"/>
    <nd ref="27504889"/>
    <nd ref="7890210396"/>
    <nd ref="1197376179"/>
    <nd ref="7153522092"/>
    <nd ref="15830455"/>
    <nd ref="7153522100"/>
    <nd ref="1197374987"/>
    <nd ref="6904739093"/>
    <nd ref="27504890"/>
    <nd ref="2373359392"/>
    <nd ref="15830454"/>
    <nd ref="28214540"/>
    <nd ref="2373359388"/>
    <nd ref="27504891"/>
    <nd ref="28214541"/>
    <nd ref="27504893"/>
    <nd ref="28214539"/>
    <nd ref="15830453"/>
    <nd ref="28214537"/>
    <tag k="cycleway:both" v="no"/>
    <tag k="highway" v="secondary"/>
    <tag k="lanes" v="2"/>
    <tag k="maxspeed" v="50 mph"/>
    <tag k="maxspeed:type" v="sign"/>
    <tag k="ref" v="B4100"/>
    <tag k="sidewalk" v="no"/>
    <tag k="surface" v="asphalt"/>
  </way>
  <way id="39515443" version="32" timestamp="2024-11-25T16:26:01Z" changeset="159580867" uid="5229644" user="Nathan_A_RF">
    <nd ref="1304474628"/>
    <nd ref="214433"/>
    <nd ref="1611171066"/>
    <nd ref="1611171055"/>
    <nd ref="1611171051"/>
    <nd ref="1586150371"/>
    <nd ref="1586150432"/>
    <nd ref="1586150425"/>
    <nd ref="1586150399"/>
    <nd ref="1586150421"/>
    <nd ref="1586150369"/>
    <nd ref="1611173417"/>
    <nd ref="1586150376"/>
    <nd ref="1611173418"/>
    <nd ref="1586150437"/>
    <nd ref="1586150429"/>
    <nd ref="1586150434"/>
    <nd ref="1586150380"/>
    <nd ref="1586150441"/>
    <nd ref="1586150444"/>
    <nd ref="1586150377"/>
    <nd ref="214415"/>
    <nd ref="270652613"/>
    <nd ref="214413"/>
    <nd ref="1611173404"/>
    <nd ref="270652614"/>
    <nd ref="214411"/>
    <nd ref="270652617"/>
    <nd ref="1611173381"/>
    <nd ref="214409"/>
    <nd ref="1611173413"/>
    <nd ref="1611173376"/>
    <nd ref="214407"/>
    <nd ref="13561586"/>
    <nd ref="214405"/>
    <nd ref="13561588"/>
    <nd ref="1197376109"/>
    <nd ref="214403"/>
    <nd ref="214401"/>
    <nd ref="1611173395"/>
    <nd ref="214399"/>
    <nd ref="1611173415"/>
    <nd ref="214397"/>
    <nd ref="1611173367"/>
    <nd ref="214395"/>
    <nd ref="1197375740"/>
    <nd ref="13561590"/>
    <nd ref="1611173402"/>
    <nd ref="214393"/>
    <nd ref="1611173437"/>
    <nd ref="1611173397"/>
    <nd ref="1611173400"/>
    <nd ref="214391"/>
    <nd ref="1611173373"/>
    <nd ref="1197376226"/>
    <nd ref="214389"/>
    <nd ref="2288717038"/>
    <nd ref="2288717045"/>
    <nd ref="1611176074"/>
    <nd ref="214387"/>
    <nd ref="1304467121"/>
    <nd ref="214385"/>
    <nd ref="214383"/>
    <nd ref="2288726416"/>
    <nd ref="214381"/>
    <nd ref="1611176076"/>
    <nd ref="1611176075"/>
    <nd ref="1611176085"/>
    <nd ref="1611176066"/>
    <nd ref="1611176086"/>
    <nd ref="1611176073"/>
    <nd ref="1611176077"/>
    <nd ref="2288726597"/>
    <nd ref="1611176081"/>
    <nd ref="2288726612"/>
    <nd ref="1611176070"/>
    <nd ref="2288726627"/>
    <nd ref="1611176088"/>
    <nd ref="2288726655"/>
    <nd ref="1611176089"/>
    <nd ref="2288726685"/>
    <nd ref="1611176063"/>
    <nd ref="1611176083"/>
    <nd ref="1611176072"/>
    <nd ref="1611176087"/>
    <nd ref="1611176067"/>
    <nd ref="1611176069"/>
    <nd ref="1611176084"/>
    <nd ref="1611176078"/>
    <nd ref="214363"/>
    <tag k="active_traffic_management" v="no"/>
    <tag k="carriageway_ref" v="A"/>
    <tag k="highway" v="motorway"/>
    <tag k="int_ref" v="E 05"/>
    <tag k="lanes" v="3"/>
    <tag k="lit" v="no"/>
    <tag k="maxheight" v="default"/>
    <tag k="maxspeed" v="70 mph"/>
    <tag k="maxspeed:type" v="GB:motorway"/>
    <tag k="maxspeed:variable" v="no"/>
    <tag k="national_highways:area" v="DBFO30"/>
    <tag k="oneway" v="yes"/>
    <tag k="operator" v="National Highways"/>
    <tag k="operator:wikidata" v="Q5760006"/>
    <tag k="ref" v="M40"/>
    <tag k="source" v="survey;GPS;Bing"/>
    <tag k="surface" v="asphalt"/>
  </way>
  <way id="60538957" version="4" timestamp="2022-02-10T14:35:36Z" changeset="117248967" uid="346039" user="fitzsimons">
    <nd ref="9495551384"/>
    <nd ref="755815141"/>
    <tag k="highway" v="residential"/>
    <tag k="name" v="Park Close"/>
    <tag k="source" v="survey"/>
    <tag k="source:name" v="OS_OpenData_Locator"/>
  </way>
  <way id="60538958" version="6" timestamp="2022-12-24T16:02:53Z" changeset="130460468" uid="17702299" user="Fgjgdrou">
    <nd ref="755815146"/>
    <nd ref="2288710676"/>
    <nd ref="278388256"/>
    <tag k="bridge" v="yes"/>
    <tag k="highway" v="tertiary"/>
    <tag k="lanes" v="2"/>
    <tag k="layer" v="1"/>
    <tag k="lit" v="no"/>
    <tag k="maxweight:signed" v="no"/>
  </way>
  <way id="60538959" version="15" timestamp="2015-07-31T09:59:54Z" changeset="33002374" uid="9065" user="brianboru">
    <nd ref="278388254"/>
    <nd ref="470850930"/>
    <nd ref="470850929"/>
    <nd ref="2373363796"/>
    <nd ref="470850928"/>
    <nd ref="470850926"/>
    <nd ref="470850925"/>
    <nd ref="470850924"/>
    <nd ref="470850923"/>
    <nd ref="470850922"/>
    <nd ref="470850921"/>
    <nd ref="470850920"/>
    <nd ref="3608998729"/>
    <nd ref="2338498473"/>
    <nd ref="3608998731"/>
    <nd ref="759562758"/>
    <nd ref="2338498455"/>
    <nd ref="470850919"/>
    <nd ref="3608998730"/>
    <nd ref="470850918"/>
    <nd ref="2338498441"/>
    <nd ref="755815139"/>
    <nd ref="2338498453"/>
    <nd ref="470850917"/>
    <nd ref="470850916"/>
    <nd ref="2338498493"/>
    <nd ref="755815145"/>
    <nd ref="2338498499"/>
    <nd ref="470850915"/>
    <nd ref="2338498500"/>
    <nd ref="470850914"/>
    <nd ref="1080389045"/>
    <nd ref="470850912"/>
    <nd ref="1079271300"/>
    <nd ref="1079239835"/>
    <nd ref="1079239250"/>
    <nd ref="470850911"/>
    <tag k="highway" v="unclassified"/>
    <tag k="lanes" v="1"/>
    <tag k="maxweight" v="7.5"/>
    <tag k="source" v="gps_trace"/>
  </way>
  <way id="60538960" version="8" timestamp="2019-05-16T02:14:30Z" changeset="70298396" uid="9196098" user="flevin">
    <nd ref="278388261"/>
    <nd ref="2288710725"/>
    <nd ref="6476873288"/>
    <nd ref="2288710722"/>
    <nd ref="6476873289"/>
    <nd ref="2288710721"/>
    <nd ref="278388260"/>
    <nd ref="2288710716"/>
    <nd ref="278388259"/>
    <nd ref="278388258"/>
    <nd ref="278388257"/>
    <nd ref="755815146"/>
    <tag k="highway" v="tertiary"/>
    <tag k="lanes" v="2"/>
    <tag k="maxspeed" v="60 mph"/>
    <tag k="maxspeed:type" v="GB:nsl_single"/>
    <tag k="source" v="survey"/>
  </way>
  <way id="60677403" version="2" timestamp="2012-02-11T17:03:49Z" changeset="10654363" uid="165" user="Richard">
    <nd ref="1628543092"/>
    <nd ref="759554614"/>
    <nd ref="759554645"/>
    <nd ref="759554634"/>
    <nd ref="759554572"/>
    <tag k="highway" v="residential"/>
    <tag k="source" v="OS_OpenData_StreetView"/>
  </way>
  <way id="103702353" version="8" timestamp="2025-08-18T00:50:44Z" changeset="170590894" uid="13247722" user="TheCanMan">
    <nd ref="13076833245"/>
    <nd ref="1197296925"/>
    <nd ref="1197295835"/>
    <nd ref="1197298209"/>
    <nd ref="2289103771"/>
    <nd ref="1197297289"/>
    <nd ref="1197297726"/>
    <nd ref="1197296741"/>
    <nd ref="2289103782"/>
    <nd ref="10631197162"/>
    <nd ref="1197298982"/>
    <nd ref="2260269978"/>
    <nd ref="2029429284"/>
    <tag k="highway" v="unclassified"/>
    <tag k="maxspeed" v="60 mph"/>
    <tag k="name" v="Dassett Road"/>
    <tag k="source" v="bing"/>
    <tag k="source:name" v="OS_OpenData_Locator"/>
  </way>
  <way id="103706821" version="7" timestamp="2025-08-28T22:40:51Z" changeset="171157871" uid="13247722" user="TheCanMan">
    <nd ref="1197376129"/>
    <nd ref="2288710652"/>
    <nd ref="1197376254"/>
    <nd ref="2288710603"/>
    <nd ref="1197375883"/>
    <nd ref="2288710585"/>
    <nd ref="1197375396"/>
    <nd ref="1197374566"/>
    <nd ref="1197375235"/>
    <nd ref="1197376280"/>
    <nd ref="2375198927"/>
    <nd ref="2288710532"/>
    <nd ref="1197375919"/>
    <nd ref="1197375452"/>
    <nd ref="1197375696"/>
    <nd ref="1197375050"/>
    <nd ref="1197376184"/>
    <nd ref="1197375792"/>
    <tag k="cycleway:both" v="no"/>
    <tag k="highway" v="unclassified"/>
    <tag k="lanes" v="1"/>
    <tag k="maxspeed" v="60 mph"/>
    <tag k="source" v="survey"/>
    <tag k="surface" v="asphalt"/>
  </way>
  <way id="103721374" version="9" timestamp="2021-04-05T21:33:36Z" changeset="102358038" uid="5589" user="user_5589">
    <nd ref="278509639"/>
    <nd ref="1602340518"/>
    <nd ref="1197376181"/>
    <tag k="highway" v="tertiary"/>
    <tag k="maxspeed" v="30 mph"/>
    <tag k="source" v="survey"/>
  </way>
  <way id="140830274" version="10" timestamp="2024-01-20T09:18:48Z" changeset="146470516" uid="242345" user="confusedbuffalo">
    <nd ref="262833216"/>
    <nd ref="1080443743"/>
    <nd ref="15830699"/>
    <nd ref="2288717024"/>
    <nd ref="1080443830"/>
    <nd ref="1080443770"/>
    <nd ref="15830700"/>
    <nd ref="2288716959"/>
    <nd ref="1080443834"/>
    <nd ref="1080443826"/>
    <nd ref="15830701"/>
    <nd ref="1080443868"/>
    <nd ref="27504877"/>
    <nd ref="1812589633"/>
    <nd ref="27504878"/>
    <nd ref="1080443865"/>
    <nd ref="1080443750"/>
    <nd ref="15830703"/>
    <nd ref="27504879"/>
    <nd ref="1080443721"/>
    <nd ref="27504880"/>
    <nd ref="15830704"/>
    <nd ref="1080443803"/>
    <nd ref="2338498772"/>
    <nd ref="27504881"/>
    <nd ref="1080443744"/>
    <nd ref="15830705"/>
    <nd ref="1080443741"/>
    <nd ref="2338498663"/>
    <nd ref="2338498659"/>
    <nd ref="27504882"/>
    <tag k="cycleway:both" v="no"/>
    <tag k="highway" v="secondary"/>
    <tag k="maxspeed" v="50 mph"/>
    <tag k="maxspeed:type" v="sign"/>
    <tag k="ref" v="B4100"/>
    <tag k="sidewalk" v="no"/>
    <tag k="surface" v="asphalt"/>
  </way>
  <way id="147039102" version="9" timestamp="2025-08-18T00:56:49Z" changeset="170590983" uid="13247722" user="TheCanMan">
    <nd ref="1197454869"/>
    <nd ref="278509649"/>
    <nd ref="2375199692"/>
    <nd ref="1197374791"/>
    <nd ref="278509650"/>
    <nd ref="2375199729"/>
    <nd ref="278509651"/>
    <nd ref="1197455202"/>
    <nd ref="278509652"/>
    <nd ref="1197375566"/>
    <nd ref="10631197250"/>
    <nd ref="278509653"/>
    <nd ref="1197455359"/>
    <nd ref="1197455055"/>
    <nd ref="278509654"/>
    <nd ref="1197376019"/>
    <nd ref="13009337445"/>
    <nd ref="1198532170"/>
    <nd ref="13076806151"/>
    <tag k="highway" v="tertiary"/>
    <tag k="maxspeed" v="60 mph"/>
    <tag k="source" v="survey"/>
  </way>
  <way id="147039274" version="6" timestamp="2019-10-17T08:17:32Z" changeset="75819601" uid="10252561" user="scchevel">
    <nd ref="278509639"/>
    <nd ref="5896523026"/>
    <nd ref="1602342324"/>
    <nd ref="5896523028"/>
    <nd ref="1602342325"/>
    <nd ref="5896523027"/>
    <nd ref="1628543092"/>
    <nd ref="1602342326"/>
    <nd ref="6888283144"/>
    <nd ref="6888283134"/>
    <nd ref="1602342327"/>
    <nd ref="5804775029"/>
    <nd ref="1602342328"/>
    <nd ref="1602342329"/>
    <nd ref="1602342334"/>
    <nd ref="755815141"/>
    <tag k="highway" v="tertiary"/>
    <tag k="lanes" v="2"/>
    <tag k="maxspeed" v="30 mph"/>
    <tag k="source" v="survey"/>
  </way>
  <way id="147039385" version="8" timestamp="2025-07-01T14:09:49Z" changeset="168355889" uid="22685594" user="NTTrailsMEE">
    <nd ref="3269261572"/>
    <nd ref="1602344376"/>
    <nd ref="1602344378"/>
    <nd ref="5896520963"/>
    <nd ref="1602344379"/>
    <nd ref="1602344383"/>
    <nd ref="1602344384"/>
    <nd ref="1602344385"/>
    <nd ref="5896520962"/>
    <nd ref="1602344386"/>
    <nd ref="1602344387"/>
    <nd ref="1602344388"/>
    <tag k="highway" v="tertiary"/>
    <tag k="maxspeed" v="30 mph"/>
    <tag k="sidewalk" v="both"/>
    <tag k="sidewalk:both:smoothness" v="good"/>
    <tag k="sidewalk:both:surface" v="asphalt"/>
    <tag k="source" v="bing"/>
  </way>
  <way id="173059627" version="13" timestamp="2024-11-25T16:26:01Z" changeset="159580867" uid="5229644" user="Nathan_A_RF">
    <nd ref="28137711"/>
    <nd ref="1611179365"/>
    <nd ref="1614708668"/>
    <nd ref="1614708634"/>
    <nd ref="277356697"/>
    <nd ref="13561599"/>
    <nd ref="1611176071"/>
    <nd ref="214365"/>
    <nd ref="1611176092"/>
    <nd ref="1611176091"/>
    <nd ref="214368"/>
    <nd ref="2288726714"/>
    <nd ref="13561595"/>
    <nd ref="2288726687"/>
    <nd ref="214370"/>
    <nd ref="2288726657"/>
    <nd ref="2288726645"/>
    <nd ref="214372"/>
    <nd ref="2288726613"/>
    <nd ref="214374"/>
    <nd ref="214376"/>
    <nd ref="1304467128"/>
    <nd ref="1304467117"/>
    <nd ref="214378"/>
    <nd ref="13561593"/>
    <nd ref="214380"/>
    <nd ref="1304467113"/>
    <nd ref="214382"/>
    <nd ref="1304467129"/>
    <nd ref="214384"/>
    <nd ref="214386"/>
    <nd ref="2288717128"/>
    <nd ref="1611176080"/>
    <nd ref="214388"/>
    <nd ref="1611176064"/>
    <nd ref="2288717046"/>
    <nd ref="214390"/>
    <nd ref="1197375116"/>
    <nd ref="1611173435"/>
    <nd ref="214392"/>
    <nd ref="1611173390"/>
    <nd ref="1611173399"/>
    <nd ref="214394"/>
    <nd ref="1611173366"/>
    <nd ref="1611173430"/>
    <nd ref="13561591"/>
    <nd ref="1197375687"/>
    <nd ref="214396"/>
    <nd ref="1611173383"/>
    <nd ref="214398"/>
    <nd ref="214400"/>
    <nd ref="1611173382"/>
    <nd ref="214402"/>
    <nd ref="214404"/>
    <nd ref="1197374727"/>
    <nd ref="13561589"/>
    <nd ref="214406"/>
    <nd ref="13561584"/>
    <nd ref="214408"/>
    <nd ref="1611173396"/>
    <nd ref="214410"/>
    <nd ref="1611173436"/>
    <nd ref="270652616"/>
    <nd ref="214412"/>
    <nd ref="270652615"/>
    <nd ref="1586150470"/>
    <nd ref="1611173433"/>
    <nd ref="270652611"/>
    <nd ref="1586150383"/>
    <nd ref="1586150334"/>
    <nd ref="214420"/>
    <nd ref="1586150346"/>
    <nd ref="214422"/>
    <nd ref="1586150321"/>
    <nd ref="214424"/>
    <nd ref="1586150423"/>
    <nd ref="1586150366"/>
    <nd ref="1611173431"/>
    <nd ref="1586150374"/>
    <nd ref="1611173385"/>
    <nd ref="1586150324"/>
    <nd ref="1586150464"/>
    <nd ref="1586150328"/>
    <nd ref="1586150427"/>
    <nd ref="1611171056"/>
    <nd ref="1611171058"/>
    <nd ref="1611171062"/>
    <nd ref="1611171067"/>
    <nd ref="214434"/>
    <tag k="active_traffic_management" v="no"/>
    <tag k="carriageway_ref" v="B"/>
    <tag k="highway" v="motorway"/>
    <tag k="int_ref" v="E 05"/>
    <tag k="lanes" v="3"/>
    <tag k="lit" v="no"/>
    <tag k="maxheight" v="default"/>
    <tag k="maxspeed" v="70 mph"/>
    <tag k="maxspeed:type" v="GB:motorway"/>
    <tag k="maxspeed:variable" v="no"/>
    <tag k="national_highways:area" v="DBFO30"/>
    <tag k="oneway" v="yes"/>
    <tag k="operator" v="National Highways"/>
    <tag k="operator:wikidata" v="Q5760006"/>
    <tag k="ref" v="M40"/>
    <tag k="source" v="GPS;Bing;survey"/>
    <tag k="surface" v="asphalt"/>
  </way>
  <way id="192383220" version="8" timestamp="2025-08-18T00:50:44Z" changeset="170590894" uid="13247722" user="TheCanMan">
    <nd ref="2029429284"/>
    <nd ref="1197297947"/>
    <nd ref="1197297512"/>
    <nd ref="1197296353"/>
    <nd ref="1197298659"/>
    <nd ref="8032099452"/>
    <nd ref="1197297711"/>
    <nd ref="1197298141"/>
    <nd ref="1197297203"/>
    <nd ref="1197296015"/>
    <nd ref="2260339287"/>
    <nd ref="1197298445"/>
    <nd ref="2260339292"/>
    <nd ref="1197295823"/>
    <nd ref="1197298203"/>
    <nd ref="3269250747"/>
    <tag k="highway" v="unclassified"/>
    <tag k="maxspeed" v="60 mph"/>
    <tag k="source" v="bing"/>
  </way>
  <way id="298304797" version="3" timestamp="2019-05-16T02:14:30Z" changeset="70298396" uid="9196098" user="flevin">
    <nd ref="278388261"/>
    <nd ref="6476871084"/>
    <nd ref="1197375445"/>
    <nd ref="5896523025"/>
    <nd ref="278509639"/>
    <tag k="highway" v="tertiary"/>
    <tag k="lanes" v="2"/>
    <tag k="maxspeed" v="30 mph"/>
    <tag k="source" v="survey"/>
  </way>
  <way id="298304801" version="4" timestamp="2025-06-24T14:51:34Z" changeset="168053368" uid="22685594" user="NTTrailsMEE">
    <nd ref="3022201256"/>
    <nd ref="1602340515"/>
    <nd ref="6476871068"/>
    <nd ref="1602340513"/>
    <nd ref="1602340510"/>
    <nd ref="1602340506"/>
    <nd ref="1602340503"/>
    <nd ref="1602340501"/>
    <nd ref="1602340499"/>
    <nd ref="1602340497"/>
    <nd ref="1602340495"/>
    <nd ref="1602340492"/>
    <nd ref="1602340490"/>
    <nd ref="1602340478"/>
    <nd ref="1602340477"/>
    <nd ref="1602340467"/>
    <nd ref="1602340465"/>
    <nd ref="1602340463"/>
    <nd ref="1602340475"/>
    <nd ref="1602340474"/>
    <nd ref="1602340473"/>
    <tag k="highway" v="tertiary"/>
    <tag k="maxspeed" v="60 mph"/>
    <tag k="maxspeed:type" v="GB:nsl_single"/>
    <tag k="source" v="survey"/>
  </way>
  <way id="355287224" version="2" timestamp="2025-01-08T16:19:38Z" changeset="161139870" uid="5229644" user="Nathan_A_RF">
    <nd ref="1197376181"/>
    <nd ref="3022201256"/>
    <tag k="highway" v="tertiary"/>
    <tag k="maxspeed" v="30 mph"/>
    <tag k="source" v="survey"/>
  </way>
  <way id="376168510" version="4" timestamp="2025-06-24T14:51:34Z" changeset="168053368" uid="22685594" user="NTTrailsMEE">
    <nd ref="3269250726"/>
    <nd ref="1602344390"/>
    <nd ref="1602344392"/>
    <nd ref="1602344395"/>
    <nd ref="1602344397"/>
    <nd ref="4594554634"/>
    <nd ref="4594554640"/>
    <nd ref="1602344398"/>
    <nd ref="1602344399"/>
    <nd ref="8099559437"/>
    <nd ref="3796250958"/>
    <tag k="highway" v="tertiary"/>
    <tag k="incline" v="12%"/>
    <tag k="maxspeed" v="30 mph"/>
    <tag k="source" v="bing"/>
  </way>
  <way id="376168511" version="4" timestamp="2025-08-18T00:47:16Z" changeset="170590842" uid="13247722" user="TheCanMan">
    <nd ref="3796250958"/>
    <nd ref="1602344402"/>
    <nd ref="1602344403"/>
    <nd ref="1602344405"/>
    <nd ref="1602344408"/>
    <nd ref="1602344410"/>
    <nd ref="1602344411"/>
    <nd ref="1602344413"/>
    <nd ref="1602344414"/>
    <nd ref="8396641482"/>
    <nd ref="1602344415"/>
    <nd ref="1197298099"/>
    <tag k="highway" v="tertiary"/>
    <tag k="maxspeed" v="60 mph"/>
    <tag k="source" v="bing"/>
  </way>
  <way id="624425685" version="4" timestamp="2023-11-30T20:41:20Z" changeset="144639610" uid="504708" user="HillWithSmallFields">
    <nd ref="5896520956"/>
    <nd ref="5896520955"/>
    <nd ref="5896520954"/>
    <nd ref="5896520953"/>
    <nd ref="5896520952"/>
    <nd ref="5896520951"/>
    <nd ref="5896520950"/>
    <nd ref="5896520949"/>
    <nd ref="5896520948"/>
    <nd ref="5896520947"/>
    <nd ref="5896520946"/>
    <nd ref="5896520945"/>
    <nd ref="5896520956"/>
    <tag k="addr:city" v="Avon Dassett"/>
    <tag k="building" v="church"/>
    <tag k="disused:amenity" v="place_of_worship"/>
    <tag k="heritage" v="2"/>
    <tag k="heritage:operator" v="Historic England"/>
    <tag k="listed_status" v="Grade II*"/>
    <tag k="name" v="St John the Baptist"/>
    <tag k="ref:dove" v="12778"/>
    <tag k="religion" v="christian"/>
    <tag k="source" v="Warwicks CC Aerial Imagery 2013"/>
    <tag k="wikidata" v="Q7593708"/>
  </way>
  <way id="624425688" version="3" timestamp="2020-10-05T21:15:10Z" changeset="92007731" uid="364" user="Edward">
    <nd ref="5896520984"/>
    <nd ref="5896520983"/>
    <nd ref="5896520982"/>
    <nd ref="5896520981"/>
    <nd ref="5896520980"/>
    <nd ref="5896520979"/>
    <nd ref="5896520978"/>
    <nd ref="5896520977"/>
    <nd ref="5896520976"/>
    <nd ref="5896520975"/>
    <nd ref="5896520974"/>
    <nd ref="5896520973"/>
    <nd ref="5896520972"/>
    <nd ref="5896520984"/>
    <tag k="addr:city" v="Avon Dassett"/>
    <tag k="addr:housename" v="St Joseph Church"/>
    <tag k="addr:postcode" v="CV47 2AP"/>
    <tag k="amenity" v="place_of_worship"/>
    <tag k="building" v="church"/>
    <tag k="denomination" v="roman_catholic"/>
    <tag k="name" v="St Joseph"/>
    <tag k="religion" v="christian"/>
    <tag k="source" v="Warwicks CC Aerial Imagery 2013"/>
    <tag k="wikidata" v="Q26638312"/>
  </way>
  <way id="624425722" version="2" timestamp="2024-12-27T17:18:07Z" changeset="160685541" uid="21226027" user="DorneyLake123">
    <nd ref="5896509078"/>
    <nd ref="5896509077"/>
    <nd ref="5896509076"/>
    <nd ref="5896509075"/>
    <nd ref="5896509074"/>
    <nd ref="5896509073"/>
    <nd ref="5896509072"/>
    <nd ref="5896509071"/>
    <nd ref="5896509078"/>
    <tag k="amenity" v="pub"/>
    <tag k="building" v="yes"/>
    <tag k="fhrs:id" v="1284339"/>
    <tag k="name" v="The Yew Tree"/>
    <tag k="source" v="Warwicks CC Aerial Imagery 2013"/>
  </way>
  <way id="690354060" version="2" timestamp="2023-04-21T05:07:02Z" changeset="135176419" uid="17754196" user="indrajpt">
    <nd ref="6476873289"/>
    <nd ref="10828758990"/>
    <nd ref="6476873290"/>
    <nd ref="6476873291"/>
    <nd ref="6476873292"/>
    <nd ref="6476873293"/>
    <nd ref="6476873294"/>
    <nd ref="6476873295"/>
    <nd ref="6476873296"/>
    <tag k="access" v="private"/>
    <tag k="highway" v="residential"/>
  </way>
  <way id="1030066201" version="1" timestamp="2022-02-10T14:35:36Z" changeset="117248967" uid="346039" user="fitzsimons">
    <nd ref="755814604"/>
    <nd ref="2288716859"/>
    <nd ref="9495551384"/>
    <tag k="highway" v="unclassified"/>
    <tag k="name" v="Park Close"/>
    <tag k="source" v="survey"/>
    <tag k="source:name" v="OS_OpenData_Locator"/>
    <tag k="surface" v="concrete"/>
  </way>
  <way id="1201468069" version="3" timestamp="2024-01-20T09:18:48Z" changeset="146470516" uid="242345" user="confusedbuffalo">
    <nd ref="27504882"/>
    <nd ref="1080443779"/>
    <nd ref="1080443717"/>
    <nd ref="27504883"/>
    <nd ref="1080443726"/>
    <nd ref="1080443805"/>
    <nd ref="15830707"/>
    <nd ref="278388254"/>
    <tag k="cycleway:both" v="no"/>
    <tag k="highway" v="secondary"/>
    <tag k="lanes" v="2"/>
    <tag k="maxspeed" v="50 mph"/>
    <tag k="maxspeed:type" v="sign"/>
    <tag k="ref" v="B4100"/>
    <tag k="sidewalk" v="no"/>
    <tag k="surface" v="asphalt"/>
  </way>
  <way id="1409243420" version="2" timestamp="2025-07-01T14:09:49Z" changeset="168355889" uid="22685594" user="NTTrailsMEE">
    <nd ref="1197376129"/>
    <nd ref="1197454869"/>
    <tag k="highway" v="tertiary"/>
    <tag k="smoothness" v="excellent"/>
    <tag k="source" v="survey"/>
    <tag k="surface" v="asphalt"/>
  </way>
  <way id="1409243421" version="2" timestamp="2025-07-01T14:09:49Z" changeset="168355889" uid="22685594" user="NTTrailsMEE">
    <nd ref="1602340473"/>
    <nd ref="1602340471"/>
    <nd ref="1602340469"/>
    <nd ref="1602340457"/>
    <nd ref="1197376129"/>
    <tag k="highway" v="tertiary"/>
    <tag k="maxspeed" v="60 mph"/>
    <tag k="maxspeed:type" v="GB:nsl_single"/>
    <tag k="sidewalk" v="no"/>
    <tag k="smoothness" v="excellent"/>
    <tag k="source" v="survey"/>
    <tag k="surface" v="asphalt"/>
  </way>
  <way id="1409243422" version="1" timestamp="2025-06-24T14:51:34Z" changeset="168053368" uid="22685594" user="NTTrailsMEE">
    <nd ref="755815141"/>
    <nd ref="1602344373"/>
    <nd ref="1602344375"/>
    <nd ref="6863901914"/>
    <nd ref="5896520967"/>
    <nd ref="3269261572"/>
    <tag k="highway" v="tertiary"/>
    <tag k="maxspeed" v="30 mph"/>
    <tag k="source" v="bing"/>
  </way>
  <way id="1409243423" version="2" timestamp="2025-07-01T14:09:49Z" changeset="168355889" uid="22685594" user="NTTrailsMEE">
    <nd ref="1602344388"/>
    <nd ref="1602344389"/>
    <nd ref="3269250726"/>
    <tag k="highway" v="tertiary"/>
    <tag k="incline" v="12%"/>
    <tag k="maxspeed" v="30 mph"/>
    <tag k="sidewalk" v="left"/>
    <tag k="sidewalk:left:smoothness" v="intermediate"/>
    <tag k="sidewalk:left:surface" v="asphalt"/>
    <tag k="smoothness" v="good"/>
    <tag k="source" v="bing"/>
    <tag k="surface" v="asphalt"/>
  </way>

</osm>
