<?xml version="1.0" encoding="UTF-8"?>
<osm version="0.6" generator="Overpass API 0.7.62.8 e802775f">
<note>The data included in this document is from www.openstreetmap.org. The data is made available under ODbL.</note>
<meta osm_base="2025-10-23T17:01:53Z" areas="2025-10-23T14:54:58Z"/>

  <node id="26723246" lat="52.0720023" lon="-1.7499108" version="2" timestamp="2021-08-14T14:32:39Z" changeset="109672669" uid="9065" user="brianboru"/>
  <node id="30247821" lat="52.0813776" lon="-1.6742258" version="2" timestamp="2013-11-05T20:19:47Z" changeset="18736386" uid="9065" user="brianboru"/>
  <node id="254002849" lat="52.1121539" lon="-1.6913898" version="2" timestamp="2013-09-24T17:38:53Z" changeset="18013210" uid="493595" user="Yorvik Prestigitator"/>
  <node id="277913480" lat="52.0944914" lon="-1.6756231" version="3" timestamp="2013-12-13T14:04:33Z" changeset="19433317" uid="9065" user="brianboru"/>
  <node id="289655738" lat="52.0880680" lon="-1.6803467" version="2" timestamp="2010-08-24T21:03:23Z" changeset="5584144" uid="9065" user="brianboru"/>
  <node id="289656169" lat="52.0702695" lon="-1.7016703" version="3" timestamp="2013-09-13T08:30:54Z" changeset="17813252" uid="9065" user="brianboru"/>
  <node id="440698210" lat="52.0688467" lon="-1.6928114" version="3" timestamp="2013-11-05T20:19:47Z" changeset="18736386" uid="9065" user="brianboru"/>
  <node id="1683004829" lat="52.0960415" lon="-1.7038944" version="1" timestamp="2012-03-20T09:09:41Z" changeset="11039086" uid="84263" user="Robert Whittaker"/>
  <node id="2456561899" lat="52.0703144" lon="-1.7015103" version="1" timestamp="2013-09-13T08:30:48Z" changeset="17813252" uid="9065" user="brianboru"/>
  <way id="4746152" version="5" timestamp="2019-04-12T22:40:26Z" changeset="69164215" uid="322039" user="MacLondon">
    <nd ref="30247821"/>
    <nd ref="30247834"/>
    <nd ref="30247835"/>
    <nd ref="30247836"/>
    <nd ref="30247837"/>
    <nd ref="2521434650"/>
    <nd ref="30247838"/>
    <nd ref="30247839"/>
    <nd ref="30247840"/>
    <nd ref="440698200"/>
    <tag k="highway" v="unclassified"/>
  </way>
  <way id="4746153" version="7" timestamp="2021-03-24T15:15:42Z" changeset="101657527" uid="9641456" user="rababdul">
    <nd ref="30247841"/>
    <nd ref="7363083660"/>
    <nd ref="30247842"/>
    <nd ref="30247843"/>
    <nd ref="8557500957"/>
    <nd ref="30247844"/>
    <nd ref="30247845"/>
    <nd ref="30247846"/>
    <nd ref="30247847"/>
    <nd ref="30247848"/>
    <nd ref="30247849"/>
    <nd ref="30247850"/>
    <nd ref="30247851"/>
    <nd ref="30247852"/>
    <nd ref="30247853"/>
    <nd ref="30247854"/>
    <nd ref="4513395820"/>
    <nd ref="4513395818"/>
    <nd ref="30247855"/>
    <tag k="highway" v="unclassified"/>
  </way>
  <way id="4746154" version="10" timestamp="2021-08-19T11:45:50Z" changeset="109929415" uid="10208976" user="vchndl">
    <nd ref="30247857"/>
    <nd ref="3699996024"/>
    <nd ref="3699996010"/>
    <nd ref="30247858"/>
    <nd ref="878858663"/>
    <nd ref="3699995978"/>
    <nd ref="30247859"/>
    <nd ref="3699995966"/>
    <nd ref="3699995959"/>
    <nd ref="30247860"/>
    <nd ref="30247861"/>
    <nd ref="30247862"/>
    <nd ref="9019879397"/>
    <nd ref="3699995782"/>
    <nd ref="30247863"/>
    <nd ref="3699995736"/>
    <nd ref="3699995620"/>
    <nd ref="30247864"/>
    <nd ref="3699995617"/>
    <nd ref="30247865"/>
    <nd ref="2578189713"/>
    <nd ref="30247866"/>
    <tag k="highway" v="unclassified"/>
    <tag k="maxspeed" v="30 mph"/>
    <tag k="name" v="Front Street"/>
    <tag k="source" v="OS_OpenData_StreetView"/>
    <tag k="source:name" v="os_opendata_locator"/>
  </way>
  <way id="4746155" version="12" timestamp="2019-04-12T22:40:26Z" changeset="69164215" uid="322039" user="MacLondon">
    <nd ref="30247866"/>
    <nd ref="4513259694"/>
    <nd ref="2578189727"/>
    <nd ref="289655660"/>
    <nd ref="4513376097"/>
    <nd ref="877789128"/>
    <nd ref="4513259695"/>
    <nd ref="3699996017"/>
    <nd ref="877789702"/>
    <tag k="highway" v="unclassified"/>
    <tag k="maxspeed" v="30 mph"/>
    <tag k="name" v="Back Street"/>
    <tag k="source" v="OS_OpenData_StreetView"/>
    <tag k="source:name" v="os_opendata_locator"/>
  </way>
  <way id="4746156" version="11" timestamp="2024-08-14T14:27:16Z" changeset="155243908" uid="5589" user="user_5589">
    <nd ref="30247875"/>
    <nd ref="1683004786"/>
    <nd ref="1683004775"/>
    <nd ref="382097045"/>
    <nd ref="30247876"/>
    <nd ref="1753716324"/>
    <nd ref="30247877"/>
    <nd ref="30247878"/>
    <nd ref="6546607221"/>
    <nd ref="30247879"/>
    <nd ref="1683005040"/>
    <nd ref="1683004798"/>
    <tag k="highway" v="unclassified"/>
    <tag k="maxspeed" v="30 mph"/>
    <tag k="source" v="survey"/>
    <tag k="surface" v="asphalt"/>
  </way>
  <way id="23453747" version="12" timestamp="2020-11-12T05:03:06Z" changeset="93965783" uid="11735880" user="namanees">
    <nd ref="254002849"/>
    <nd ref="2470254332"/>
    <nd ref="254002850"/>
    <nd ref="254002851"/>
    <nd ref="254002860"/>
    <nd ref="2584844475"/>
    <nd ref="254002869"/>
    <nd ref="2278321241"/>
    <nd ref="254002870"/>
    <nd ref="2278321239"/>
    <nd ref="254002871"/>
    <nd ref="254002872"/>
    <nd ref="254002879"/>
    <nd ref="254002889"/>
    <nd ref="254002900"/>
    <nd ref="254002910"/>
    <nd ref="254002911"/>
    <nd ref="254002912"/>
    <nd ref="254002913"/>
    <nd ref="254002914"/>
    <nd ref="254002915"/>
    <nd ref="254002916"/>
    <nd ref="254002917"/>
    <nd ref="254002918"/>
    <nd ref="254002919"/>
    <nd ref="8110231146"/>
    <nd ref="254002920"/>
    <nd ref="254002921"/>
    <nd ref="254002922"/>
    <nd ref="254002924"/>
    <nd ref="2584852141"/>
    <nd ref="254002925"/>
    <nd ref="2584852137"/>
    <nd ref="254002926"/>
    <nd ref="254002927"/>
    <nd ref="6576509045"/>
    <nd ref="254002928"/>
    <nd ref="2578201098"/>
    <nd ref="254002929"/>
    <nd ref="254002930"/>
    <nd ref="254002931"/>
    <nd ref="254002932"/>
    <nd ref="254002933"/>
    <nd ref="4513443026"/>
    <nd ref="254002934"/>
    <nd ref="254002935"/>
    <tag k="highway" v="unclassified"/>
    <tag k="name" v="Stratford Road"/>
    <tag k="source" v="survey"/>
    <tag k="source:name" v="os_opendata_locator"/>
  </way>
  <way id="25504547" version="7" timestamp="2024-08-14T14:28:16Z" changeset="155243908" uid="5589" user="user_5589">
    <nd ref="254002935"/>
    <nd ref="4513443027"/>
    <nd ref="4513443029"/>
    <nd ref="277913841"/>
    <nd ref="4513443028"/>
    <nd ref="1683005021"/>
    <nd ref="277913842"/>
    <nd ref="4513443087"/>
    <nd ref="30247875"/>
    <tag k="highway" v="unclassified"/>
    <tag k="maxspeed" v="30 mph"/>
    <tag k="source" v="survey"/>
    <tag k="surface" v="asphalt"/>
  </way>
  <way id="26434005" version="15" timestamp="2021-08-14T14:32:39Z" changeset="109672669" uid="9065" user="brianboru">
    <nd ref="26723246"/>
    <nd ref="3288288964"/>
    <nd ref="289654115"/>
    <nd ref="2526812220"/>
    <nd ref="2526812215"/>
    <nd ref="289654116"/>
    <nd ref="289654117"/>
    <nd ref="2526812205"/>
    <nd ref="2526812203"/>
    <nd ref="289654118"/>
    <nd ref="289654120"/>
    <nd ref="289654121"/>
    <nd ref="289654122"/>
    <nd ref="289654123"/>
    <nd ref="9006714513"/>
    <nd ref="289654124"/>
    <nd ref="9006714514"/>
    <nd ref="7740180456"/>
    <nd ref="289654125"/>
    <nd ref="2526608360"/>
    <nd ref="289654126"/>
    <nd ref="289654127"/>
    <nd ref="289654128"/>
    <nd ref="2526812250"/>
    <nd ref="289654129"/>
    <nd ref="289654130"/>
    <nd ref="4194305123"/>
    <nd ref="433319066"/>
    <nd ref="2278326021"/>
    <nd ref="289654131"/>
    <nd ref="2278326023"/>
    <nd ref="289654132"/>
    <nd ref="336276351"/>
    <nd ref="289654133"/>
    <nd ref="289654134"/>
    <nd ref="289654135"/>
    <nd ref="2525408613"/>
    <nd ref="3665849049"/>
    <nd ref="289654136"/>
    <nd ref="289654137"/>
    <nd ref="289654138"/>
    <nd ref="2525408701"/>
    <nd ref="2525408705"/>
    <nd ref="289654139"/>
    <nd ref="289654140"/>
    <nd ref="2525408763"/>
    <nd ref="3699996095"/>
    <nd ref="289654141"/>
    <nd ref="289654142"/>
    <nd ref="289654143"/>
    <nd ref="289654144"/>
    <nd ref="289654145"/>
    <nd ref="2525408816"/>
    <nd ref="289654146"/>
    <nd ref="289654147"/>
    <nd ref="289654148"/>
    <nd ref="2525408850"/>
    <nd ref="2525408852"/>
    <nd ref="2525408853"/>
    <nd ref="289654149"/>
    <nd ref="2525408857"/>
    <nd ref="877789383"/>
    <nd ref="3699996375"/>
    <nd ref="289654150"/>
    <tag k="highway" v="unclassified"/>
    <tag k="source" v="bing"/>
  </way>
  <way id="26434092" version="13" timestamp="2021-07-13T06:59:32Z" changeset="107883627" uid="10170582" user="priymose">
    <nd ref="433319066"/>
    <nd ref="433319071"/>
    <nd ref="433319073"/>
    <nd ref="433319074"/>
    <nd ref="433319076"/>
    <nd ref="433319077"/>
    <nd ref="289655488"/>
    <nd ref="4194305155"/>
    <nd ref="4194305158"/>
    <nd ref="380327294"/>
    <nd ref="4194305159"/>
    <nd ref="289655489"/>
    <nd ref="289655490"/>
    <nd ref="7374741090"/>
    <nd ref="289655491"/>
    <nd ref="7374691780"/>
    <nd ref="4194305171"/>
    <nd ref="7374691774"/>
    <nd ref="289655492"/>
    <nd ref="1958191580"/>
    <nd ref="289655494"/>
    <nd ref="336276320"/>
    <nd ref="4194305198"/>
    <nd ref="289655495"/>
    <nd ref="4194305200"/>
    <nd ref="4194305202"/>
    <nd ref="289655496"/>
    <nd ref="8915644777"/>
    <nd ref="289655497"/>
    <nd ref="289655498"/>
    <nd ref="2525408609"/>
    <nd ref="289655500"/>
    <tag k="highway" v="unclassified"/>
    <tag k="name" v="Nebsworth Lane"/>
    <tag k="source" v="NPE"/>
    <tag k="source:name" v="os_opendata_locator"/>
  </way>
  <way id="26434123" version="12" timestamp="2021-03-23T09:37:26Z" changeset="101561867" uid="10205154" user="mundlk">
    <nd ref="30247857"/>
    <nd ref="3699996106"/>
    <nd ref="3699996225"/>
    <nd ref="878857311"/>
    <nd ref="878859029"/>
    <nd ref="2578189762"/>
    <nd ref="4513259745"/>
    <nd ref="289655719"/>
    <nd ref="4513443331"/>
    <nd ref="289655720"/>
    <nd ref="4513443329"/>
    <nd ref="4513443333"/>
    <nd ref="4513443332"/>
    <nd ref="336272231"/>
    <nd ref="4513259804"/>
    <nd ref="289655721"/>
    <nd ref="289655722"/>
    <nd ref="289655723"/>
    <nd ref="4513442889"/>
    <nd ref="4513442890"/>
    <nd ref="1753719052"/>
    <nd ref="4513442891"/>
    <nd ref="878856921"/>
    <nd ref="8553220624"/>
    <nd ref="4513442892"/>
    <nd ref="254002940"/>
    <tag k="highway" v="unclassified"/>
    <tag k="maxspeed" v="30 mph"/>
    <tag k="name" v="Front Street"/>
    <tag k="source" v="OS_OpenData_StreetView"/>
    <tag k="source:name" v="os_opendata_locator"/>
  </way>
  <way id="26434126" version="4" timestamp="2016-11-21T09:45:13Z" changeset="43842322" uid="9065" user="brianboru">
    <nd ref="30247855"/>
    <nd ref="4513395819"/>
    <nd ref="289655725"/>
    <nd ref="289655726"/>
    <nd ref="289655727"/>
    <nd ref="289655729"/>
    <nd ref="289655730"/>
    <nd ref="2521451124"/>
    <nd ref="289655732"/>
    <nd ref="289655734"/>
    <nd ref="289655736"/>
    <nd ref="289655737"/>
    <tag k="highway" v="unclassified"/>
    <tag k="source" v="survey;OS_OpenData_StreetView"/>
  </way>
  <way id="30477618" version="10" timestamp="2021-12-30T18:58:22Z" changeset="115578801" uid="14728729" user="Samuel Colvin">
    <nd ref="336272231"/>
    <nd ref="4513259803"/>
    <nd ref="336272239"/>
    <nd ref="336272247"/>
    <nd ref="336272254"/>
    <nd ref="1753719051"/>
    <nd ref="336272261"/>
    <nd ref="336272268"/>
    <nd ref="336272271"/>
    <nd ref="6474256298"/>
    <nd ref="336272274"/>
    <nd ref="6474256299"/>
    <nd ref="6474256294"/>
    <nd ref="336272281"/>
    <nd ref="336272287"/>
    <nd ref="3699996242"/>
    <tag k="highway" v="residential"/>
    <tag k="lit" v="no"/>
    <tag k="name" v="Middle Street"/>
    <tag k="source:name" v="os_opendata_locator"/>
    <tag k="surface" v="asphalt"/>
  </way>
  <way id="30477940" version="5" timestamp="2016-11-21T09:25:18Z" changeset="43841908" uid="9065" user="brianboru">
    <nd ref="30247862"/>
    <nd ref="3699995807"/>
    <nd ref="3699995790"/>
    <nd ref="3699995755"/>
    <nd ref="3699995624"/>
    <nd ref="336276175"/>
    <nd ref="336276178"/>
    <nd ref="3699995582"/>
    <nd ref="336276181"/>
    <nd ref="336276184"/>
    <nd ref="336276187"/>
    <nd ref="4513376191"/>
    <nd ref="336276190"/>
    <nd ref="4513376193"/>
    <nd ref="336276193"/>
    <nd ref="4513376192"/>
    <nd ref="336276196"/>
    <nd ref="336276200"/>
    <nd ref="336276203"/>
    <nd ref="336276206"/>
    <nd ref="3288254449"/>
    <nd ref="336276209"/>
    <tag k="highway" v="residential"/>
    <tag k="name" v="Grump Street"/>
    <tag k="source" v="OS_OpenData_StreetView"/>
  </way>
  <way id="33516210" version="6" timestamp="2024-08-14T14:28:18Z" changeset="155243908" uid="5589" user="user_5589">
    <nd ref="254002935"/>
    <nd ref="254002936"/>
    <nd ref="254002937"/>
    <nd ref="1683004926"/>
    <nd ref="254002938"/>
    <nd ref="254002939"/>
    <nd ref="254002940"/>
    <tag k="highway" v="unclassified"/>
    <tag k="maxspeed" v="30 mph"/>
    <tag k="surface" v="asphalt"/>
  </way>
  <way id="34067063" version="5" timestamp="2013-12-13T14:04:31Z" changeset="19433317" uid="9065" user="brianboru">
    <nd ref="254002944"/>
    <nd ref="1683004936"/>
    <nd ref="254002945"/>
    <nd ref="1683004932"/>
    <nd ref="254002946"/>
    <nd ref="1683004929"/>
    <nd ref="254002947"/>
    <nd ref="2578215045"/>
    <nd ref="2578215028"/>
    <nd ref="254002948"/>
    <nd ref="877789249"/>
    <tag k="highway" v="unclassified"/>
  </way>
  <way id="34067069" version="8" timestamp="2024-08-14T14:31:44Z" changeset="155244439" uid="5589" user="user_5589">
    <nd ref="254002940"/>
    <nd ref="4513440334"/>
    <nd ref="254002941"/>
    <nd ref="2578194389"/>
    <nd ref="254002942"/>
    <nd ref="878857529"/>
    <nd ref="10555049622"/>
    <nd ref="254002943"/>
    <nd ref="4438089579"/>
    <nd ref="2578194385"/>
    <nd ref="1683004939"/>
    <tag k="highway" v="tertiary"/>
    <tag k="maxspeed" v="30 mph"/>
    <tag k="name" v="Armscote Road"/>
    <tag k="surface" v="asphalt"/>
  </way>
  <way id="37593954" version="7" timestamp="2017-08-04T19:41:56Z" changeset="50848365" uid="346039" user="fitzsimons">
    <nd ref="30247841"/>
    <nd ref="1540773404"/>
    <nd ref="440698201"/>
    <nd ref="2521434638"/>
    <nd ref="2521434636"/>
    <nd ref="440698202"/>
    <nd ref="2521434633"/>
    <nd ref="440698203"/>
    <nd ref="1540773437"/>
    <nd ref="2521450929"/>
    <nd ref="440698204"/>
    <nd ref="5015313930"/>
    <nd ref="5015313929"/>
    <nd ref="440698205"/>
    <nd ref="1024941663"/>
    <nd ref="1024941644"/>
    <nd ref="1024941639"/>
    <nd ref="440698206"/>
    <nd ref="1024941658"/>
    <nd ref="1024941642"/>
    <nd ref="1024941651"/>
    <nd ref="2521450878"/>
    <nd ref="440698207"/>
    <nd ref="1540773489"/>
    <nd ref="1540773248"/>
    <nd ref="2521434513"/>
    <nd ref="440698208"/>
    <nd ref="2521434481"/>
    <nd ref="2521434473"/>
    <nd ref="1540773278"/>
    <nd ref="1540773317"/>
    <nd ref="2521434454"/>
    <nd ref="2521450806"/>
    <nd ref="440698209"/>
    <nd ref="2521450797"/>
    <nd ref="2521434419"/>
    <nd ref="2521434414"/>
    <nd ref="440698210"/>
    <tag k="highway" v="unclassified"/>
  </way>
  <way id="37623737" version="2" timestamp="2019-04-12T22:41:05Z" changeset="69164215" uid="322039" user="MacLondon">
    <nd ref="440698200"/>
    <nd ref="30247841"/>
    <tag k="highway" v="unclassified"/>
  </way>
  <way id="51982466" version="3" timestamp="2013-11-10T12:50:40Z" changeset="18815766" uid="9065" user="brianboru">
    <nd ref="289656186"/>
    <nd ref="289656188"/>
    <nd ref="289656190"/>
    <nd ref="2526403933"/>
    <nd ref="289656191"/>
    <nd ref="2526403946"/>
    <nd ref="289656192"/>
    <tag k="highway" v="unclassified"/>
    <tag k="name" v="Foxcote Hill"/>
    <tag k="source" v="NPE"/>
    <tag k="source:name" v="os_opendata_locator"/>
  </way>
  <way id="51982468" version="6" timestamp="2015-08-16T16:36:31Z" changeset="33373148" uid="411244" user="RobJN">
    <nd ref="289656192"/>
    <nd ref="2526403961"/>
    <nd ref="289656193"/>
    <nd ref="2526403982"/>
    <nd ref="289656194"/>
    <nd ref="289656195"/>
    <nd ref="1021377901"/>
    <nd ref="2526404006"/>
    <nd ref="1021377915"/>
    <nd ref="289656196"/>
    <nd ref="289656197"/>
    <nd ref="289656198"/>
    <nd ref="1021377911"/>
    <nd ref="2526404051"/>
    <nd ref="1021377907"/>
    <nd ref="2526404058"/>
    <nd ref="1021377912"/>
    <nd ref="1021377905"/>
    <nd ref="289656199"/>
    <nd ref="2526404100"/>
    <nd ref="2526404111"/>
    <nd ref="1021377893"/>
    <nd ref="1021377896"/>
    <nd ref="2526404238"/>
    <nd ref="289656200"/>
    <nd ref="878857478"/>
    <nd ref="3699995765"/>
    <nd ref="3699995804"/>
    <nd ref="3699995930"/>
    <nd ref="3699995940"/>
    <nd ref="3699995950"/>
    <nd ref="3699995958"/>
    <nd ref="3699995966"/>
    <tag k="highway" v="unclassified"/>
    <tag k="name" v="Foxcote Hill"/>
    <tag k="source" v="NPE"/>
    <tag k="source:name" v="os_opendata_locator"/>
  </way>
  <way id="60809851" version="3" timestamp="2013-12-13T14:04:31Z" changeset="19433317" uid="9065" user="brianboru">
    <nd ref="289655738"/>
    <nd ref="254002949"/>
    <nd ref="2578215014"/>
    <nd ref="254002950"/>
    <nd ref="254002951"/>
    <nd ref="254002952"/>
    <nd ref="2578214998"/>
    <nd ref="254002953"/>
    <nd ref="254002954"/>
    <nd ref="30247821"/>
    <tag k="highway" v="unclassified"/>
  </way>
  <way id="60809852" version="7" timestamp="2021-08-19T11:45:50Z" changeset="109929415" uid="10208976" user="vchndl">
    <nd ref="30247855"/>
    <nd ref="9019879388"/>
    <nd ref="8084401511"/>
    <nd ref="878859099"/>
    <nd ref="4513259693"/>
    <nd ref="30247857"/>
    <tag k="highway" v="unclassified"/>
    <tag k="name" v="Ballards Lane"/>
    <tag k="source:name" v="os_opendata_locator"/>
  </way>
  <way id="74211111" version="1" timestamp="2010-08-24T21:02:59Z" changeset="5584144" uid="9065" user="brianboru">
    <nd ref="877789249"/>
    <nd ref="289655738"/>
    <tag k="highway" v="unclassified"/>
  </way>
  <way id="74211135" version="16" timestamp="2025-05-10T11:48:24Z" changeset="166065741" uid="545369" user="bigfatfrog67">
    <nd ref="877789702"/>
    <nd ref="289655661"/>
    <nd ref="3699996033"/>
    <nd ref="3699996039"/>
    <nd ref="4513395958"/>
    <nd ref="30247867"/>
    <nd ref="30247868"/>
    <nd ref="3699996267"/>
    <nd ref="3699996271"/>
    <nd ref="30247869"/>
    <nd ref="30247870"/>
    <nd ref="1659009534"/>
    <nd ref="336272187"/>
    <nd ref="878857459"/>
    <nd ref="336272185"/>
    <nd ref="1753716327"/>
    <nd ref="2578194377"/>
    <nd ref="3699996312"/>
    <nd ref="4513259841"/>
    <nd ref="30247871"/>
    <nd ref="30247872"/>
    <nd ref="30247873"/>
    <nd ref="30247874"/>
    <nd ref="4513443088"/>
    <nd ref="30247875"/>
    <tag k="highway" v="unclassified"/>
    <tag k="lane_markings" v="no"/>
    <tag k="maxspeed" v="30 mph"/>
    <tag k="name" v="Back Street"/>
    <tag k="source" v="OS_OpenData_StreetView"/>
    <tag k="source:name" v="os_opendata_locator"/>
    <tag k="surface" v="asphalt"/>
    <tag k="width" v="5"/>
  </way>
  <way id="74211148" version="1" timestamp="2010-08-24T21:03:05Z" changeset="5584144" uid="9065" user="brianboru">
    <nd ref="877788950"/>
    <nd ref="289655738"/>
    <tag k="highway" v="unclassified"/>
    <tag k="source" v="survey"/>
  </way>
  <way id="74211172" version="2" timestamp="2016-11-21T07:48:13Z" changeset="43839792" uid="9065" user="brianboru">
    <nd ref="289655721"/>
    <nd ref="4513259805"/>
    <nd ref="4513259806"/>
    <nd ref="877789484"/>
    <nd ref="336272254"/>
    <tag k="highway" v="unclassified"/>
    <tag k="source" v="survey"/>
  </way>
  <way id="74211196" version="1" timestamp="2010-08-24T21:03:13Z" changeset="5584144" uid="9065" user="brianboru">
    <nd ref="289655737"/>
    <nd ref="877789150"/>
    <nd ref="877788950"/>
    <tag k="highway" v="unclassified"/>
    <tag k="source" v="survey;OS_OpenData_StreetView"/>
  </way>
  <way id="74211213" version="8" timestamp="2025-05-10T11:38:04Z" changeset="166063692" uid="545369" user="bigfatfrog67">
    <nd ref="877789809"/>
    <nd ref="2578189752"/>
    <nd ref="2578189755"/>
    <nd ref="2578189756"/>
    <nd ref="2578189753"/>
    <nd ref="877789608"/>
    <nd ref="877788669"/>
    <nd ref="2578189749"/>
    <nd ref="2578189737"/>
    <nd ref="2578189736"/>
    <nd ref="2578189746"/>
    <nd ref="2578189745"/>
    <nd ref="2578189741"/>
    <nd ref="3699996015"/>
    <nd ref="2578189738"/>
    <nd ref="877788731"/>
    <nd ref="2578189742"/>
    <nd ref="877789809"/>
    <tag k="amenity" v="place_of_worship"/>
    <tag k="building" v="yes"/>
    <tag k="denomination" v="anglican"/>
    <tag k="heritage" v="2"/>
    <tag k="heritage:operator" v="Historic England"/>
    <tag k="listed_status" v="Grade I"/>
    <tag k="name" v="St Mary the Virgin"/>
    <tag k="ref:dove" v="11494"/>
    <tag k="religion" v="christian"/>
    <tag k="source" v="visual survey;OS_OpenData_StreetView"/>
    <tag k="wheelchair" v="limited"/>
    <tag k="wikidata" v="Q17528279"/>
  </way>
  <way id="74211216" version="6" timestamp="2016-11-21T09:45:13Z" changeset="43842322" uid="9065" user="brianboru">
    <nd ref="4513376115"/>
    <nd ref="4513396216"/>
    <nd ref="289655511"/>
    <nd ref="2578189712"/>
    <nd ref="30247866"/>
    <tag k="highway" v="unclassified"/>
    <tag k="maxspeed" v="30 mph"/>
    <tag k="name" v="Campden Hill"/>
    <tag k="source" v="survey"/>
    <tag k="source:name" v="OS_OpenData_Locator"/>
  </way>
  <way id="74350105" version="4" timestamp="2015-08-16T16:36:30Z" changeset="33373148" uid="411244" user="RobJN">
    <nd ref="30247857"/>
    <nd ref="30247856"/>
    <nd ref="878856593"/>
    <nd ref="3699996096"/>
    <nd ref="878857117"/>
    <nd ref="3699996123"/>
    <nd ref="3699996228"/>
    <tag k="highway" v="residential"/>
    <tag k="name" v="Ballards Lane"/>
    <tag k="source" v="OS_OpenData_StreetView"/>
    <tag k="source:name" v="os_opendata_locator"/>
  </way>
  <way id="74350108" version="2" timestamp="2015-08-16T16:36:35Z" changeset="33373148" uid="411244" user="RobJN">
    <nd ref="336276184"/>
    <nd ref="3699969921"/>
    <nd ref="878857606"/>
    <tag k="highway" v="residential"/>
    <tag k="source" v="OS_OpenData_StreetView"/>
  </way>
  <way id="74350115" version="3" timestamp="2015-08-16T16:36:34Z" changeset="33373148" uid="411244" user="RobJN">
    <nd ref="877789532"/>
    <nd ref="1753719056"/>
    <nd ref="878856736"/>
    <nd ref="878857653"/>
    <nd ref="878858790"/>
    <nd ref="3699995983"/>
    <nd ref="30247859"/>
    <tag k="highway" v="residential"/>
    <tag k="name" v="Valanders Lane"/>
    <tag k="source" v="OS_OpenData_StreetView"/>
  </way>
  <way id="74350116" version="2" timestamp="2016-11-21T07:48:13Z" changeset="43839792" uid="9065" user="brianboru">
    <nd ref="878856798"/>
    <nd ref="878857532"/>
    <nd ref="4513260064"/>
    <nd ref="878857311"/>
    <tag k="highway" v="residential"/>
    <tag k="source" v="OS_OpenData_StreetView"/>
  </way>
  <way id="74350118" version="2" timestamp="2015-08-16T16:36:31Z" changeset="33373148" uid="411244" user="RobJN">
    <nd ref="30247864"/>
    <nd ref="3699995607"/>
    <nd ref="878856668"/>
    <nd ref="3699995577"/>
    <nd ref="878857606"/>
    <nd ref="3699995559"/>
    <nd ref="878858692"/>
    <nd ref="3699995554"/>
    <nd ref="878856562"/>
    <nd ref="3699995549"/>
    <nd ref="3699995543"/>
    <nd ref="3699995530"/>
    <nd ref="878857536"/>
    <nd ref="878858600"/>
    <nd ref="878857035"/>
    <tag k="highway" v="residential"/>
    <tag k="name" v="Frog Lane"/>
    <tag k="source" v="OS_OpenData_StreetView"/>
  </way>
  <way id="74350120" version="4" timestamp="2016-11-21T10:19:27Z" changeset="43843049" uid="9065" user="brianboru">
    <nd ref="878858432"/>
    <nd ref="878856641"/>
    <nd ref="4513440336"/>
    <nd ref="878857601"/>
    <nd ref="4513440337"/>
    <nd ref="878858079"/>
    <nd ref="878856552"/>
    <nd ref="878857529"/>
    <tag k="highway" v="residential"/>
    <tag k="name" v="Cross Leys"/>
    <tag k="source" v="OS_OpenData_StreetView"/>
    <tag k="source:name" v="OS_OpenData_Locator"/>
  </way>
  <way id="74350121" version="2" timestamp="2015-08-16T16:36:31Z" changeset="33373148" uid="411244" user="RobJN">
    <nd ref="878856744"/>
    <nd ref="878856970"/>
    <nd ref="878857842"/>
    <nd ref="878859029"/>
    <tag k="highway" v="residential"/>
    <tag k="name" v="Elm Close"/>
    <tag k="source" v="survey"/>
  </way>
  <way id="74350134" version="2" timestamp="2012-10-11T10:07:05Z" changeset="13452327" uid="373096" user="Simon Blake">
    <nd ref="878857682"/>
    <nd ref="878857898"/>
    <nd ref="878859099"/>
    <tag k="highway" v="residential"/>
    <tag k="name" v="Nellands Close"/>
    <tag k="source" v="OS_OpenData_StreetView"/>
    <tag k="source:name" v="os_opendata_locator"/>
  </way>
  <way id="74350143" version="5" timestamp="2023-01-14T18:29:16Z" changeset="131274334" uid="493595" user="Yorvik Prestigitator">
    <nd ref="878856921"/>
    <nd ref="4513442971"/>
    <nd ref="878857812"/>
    <nd ref="10555049621"/>
    <nd ref="878858368"/>
    <tag k="highway" v="residential"/>
    <tag k="name" v="Bennett Place"/>
    <tag k="source" v="OS_OpenData_StreetView"/>
  </way>
  <way id="74350177" version="1" timestamp="2010-08-25T14:33:05Z" changeset="5590307" uid="9065" user="brianboru">
    <nd ref="878858790"/>
    <nd ref="878858663"/>
    <tag k="highway" v="residential"/>
    <tag k="name" v="Valanders Lane"/>
    <tag k="source" v="OS_OpenData_StreetView"/>
  </way>
  <way id="74350223" version="6" timestamp="2024-12-12T04:12:34Z" changeset="160192187" uid="21226027" user="DorneyLake123">
    <nd ref="878858534"/>
    <nd ref="878856763"/>
    <nd ref="878857660"/>
    <nd ref="878858798"/>
    <nd ref="878857185"/>
    <nd ref="878858103"/>
    <nd ref="878858684"/>
    <nd ref="4513443025"/>
    <nd ref="4513443024"/>
    <nd ref="4513443023"/>
    <nd ref="4513443022"/>
    <nd ref="4513443021"/>
    <nd ref="4513443020"/>
    <nd ref="878857090"/>
    <nd ref="878857999"/>
    <nd ref="878859216"/>
    <nd ref="878858534"/>
    <tag k="amenity" v="pub"/>
    <tag k="building" v="yes"/>
    <tag k="fhrs:id" v="502826"/>
    <tag k="heritage" v="2"/>
    <tag k="heritage:operator" v="Historic England"/>
    <tag k="listed_status" v="Grade II"/>
    <tag k="name" v="The Howard Arms"/>
    <tag k="outdoor_seating" v="yes"/>
    <tag k="source" v="visual survey;OS_OpenData_StreetView"/>
    <tag k="wikidata" v="Q111368503"/>
  </way>
  <way id="87886339" version="3" timestamp="2013-09-13T08:30:54Z" changeset="17813252" uid="9065" user="brianboru">
    <nd ref="289656169"/>
    <nd ref="2456561905"/>
    <nd ref="2456561909"/>
    <nd ref="2456561913"/>
    <nd ref="2456561923"/>
    <nd ref="289656170"/>
    <nd ref="2456561975"/>
    <nd ref="1021377908"/>
    <nd ref="2456561986"/>
    <nd ref="2456561990"/>
    <nd ref="289656171"/>
    <nd ref="289656172"/>
    <nd ref="289656173"/>
    <nd ref="1021377910"/>
    <nd ref="1021377906"/>
    <nd ref="1021377903"/>
    <nd ref="289656174"/>
    <nd ref="289656175"/>
    <nd ref="289656176"/>
    <nd ref="289656177"/>
    <nd ref="289656178"/>
    <nd ref="289656179"/>
    <nd ref="289656180"/>
    <nd ref="289656181"/>
    <nd ref="289656182"/>
    <nd ref="289656184"/>
    <nd ref="1024936126"/>
    <nd ref="289656186"/>
    <tag k="highway" v="unclassified"/>
    <tag k="source" v="NPE"/>
  </way>
  <way id="142152231" version="4" timestamp="2019-06-23T11:14:45Z" changeset="71529392" uid="8683362" user="riteshaw">
    <nd ref="440698210"/>
    <nd ref="2521434411"/>
    <nd ref="1540773358"/>
    <nd ref="1540773341"/>
    <nd ref="6565859386"/>
    <nd ref="1540773370"/>
    <nd ref="1540773366"/>
    <nd ref="1540773376"/>
    <nd ref="1540773403"/>
    <nd ref="1540773401"/>
    <nd ref="1540773408"/>
    <nd ref="1540773427"/>
    <nd ref="2456561896"/>
    <nd ref="1540773426"/>
    <nd ref="2456561899"/>
    <nd ref="289656169"/>
    <tag k="highway" v="unclassified"/>
  </way>
  <way id="155965973" version="5" timestamp="2024-08-14T14:27:16Z" changeset="155243908" uid="5589" user="user_5589">
    <nd ref="1683004798"/>
    <nd ref="382097041"/>
    <nd ref="382097043"/>
    <nd ref="30247880"/>
    <nd ref="1683004845"/>
    <nd ref="1683004809"/>
    <nd ref="1683004861"/>
    <nd ref="30247881"/>
    <nd ref="30247882"/>
    <nd ref="1683004849"/>
    <nd ref="1683004830"/>
    <nd ref="30247883"/>
    <nd ref="1683004829"/>
    <tag k="highway" v="unclassified"/>
    <tag k="maxspeed" v="60 mph"/>
    <tag k="maxspeed:type" v="GB:nsl_single"/>
    <tag k="name" v="Mickleton Road"/>
    <tag k="source" v="survey"/>
    <tag k="source:name" v="os__opendata_locator"/>
    <tag k="surface" v="asphalt"/>
  </way>
  <way id="155965997" version="3" timestamp="2024-08-14T14:31:49Z" changeset="155244439" uid="5589" user="user_5589">
    <nd ref="1683004939"/>
    <nd ref="254002944"/>
    <tag k="highway" v="tertiary"/>
    <tag k="maxspeed" v="60 mph"/>
    <tag k="maxspeed:type" v="GB:nsl_single"/>
    <tag k="name" v="Armscote Road"/>
    <tag k="surface" v="asphalt"/>
  </way>
  <way id="163691886" version="3" timestamp="2016-11-21T10:19:28Z" changeset="43843049" uid="9065" user="brianboru">
    <nd ref="4513442830"/>
    <nd ref="878856861"/>
    <nd ref="4513442831"/>
    <tag k="highway" v="residential"/>
    <tag k="name" v="Keyte Road"/>
    <tag k="source" v="OS_OpenData_StreetView"/>
    <tag k="source:name" v="OS_OpenData_Locator"/>
  </way>
  <way id="185261293" version="5" timestamp="2019-06-03T07:20:08Z" changeset="70874783" uid="8446894" user="kararcha">
    <nd ref="289655500"/>
    <nd ref="6517691975"/>
    <nd ref="289655501"/>
    <nd ref="289655502"/>
    <tag k="highway" v="unclassified"/>
    <tag k="name" v="Campden Pitch"/>
    <tag k="source" v="NPE"/>
    <tag k="source:name" v="os_opendata_locator"/>
  </way>
  <way id="185261296" version="5" timestamp="2024-08-14T14:27:07Z" changeset="155243908" uid="5589" user="user_5589">
    <nd ref="1683004829"/>
    <nd ref="382097047"/>
    <nd ref="1683004819"/>
    <nd ref="1683004814"/>
    <nd ref="30247884"/>
    <nd ref="30247885"/>
    <nd ref="30247886"/>
    <nd ref="6728552405"/>
    <nd ref="30247887"/>
    <nd ref="30247888"/>
    <nd ref="289654151"/>
    <tag k="highway" v="unclassified"/>
    <tag k="maxspeed" v="60 mph"/>
    <tag k="maxspeed:type" v="GB:nsl_single"/>
    <tag k="name" v="Park Lane"/>
    <tag k="source" v="survey"/>
    <tag k="source:name" v="os_opendata_locator"/>
    <tag k="surface" v="asphalt"/>
  </way>
  <way id="185261302" version="4" timestamp="2016-11-21T09:25:19Z" changeset="43841908" uid="9065" user="brianboru">
    <nd ref="289655509"/>
    <nd ref="289655510"/>
    <nd ref="3288254442"/>
    <nd ref="4513376115"/>
    <tag k="highway" v="unclassified"/>
    <tag k="incline" v="-14%"/>
    <tag k="maxspeed" v="30 mph"/>
    <tag k="name" v="Campden Hill"/>
    <tag k="source" v="NPE"/>
    <tag k="source:name" v="OS_OpenData_Locator"/>
  </way>
  <way id="191357830" version="4" timestamp="2024-08-14T14:31:39Z" changeset="155244439" uid="5589" user="user_5589">
    <nd ref="277913480"/>
    <nd ref="1683004795"/>
    <nd ref="1683004797"/>
    <nd ref="1683004799"/>
    <nd ref="277913481"/>
    <nd ref="2578215119"/>
    <nd ref="2578215117"/>
    <nd ref="277913482"/>
    <nd ref="277913483"/>
    <nd ref="2578215096"/>
    <nd ref="277913484"/>
    <nd ref="1683004941"/>
    <nd ref="277913485"/>
    <nd ref="277913486"/>
    <nd ref="2578215086"/>
    <nd ref="2578215087"/>
    <nd ref="2578215093"/>
    <nd ref="277913487"/>
    <nd ref="254002944"/>
    <tag k="highway" v="tertiary"/>
    <tag k="maxspeed" v="60 mph"/>
    <tag k="maxspeed:type" v="GB:nsl_single"/>
    <tag k="name" v="Armscote Road"/>
    <tag k="surface" v="asphalt"/>
  </way>
  <way id="193627536" version="1" timestamp="2012-11-30T06:45:27Z" changeset="14095178" uid="4951" user="PeterEastern">
    <nd ref="878858368"/>
    <nd ref="878856861"/>
    <tag k="highway" v="residential"/>
    <tag k="name" v="Keyte Road"/>
    <tag k="source" v="OS_OpenData_StreetView"/>
    <tag k="source:name" v="OS_OpenData_Locator"/>
  </way>
  <way id="237780987" version="1" timestamp="2013-09-13T08:30:52Z" changeset="17813252" uid="9065" user="brianboru">
    <nd ref="2456561899"/>
    <nd ref="2456561909"/>
    <tag k="highway" v="unclassified"/>
    <tag k="source" v="bing"/>
  </way>
  <way id="244871558" version="3" timestamp="2022-10-22T16:37:17Z" changeset="127930096" uid="30587" user="IknowJoseph">
    <nd ref="2521434074"/>
    <nd ref="2521434077"/>
    <nd ref="2521434061"/>
    <nd ref="2521434059"/>
    <nd ref="2521434070"/>
    <nd ref="2521434069"/>
    <nd ref="2521434073"/>
    <nd ref="2521434074"/>
    <tag k="addr:postcode" v="GL55 6NY"/>
    <tag k="building" v="residential"/>
    <tag k="name" v="Hollow Cottage"/>
    <tag k="source" v="bing"/>
  </way>
  <way id="366004954" version="2" timestamp="2023-01-14T18:29:16Z" changeset="131274334" uid="493595" user="Yorvik Prestigitator">
    <nd ref="3699995788"/>
    <nd ref="3699995769"/>
    <nd ref="3699995770"/>
    <nd ref="3699995760"/>
    <nd ref="3699995763"/>
    <nd ref="3699995761"/>
    <nd ref="3699995766"/>
    <nd ref="3699995805"/>
    <nd ref="3699995788"/>
    <tag k="amenity" v="community_centre"/>
    <tag k="building" v="public"/>
    <tag k="community_centre" v="village_hall"/>
    <tag k="name" v="Ilmington Village Hall"/>
  </way>
  <way id="376144086" version="2" timestamp="2019-06-03T07:20:08Z" changeset="70874783" uid="8446894" user="kararcha">
    <nd ref="289655502"/>
    <nd ref="2525408642"/>
    <nd ref="6517691981"/>
    <nd ref="289655503"/>
    <nd ref="2525408645"/>
    <nd ref="2525408648"/>
    <nd ref="289655504"/>
    <nd ref="2525408651"/>
    <nd ref="289655505"/>
    <nd ref="2525408657"/>
    <nd ref="289655506"/>
    <nd ref="2525408663"/>
    <nd ref="2525408664"/>
    <nd ref="3699969881"/>
    <nd ref="289655508"/>
    <nd ref="2525408659"/>
    <nd ref="2525408660"/>
    <nd ref="878857931"/>
    <nd ref="2525408670"/>
    <nd ref="289655509"/>
    <tag k="highway" v="unclassified"/>
    <tag k="incline" v="-14%"/>
    <tag k="name" v="Campden Pitch"/>
    <tag k="source" v="NPE"/>
    <tag k="source:name" v="os_opendata_locator"/>
  </way>
  <way id="419338475" version="2" timestamp="2019-08-01T18:55:15Z" changeset="72911630" uid="9065" user="brianboru">
    <nd ref="4194304886"/>
    <nd ref="4194304888"/>
    <nd ref="4194304884"/>
    <nd ref="4194304882"/>
    <nd ref="4194305092"/>
    <nd ref="4194304887"/>
    <nd ref="4194304883"/>
    <nd ref="4194304881"/>
    <nd ref="4194305089"/>
    <nd ref="4194305097"/>
    <nd ref="4194305098"/>
    <nd ref="4194305101"/>
    <nd ref="4194305100"/>
    <nd ref="4194304886"/>
    <tag k="building" v="yes"/>
    <tag k="heritage" v="2"/>
    <tag k="heritage:operator" v="Historic England"/>
    <tag k="listed_status" v="Grade II*"/>
    <tag k="name" v="Foxcote House"/>
  </way>
  <way id="446564294" version="2" timestamp="2020-08-27T14:41:35Z" changeset="90033330" uid="9065" user="brianboru">
    <nd ref="7850274216"/>
    <nd ref="4438089577"/>
    <nd ref="7850274215"/>
    <nd ref="4438089578"/>
    <nd ref="4438089579"/>
    <tag k="highway" v="residential"/>
    <tag k="name" v="Wilkins Way"/>
    <tag k="source" v="gps survey"/>
  </way>
  <way id="454822992" version="1" timestamp="2016-11-21T07:48:10Z" changeset="43839792" uid="9065" user="brianboru">
    <nd ref="4513260076"/>
    <nd ref="4513260075"/>
    <nd ref="4513260074"/>
    <nd ref="4513260073"/>
    <nd ref="4513260072"/>
    <nd ref="4513260071"/>
    <nd ref="4513260070"/>
    <nd ref="4513260069"/>
    <nd ref="4513260068"/>
    <nd ref="4513260067"/>
    <nd ref="4513260066"/>
    <nd ref="4513260065"/>
    <nd ref="4513260076"/>
    <tag k="building" v="pub"/>
    <tag k="name" v="Red Lion"/>
    <tag k="source" v="Warwicks CC Aerial Imagery 2013"/>
  </way>
  <way id="454822993" version="4" timestamp="2025-05-10T10:52:01Z" changeset="166063692" uid="545369" user="bigfatfrog67">
    <nd ref="4513260082"/>
    <nd ref="4513260089"/>
    <nd ref="4513260088"/>
    <nd ref="4513260087"/>
    <nd ref="4513260086"/>
    <nd ref="4513260085"/>
    <nd ref="4513260084"/>
    <nd ref="4513260083"/>
    <nd ref="4513260082"/>
    <tag k="addr:city" v="Ilmington"/>
    <tag k="addr:postcode" v="CV36 4LE"/>
    <tag k="addr:street" v="Grump Street"/>
    <tag k="building" v="yes"/>
    <tag k="name" v="Ilmington Community Shop"/>
    <tag k="shop" v="convenience"/>
    <tag k="website" v="https://www.ilmingtonshop.co.uk/"/>
    <tag k="wheelchair" v="yes"/>
  </way>
  <way id="454841704" version="2" timestamp="2018-08-05T14:17:38Z" changeset="61374992" uid="165" user="Richard">
    <nd ref="4513376101"/>
    <nd ref="4513376100"/>
    <nd ref="4513376099"/>
    <nd ref="4513376098"/>
    <nd ref="4513376097"/>
    <tag k="highway" v="residential"/>
    <tag k="name" v="Hurdlers Lane"/>
    <tag k="source" v="Warwicks CC Aerial Imagery 2013"/>
    <tag k="source:name" v="survey"/>
  </way>
  <way id="454841724" version="1" timestamp="2016-11-21T09:25:14Z" changeset="43841908" uid="9065" user="brianboru">
    <nd ref="4513376256"/>
    <nd ref="4513376255"/>
    <nd ref="4513376254"/>
    <nd ref="4513376253"/>
    <nd ref="4513376252"/>
    <nd ref="4513376251"/>
    <nd ref="4513376250"/>
    <nd ref="4513376249"/>
    <nd ref="4513376248"/>
    <nd ref="4513376247"/>
    <nd ref="4513376246"/>
    <nd ref="4513376245"/>
    <nd ref="4513376244"/>
    <nd ref="4513376256"/>
    <tag k="building" v="residential"/>
    <tag k="name" v="The Round House"/>
    <tag k="source" v="Warwicks CC Aerial Imagery 2013"/>
  </way>
  <way id="454849772" version="1" timestamp="2016-11-21T10:19:20Z" changeset="43843049" uid="9065" user="brianboru">
    <nd ref="878856641"/>
    <nd ref="4513440335"/>
    <tag k="highway" v="residential"/>
    <tag k="name" v="Cross Leys"/>
    <tag k="source" v="Warwicks CC Aerial Imagery 2013"/>
  </way>
  <way id="690996614" version="1" timestamp="2019-05-19T07:38:31Z" changeset="70403071" uid="9196091" user="hkkollip">
    <nd ref="4513442891"/>
    <nd ref="6483438765"/>
    <nd ref="6483438766"/>
    <nd ref="6483438767"/>
    <tag k="access" v="private"/>
    <tag k="highway" v="residential"/>
  </way>
  <way id="841367441" version="1" timestamp="2020-08-27T14:41:35Z" changeset="90033330" uid="9065" user="brianboru">
    <nd ref="4438089576"/>
    <nd ref="4438089577"/>
    <tag k="highway" v="residential"/>
    <tag k="name" v="Wilkins Way"/>
    <tag k="source" v="gps survey"/>
  </way>
  <way id="1076402934" version="1" timestamp="2022-07-06T18:14:19Z" changeset="123288296" uid="9065" user="brianboru">
    <nd ref="9870857305"/>
    <nd ref="9870857304"/>
    <nd ref="9870857303"/>
    <nd ref="9870857302"/>
    <nd ref="9870857305"/>
    <tag k="building" v="agricultural"/>
    <tag k="heritage" v="2"/>
    <tag k="heritage:operator" v="Historic England"/>
    <tag k="listed_status" v="Grade II"/>
    <tag k="name" v="Dunstall Buildings Barn"/>
    <tag k="source" v="bing"/>
  </way>

</osm>
