<?xml version="1.0" encoding="UTF-8"?>
<osm version="0.6" generator="Overpass API 0.7.62.8 e802775f">
<note>The data included in this document is from www.openstreetmap.org. The data is made available under ODbL.</note>
<meta osm_base="2025-10-23T16:56:47Z" areas="2025-10-23T14:54:58Z"/>

  <node id="212988" lat="52.2599608" lon="-1.6133858" version="2" timestamp="2012-01-17T08:47:21Z" changeset="10415460" uid="9065" user="brianboru"/>
  <node id="212998" lat="52.2567372" lon="-1.5971478" version="6" timestamp="2018-06-20T18:07:47Z" changeset="60018444" uid="9065" user="brianboru"/>
  <node id="15830805" lat="52.2604457" lon="-1.6151907" version="7" timestamp="2022-07-01T12:09:56Z" changeset="123084008" uid="5589" user="user_5589"/>
  <node id="26335790" lat="52.2459890" lon="-1.6104892" version="5" timestamp="2025-02-02T19:15:03Z" changeset="162059586" uid="19756269" user="RyanBush"/>
  <node id="26335797" lat="52.2467378" lon="-1.6094472" version="3" timestamp="2023-08-01T23:01:41Z" changeset="139321127" uid="5589" user="user_5589"/>
  <node id="26623895" lat="52.2552392" lon="-1.6264155" version="5" timestamp="2011-10-25T15:49:33Z" changeset="9653344" uid="370105" user="ceperman"/>
  <node id="37869663" lat="52.2468845" lon="-1.6308444" version="2" timestamp="2013-04-13T16:07:23Z" changeset="15714092" uid="9065" user="brianboru"/>
  <node id="129964547" lat="52.2646588" lon="-1.6303907" version="5" timestamp="2013-02-26T16:28:05Z" changeset="15174822" uid="5589" user="user_5589"/>
  <node id="252864919" lat="52.2688671" lon="-1.6659332" version="4" timestamp="2011-02-19T09:27:14Z" changeset="7329654" uid="9065" user="brianboru"/>
  <node id="252864930" lat="52.2702220" lon="-1.6461951" version="4" timestamp="2013-02-26T16:28:06Z" changeset="15174822" uid="5589" user="user_5589"/>
  <node id="304532449" lat="52.2597199" lon="-1.6118212" version="8" timestamp="2022-08-21T11:17:02Z" changeset="125178852" uid="5589" user="user_5589"/>
  <node id="1377829904" lat="52.2486708" lon="-1.6406555" version="1" timestamp="2011-07-29T17:47:33Z" changeset="8865455" uid="370105" user="ceperman"/>
  <node id="1597497768" lat="52.2612982" lon="-1.6179805" version="5" timestamp="2025-05-30T10:11:04Z" changeset="166963207" uid="5589" user="user_5589"/>
  <node id="1597506127" lat="52.2622309" lon="-1.6170421" version="4" timestamp="2025-05-30T10:11:04Z" changeset="166963207" uid="5589" user="user_5589"/>
  <node id="2303731463" lat="52.2503779" lon="-1.6376312" version="1" timestamp="2013-05-14T12:31:31Z" changeset="16124855" uid="84263" user="Robert Whittaker"/>
  <way id="4328108" version="13" timestamp="2025-02-02T19:15:03Z" changeset="162059586" uid="19756269" user="RyanBush">
    <nd ref="26335790"/>
    <nd ref="12552090681"/>
    <nd ref="1143060166"/>
    <nd ref="12552090682"/>
    <nd ref="1143060116"/>
    <nd ref="12552090683"/>
    <nd ref="1143060177"/>
    <nd ref="26335791"/>
    <tag k="bridge" v="yes"/>
    <tag k="highway" v="trunk"/>
    <tag k="lanes" v="2"/>
    <tag k="layer" v="1"/>
    <tag k="lit" v="no"/>
    <tag k="maxspeed" v="50 mph"/>
    <tag k="maxspeed:type" v="sign"/>
    <tag k="maxweight:signed" v="no"/>
    <tag k="name" v="Barford Bypass"/>
    <tag k="ref" v="A429"/>
    <tag k="shoulder" v="no"/>
    <tag k="source" v="survey"/>
    <tag k="source:maxspeed" v="survey"/>
    <tag k="start_date" v="2007-02"/>
    <tag k="surface" v="asphalt"/>
  </way>
  <way id="8097742" version="14" timestamp="2022-08-21T13:11:15Z" changeset="125183212" uid="5589" user="user_5589">
    <nd ref="32059322"/>
    <nd ref="1486011747"/>
    <nd ref="9967803604"/>
    <nd ref="37869636"/>
    <nd ref="37869638"/>
    <nd ref="37869639"/>
    <nd ref="37869641"/>
    <nd ref="37869642"/>
    <nd ref="37869643"/>
    <nd ref="37869645"/>
    <nd ref="37869646"/>
    <nd ref="2266033902"/>
    <nd ref="37869648"/>
    <nd ref="37869649"/>
    <nd ref="37869651"/>
    <nd ref="1933001110"/>
    <nd ref="6501627221"/>
    <nd ref="37869652"/>
    <nd ref="37869653"/>
    <nd ref="2266057897"/>
    <nd ref="37869654"/>
    <nd ref="37869655"/>
    <nd ref="2266057895"/>
    <nd ref="37869656"/>
    <nd ref="37869657"/>
    <nd ref="37869658"/>
    <nd ref="37869659"/>
    <nd ref="37869660"/>
    <nd ref="2266009035"/>
    <nd ref="37869661"/>
    <nd ref="37869662"/>
    <nd ref="37869663"/>
    <tag k="highway" v="unclassified"/>
    <tag k="name" v="Fulbrook Lane"/>
    <tag k="source:name" v="OS_Locator"/>
  </way>
  <way id="25643588" version="12" timestamp="2025-02-02T19:15:03Z" changeset="162059586" uid="19756269" user="RyanBush">
    <nd ref="15830612"/>
    <nd ref="12552090698"/>
    <nd ref="12552090699"/>
    <nd ref="1486011756"/>
    <nd ref="9967803598"/>
    <nd ref="32059321"/>
    <nd ref="2254570315"/>
    <nd ref="12552090700"/>
    <nd ref="1486011762"/>
    <nd ref="2254570322"/>
    <tag k="highway" v="trunk"/>
    <tag k="lanes" v="2"/>
    <tag k="maxspeed" v="50 mph"/>
    <tag k="maxspeed:type" v="sign"/>
    <tag k="ref" v="A429"/>
    <tag k="shoulder" v="no"/>
    <tag k="source" v="survey"/>
    <tag k="source:maxspeed" v="survey"/>
    <tag k="surface" v="asphalt"/>
  </way>
  <way id="25643589" version="11" timestamp="2025-02-02T19:15:03Z" changeset="162059586" uid="19756269" user="RyanBush">
    <nd ref="2254570322"/>
    <nd ref="26337287"/>
    <nd ref="12552090701"/>
    <nd ref="15830613"/>
    <nd ref="2178632413"/>
    <nd ref="2178632417"/>
    <nd ref="279534950"/>
    <nd ref="12552090702"/>
    <nd ref="9967803599"/>
    <nd ref="2178632414"/>
    <nd ref="26337290"/>
    <nd ref="279534944"/>
    <tag k="highway" v="trunk"/>
    <tag k="lanes" v="2"/>
    <tag k="maxspeed" v="50 mph"/>
    <tag k="maxspeed:type" v="sign"/>
    <tag k="ref" v="A429"/>
    <tag k="shoulder" v="no"/>
    <tag k="sidewalk" v="right"/>
    <tag k="source" v="survey"/>
    <tag k="source:maxspeed" v="survey"/>
    <tag k="surface" v="asphalt"/>
  </way>
  <way id="25643590" version="9" timestamp="2025-01-02T17:19:42Z" changeset="160917916" uid="5229644" user="Nathan_A_RF">
    <nd ref="32059322"/>
    <nd ref="2254570305"/>
    <nd ref="1486011753"/>
    <nd ref="9967803601"/>
    <nd ref="15830612"/>
    <tag k="highway" v="unclassified"/>
    <tag k="highway_authority_ref" v="D5571"/>
    <tag k="name" v="Watery Lane"/>
    <tag k="surface" v="asphalt"/>
  </way>
  <way id="27657561" version="29" timestamp="2024-10-28T17:13:49Z" changeset="158465594" uid="5229644" user="Nathan_A_RF">
    <nd ref="303764296"/>
    <nd ref="8693870931"/>
    <nd ref="303765355"/>
    <nd ref="8693839884"/>
    <nd ref="2178604001"/>
    <nd ref="8693839907"/>
    <nd ref="303764297"/>
    <tag k="foot" v="yes"/>
    <tag k="highway" v="trunk"/>
    <tag k="junction" v="roundabout"/>
    <tag k="lane_markings" v="yes"/>
    <tag k="lanes" v="2"/>
    <tag k="lit" v="yes"/>
    <tag k="maxspeed" v="40 mph"/>
    <tag k="national_highways:area" v="9"/>
    <tag k="oneway" v="yes"/>
    <tag k="operator" v="National Highways"/>
    <tag k="operator:wikidata" v="Q5760006"/>
    <tag k="parking:both" v="no"/>
    <tag k="parking:both:restriction" v="no_stopping"/>
    <tag k="parking:both:restriction:reason" v="clearway"/>
    <tag k="shoulder" v="no"/>
    <tag k="sidewalk" v="no"/>
    <tag k="surface" v="asphalt"/>
  </way>
  <way id="27657691" version="31" timestamp="2024-11-02T09:50:24Z" changeset="158650736" uid="21081459" user="Flynn_">
    <nd ref="303764299"/>
    <nd ref="2178604075"/>
    <nd ref="1507065028"/>
    <nd ref="9967834318"/>
    <nd ref="2199400613"/>
    <tag k="carriageway_ref" v="B"/>
    <tag k="expressway" v="yes"/>
    <tag k="foot" v="yes"/>
    <tag k="highway" v="trunk"/>
    <tag k="lanes" v="2"/>
    <tag k="lanes:forward" v="2"/>
    <tag k="lit" v="yes"/>
    <tag k="maxspeed" v="40 mph"/>
    <tag k="name" v="Stratford Road"/>
    <tag k="national_highways:area" v="9"/>
    <tag k="oneway" v="yes"/>
    <tag k="operator" v="National Highways"/>
    <tag k="operator:wikidata" v="Q5760006"/>
    <tag k="parking:both" v="no"/>
    <tag k="parking:both:restriction" v="no_stopping"/>
    <tag k="parking:both:restriction:reason" v="clearway"/>
    <tag k="ref" v="A46"/>
    <tag k="shoulder" v="no"/>
    <tag k="sidewalk" v="no"/>
    <tag k="surface" v="asphalt"/>
  </way>
  <way id="27657699" version="26" timestamp="2024-10-28T17:13:49Z" changeset="158465594" uid="5229644" user="Nathan_A_RF">
    <nd ref="303764296"/>
    <nd ref="2178604035"/>
    <nd ref="1507065030"/>
    <nd ref="2178604065"/>
    <nd ref="303766366"/>
    <nd ref="2178604003"/>
    <nd ref="2178604004"/>
    <nd ref="8693870950"/>
    <nd ref="1597506110"/>
    <tag k="cycleway:both" v="no"/>
    <tag k="dual_carriageway" v="yes"/>
    <tag k="foot" v="yes"/>
    <tag k="highway" v="trunk_link"/>
    <tag k="lanes" v="1"/>
    <tag k="lit" v="yes"/>
    <tag k="maxspeed" v="40 mph"/>
    <tag k="name" v="Stratford Road"/>
    <tag k="oneway" v="yes"/>
    <tag k="parking:both" v="no"/>
    <tag k="parking:both:restriction" v="no_stopping"/>
    <tag k="parking:both:restriction:reason" v="clearway"/>
    <tag k="ref" v="A46"/>
    <tag k="shoulder" v="no"/>
    <tag k="sidewalk" v="no"/>
    <tag k="surface" v="asphalt"/>
  </way>
  <way id="27657715" version="22" timestamp="2024-10-28T17:13:49Z" changeset="158465594" uid="5229644" user="Nathan_A_RF">
    <nd ref="303765505"/>
    <nd ref="2178603996"/>
    <nd ref="8693870988"/>
    <nd ref="303765559"/>
    <nd ref="8693839893"/>
    <nd ref="303765560"/>
    <nd ref="4058596102"/>
    <tag k="cycleway:both" v="no"/>
    <tag k="destination:lanes" v="Stratford|Stratford;B4463;Coventry"/>
    <tag k="dual_carriageway" v="yes"/>
    <tag k="foot" v="yes"/>
    <tag k="highway" v="trunk_link"/>
    <tag k="lanes" v="2"/>
    <tag k="lit" v="yes"/>
    <tag k="maxspeed" v="40 mph"/>
    <tag k="name" v="Stratford Road"/>
    <tag k="oneway" v="yes"/>
    <tag k="parking:both" v="no"/>
    <tag k="parking:both:restriction" v="no_stopping"/>
    <tag k="parking:both:restriction:reason" v="clearway"/>
    <tag k="ref" v="A46"/>
    <tag k="shoulder" v="no"/>
    <tag k="sidewalk" v="no"/>
    <tag k="surface" v="asphalt"/>
  </way>
  <way id="29591687" version="9" timestamp="2022-06-14T17:31:21Z" changeset="122382212" uid="9065" user="brianboru">
    <nd ref="252864919"/>
    <nd ref="2175273409"/>
    <nd ref="304062219"/>
    <nd ref="2175273407"/>
    <nd ref="1160910244"/>
    <nd ref="2175273367"/>
    <nd ref="252864920"/>
    <nd ref="2175273338"/>
    <nd ref="1160910230"/>
    <nd ref="2175273339"/>
    <nd ref="1160910282"/>
    <nd ref="2175273435"/>
    <nd ref="2175273399"/>
    <nd ref="252864921"/>
    <nd ref="2175273403"/>
    <nd ref="1160910266"/>
    <nd ref="2175273429"/>
    <nd ref="1160910250"/>
    <nd ref="2175273395"/>
    <nd ref="252864922"/>
    <nd ref="2175273400"/>
    <nd ref="2175273449"/>
    <nd ref="2264179745"/>
    <nd ref="252864923"/>
    <nd ref="2175273336"/>
    <nd ref="1160910243"/>
    <nd ref="1160910221"/>
    <nd ref="1160910257"/>
    <nd ref="662426309"/>
    <nd ref="1160910248"/>
    <nd ref="252864924"/>
    <nd ref="2264179764"/>
    <nd ref="1160910228"/>
    <nd ref="662426312"/>
    <nd ref="1160910273"/>
    <nd ref="252864925"/>
    <nd ref="1160910265"/>
    <nd ref="9817747274"/>
    <nd ref="252864926"/>
    <nd ref="1160910254"/>
    <nd ref="252864927"/>
    <nd ref="2175273456"/>
    <nd ref="2175273455"/>
    <nd ref="7218904460"/>
    <nd ref="2175273418"/>
    <nd ref="2175273384"/>
    <nd ref="252864928"/>
    <nd ref="252864929"/>
    <nd ref="2175273334"/>
    <nd ref="1160910236"/>
    <nd ref="2175273431"/>
    <nd ref="1080514121"/>
    <nd ref="2261991378"/>
    <nd ref="2175273363"/>
    <nd ref="2175273416"/>
    <nd ref="2175273414"/>
    <nd ref="252864930"/>
    <tag k="highway" v="tertiary"/>
    <tag k="name" v="Warwick Road"/>
  </way>
  <way id="29591693" version="6" timestamp="2023-01-20T12:24:48Z" changeset="131506449" uid="350183" user="Belseybob">
    <nd ref="252864930"/>
    <nd ref="252864931"/>
    <tag k="bridge" v="yes"/>
    <tag k="highway" v="tertiary"/>
    <tag k="layer" v="1"/>
    <tag k="lit" v="no"/>
    <tag k="maxweight:signed" v="no"/>
    <tag k="name" v="Warwick Road"/>
  </way>
  <way id="29592638" version="24" timestamp="2025-05-16T15:50:44Z" changeset="166357865" uid="133272" user="wongataa">
    <nd ref="15830805"/>
    <nd ref="2179962858"/>
    <nd ref="1154355323"/>
    <nd ref="2179962852"/>
    <nd ref="325983522"/>
    <nd ref="15830806"/>
    <tag k="bridge" v="yes"/>
    <tag k="cycleway:both" v="no"/>
    <tag k="foot" v="no"/>
    <tag k="highway" v="trunk"/>
    <tag k="junction" v="roundabout"/>
    <tag k="lanes" v="4"/>
    <tag k="layer" v="1"/>
    <tag k="lit" v="yes"/>
    <tag k="maxspeed" v="40 mph"/>
    <tag k="maxweight:signed" v="no"/>
    <tag k="name" v="Longbridge Roundabout"/>
    <tag k="oneway" v="yes"/>
    <tag k="parking:both" v="no"/>
    <tag k="parking:both:restriction" v="no_stopping"/>
    <tag k="parking:both:restriction:reason" v="clearway"/>
    <tag k="shoulder" v="no"/>
    <tag k="sidewalk" v="no"/>
    <tag k="surface" v="asphalt"/>
  </way>
  <way id="29592641" version="24" timestamp="2025-05-16T15:50:44Z" changeset="166357865" uid="133272" user="wongataa">
    <nd ref="304532449"/>
    <nd ref="2179962853"/>
    <nd ref="325983530"/>
    <nd ref="2179962851"/>
    <nd ref="1486011800"/>
    <nd ref="304532450"/>
    <tag k="bridge" v="yes"/>
    <tag k="cycleway:both" v="no"/>
    <tag k="destination:lanes" v="Cirencester;Stratford|Stratford;M40N|Coventry|Coventry"/>
    <tag k="foot" v="yes"/>
    <tag k="highway" v="trunk"/>
    <tag k="junction" v="roundabout"/>
    <tag k="lanes" v="4"/>
    <tag k="layer" v="1"/>
    <tag k="lit" v="yes"/>
    <tag k="maxspeed" v="40 mph"/>
    <tag k="maxweight:signed" v="no"/>
    <tag k="name" v="Longbridge Roundabout"/>
    <tag k="oneway" v="yes"/>
    <tag k="parking:both" v="no"/>
    <tag k="parking:both:restriction" v="no_stopping"/>
    <tag k="parking:both:restriction:reason" v="clearway"/>
    <tag k="shoulder" v="no"/>
    <tag k="sidewalk" v="no"/>
    <tag k="surface" v="asphalt"/>
  </way>
  <way id="29592642" version="27" timestamp="2025-05-16T15:50:44Z" changeset="166357865" uid="133272" user="wongataa">
    <nd ref="304532450"/>
    <nd ref="1154355312"/>
    <nd ref="8693870954"/>
    <nd ref="15830795"/>
    <nd ref="1597497727"/>
    <tag k="cycleway:both" v="no"/>
    <tag k="destination:lanes" v="Cirencester;Stratford|Stratford;M40N|Coventry|Coventry"/>
    <tag k="foot" v="yes"/>
    <tag k="highway" v="trunk"/>
    <tag k="junction" v="roundabout"/>
    <tag k="lanes" v="4"/>
    <tag k="lit" v="yes"/>
    <tag k="maxspeed" v="40 mph"/>
    <tag k="name" v="Longbridge Roundabout"/>
    <tag k="oneway" v="yes"/>
    <tag k="parking:both" v="no"/>
    <tag k="parking:both:restriction" v="no_stopping"/>
    <tag k="parking:both:restriction:reason" v="clearway"/>
    <tag k="shoulder" v="no"/>
    <tag k="sidewalk" v="no"/>
    <tag k="surface" v="asphalt"/>
  </way>
  <way id="29592643" version="9" timestamp="2025-06-09T11:10:13Z" changeset="167391244" uid="5589" user="user_5589">
    <nd ref="129964547"/>
    <nd ref="129964548"/>
    <tag k="bridge" v="yes"/>
    <tag k="cycleway:both" v="no"/>
    <tag k="highway" v="secondary"/>
    <tag k="lanes" v="2"/>
    <tag k="lanes:backward" v="1"/>
    <tag k="lanes:forward" v="1"/>
    <tag k="layer" v="1"/>
    <tag k="lit" v="no"/>
    <tag k="maxspeed" v="50 mph"/>
    <tag k="maxspeed:type" v="sign"/>
    <tag k="maxweight:signed" v="no"/>
    <tag k="ref" v="B4463"/>
    <tag k="shoulder" v="no"/>
    <tag k="sidewalk" v="no"/>
    <tag k="surface" v="asphalt"/>
  </way>
  <way id="39515444" version="25" timestamp="2024-11-25T17:11:28Z" changeset="159582756" uid="5229644" user="Nathan_A_RF">
    <nd ref="473391274"/>
    <nd ref="1080510882"/>
    <nd ref="1932764328"/>
    <nd ref="1080510885"/>
    <nd ref="1080510891"/>
    <nd ref="212996"/>
    <nd ref="860570669"/>
    <nd ref="1932764356"/>
    <nd ref="13561736"/>
    <nd ref="1932764329"/>
    <nd ref="860570670"/>
    <nd ref="1932764343"/>
    <nd ref="212994"/>
    <nd ref="9622037459"/>
    <nd ref="12374094795"/>
    <nd ref="1597497691"/>
    <nd ref="1932764322"/>
    <nd ref="212992"/>
    <nd ref="15830803"/>
    <nd ref="1932764330"/>
    <nd ref="212990"/>
    <nd ref="1932764338"/>
    <nd ref="1932764349"/>
    <nd ref="212988"/>
    <tag k="active_traffic_management" v="no"/>
    <tag k="carriageway_ref" v="A"/>
    <tag k="highway" v="motorway"/>
    <tag k="int_ref" v="E 05"/>
    <tag k="lanes" v="3"/>
    <tag k="lit" v="no"/>
    <tag k="maxheight" v="default"/>
    <tag k="maxspeed" v="70 mph"/>
    <tag k="maxspeed:type" v="GB:motorway"/>
    <tag k="maxspeed:variable" v="no"/>
    <tag k="national_highways:area" v="DBFO30"/>
    <tag k="oneway" v="yes"/>
    <tag k="operator" v="National Highways"/>
    <tag k="operator:wikidata" v="Q5760006"/>
    <tag k="ref" v="M40"/>
    <tag k="source" v="survey;GPS;Bing"/>
    <tag k="surface" v="asphalt"/>
  </way>
  <way id="46263552" version="28" timestamp="2024-11-02T09:50:24Z" changeset="158650736" uid="21081459" user="Flynn_">
    <nd ref="26623895"/>
    <nd ref="2178622052"/>
    <nd ref="2178622016"/>
    <nd ref="1154340202"/>
    <nd ref="2178622042"/>
    <nd ref="26623896"/>
    <nd ref="1154340184"/>
    <nd ref="1154340176"/>
    <nd ref="1154340172"/>
    <nd ref="26623897"/>
    <nd ref="7562553135"/>
    <nd ref="1154340182"/>
    <nd ref="2303731463"/>
    <nd ref="1154340197"/>
    <tag k="expressway" v="yes"/>
    <tag k="foot" v="yes"/>
    <tag k="highway" v="trunk"/>
    <tag k="lanes" v="2"/>
    <tag k="lit" v="no"/>
    <tag k="maxspeed" v="70 mph"/>
    <tag k="name" v="Stratford Road"/>
    <tag k="national_highways:area" v="9"/>
    <tag k="oneway" v="yes"/>
    <tag k="operator" v="National Highways"/>
    <tag k="operator:wikidata" v="Q5760006"/>
    <tag k="parking:both" v="no"/>
    <tag k="parking:both:restriction" v="no_stopping"/>
    <tag k="parking:both:restriction:reason" v="clearway"/>
    <tag k="ref" v="A46"/>
    <tag k="shoulder" v="both"/>
    <tag k="sidewalk" v="no"/>
    <tag k="surface" v="asphalt"/>
  </way>
  <way id="61373484" version="6" timestamp="2020-03-18T06:03:21Z" changeset="82331255" uid="9310284" user="mudunur">
    <nd ref="37869648"/>
    <nd ref="766425899"/>
    <nd ref="2266033898"/>
    <nd ref="766425902"/>
    <nd ref="7305069381"/>
    <nd ref="2266033893"/>
    <nd ref="6501627224"/>
    <nd ref="5705927420"/>
    <nd ref="7305069362"/>
    <nd ref="766425900"/>
    <nd ref="766425903"/>
    <nd ref="1480230242"/>
    <nd ref="1480230241"/>
    <nd ref="766425901"/>
    <tag k="highway" v="residential"/>
    <tag k="name" v="Church Road"/>
  </way>
  <way id="62306040" version="7" timestamp="2023-02-18T14:16:44Z" changeset="132716498" uid="5589" user="user_5589">
    <nd ref="763408362"/>
    <nd ref="778393245"/>
    <nd ref="5705927817"/>
    <nd ref="6907633400"/>
    <nd ref="778393244"/>
    <nd ref="5705927816"/>
    <nd ref="778393241"/>
    <nd ref="778393237"/>
    <nd ref="778393242"/>
    <nd ref="2266033936"/>
    <nd ref="1154355334"/>
    <nd ref="2266009059"/>
    <nd ref="778393239"/>
    <nd ref="10676279013"/>
    <tag k="hgv" v="destination"/>
    <tag k="highway" v="unclassified"/>
    <tag k="maxweightrating:hgv" v="7.5"/>
    <tag k="name" v="Vicarage Lane"/>
  </way>
  <way id="98821355" version="8" timestamp="2025-01-02T17:19:42Z" changeset="160917916" uid="5229644" user="Nathan_A_RF">
    <nd ref="1143060023"/>
    <nd ref="26335795"/>
    <tag k="bridge" v="yes"/>
    <tag k="highway" v="trunk"/>
    <tag k="lanes" v="3"/>
    <tag k="layer" v="1"/>
    <tag k="maxspeed" v="50 mph"/>
    <tag k="maxspeed:type" v="sign"/>
    <tag k="maxweight:signed" v="no"/>
    <tag k="name" v="Barford Bypass"/>
    <tag k="ref" v="A429"/>
    <tag k="sidewalk" v="no"/>
    <tag k="source" v="survey"/>
    <tag k="source:maxspeed" v="survey"/>
    <tag k="start_date" v="2007-02"/>
    <tag k="surface" v="asphalt"/>
  </way>
  <way id="98821356" version="9" timestamp="2025-02-02T19:15:03Z" changeset="162059586" uid="19756269" user="RyanBush">
    <nd ref="26335795"/>
    <nd ref="12552090685"/>
    <nd ref="15830609"/>
    <tag k="highway" v="trunk"/>
    <tag k="lanes" v="3"/>
    <tag k="maxspeed" v="50 mph"/>
    <tag k="maxspeed:type" v="sign"/>
    <tag k="name" v="Barford Bypass"/>
    <tag k="ref" v="A429"/>
    <tag k="sidewalk" v="no"/>
    <tag k="source" v="survey"/>
    <tag k="source:maxspeed" v="survey"/>
    <tag k="start_date" v="2007-02"/>
    <tag k="surface" v="asphalt"/>
  </way>
  <way id="99856042" version="4" timestamp="2023-02-18T14:16:44Z" changeset="132716498" uid="5589" user="user_5589">
    <nd ref="1154355299"/>
    <nd ref="8693870927"/>
    <nd ref="1154355358"/>
    <nd ref="8693839898"/>
    <nd ref="8693870936"/>
    <nd ref="1154355322"/>
    <nd ref="1154355385"/>
    <nd ref="5705927005"/>
    <nd ref="1154355351"/>
    <nd ref="1154355317"/>
    <nd ref="1154355373"/>
    <tag k="hgv" v="destination"/>
    <tag k="highway" v="residential"/>
    <tag k="maxweightrating:hgv" v="7.5"/>
    <tag k="name" v="Moat Green"/>
    <tag k="source" v="bing"/>
    <tag k="source:name" v="OS_Locator"/>
  </way>
  <way id="123246390" version="4" timestamp="2019-07-23T18:45:38Z" changeset="72572108" uid="115894" user="DaveF">
    <nd ref="37869663"/>
    <nd ref="37869665"/>
    <nd ref="37869667"/>
    <nd ref="37869669"/>
    <nd ref="2266009023"/>
    <nd ref="37869670"/>
    <nd ref="37869672"/>
    <nd ref="37869673"/>
    <nd ref="37869675"/>
    <nd ref="37869676"/>
    <nd ref="6554351382"/>
    <nd ref="37869677"/>
    <nd ref="37869679"/>
    <nd ref="37869681"/>
    <nd ref="37869682"/>
    <nd ref="37869684"/>
    <nd ref="37869685"/>
    <nd ref="37869687"/>
    <nd ref="37869688"/>
    <nd ref="37869690"/>
    <nd ref="1375046164"/>
    <tag k="highway" v="unclassified"/>
    <tag k="name" v="Fulbrook Lane"/>
    <tag k="source:name" v="OS_Locator"/>
  </way>
  <way id="123246396" version="7" timestamp="2025-06-09T11:10:05Z" changeset="167391244" uid="5589" user="user_5589">
    <nd ref="1278553291"/>
    <nd ref="129964546"/>
    <nd ref="129964547"/>
    <tag k="cycleway:both" v="no"/>
    <tag k="highway" v="secondary"/>
    <tag k="lanes" v="2"/>
    <tag k="lanes:backward" v="1"/>
    <tag k="lanes:forward" v="1"/>
    <tag k="maxspeed" v="50 mph"/>
    <tag k="maxspeed:type" v="sign"/>
    <tag k="ref" v="B4463"/>
    <tag k="shoulder" v="no"/>
    <tag k="sidewalk" v="no"/>
    <tag k="surface" v="asphalt"/>
  </way>
  <way id="132953340" version="22" timestamp="2024-10-28T17:13:49Z" changeset="158465594" uid="5229644" user="Nathan_A_RF">
    <nd ref="1937795552"/>
    <nd ref="2199383864"/>
    <nd ref="303765934"/>
    <nd ref="2199383862"/>
    <nd ref="303765935"/>
    <nd ref="2199383863"/>
    <nd ref="1937795548"/>
    <tag k="destination:lanes" v="Coventry|Coventry;M40;A429"/>
    <tag k="foot" v="yes"/>
    <tag k="highway" v="trunk"/>
    <tag k="junction" v="roundabout"/>
    <tag k="lane_markings" v="yes"/>
    <tag k="lanes" v="2"/>
    <tag k="lit" v="yes"/>
    <tag k="maxspeed" v="40 mph"/>
    <tag k="national_highways:area" v="9"/>
    <tag k="oneway" v="yes"/>
    <tag k="operator" v="National Highways"/>
    <tag k="operator:wikidata" v="Q5760006"/>
    <tag k="parking:both" v="no"/>
    <tag k="parking:both:restriction" v="no_stopping"/>
    <tag k="parking:both:restriction:reason" v="clearway"/>
    <tag k="shoulder" v="no"/>
    <tag k="sidewalk" v="no"/>
    <tag k="surface" v="asphalt"/>
  </way>
  <way id="132953341" version="19" timestamp="2025-05-16T15:50:44Z" changeset="166357865" uid="133272" user="wongataa">
    <nd ref="15830617"/>
    <nd ref="8693839886"/>
    <nd ref="1486011797"/>
    <nd ref="8693870975"/>
    <nd ref="1154355325"/>
    <nd ref="8693839889"/>
    <nd ref="1486011792"/>
    <nd ref="8693870974"/>
    <nd ref="26335803"/>
    <nd ref="8693870970"/>
    <nd ref="9967803610"/>
    <nd ref="26335804"/>
    <tag k="cycleway:both" v="no"/>
    <tag k="foot" v="no"/>
    <tag k="highway" v="trunk"/>
    <tag k="junction" v="roundabout"/>
    <tag k="lanes" v="4"/>
    <tag k="lit" v="yes"/>
    <tag k="maxspeed" v="40 mph"/>
    <tag k="name" v="Longbridge Roundabout"/>
    <tag k="oneway" v="yes"/>
    <tag k="parking:both" v="no"/>
    <tag k="parking:both:restriction" v="no_stopping"/>
    <tag k="parking:both:restriction:reason" v="clearway"/>
    <tag k="shoulder" v="no"/>
    <tag k="sidewalk" v="left"/>
    <tag k="sidewalk:left:surface" v="asphalt"/>
    <tag k="surface" v="asphalt"/>
  </way>
  <way id="132953350" version="21" timestamp="2024-10-28T17:13:49Z" changeset="158465594" uid="5229644" user="Nathan_A_RF">
    <nd ref="303764297"/>
    <nd ref="8693870943"/>
    <nd ref="303764298"/>
    <nd ref="2178604063"/>
    <nd ref="8693870969"/>
    <nd ref="303764299"/>
    <tag k="foot" v="yes"/>
    <tag k="highway" v="trunk"/>
    <tag k="junction" v="roundabout"/>
    <tag k="lane_markings" v="yes"/>
    <tag k="lanes" v="2"/>
    <tag k="lit" v="yes"/>
    <tag k="maxspeed" v="40 mph"/>
    <tag k="national_highways:area" v="9"/>
    <tag k="oneway" v="yes"/>
    <tag k="operator" v="National Highways"/>
    <tag k="operator:wikidata" v="Q5760006"/>
    <tag k="parking:both" v="no"/>
    <tag k="parking:both:restriction" v="no_stopping"/>
    <tag k="parking:both:restriction:reason" v="clearway"/>
    <tag k="shoulder" v="no"/>
    <tag k="sidewalk" v="no"/>
    <tag k="surface" v="asphalt"/>
  </way>
  <way id="132953353" version="22" timestamp="2025-05-16T15:50:44Z" changeset="166357865" uid="133272" user="wongataa">
    <nd ref="2179964637"/>
    <nd ref="2179964634"/>
    <nd ref="26335806"/>
    <nd ref="8693870958"/>
    <nd ref="2179964640"/>
    <nd ref="8693870932"/>
    <nd ref="26335807"/>
    <nd ref="2179962857"/>
    <nd ref="15830804"/>
    <nd ref="26335824"/>
    <tag k="cycleway:both" v="no"/>
    <tag k="foot" v="no"/>
    <tag k="highway" v="trunk"/>
    <tag k="junction" v="roundabout"/>
    <tag k="lanes" v="4"/>
    <tag k="lit" v="yes"/>
    <tag k="maxspeed" v="40 mph"/>
    <tag k="name" v="Longbridge Roundabout"/>
    <tag k="oneway" v="yes"/>
    <tag k="parking:both" v="no"/>
    <tag k="parking:both:restriction" v="no_stopping"/>
    <tag k="parking:both:restriction:reason" v="clearway"/>
    <tag k="shoulder" v="no"/>
    <tag k="sidewalk" v="no"/>
    <tag k="surface" v="asphalt"/>
  </way>
  <way id="132953361" version="21" timestamp="2024-10-28T17:13:49Z" changeset="158465594" uid="5229644" user="Nathan_A_RF">
    <nd ref="303764299"/>
    <nd ref="8693870947"/>
    <nd ref="1507065029"/>
    <nd ref="8693839904"/>
    <nd ref="1462980428"/>
    <nd ref="8693870961"/>
    <nd ref="2178604060"/>
    <nd ref="8693870976"/>
    <nd ref="303764300"/>
    <tag k="destination:lanes" v="B4463;Coventry|Coventry"/>
    <tag k="foot" v="yes"/>
    <tag k="highway" v="trunk"/>
    <tag k="junction" v="roundabout"/>
    <tag k="lane_markings" v="yes"/>
    <tag k="lanes" v="2"/>
    <tag k="lit" v="yes"/>
    <tag k="maxspeed" v="40 mph"/>
    <tag k="national_highways:area" v="9"/>
    <tag k="oneway" v="yes"/>
    <tag k="operator" v="National Highways"/>
    <tag k="operator:wikidata" v="Q5760006"/>
    <tag k="parking:both" v="no"/>
    <tag k="parking:both:restriction" v="no_stopping"/>
    <tag k="parking:both:restriction:reason" v="clearway"/>
    <tag k="shoulder" v="no"/>
    <tag k="sidewalk" v="no"/>
    <tag k="surface" v="asphalt"/>
  </way>
  <way id="132953365" version="18" timestamp="2025-05-16T15:50:44Z" changeset="166357865" uid="133272" user="wongataa">
    <nd ref="26335804"/>
    <nd ref="15830619"/>
    <tag k="cycleway:both" v="no"/>
    <tag k="foot" v="yes"/>
    <tag k="highway" v="trunk"/>
    <tag k="junction" v="roundabout"/>
    <tag k="lanes" v="4"/>
    <tag k="lit" v="yes"/>
    <tag k="maxspeed" v="40 mph"/>
    <tag k="name" v="Longbridge Roundabout"/>
    <tag k="oneway" v="yes"/>
    <tag k="parking:both" v="no"/>
    <tag k="parking:both:restriction" v="no_stopping"/>
    <tag k="parking:both:restriction:reason" v="clearway"/>
    <tag k="shoulder" v="no"/>
    <tag k="sidewalk" v="no"/>
    <tag k="surface" v="asphalt"/>
  </way>
  <way id="135297479" version="8" timestamp="2025-08-18T17:13:02Z" changeset="170630943" uid="5589" user="user_5589">
    <nd ref="1486011735"/>
    <nd ref="1143041244"/>
    <nd ref="11082028959"/>
    <tag k="highway" v="tertiary"/>
    <tag k="lanes" v="2"/>
    <tag k="lanes:backward" v="1"/>
    <tag k="lanes:forward" v="1"/>
    <tag k="maxspeed" v="50 mph"/>
    <tag k="maxspeed:type" v="sign"/>
    <tag k="name" v="Bridge Street"/>
    <tag k="surface" v="asphalt"/>
  </way>
  <way id="135297490" version="18" timestamp="2024-11-25T17:11:28Z" changeset="159582756" uid="5229644" user="Nathan_A_RF">
    <nd ref="1597497691"/>
    <nd ref="1597497697"/>
    <nd ref="1597497702"/>
    <nd ref="26335832"/>
    <nd ref="9622037453"/>
    <nd ref="1486011790"/>
    <tag k="active_traffic_management" v="no"/>
    <tag k="carriageway_ref" v="J"/>
    <tag k="destination" v="Coventry;Stratford Upon Avon"/>
    <tag k="destination:ref" v="A46;A444"/>
    <tag k="highway" v="motorway_link"/>
    <tag k="junction:ref" v="15"/>
    <tag k="lanes" v="2"/>
    <tag k="lit" v="no"/>
    <tag k="maxheight" v="default"/>
    <tag k="maxspeed" v="70 mph"/>
    <tag k="maxspeed:type" v="GB:motorway"/>
    <tag k="maxspeed:variable" v="no"/>
    <tag k="national_highways:area" v="DBFO30"/>
    <tag k="oneway" v="yes"/>
    <tag k="operator" v="National Highways"/>
    <tag k="operator:wikidata" v="Q5760006"/>
    <tag k="ref" v="M40"/>
    <tag k="surface" v="asphalt"/>
  </way>
  <way id="135297492" version="24" timestamp="2025-05-30T07:16:20Z" changeset="166955849" uid="5589" user="user_5589">
    <nd ref="12874799937"/>
    <nd ref="1154355368"/>
    <nd ref="9622037454"/>
    <nd ref="1597497727"/>
    <tag k="carriageway_ref" v="J"/>
    <tag k="destination" v="Coventry;Stratford Upon Avon"/>
    <tag k="destination:lanes" v="Stratford|Cirencester;Stratford;Coventry|Warwick|Coventry"/>
    <tag k="destination:ref" v="A46;A444"/>
    <tag k="highway" v="trunk_link"/>
    <tag k="junction:ref" v="15"/>
    <tag k="lanes" v="4"/>
    <tag k="lit" v="yes"/>
    <tag k="maxspeed" v="40 mph"/>
    <tag k="national_highways:area" v="DBFO30"/>
    <tag k="oneway" v="yes"/>
    <tag k="operator" v="National Highways"/>
    <tag k="operator:wikidata" v="Q5760006"/>
    <tag k="surface" v="asphalt"/>
  </way>
  <way id="146170391" version="22" timestamp="2024-11-25T17:11:28Z" changeset="159582756" uid="5229644" user="Nathan_A_RF">
    <nd ref="212988"/>
    <nd ref="1594371114"/>
    <nd ref="1594371116"/>
    <nd ref="1594371129"/>
    <nd ref="1594371130"/>
    <nd ref="1594371131"/>
    <nd ref="1594371132"/>
    <nd ref="1594371133"/>
    <nd ref="1594371134"/>
    <nd ref="1594371136"/>
    <nd ref="12374094798"/>
    <nd ref="9128134060"/>
    <nd ref="1594375130"/>
    <nd ref="1594371154"/>
    <nd ref="1594371155"/>
    <nd ref="1594371157"/>
    <nd ref="1594371159"/>
    <nd ref="1594371160"/>
    <nd ref="1614861481"/>
    <nd ref="1594371161"/>
    <nd ref="1594371166"/>
    <nd ref="1594371168"/>
    <nd ref="1594371171"/>
    <nd ref="1594371174"/>
    <nd ref="1594371175"/>
    <nd ref="1594371177"/>
    <nd ref="1594371179"/>
    <nd ref="1594371181"/>
    <nd ref="1594371182"/>
    <nd ref="1594371186"/>
    <nd ref="1594371188"/>
    <nd ref="1594371190"/>
    <nd ref="1594371192"/>
    <nd ref="1594371194"/>
    <nd ref="1594371196"/>
    <nd ref="1594371199"/>
    <nd ref="1594371202"/>
    <nd ref="1594371204"/>
    <nd ref="1594371207"/>
    <nd ref="1594371208"/>
    <nd ref="1594371209"/>
    <nd ref="1594371212"/>
    <nd ref="1594371214"/>
    <nd ref="1594371217"/>
    <nd ref="1594371220"/>
    <nd ref="1594371222"/>
    <nd ref="1594371224"/>
    <nd ref="1594371230"/>
    <nd ref="1594371231"/>
    <nd ref="1594371233"/>
    <nd ref="1594371235"/>
    <nd ref="1594371236"/>
    <nd ref="1594371237"/>
    <nd ref="1594371239"/>
    <nd ref="1594371241"/>
    <tag k="active_traffic_management" v="no"/>
    <tag k="carriageway_ref" v="A"/>
    <tag k="highway" v="motorway"/>
    <tag k="int_ref" v="E 05"/>
    <tag k="lanes" v="3"/>
    <tag k="lit" v="no"/>
    <tag k="maxheight" v="default"/>
    <tag k="maxspeed" v="70 mph"/>
    <tag k="maxspeed:type" v="GB:motorway"/>
    <tag k="maxspeed:variable" v="no"/>
    <tag k="national_highways:area" v="9"/>
    <tag k="oneway" v="yes"/>
    <tag k="operator" v="National Highways"/>
    <tag k="operator:wikidata" v="Q5760006"/>
    <tag k="ref" v="M40"/>
    <tag k="source" v="survey;GPS;Bing"/>
    <tag k="surface" v="asphalt"/>
  </way>
  <way id="146170733" version="24" timestamp="2024-11-25T17:11:28Z" changeset="159582756" uid="5229644" user="Nathan_A_RF">
    <nd ref="1597506110"/>
    <nd ref="590599223"/>
    <nd ref="303765476"/>
    <nd ref="1154355338"/>
    <nd ref="8693870959"/>
    <nd ref="2178604066"/>
    <nd ref="303765477"/>
    <nd ref="1594375113"/>
    <nd ref="1594375114"/>
    <nd ref="12374094796"/>
    <nd ref="12374094797"/>
    <nd ref="1594375115"/>
    <nd ref="2178604077"/>
    <nd ref="2178604043"/>
    <nd ref="2178603980"/>
    <nd ref="1594375116"/>
    <nd ref="2179627593"/>
    <nd ref="8693870957"/>
    <nd ref="1594375117"/>
    <nd ref="26335830"/>
    <nd ref="9967803606"/>
    <nd ref="26335824"/>
    <tag k="cycleway:both" v="no"/>
    <tag k="destination:lanes" v="Warwick|M40S;Cirencester"/>
    <tag k="dual_carriageway" v="yes"/>
    <tag k="foot" v="yes"/>
    <tag k="highway" v="trunk_link"/>
    <tag k="lanes" v="2"/>
    <tag k="lit" v="yes"/>
    <tag k="maxspeed" v="40 mph"/>
    <tag k="name" v="Stratford Road"/>
    <tag k="oneway" v="yes"/>
    <tag k="parking:both" v="no"/>
    <tag k="parking:both:restriction" v="no_stopping"/>
    <tag k="parking:both:restriction:reason" v="clearway"/>
    <tag k="ref" v="A46"/>
    <tag k="shoulder" v="no"/>
    <tag k="sidewalk" v="no"/>
    <tag k="surface" v="asphalt"/>
  </way>
  <way id="146170737" version="29" timestamp="2025-05-30T07:16:20Z" changeset="166955849" uid="5589" user="user_5589">
    <nd ref="1594375115"/>
    <nd ref="8693870941"/>
    <nd ref="8693870980"/>
    <nd ref="2178604056"/>
    <nd ref="2178604062"/>
    <nd ref="590598279"/>
    <nd ref="8693839905"/>
    <nd ref="2178603985"/>
    <nd ref="2178603989"/>
    <nd ref="2179627592"/>
    <nd ref="590598281"/>
    <nd ref="2179627591"/>
    <nd ref="2178604064"/>
    <nd ref="8693870971"/>
    <nd ref="1594375118"/>
    <nd ref="2179627594"/>
    <nd ref="2178603977"/>
    <nd ref="8693870942"/>
    <nd ref="1594375120"/>
    <tag k="active_traffic_management" v="no"/>
    <tag k="carriageway_ref" v="K"/>
    <tag k="destination" v="Birmingham"/>
    <tag k="destination:ref" v="M40"/>
    <tag k="highway" v="trunk_link"/>
    <tag k="junction:ref" v="15"/>
    <tag k="lanes" v="1"/>
    <tag k="lit" v="yes"/>
    <tag k="maxspeed" v="40 mph"/>
    <tag k="maxspeed:variable" v="no"/>
    <tag k="national_highways:area" v="9"/>
    <tag k="oneway" v="yes"/>
    <tag k="operator" v="National Highways"/>
    <tag k="operator:wikidata" v="Q5760006"/>
    <tag k="ref" v="A46"/>
    <tag k="source" v="survey"/>
    <tag k="surface" v="asphalt"/>
  </way>
  <way id="146459506" version="18" timestamp="2024-10-28T17:13:49Z" changeset="158465594" uid="5229644" user="Nathan_A_RF">
    <nd ref="15830619"/>
    <nd ref="1601022098"/>
    <nd ref="2178632426"/>
    <nd ref="1601022101"/>
    <nd ref="2178632415"/>
    <nd ref="9965883460"/>
    <nd ref="1601022104"/>
    <nd ref="9965883458"/>
    <nd ref="1601022096"/>
    <tag k="cycleway:both" v="no"/>
    <tag k="dual_carriageway" v="yes"/>
    <tag k="foot" v="no"/>
    <tag k="highway" v="trunk_link"/>
    <tag k="lanes" v="2"/>
    <tag k="lit" v="yes"/>
    <tag k="maxspeed" v="40 mph"/>
    <tag k="name" v="Stratford Road"/>
    <tag k="oneway" v="yes"/>
    <tag k="parking:both" v="no"/>
    <tag k="parking:both:restriction" v="no_stopping"/>
    <tag k="parking:both:restriction:reason" v="clearway"/>
    <tag k="ref" v="A46"/>
    <tag k="sidewalk" v="no"/>
    <tag k="surface" v="asphalt"/>
  </way>
  <way id="146459513" version="26" timestamp="2024-11-02T09:50:24Z" changeset="158650736" uid="21081459" user="Flynn_">
    <nd ref="303764663"/>
    <nd ref="8693870929"/>
    <nd ref="2178604033"/>
    <nd ref="8693870973"/>
    <nd ref="2178603969"/>
    <nd ref="8693870930"/>
    <nd ref="2178604017"/>
    <nd ref="2178603964"/>
    <nd ref="9966858671"/>
    <tag k="carriageway_ref" v="A"/>
    <tag k="cycleway:both" v="no"/>
    <tag k="expressway" v="yes"/>
    <tag k="foot" v="yes"/>
    <tag k="highway" v="trunk"/>
    <tag k="lane_markings" v="yes"/>
    <tag k="lanes" v="2"/>
    <tag k="lanes:forward" v="2"/>
    <tag k="lit" v="yes"/>
    <tag k="maxspeed" v="40 mph"/>
    <tag k="national_highways:area" v="9"/>
    <tag k="oneway" v="yes"/>
    <tag k="operator" v="National Highways"/>
    <tag k="operator:wikidata" v="Q5760006"/>
    <tag k="parking:both" v="no"/>
    <tag k="parking:both:restriction" v="no_stopping"/>
    <tag k="parking:both:restriction:reason" v="clearway"/>
    <tag k="ref" v="A46"/>
    <tag k="shoulder" v="right"/>
    <tag k="sidewalk" v="no"/>
    <tag k="surface" v="asphalt"/>
  </way>
  <way id="146459936" version="25" timestamp="2024-08-15T13:48:48Z" changeset="155281704" uid="5589" user="user_5589">
    <nd ref="1597497768"/>
    <nd ref="1597497801"/>
    <tag k="bridge" v="yes"/>
    <tag k="carriageway_ref" v="A"/>
    <tag k="cycleway:both" v="no"/>
    <tag k="expressway" v="yes"/>
    <tag k="highway" v="trunk"/>
    <tag k="lane_markings" v="yes"/>
    <tag k="lanes" v="2"/>
    <tag k="lanes:forward" v="2"/>
    <tag k="layer" v="1"/>
    <tag k="lit" v="no"/>
    <tag k="maxspeed" v="70 mph"/>
    <tag k="maxweight:signed" v="no"/>
    <tag k="national_highways:area" v="9"/>
    <tag k="oneway" v="yes"/>
    <tag k="operator" v="National Highways"/>
    <tag k="operator:wikidata" v="Q5760006"/>
    <tag k="parking:both" v="no"/>
    <tag k="parking:both:restriction" v="no_stopping"/>
    <tag k="parking:both:restriction:reason" v="clearway"/>
    <tag k="ref" v="A46"/>
    <tag k="shoulder" v="no"/>
    <tag k="sidewalk" v="no"/>
    <tag k="surface" v="asphalt"/>
  </way>
  <way id="146459938" version="24" timestamp="2024-08-15T13:48:53Z" changeset="155281704" uid="5589" user="user_5589">
    <nd ref="1597506127"/>
    <nd ref="1597506126"/>
    <tag k="bridge" v="yes"/>
    <tag k="carriageway_ref" v="B"/>
    <tag k="cycleway:both" v="no"/>
    <tag k="expressway" v="yes"/>
    <tag k="highway" v="trunk"/>
    <tag k="lane_markings" v="yes"/>
    <tag k="lanes" v="2"/>
    <tag k="lanes:forward" v="2"/>
    <tag k="layer" v="1"/>
    <tag k="lit" v="no"/>
    <tag k="maxspeed" v="70 mph"/>
    <tag k="maxweight:signed" v="no"/>
    <tag k="national_highways:area" v="9"/>
    <tag k="oneway" v="yes"/>
    <tag k="operator" v="National Highways"/>
    <tag k="operator:wikidata" v="Q5760006"/>
    <tag k="parking:both" v="no"/>
    <tag k="parking:both:restriction" v="no_stopping"/>
    <tag k="parking:both:restriction:reason" v="clearway"/>
    <tag k="ref" v="A46"/>
    <tag k="shoulder" v="no"/>
    <tag k="sidewalk" v="no"/>
    <tag k="surface" v="asphalt"/>
  </way>
  <way id="146459939" version="23" timestamp="2024-08-15T13:48:35Z" changeset="155281704" uid="5589" user="user_5589">
    <nd ref="1597506126"/>
    <nd ref="1614861492"/>
    <tag k="carriageway_ref" v="B"/>
    <tag k="cycleway:both" v="no"/>
    <tag k="expressway" v="yes"/>
    <tag k="highway" v="trunk"/>
    <tag k="lane_markings" v="yes"/>
    <tag k="lanes" v="2"/>
    <tag k="lanes:forward" v="2"/>
    <tag k="lit" v="no"/>
    <tag k="maxspeed" v="70 mph"/>
    <tag k="national_highways:area" v="9"/>
    <tag k="oneway" v="yes"/>
    <tag k="operator" v="National Highways"/>
    <tag k="operator:wikidata" v="Q5760006"/>
    <tag k="parking:both" v="no"/>
    <tag k="parking:both:restriction" v="no_stopping"/>
    <tag k="parking:both:restriction:reason" v="clearway"/>
    <tag k="ref" v="A46"/>
    <tag k="shoulder" v="no"/>
    <tag k="sidewalk" v="no"/>
    <tag k="surface" v="asphalt"/>
  </way>
  <way id="146459949" version="15" timestamp="2023-09-07T15:06:53Z" changeset="140945669" uid="13341565" user="Falsernet">
    <nd ref="1597506121"/>
    <nd ref="2178603967"/>
    <nd ref="9965883455"/>
    <nd ref="9965883452"/>
    <tag k="cycleway:both" v="no"/>
    <tag k="destination:lanes" v="M40;A429"/>
    <tag k="expressway" v="yes"/>
    <tag k="foot" v="yes"/>
    <tag k="highway" v="trunk_link"/>
    <tag k="lanes" v="1"/>
    <tag k="lanes:forward" v="1"/>
    <tag k="lit" v="yes"/>
    <tag k="maxspeed" v="70 mph"/>
    <tag k="oneway" v="yes"/>
    <tag k="parking:both" v="no"/>
    <tag k="parking:both:restriction" v="no_stopping"/>
    <tag k="parking:both:restriction:reason" v="clearway"/>
    <tag k="shoulder" v="no"/>
    <tag k="sidewalk" v="no"/>
    <tag k="source" v="survey"/>
    <tag k="surface" v="asphalt"/>
  </way>
  <way id="146461663" version="15" timestamp="2024-11-25T17:11:28Z" changeset="159582756" uid="5229644" user="Nathan_A_RF">
    <nd ref="212998"/>
    <nd ref="473391274"/>
    <tag k="active_traffic_management" v="no"/>
    <tag k="bridge" v="yes"/>
    <tag k="carriageway_ref" v="A"/>
    <tag k="highway" v="motorway"/>
    <tag k="int_ref" v="E 05"/>
    <tag k="lanes" v="3"/>
    <tag k="layer" v="1"/>
    <tag k="lit" v="no"/>
    <tag k="maxspeed" v="70 mph"/>
    <tag k="maxspeed:type" v="GB:motorway"/>
    <tag k="maxspeed:variable" v="no"/>
    <tag k="national_highways:area" v="DBFO30"/>
    <tag k="oneway" v="yes"/>
    <tag k="operator" v="National Highways"/>
    <tag k="operator:wikidata" v="Q5760006"/>
    <tag k="ref" v="M40"/>
    <tag k="source" v="survey;GPS;Bing"/>
    <tag k="surface" v="asphalt"/>
  </way>
  <way id="146880438" version="7" timestamp="2025-02-02T19:15:03Z" changeset="162059586" uid="19756269" user="RyanBush">
    <nd ref="15830612"/>
    <nd ref="1601022087"/>
    <nd ref="9967803603"/>
    <nd ref="1601022084"/>
    <nd ref="12552090697"/>
    <nd ref="9967803613"/>
    <nd ref="12552090696"/>
    <nd ref="2254570296"/>
    <tag k="highway" v="trunk"/>
    <tag k="lanes" v="2"/>
    <tag k="maxspeed" v="50 mph"/>
    <tag k="maxspeed:type" v="sign"/>
    <tag k="ref" v="A429"/>
    <tag k="source" v="survey"/>
    <tag k="source:maxspeed" v="survey"/>
    <tag k="surface" v="asphalt"/>
  </way>
  <way id="146880441" version="12" timestamp="2025-02-02T19:15:03Z" changeset="162059586" uid="19756269" user="RyanBush">
    <nd ref="15830617"/>
    <nd ref="2178632412"/>
    <nd ref="1601022095"/>
    <nd ref="2178632416"/>
    <nd ref="12552090706"/>
    <nd ref="1601022093"/>
    <nd ref="1601022092"/>
    <nd ref="1937794496"/>
    <tag k="foot" v="no"/>
    <tag k="highway" v="trunk"/>
    <tag k="lanes" v="1"/>
    <tag k="lanes:forward" v="1"/>
    <tag k="lit" v="yes"/>
    <tag k="maxspeed" v="40 mph"/>
    <tag k="oneway" v="yes"/>
    <tag k="ref" v="A429"/>
    <tag k="shoulder" v="no"/>
    <tag k="sidewalk" v="no"/>
    <tag k="surface" v="asphalt"/>
  </way>
  <way id="146880443" version="17" timestamp="2024-10-28T17:13:49Z" changeset="158465594" uid="5229644" user="Nathan_A_RF">
    <nd ref="1601022096"/>
    <nd ref="15830829"/>
    <nd ref="8693870937"/>
    <nd ref="303765505"/>
    <tag k="cycleway:both" v="no"/>
    <tag k="dual_carriageway" v="yes"/>
    <tag k="foot" v="yes"/>
    <tag k="highway" v="trunk_link"/>
    <tag k="lanes" v="2"/>
    <tag k="lit" v="yes"/>
    <tag k="maxspeed" v="40 mph"/>
    <tag k="name" v="Stratford Road"/>
    <tag k="oneway" v="yes"/>
    <tag k="parking:both" v="no"/>
    <tag k="parking:both:restriction" v="no_stopping"/>
    <tag k="parking:both:restriction:reason" v="clearway"/>
    <tag k="ref" v="A46"/>
    <tag k="shoulder" v="no"/>
    <tag k="sidewalk" v="no"/>
    <tag k="surface" v="asphalt"/>
  </way>
  <way id="146880455" version="6" timestamp="2025-08-18T17:11:59Z" changeset="170630943" uid="5589" user="user_5589">
    <nd ref="26335797"/>
    <nd ref="11082029856"/>
    <nd ref="11082029857"/>
    <nd ref="11082029858"/>
    <nd ref="1601022018"/>
    <tag k="bridge" v="yes"/>
    <tag k="highway" v="tertiary"/>
    <tag k="lanes" v="2"/>
    <tag k="lanes:backward" v="1"/>
    <tag k="lanes:forward" v="1"/>
    <tag k="layer" v="1"/>
    <tag k="maxspeed" v="30 mph"/>
    <tag k="maxspeed:type" v="sign"/>
    <tag k="maxweight:signed" v="no"/>
    <tag k="name" v="Bridge Street"/>
    <tag k="surface" v="asphalt"/>
  </way>
  <way id="146880458" version="5" timestamp="2025-08-18T17:13:02Z" changeset="170630943" uid="5589" user="user_5589">
    <nd ref="1601022020"/>
    <nd ref="1486011735"/>
    <tag k="bridge" v="yes"/>
    <tag k="highway" v="tertiary"/>
    <tag k="lanes" v="2"/>
    <tag k="lanes:backward" v="1"/>
    <tag k="lanes:forward" v="1"/>
    <tag k="layer" v="1"/>
    <tag k="maxspeed" v="50 mph"/>
    <tag k="maxspeed:type" v="sign"/>
    <tag k="maxweight:signed" v="no"/>
    <tag k="name" v="Bridge Street"/>
    <tag k="surface" v="asphalt"/>
  </way>
  <way id="146880460" version="4" timestamp="2025-08-18T17:13:01Z" changeset="170630943" uid="5589" user="user_5589">
    <nd ref="26335796"/>
    <nd ref="1601022020"/>
    <tag k="highway" v="tertiary"/>
    <tag k="lanes" v="2"/>
    <tag k="lanes:backward" v="1"/>
    <tag k="lanes:forward" v="1"/>
    <tag k="maxspeed" v="50 mph"/>
    <tag k="maxspeed:type" v="sign"/>
    <tag k="name" v="Bridge Street"/>
    <tag k="source" v="survey"/>
    <tag k="surface" v="asphalt"/>
  </way>
  <way id="148311206" version="10" timestamp="2025-02-02T19:15:03Z" changeset="162059586" uid="19756269" user="RyanBush">
    <nd ref="26335791"/>
    <nd ref="11082029872"/>
    <nd ref="11082029871"/>
    <nd ref="12552090684"/>
    <nd ref="1614188113"/>
    <nd ref="1614188114"/>
    <tag k="embankment" v="yes"/>
    <tag k="highway" v="trunk"/>
    <tag k="lanes" v="2"/>
    <tag k="lit" v="no"/>
    <tag k="maxspeed" v="50 mph"/>
    <tag k="maxspeed:type" v="sign"/>
    <tag k="name" v="Barford Bypass"/>
    <tag k="ref" v="A429"/>
    <tag k="shoulder" v="no"/>
    <tag k="sidewalk" v="no"/>
    <tag k="source" v="survey"/>
    <tag k="source:maxspeed" v="survey"/>
    <tag k="start_date" v="2007-02"/>
    <tag k="surface" v="asphalt"/>
  </way>
  <way id="148378950" version="26" timestamp="2024-11-02T09:50:24Z" changeset="158650736" uid="21081459" user="Flynn_">
    <nd ref="9966858671"/>
    <nd ref="1614861496"/>
    <nd ref="1597497734"/>
    <tag k="carriageway_ref" v="A"/>
    <tag k="cycleway:both" v="no"/>
    <tag k="expressway" v="yes"/>
    <tag k="foot" v="yes"/>
    <tag k="highway" v="trunk"/>
    <tag k="lane_markings" v="yes"/>
    <tag k="lanes" v="2"/>
    <tag k="lanes:forward" v="2"/>
    <tag k="lit" v="yes"/>
    <tag k="maxspeed" v="70 mph"/>
    <tag k="national_highways:area" v="9"/>
    <tag k="oneway" v="yes"/>
    <tag k="operator" v="National Highways"/>
    <tag k="operator:wikidata" v="Q5760006"/>
    <tag k="parking:both" v="no"/>
    <tag k="parking:both:restriction" v="no_stopping"/>
    <tag k="parking:both:restriction:reason" v="clearway"/>
    <tag k="ref" v="A46"/>
    <tag k="shoulder" v="no"/>
    <tag k="sidewalk" v="no"/>
    <tag k="surface" v="asphalt"/>
  </way>
  <way id="148378957" version="22" timestamp="2024-11-02T09:50:24Z" changeset="158650736" uid="21081459" user="Flynn_">
    <nd ref="2178604037"/>
    <nd ref="2178604031"/>
    <nd ref="2178604079"/>
    <nd ref="2178604070"/>
    <nd ref="2178604005"/>
    <nd ref="8693870968"/>
    <nd ref="1597506119"/>
    <tag k="carriageway_ref" v="B"/>
    <tag k="cycleway:both" v="no"/>
    <tag k="destination:lanes" v="Stratford|Stratford"/>
    <tag k="expressway" v="yes"/>
    <tag k="foot" v="yes"/>
    <tag k="highway" v="trunk"/>
    <tag k="lanes" v="2"/>
    <tag k="lanes:forward" v="2"/>
    <tag k="lit" v="yes"/>
    <tag k="maxspeed" v="40 mph"/>
    <tag k="national_highways:area" v="9"/>
    <tag k="oneway" v="yes"/>
    <tag k="operator" v="National Highways"/>
    <tag k="operator:wikidata" v="Q5760006"/>
    <tag k="parking:both" v="no"/>
    <tag k="parking:both:restriction" v="no_stopping"/>
    <tag k="parking:both:restriction:reason" v="clearway"/>
    <tag k="ref" v="A46"/>
    <tag k="shoulder" v="no"/>
    <tag k="sidewalk" v="no"/>
    <tag k="surface" v="asphalt"/>
  </way>
  <way id="148378963" version="16" timestamp="2024-11-25T17:11:28Z" changeset="159582756" uid="5229644" user="Nathan_A_RF">
    <nd ref="1594375125"/>
    <nd ref="1594375126"/>
    <nd ref="1594375127"/>
    <nd ref="9622037458"/>
    <nd ref="1594375128"/>
    <nd ref="1594371136"/>
    <tag k="active_traffic_management" v="no"/>
    <tag k="carriageway_ref" v="K"/>
    <tag k="destination" v="Birmingham"/>
    <tag k="destination:ref" v="M40"/>
    <tag k="highway" v="motorway_link"/>
    <tag k="junction:ref" v="15"/>
    <tag k="lanes" v="1"/>
    <tag k="lit" v="no"/>
    <tag k="maxheight" v="default"/>
    <tag k="maxspeed" v="70 mph"/>
    <tag k="maxspeed:type" v="GB:motorway"/>
    <tag k="maxspeed:variable" v="no"/>
    <tag k="national_highways:area" v="9"/>
    <tag k="oneway" v="yes"/>
    <tag k="operator" v="National Highways"/>
    <tag k="operator:wikidata" v="Q5760006"/>
    <tag k="ref" v="M40"/>
    <tag k="source" v="survey"/>
    <tag k="surface" v="asphalt"/>
  </way>
  <way id="182946174" version="4" timestamp="2025-08-18T08:45:26Z" changeset="170602831" uid="5589" user="user_5589">
    <nd ref="1933014327"/>
    <nd ref="1933014362"/>
    <nd ref="1933014351"/>
    <nd ref="1933014294"/>
    <nd ref="1933014369"/>
    <nd ref="1933014368"/>
    <tag k="bus" v="yes"/>
    <tag k="goods" v="no"/>
    <tag k="hgv" v="no"/>
    <tag k="highway" v="trunk_link"/>
    <tag k="lanes" v="1"/>
    <tag k="motorcar" v="no"/>
    <tag k="motorcycle" v="no"/>
    <tag k="name" v="Stratford Road"/>
    <tag k="oneway" v="yes"/>
  </way>
  <way id="182946175" version="10" timestamp="2025-07-07T10:54:16Z" changeset="168598846" uid="5589" user="user_5589">
    <nd ref="1480230272"/>
    <nd ref="2178622048"/>
    <nd ref="2178622002"/>
    <nd ref="8693839912"/>
    <nd ref="1933014327"/>
    <nd ref="2179964642"/>
    <nd ref="1933014323"/>
    <nd ref="2179964639"/>
    <nd ref="1933014312"/>
    <nd ref="1933014349"/>
    <nd ref="1933014332"/>
    <nd ref="1933014325"/>
    <nd ref="2178622023"/>
    <nd ref="2178622031"/>
    <nd ref="1933014331"/>
    <tag k="highway" v="trunk_link"/>
    <tag k="lanes" v="1"/>
    <tag k="name" v="Stratford Road"/>
    <tag k="oneway" v="yes"/>
    <tag k="surface" v="asphalt"/>
  </way>
  <way id="182946176" version="10" timestamp="2024-08-15T13:42:35Z" changeset="155281704" uid="5589" user="user_5589">
    <nd ref="1933014331"/>
    <nd ref="2178622027"/>
    <nd ref="2179964636"/>
    <nd ref="1933014330"/>
    <nd ref="2178622050"/>
    <nd ref="1933014306"/>
    <nd ref="1933014310"/>
    <nd ref="1933014334"/>
    <nd ref="1933014333"/>
    <nd ref="1933014329"/>
    <nd ref="1933014364"/>
    <nd ref="1933014368"/>
    <nd ref="1933014370"/>
    <nd ref="2178622034"/>
    <nd ref="2178622036"/>
    <nd ref="2178622018"/>
    <nd ref="1933014295"/>
    <tag k="cycleway:left" v="no"/>
    <tag k="highway" v="trunk_link"/>
    <tag k="lane_markings" v="no"/>
    <tag k="name" v="Stratford Road"/>
    <tag k="oneway" v="yes"/>
    <tag k="surface" v="asphalt"/>
  </way>
  <way id="183404825" version="21" timestamp="2024-11-02T09:50:24Z" changeset="158650736" uid="21081459" user="Flynn_">
    <nd ref="303765345"/>
    <nd ref="1933014353"/>
    <nd ref="1933014304"/>
    <nd ref="1480230272"/>
    <nd ref="2178622040"/>
    <nd ref="8693870987"/>
    <nd ref="2178622008"/>
    <nd ref="1933014358"/>
    <nd ref="2178622014"/>
    <nd ref="2178622046"/>
    <nd ref="8693839913"/>
    <nd ref="2178622025"/>
    <nd ref="1933014295"/>
    <nd ref="1480230265"/>
    <nd ref="1480230262"/>
    <nd ref="2178622000"/>
    <nd ref="26623895"/>
    <tag k="carriageway_ref" v="B"/>
    <tag k="expressway" v="yes"/>
    <tag k="foot" v="yes"/>
    <tag k="highway" v="trunk"/>
    <tag k="lanes" v="2"/>
    <tag k="lit" v="no"/>
    <tag k="maxspeed" v="70 mph"/>
    <tag k="name" v="Stratford Road"/>
    <tag k="national_highways:area" v="9"/>
    <tag k="oneway" v="yes"/>
    <tag k="operator" v="National Highways"/>
    <tag k="operator:wikidata" v="Q5760006"/>
    <tag k="parking:both" v="no"/>
    <tag k="parking:both:restriction" v="no_stopping"/>
    <tag k="parking:both:restriction:reason" v="clearway"/>
    <tag k="ref" v="A46"/>
    <tag k="shoulder" v="no"/>
    <tag k="sidewalk" v="no"/>
    <tag k="surface" v="asphalt"/>
  </way>
  <way id="183404826" version="24" timestamp="2024-08-15T13:43:20Z" changeset="155281704" uid="5589" user="user_5589">
    <nd ref="303765290"/>
    <nd ref="1937791248"/>
    <nd ref="9967834317"/>
    <tag k="carriageway_ref" v="A"/>
    <tag k="destination:lanes" v="B4463|Coventry|"/>
    <tag k="expressway" v="yes"/>
    <tag k="foot" v="yes"/>
    <tag k="highway" v="trunk"/>
    <tag k="lanes" v="2"/>
    <tag k="lanes:forward" v="2"/>
    <tag k="lit" v="yes"/>
    <tag k="maxspeed" v="70 mph"/>
    <tag k="name" v="Stratford Road"/>
    <tag k="national_highways:area" v="9"/>
    <tag k="oneway" v="yes"/>
    <tag k="operator" v="National Highways"/>
    <tag k="operator:wikidata" v="Q5760006"/>
    <tag k="parking:both" v="no"/>
    <tag k="parking:both:restriction" v="no_stopping"/>
    <tag k="parking:both:restriction:reason" v="clearway"/>
    <tag k="ref" v="A46"/>
    <tag k="shoulder" v="no"/>
    <tag k="sidewalk" v="no"/>
    <tag k="surface" v="asphalt"/>
  </way>
  <way id="183409000" version="8" timestamp="2025-02-02T19:15:03Z" changeset="162059586" uid="19756269" user="RyanBush">
    <nd ref="1937794496"/>
    <nd ref="12552090705"/>
    <nd ref="15830615"/>
    <tag k="highway" v="trunk"/>
    <tag k="lane_markings" v="no"/>
    <tag k="lit" v="yes"/>
    <tag k="maxspeed" v="40 mph"/>
    <tag k="oneway" v="yes"/>
    <tag k="ref" v="A429"/>
    <tag k="surface" v="asphalt"/>
  </way>
  <way id="183409002" version="10" timestamp="2024-08-15T13:46:03Z" changeset="155281704" uid="5589" user="user_5589">
    <nd ref="1597497708"/>
    <nd ref="8693870960"/>
    <nd ref="1597497711"/>
    <nd ref="26335802"/>
    <nd ref="1597497718"/>
    <nd ref="26335804"/>
    <tag k="destination:lanes" v="Stratford;M40N|Coventry|Coventry;Warwick;M40S"/>
    <tag k="foot" v="no"/>
    <tag k="highway" v="trunk"/>
    <tag k="lanes" v="3"/>
    <tag k="lanes:forward" v="3"/>
    <tag k="lit" v="yes"/>
    <tag k="maxspeed" v="40 mph"/>
    <tag k="oneway" v="yes"/>
    <tag k="ref" v="A429"/>
    <tag k="shoulder" v="no"/>
    <tag k="sidewalk" v="no"/>
    <tag k="surface" v="asphalt"/>
  </way>
  <way id="183409671" version="11" timestamp="2022-12-16T20:59:04Z" changeset="130169078" uid="5589" user="user_5589">
    <nd ref="129964530"/>
    <nd ref="8693839903"/>
    <tag k="cycleway:both" v="no"/>
    <tag k="destination:lanes" v="Coventry;M40;A429|Stratford"/>
    <tag k="foot" v="yes"/>
    <tag k="highway" v="secondary"/>
    <tag k="lanes" v="1"/>
    <tag k="lanes:forward" v="1"/>
    <tag k="lit" v="yes"/>
    <tag k="maxspeed" v="50 mph"/>
    <tag k="oneway" v="yes"/>
    <tag k="ref" v="B4463"/>
    <tag k="shoulder" v="no"/>
    <tag k="sidewalk" v="no"/>
    <tag k="surface" v="asphalt"/>
  </way>
  <way id="183409672" version="11" timestamp="2022-08-21T13:11:15Z" changeset="125183212" uid="5589" user="user_5589">
    <nd ref="1937795552"/>
    <nd ref="1937795549"/>
    <nd ref="8693839888"/>
    <nd ref="1937795553"/>
    <nd ref="9967803600"/>
    <tag k="cycleway:left" v="no"/>
    <tag k="foot" v="yes"/>
    <tag k="highway" v="secondary"/>
    <tag k="lanes" v="1"/>
    <tag k="lanes:forward" v="1"/>
    <tag k="lit" v="yes"/>
    <tag k="maxspeed" v="40 mph"/>
    <tag k="oneway" v="yes"/>
    <tag k="ref" v="B4463"/>
    <tag k="shoulder" v="no"/>
    <tag k="sidewalk" v="no"/>
    <tag k="surface" v="asphalt"/>
  </way>
  <way id="191442473" version="23" timestamp="2024-11-02T09:50:24Z" changeset="158650736" uid="21081459" user="Flynn_">
    <nd ref="10727704100"/>
    <nd ref="1597507702"/>
    <nd ref="1597507704"/>
    <nd ref="1597507705"/>
    <nd ref="1597507706"/>
    <nd ref="1480230263"/>
    <nd ref="8001595294"/>
    <nd ref="2178604019"/>
    <nd ref="1933014321"/>
    <nd ref="1480230266"/>
    <nd ref="1933014328"/>
    <nd ref="1933014319"/>
    <nd ref="8693870926"/>
    <nd ref="1933014367"/>
    <nd ref="5250531494"/>
    <nd ref="303765165"/>
    <tag k="carriageway_ref" v="A"/>
    <tag k="expressway" v="yes"/>
    <tag k="foot" v="yes"/>
    <tag k="highway" v="trunk"/>
    <tag k="lanes" v="2"/>
    <tag k="lit" v="no"/>
    <tag k="maxspeed" v="70 mph"/>
    <tag k="name" v="Stratford Road"/>
    <tag k="national_highways:area" v="9"/>
    <tag k="oneway" v="yes"/>
    <tag k="operator" v="National Highways"/>
    <tag k="operator:wikidata" v="Q5760006"/>
    <tag k="parking:both" v="no"/>
    <tag k="parking:both:restriction" v="no_stopping"/>
    <tag k="parking:both:restriction:reason" v="clearway"/>
    <tag k="ref" v="A46"/>
    <tag k="shoulder" v="both"/>
    <tag k="sidewalk" v="no"/>
    <tag k="surface" v="asphalt"/>
  </way>
  <way id="207709174" version="15" timestamp="2024-11-25T17:11:28Z" changeset="159582756" uid="5229644" user="Nathan_A_RF">
    <nd ref="1594375120"/>
    <nd ref="8693870962"/>
    <nd ref="2178604029"/>
    <nd ref="1594375122"/>
    <nd ref="2178604006"/>
    <nd ref="1594375123"/>
    <tag k="active_traffic_management" v="no"/>
    <tag k="carriageway_ref" v="K"/>
    <tag k="destination" v="Birmingham"/>
    <tag k="destination:ref" v="M40"/>
    <tag k="highway" v="motorway_link"/>
    <tag k="junction:ref" v="15"/>
    <tag k="lanes" v="1"/>
    <tag k="lit" v="yes"/>
    <tag k="maxspeed" v="70 mph"/>
    <tag k="maxspeed:type" v="GB:motorway"/>
    <tag k="maxspeed:variable" v="no"/>
    <tag k="national_highways:area" v="9"/>
    <tag k="oneway" v="yes"/>
    <tag k="operator" v="National Highways"/>
    <tag k="operator:wikidata" v="Q5760006"/>
    <tag k="ref" v="M40"/>
    <tag k="source" v="survey"/>
    <tag k="surface" v="asphalt"/>
  </way>
  <way id="216085259" version="6" timestamp="2025-02-02T19:15:03Z" changeset="162059586" uid="19756269" user="RyanBush">
    <nd ref="2254570296"/>
    <nd ref="1601022081"/>
    <nd ref="12552090695"/>
    <nd ref="1601022079"/>
    <nd ref="12552090694"/>
    <nd ref="1601022076"/>
    <nd ref="12552090693"/>
    <nd ref="1601022074"/>
    <nd ref="12552090692"/>
    <nd ref="1601022070"/>
    <nd ref="12552090691"/>
    <nd ref="1601022069"/>
    <nd ref="12552090690"/>
    <nd ref="12552090689"/>
    <nd ref="1601022068"/>
    <nd ref="1601022066"/>
    <nd ref="12552090688"/>
    <nd ref="2254570293"/>
    <tag k="highway" v="trunk"/>
    <tag k="lanes" v="2"/>
    <tag k="maxspeed" v="50 mph"/>
    <tag k="maxspeed:type" v="sign"/>
    <tag k="ref" v="A429"/>
    <tag k="shoulder" v="no"/>
    <tag k="sidewalk" v="left"/>
    <tag k="source" v="survey"/>
    <tag k="source:maxspeed" v="survey"/>
    <tag k="surface" v="asphalt"/>
  </way>
  <way id="216085265" version="7" timestamp="2025-02-02T19:15:03Z" changeset="162059586" uid="19756269" user="RyanBush">
    <nd ref="2254570293"/>
    <nd ref="1601022063"/>
    <nd ref="1601022060"/>
    <nd ref="1601022058"/>
    <nd ref="12552090687"/>
    <nd ref="1601022056"/>
    <nd ref="12552090686"/>
    <nd ref="15830609"/>
    <tag k="highway" v="trunk"/>
    <tag k="lanes" v="2"/>
    <tag k="maxspeed" v="50 mph"/>
    <tag k="maxspeed:type" v="sign"/>
    <tag k="ref" v="A429"/>
    <tag k="shoulder" v="no"/>
    <tag k="sidewalk" v="no"/>
    <tag k="source" v="survey"/>
    <tag k="source:maxspeed" v="survey"/>
    <tag k="surface" v="asphalt"/>
  </way>
  <way id="216085270" version="7" timestamp="2025-02-02T19:15:03Z" changeset="162059586" uid="19756269" user="RyanBush">
    <nd ref="279534944"/>
    <nd ref="32059323"/>
    <nd ref="12552090703"/>
    <nd ref="32059324"/>
    <nd ref="26337289"/>
    <nd ref="1486011773"/>
    <nd ref="9622037449"/>
    <tag k="highway" v="trunk"/>
    <tag k="lanes" v="2"/>
    <tag k="lit" v="yes"/>
    <tag k="maxspeed" v="50 mph"/>
    <tag k="maxspeed:type" v="sign"/>
    <tag k="ref" v="A429"/>
    <tag k="shoulder" v="no"/>
    <tag k="source" v="survey"/>
    <tag k="source:maxspeed" v="survey"/>
    <tag k="surface" v="asphalt"/>
  </way>
  <way id="217330591" version="1" timestamp="2013-04-13T16:24:05Z" changeset="15714349" uid="9065" user="brianboru">
    <nd ref="2266033924"/>
    <nd ref="2266033925"/>
    <nd ref="2266033919"/>
    <nd ref="2266033917"/>
    <nd ref="2266033910"/>
    <nd ref="2266033908"/>
    <nd ref="2266033912"/>
    <nd ref="2266033909"/>
    <nd ref="2266033914"/>
    <nd ref="2266033915"/>
    <nd ref="2266033922"/>
    <nd ref="2266033920"/>
    <nd ref="2266033923"/>
    <nd ref="2266033924"/>
    <tag k="building" v="residential"/>
    <tag k="name" v="Sherbourne Manor"/>
    <tag k="source" v="bing"/>
  </way>
  <way id="221343005" version="5" timestamp="2025-08-18T08:46:16Z" changeset="170603423" uid="5589" user="user_5589">
    <nd ref="2303731463"/>
    <nd ref="2303731459"/>
    <nd ref="1375049997"/>
    <tag k="highway" v="unclassified"/>
    <tag k="lanes" v="1"/>
    <tag k="maxspeed" v="70 mph"/>
    <tag k="maxspeed:type" v="sign"/>
    <tag k="name" v="Warwick Road"/>
    <tag k="oneway" v="yes"/>
    <tag k="surface" v="asphalt"/>
  </way>
  <way id="262222796" version="12" timestamp="2024-11-25T17:11:28Z" changeset="159582756" uid="5229644" user="Nathan_A_RF">
    <nd ref="2178604049"/>
    <nd ref="1594375121"/>
    <nd ref="2178604054"/>
    <nd ref="2178604068"/>
    <nd ref="2178604024"/>
    <nd ref="1594375123"/>
    <nd ref="1594375124"/>
    <nd ref="1594375125"/>
    <tag k="active_traffic_management" v="no"/>
    <tag k="carriageway_ref" v="K"/>
    <tag k="destination" v="Birmingham"/>
    <tag k="destination:ref" v="M40"/>
    <tag k="highway" v="motorway_link"/>
    <tag k="junction:ref" v="15"/>
    <tag k="lanes" v="1"/>
    <tag k="lit" v="yes"/>
    <tag k="maxspeed" v="70 mph"/>
    <tag k="maxspeed:type" v="GB:motorway"/>
    <tag k="maxspeed:variable" v="no"/>
    <tag k="national_highways:area" v="9"/>
    <tag k="oneway" v="yes"/>
    <tag k="operator" v="National Highways"/>
    <tag k="operator:wikidata" v="Q5760006"/>
    <tag k="ref" v="M40"/>
    <tag k="source" v="survey"/>
    <tag k="surface" v="asphalt"/>
  </way>
  <way id="306302303" version="7" timestamp="2025-06-09T11:09:55Z" changeset="167391244" uid="5589" user="user_5589">
    <nd ref="129964530"/>
    <nd ref="2175273359"/>
    <nd ref="129964531"/>
    <nd ref="825069010"/>
    <nd ref="1597506124"/>
    <nd ref="2265991818"/>
    <nd ref="129964532"/>
    <nd ref="2175273350"/>
    <nd ref="129964533"/>
    <nd ref="129964534"/>
    <nd ref="2175273369"/>
    <nd ref="129964535"/>
    <nd ref="2175273427"/>
    <nd ref="2175273397"/>
    <nd ref="2175273382"/>
    <nd ref="129964536"/>
    <nd ref="129964537"/>
    <nd ref="2175273404"/>
    <nd ref="129964538"/>
    <nd ref="2175273354"/>
    <nd ref="2175273453"/>
    <nd ref="129964539"/>
    <nd ref="2175273365"/>
    <nd ref="2175273361"/>
    <nd ref="2175273390"/>
    <nd ref="2175273376"/>
    <nd ref="129964540"/>
    <nd ref="2175273401"/>
    <nd ref="2175273340"/>
    <nd ref="129964541"/>
    <nd ref="2175273374"/>
    <nd ref="129964542"/>
    <nd ref="2175273378"/>
    <nd ref="129964543"/>
    <nd ref="2175273341"/>
    <nd ref="2175273331"/>
    <nd ref="129964544"/>
    <nd ref="2175273392"/>
    <nd ref="129964545"/>
    <nd ref="6776649710"/>
    <nd ref="1080512921"/>
    <nd ref="1278553291"/>
    <tag k="cycleway:both" v="no"/>
    <tag k="highway" v="secondary"/>
    <tag k="lanes" v="2"/>
    <tag k="lanes:backward" v="1"/>
    <tag k="lanes:forward" v="1"/>
    <tag k="maxspeed" v="50 mph"/>
    <tag k="maxspeed:type" v="sign"/>
    <tag k="oneway" v="no"/>
    <tag k="ref" v="B4463"/>
    <tag k="shoulder" v="no"/>
    <tag k="sidewalk" v="no"/>
    <tag k="surface" v="asphalt"/>
  </way>
  <way id="306308122" version="4" timestamp="2023-02-18T14:16:44Z" changeset="132716498" uid="5589" user="user_5589">
    <nd ref="26623894"/>
    <nd ref="2178627872"/>
    <nd ref="2178622010"/>
    <nd ref="8693870920"/>
    <nd ref="2178622032"/>
    <nd ref="2178622029"/>
    <nd ref="2178622020"/>
    <nd ref="2561883263"/>
    <nd ref="8693839900"/>
    <nd ref="763408362"/>
    <nd ref="2178622006"/>
    <nd ref="2178622004"/>
    <tag k="hgv" v="destination"/>
    <tag k="highway" v="unclassified"/>
    <tag k="maxweightrating:hgv" v="7.5"/>
    <tag k="name" v="Stratford Road"/>
    <tag k="old_ref" v="A46"/>
    <tag k="oneway" v="no"/>
  </way>
  <way id="310523882" version="1" timestamp="2014-10-31T16:06:08Z" changeset="26464828" uid="24119" user="Mauls">
    <nd ref="3159462961"/>
    <nd ref="3159462975"/>
    <nd ref="3159462855"/>
    <nd ref="3159462962"/>
    <nd ref="3159462961"/>
    <tag k="building" v="yes"/>
    <tag k="leisure" v="sports_centre"/>
    <tag k="name" v="Warwick University Boat Club"/>
  </way>
  <way id="334068256" version="4" timestamp="2023-12-01T09:06:34Z" changeset="144654010" uid="504708" user="HillWithSmallFields">
    <nd ref="3411510027"/>
    <nd ref="3411510026"/>
    <nd ref="3411510013"/>
    <nd ref="3411510014"/>
    <nd ref="3411510010"/>
    <nd ref="3411510011"/>
    <nd ref="3411510012"/>
    <nd ref="3411510015"/>
    <nd ref="3411510016"/>
    <nd ref="3411510017"/>
    <nd ref="3411510020"/>
    <nd ref="3411510018"/>
    <nd ref="3411510023"/>
    <nd ref="3411510019"/>
    <nd ref="3411510021"/>
    <nd ref="3411510022"/>
    <nd ref="3411510024"/>
    <nd ref="3411510025"/>
    <nd ref="3411510027"/>
    <tag k="amenity" v="place_of_worship"/>
    <tag k="building" v="church"/>
    <tag k="denomination" v="anglican"/>
    <tag k="heritage" v="2"/>
    <tag k="heritage:operator" v="Historic England"/>
    <tag k="listed_status" v="Grade II*"/>
    <tag k="name" v="All Saints"/>
    <tag k="ref:dove" v="15643"/>
    <tag k="religion" v="christian"/>
    <tag k="source" v="survey"/>
    <tag k="wikidata" v="Q17552094"/>
  </way>
  <way id="403505118" version="11" timestamp="2025-05-16T15:50:44Z" changeset="166357865" uid="133272" user="wongataa">
    <nd ref="15830619"/>
    <nd ref="1462980438"/>
    <nd ref="2179964641"/>
    <nd ref="1154355313"/>
    <nd ref="2179964637"/>
    <tag k="cycleway:both" v="no"/>
    <tag k="foot" v="yes"/>
    <tag k="highway" v="trunk"/>
    <tag k="junction" v="roundabout"/>
    <tag k="lanes" v="3"/>
    <tag k="lit" v="yes"/>
    <tag k="maxspeed" v="40 mph"/>
    <tag k="name" v="Longbridge Roundabout"/>
    <tag k="oneway" v="yes"/>
    <tag k="parking:both" v="no"/>
    <tag k="parking:both:restriction" v="no_stopping"/>
    <tag k="parking:both:restriction:reason" v="clearway"/>
    <tag k="shoulder" v="no"/>
    <tag k="sidewalk" v="no"/>
    <tag k="surface" v="asphalt"/>
  </way>
  <way id="403505120" version="11" timestamp="2024-11-25T17:11:28Z" changeset="159582756" uid="5229644" user="Nathan_A_RF">
    <nd ref="1486011790"/>
    <nd ref="15830797"/>
    <nd ref="1597497720"/>
    <tag k="active_traffic_management" v="no"/>
    <tag k="carriageway_ref" v="J"/>
    <tag k="destination" v="Coventry;Stratford Upon Avon"/>
    <tag k="destination:lanes" v="Stratford;Cirencester|Coventry|Coventry;Warwick"/>
    <tag k="destination:ref" v="A46;A444"/>
    <tag k="highway" v="motorway_link"/>
    <tag k="junction:ref" v="15"/>
    <tag k="lanes" v="3"/>
    <tag k="lit" v="yes"/>
    <tag k="maxspeed" v="70 mph"/>
    <tag k="maxspeed:type" v="GB:motorway"/>
    <tag k="maxspeed:variable" v="no"/>
    <tag k="national_highways:area" v="DBFO30"/>
    <tag k="oneway" v="yes"/>
    <tag k="operator" v="National Highways"/>
    <tag k="operator:wikidata" v="Q5760006"/>
    <tag k="ref" v="M40"/>
    <tag k="surface" v="asphalt"/>
  </way>
  <way id="403509914" version="7" timestamp="2025-02-02T19:15:03Z" changeset="162059586" uid="19756269" user="RyanBush">
    <nd ref="15830615"/>
    <nd ref="12552090704"/>
    <nd ref="1597497703"/>
    <nd ref="1597497705"/>
    <nd ref="1597497708"/>
    <tag k="destination:lanes" v="Stratford;M40N|Coventry;Warwick;M40S"/>
    <tag k="highway" v="trunk"/>
    <tag k="lanes" v="2"/>
    <tag k="lanes:forward" v="2"/>
    <tag k="lit" v="yes"/>
    <tag k="maxspeed" v="40 mph"/>
    <tag k="oneway" v="yes"/>
    <tag k="ref" v="A429"/>
    <tag k="shoulder" v="no"/>
    <tag k="surface" v="asphalt"/>
  </way>
  <way id="403509915" version="13" timestamp="2024-10-28T17:13:49Z" changeset="158465594" uid="5229644" user="Nathan_A_RF">
    <nd ref="303764300"/>
    <nd ref="303764301"/>
    <nd ref="1937795552"/>
    <tag k="foot" v="yes"/>
    <tag k="highway" v="trunk"/>
    <tag k="junction" v="roundabout"/>
    <tag k="lane_markings" v="yes"/>
    <tag k="lanes" v="2"/>
    <tag k="lit" v="yes"/>
    <tag k="maxspeed" v="40 mph"/>
    <tag k="national_highways:area" v="9"/>
    <tag k="oneway" v="yes"/>
    <tag k="operator" v="National Highways"/>
    <tag k="operator:wikidata" v="Q5760006"/>
    <tag k="parking:both" v="no"/>
    <tag k="parking:both:restriction" v="no_stopping"/>
    <tag k="parking:both:restriction:reason" v="clearway"/>
    <tag k="shoulder" v="no"/>
    <tag k="sidewalk" v="no"/>
    <tag k="surface" v="asphalt"/>
  </way>
  <way id="403509917" version="12" timestamp="2024-10-28T17:13:49Z" changeset="158465594" uid="5229644" user="Nathan_A_RF">
    <nd ref="4058596102"/>
    <nd ref="303765936"/>
    <nd ref="2178603972"/>
    <nd ref="8693839916"/>
    <nd ref="2178604026"/>
    <nd ref="303764297"/>
    <tag k="cycleway:both" v="no"/>
    <tag k="destination:lanes" v="Stratford|Stratford|"/>
    <tag k="dual_carriageway" v="yes"/>
    <tag k="foot" v="yes"/>
    <tag k="highway" v="trunk_link"/>
    <tag k="lanes" v="2"/>
    <tag k="lit" v="yes"/>
    <tag k="maxspeed" v="40 mph"/>
    <tag k="name" v="Stratford Road"/>
    <tag k="oneway" v="yes"/>
    <tag k="parking:both" v="no"/>
    <tag k="parking:both:restriction" v="no_stopping"/>
    <tag k="parking:both:restriction:reason" v="clearway"/>
    <tag k="ref" v="A46"/>
    <tag k="shoulder" v="no"/>
    <tag k="sidewalk" v="no"/>
    <tag k="surface" v="asphalt"/>
  </way>
  <way id="403509918" version="13" timestamp="2024-10-28T17:13:49Z" changeset="158465594" uid="5229644" user="Nathan_A_RF">
    <nd ref="1937795548"/>
    <nd ref="303764663"/>
    <nd ref="8693870917"/>
    <nd ref="2199383861"/>
    <nd ref="1462980456"/>
    <nd ref="8693839892"/>
    <nd ref="303764295"/>
    <nd ref="8693870923"/>
    <nd ref="1597506119"/>
    <nd ref="303764296"/>
    <tag k="destination:lanes" v="Coventry;A429|Stratford"/>
    <tag k="foot" v="yes"/>
    <tag k="highway" v="trunk"/>
    <tag k="junction" v="roundabout"/>
    <tag k="lane_markings" v="yes"/>
    <tag k="lanes" v="2"/>
    <tag k="lit" v="yes"/>
    <tag k="maxspeed" v="40 mph"/>
    <tag k="national_highways:area" v="9"/>
    <tag k="oneway" v="yes"/>
    <tag k="operator" v="National Highways"/>
    <tag k="operator:wikidata" v="Q5760006"/>
    <tag k="parking:both" v="no"/>
    <tag k="parking:both:restriction" v="no_stopping"/>
    <tag k="parking:both:restriction:reason" v="clearway"/>
    <tag k="shoulder" v="no"/>
    <tag k="sidewalk" v="no"/>
    <tag k="surface" v="asphalt"/>
  </way>
  <way id="403509919" version="16" timestamp="2024-11-02T09:50:24Z" changeset="158650736" uid="21081459" user="Flynn_">
    <nd ref="6386576394"/>
    <nd ref="8693870922"/>
    <nd ref="5250531493"/>
    <nd ref="303765290"/>
    <tag k="carriageway_ref" v="A"/>
    <tag k="destination:lanes" v="B4463|Coventry;M40;A429"/>
    <tag k="expressway" v="yes"/>
    <tag k="foot" v="yes"/>
    <tag k="highway" v="trunk"/>
    <tag k="lanes" v="2"/>
    <tag k="lanes:forward" v="2"/>
    <tag k="lit" v="yes"/>
    <tag k="maxspeed" v="70 mph"/>
    <tag k="name" v="Stratford Road"/>
    <tag k="national_highways:area" v="9"/>
    <tag k="oneway" v="yes"/>
    <tag k="operator" v="National Highways"/>
    <tag k="operator:wikidata" v="Q5760006"/>
    <tag k="parking:both" v="no"/>
    <tag k="parking:both:restriction" v="no_stopping"/>
    <tag k="parking:both:restriction:reason" v="clearway"/>
    <tag k="ref" v="A46"/>
    <tag k="shoulder" v="both"/>
    <tag k="sidewalk" v="no"/>
    <tag k="surface" v="asphalt"/>
  </way>
  <way id="403509921" version="18" timestamp="2024-11-02T09:50:24Z" changeset="158650736" uid="21081459" user="Flynn_">
    <nd ref="1614861492"/>
    <nd ref="1597506121"/>
    <nd ref="2178604027"/>
    <tag k="carriageway_ref" v="B"/>
    <tag k="cycleway:both" v="no"/>
    <tag k="expressway" v="yes"/>
    <tag k="foot" v="yes"/>
    <tag k="highway" v="trunk"/>
    <tag k="lane_markings" v="yes"/>
    <tag k="lanes" v="2"/>
    <tag k="lanes:forward" v="2"/>
    <tag k="lit" v="no"/>
    <tag k="maxspeed" v="70 mph"/>
    <tag k="national_highways:area" v="9"/>
    <tag k="oneway" v="yes"/>
    <tag k="operator" v="National Highways"/>
    <tag k="operator:wikidata" v="Q5760006"/>
    <tag k="parking:both" v="no"/>
    <tag k="parking:both:restriction" v="no_stopping"/>
    <tag k="parking:both:restriction:reason" v="clearway"/>
    <tag k="ref" v="A46"/>
    <tag k="shoulder" v="no"/>
    <tag k="sidewalk" v="no"/>
    <tag k="surface" v="asphalt"/>
  </way>
  <way id="599908869" version="2" timestamp="2023-02-18T14:16:44Z" changeset="132716498" uid="5589" user="user_5589">
    <nd ref="5705927006"/>
    <nd ref="1154355373"/>
    <nd ref="1154355347"/>
    <tag k="hgv" v="destination"/>
    <tag k="highway" v="residential"/>
    <tag k="maxweightrating:hgv" v="7.5"/>
    <tag k="name" v="Moat Green"/>
    <tag k="source" v="bing"/>
    <tag k="source:name" v="OS_Locator"/>
  </way>
  <way id="609547661" version="10" timestamp="2024-11-02T09:58:05Z" changeset="158650936" uid="21081459" user="Flynn_">
    <nd ref="1377829904"/>
    <nd ref="1597507661"/>
    <nd ref="1597507664"/>
    <nd ref="1154340191"/>
    <tag k="carriageway_ref" v="A"/>
    <tag k="expressway" v="yes"/>
    <tag k="foot" v="yes"/>
    <tag k="highway" v="trunk"/>
    <tag k="lanes" v="2"/>
    <tag k="maxspeed" v="70 mph"/>
    <tag k="name" v="Warwick Road"/>
    <tag k="national_highways:area" v="9"/>
    <tag k="oneway" v="yes"/>
    <tag k="operator" v="National Highways"/>
    <tag k="operator:wikidata" v="Q5760006"/>
    <tag k="parking:both" v="no"/>
    <tag k="parking:both:restriction" v="no_stopping"/>
    <tag k="parking:both:restriction:reason" v="clearway"/>
    <tag k="ref" v="A46"/>
    <tag k="shoulder" v="left"/>
    <tag k="sidewalk" v="no"/>
    <tag k="surface" v="asphalt"/>
  </way>
  <way id="660769735" version="5" timestamp="2025-08-18T17:13:01Z" changeset="170630943" uid="5589" user="user_5589">
    <nd ref="26335796"/>
    <nd ref="1601022036"/>
    <nd ref="11082029864"/>
    <nd ref="1601022041"/>
    <nd ref="1601022038"/>
    <nd ref="1601022034"/>
    <nd ref="15830609"/>
    <tag k="highway" v="tertiary"/>
    <tag k="lanes" v="2"/>
    <tag k="lanes:backward" v="1"/>
    <tag k="lanes:forward" v="1"/>
    <tag k="maxspeed" v="50 mph"/>
    <tag k="maxspeed:type" v="sign"/>
    <tag k="name" v="Bridge Street"/>
    <tag k="source" v="survey"/>
    <tag k="surface" v="asphalt"/>
  </way>
  <way id="681975172" version="20" timestamp="2024-11-02T09:50:24Z" changeset="158650736" uid="21081459" user="Flynn_">
    <nd ref="1597497734"/>
    <nd ref="9965883465"/>
    <nd ref="1597497768"/>
    <tag k="carriageway_ref" v="A"/>
    <tag k="cycleway:both" v="no"/>
    <tag k="expressway" v="yes"/>
    <tag k="foot" v="yes"/>
    <tag k="highway" v="trunk"/>
    <tag k="lane_markings" v="yes"/>
    <tag k="lanes" v="2"/>
    <tag k="lanes:forward" v="2"/>
    <tag k="lit" v="no"/>
    <tag k="maxspeed" v="70 mph"/>
    <tag k="national_highways:area" v="9"/>
    <tag k="oneway" v="yes"/>
    <tag k="operator" v="National Highways"/>
    <tag k="operator:wikidata" v="Q5760006"/>
    <tag k="parking:both" v="no"/>
    <tag k="parking:both:restriction" v="no_stopping"/>
    <tag k="parking:both:restriction:reason" v="clearway"/>
    <tag k="ref" v="A46"/>
    <tag k="shoulder" v="no"/>
    <tag k="sidewalk" v="no"/>
    <tag k="surface" v="asphalt"/>
  </way>
  <way id="681975177" version="14" timestamp="2024-11-02T09:50:24Z" changeset="158650736" uid="21081459" user="Flynn_">
    <nd ref="2178604027"/>
    <nd ref="2178604045"/>
    <tag k="carriageway_ref" v="B"/>
    <tag k="cycleway:both" v="no"/>
    <tag k="expressway" v="yes"/>
    <tag k="foot" v="yes"/>
    <tag k="highway" v="trunk"/>
    <tag k="lane_markings" v="yes"/>
    <tag k="lanes" v="2"/>
    <tag k="lanes:forward" v="2"/>
    <tag k="lit" v="yes"/>
    <tag k="maxspeed" v="70 mph"/>
    <tag k="national_highways:area" v="9"/>
    <tag k="oneway" v="yes"/>
    <tag k="operator" v="National Highways"/>
    <tag k="operator:wikidata" v="Q5760006"/>
    <tag k="parking:both" v="no"/>
    <tag k="parking:both:restriction" v="no_stopping"/>
    <tag k="parking:both:restriction:reason" v="clearway"/>
    <tag k="ref" v="A46"/>
    <tag k="shoulder" v="both"/>
    <tag k="sidewalk" v="no"/>
    <tag k="surface" v="asphalt"/>
  </way>
  <way id="681975178" version="10" timestamp="2024-11-02T09:50:24Z" changeset="158650736" uid="21081459" user="Flynn_">
    <nd ref="303765165"/>
    <nd ref="6386576394"/>
    <tag k="carriageway_ref" v="A"/>
    <tag k="destination:lanes" v="B4463|Coventry;M40;A429"/>
    <tag k="expressway" v="yes"/>
    <tag k="foot" v="yes"/>
    <tag k="highway" v="trunk"/>
    <tag k="lanes" v="2"/>
    <tag k="lit" v="no"/>
    <tag k="maxspeed" v="70 mph"/>
    <tag k="name" v="Stratford Road"/>
    <tag k="national_highways:area" v="9"/>
    <tag k="oneway" v="yes"/>
    <tag k="operator" v="National Highways"/>
    <tag k="operator:wikidata" v="Q5760006"/>
    <tag k="parking:both" v="no"/>
    <tag k="parking:both:restriction" v="no_stopping"/>
    <tag k="parking:both:restriction:reason" v="clearway"/>
    <tag k="ref" v="A46"/>
    <tag k="shoulder" v="both"/>
    <tag k="sidewalk" v="no"/>
    <tag k="surface" v="asphalt"/>
  </way>
  <way id="681975179" version="12" timestamp="2024-11-02T09:50:24Z" changeset="158650736" uid="21081459" user="Flynn_">
    <nd ref="2199400613"/>
    <nd ref="1937776486"/>
    <nd ref="303765344"/>
    <nd ref="303765345"/>
    <tag k="carriageway_ref" v="B"/>
    <tag k="expressway" v="yes"/>
    <tag k="foot" v="yes"/>
    <tag k="highway" v="trunk"/>
    <tag k="lanes" v="2"/>
    <tag k="lanes:forward" v="2"/>
    <tag k="lit" v="yes"/>
    <tag k="maxspeed" v="70 mph"/>
    <tag k="name" v="Stratford Road"/>
    <tag k="national_highways:area" v="9"/>
    <tag k="oneway" v="yes"/>
    <tag k="operator" v="National Highways"/>
    <tag k="operator:wikidata" v="Q5760006"/>
    <tag k="parking:both" v="no"/>
    <tag k="parking:both:restriction" v="no_stopping"/>
    <tag k="parking:both:restriction:reason" v="clearway"/>
    <tag k="ref" v="A46"/>
    <tag k="shoulder" v="no"/>
    <tag k="sidewalk" v="no"/>
    <tag k="surface" v="asphalt"/>
  </way>
  <way id="692543145" version="1" timestamp="2019-05-26T08:54:10Z" changeset="70627425" uid="9259465" user="alivelis">
    <nd ref="6501627224"/>
    <nd ref="6501627225"/>
    <tag k="highway" v="residential"/>
  </way>
  <way id="1046304897" version="4" timestamp="2025-01-02T17:19:42Z" changeset="160917916" uid="5229644" user="Nathan_A_RF">
    <nd ref="9622037449"/>
    <nd ref="12469289559"/>
    <tag k="destination:lanes:forward" v="Stratford;M40N|Coventry;Warwick;M40S"/>
    <tag k="highway" v="trunk"/>
    <tag k="lanes" v="3"/>
    <tag k="lanes:backward" v="1"/>
    <tag k="lanes:forward" v="2"/>
    <tag k="lit" v="yes"/>
    <tag k="maxspeed" v="50 mph"/>
    <tag k="maxspeed:type" v="sign"/>
    <tag k="ref" v="A429"/>
    <tag k="shoulder" v="no"/>
    <tag k="source" v="survey"/>
    <tag k="source:maxspeed" v="survey"/>
    <tag k="surface" v="asphalt"/>
  </way>
  <way id="1087796331" version="9" timestamp="2024-11-02T09:50:24Z" changeset="158650736" uid="21081459" user="Flynn_">
    <nd ref="2178604045"/>
    <nd ref="2178604037"/>
    <tag k="carriageway_ref" v="B"/>
    <tag k="cycleway:both" v="no"/>
    <tag k="expressway" v="yes"/>
    <tag k="foot" v="yes"/>
    <tag k="highway" v="trunk"/>
    <tag k="lane_markings" v="yes"/>
    <tag k="lanes" v="2"/>
    <tag k="lanes:forward" v="2"/>
    <tag k="lit" v="yes"/>
    <tag k="maxspeed" v="40 mph"/>
    <tag k="national_highways:area" v="9"/>
    <tag k="oneway" v="yes"/>
    <tag k="operator" v="National Highways"/>
    <tag k="operator:wikidata" v="Q5760006"/>
    <tag k="parking:both" v="no"/>
    <tag k="parking:both:restriction" v="no_stopping"/>
    <tag k="parking:both:restriction:reason" v="clearway"/>
    <tag k="ref" v="A46"/>
    <tag k="shoulder" v="both"/>
    <tag k="sidewalk" v="no"/>
    <tag k="surface" v="asphalt"/>
  </way>
  <way id="1087916374" version="6" timestamp="2025-05-16T15:50:44Z" changeset="166357865" uid="133272" user="wongataa">
    <nd ref="26335824"/>
    <nd ref="9967803605"/>
    <nd ref="2179962856"/>
    <nd ref="8693870984"/>
    <nd ref="2179962860"/>
    <nd ref="9860215005"/>
    <nd ref="15830805"/>
    <tag k="cycleway:both" v="no"/>
    <tag k="foot" v="yes"/>
    <tag k="highway" v="trunk"/>
    <tag k="junction" v="roundabout"/>
    <tag k="lanes" v="3"/>
    <tag k="lit" v="yes"/>
    <tag k="maxspeed" v="40 mph"/>
    <tag k="name" v="Longbridge Roundabout"/>
    <tag k="oneway" v="yes"/>
    <tag k="parking:both" v="no"/>
    <tag k="parking:both:restriction" v="no_stopping"/>
    <tag k="parking:both:restriction:reason" v="clearway"/>
    <tag k="shoulder" v="no"/>
    <tag k="sidewalk" v="no"/>
    <tag k="surface" v="asphalt"/>
  </way>
  <way id="1087916377" version="5" timestamp="2023-09-07T15:06:53Z" changeset="140945669" uid="13341565" user="Falsernet">
    <nd ref="9965883452"/>
    <nd ref="2178603987"/>
    <nd ref="2178604058"/>
    <nd ref="2178604052"/>
    <nd ref="2178604000"/>
    <nd ref="9965883469"/>
    <nd ref="2178604072"/>
    <nd ref="2178604061"/>
    <nd ref="1597506118"/>
    <nd ref="2178604039"/>
    <nd ref="9965883464"/>
    <nd ref="2178603982"/>
    <nd ref="9965883468"/>
    <nd ref="2178603994"/>
    <nd ref="1597506116"/>
    <nd ref="9965883449"/>
    <nd ref="9965883461"/>
    <nd ref="1597506110"/>
    <tag k="cycleway:both" v="no"/>
    <tag k="destination:lanes" v="M40;A429"/>
    <tag k="expressway" v="yes"/>
    <tag k="foot" v="yes"/>
    <tag k="highway" v="trunk_link"/>
    <tag k="lanes" v="1"/>
    <tag k="lanes:forward" v="1"/>
    <tag k="lit" v="yes"/>
    <tag k="maxspeed" v="40 mph"/>
    <tag k="oneway" v="yes"/>
    <tag k="parking:both" v="no"/>
    <tag k="parking:both:restriction" v="no_stopping"/>
    <tag k="parking:both:restriction:reason" v="clearway"/>
    <tag k="shoulder" v="no"/>
    <tag k="sidewalk" v="no"/>
    <tag k="source" v="survey"/>
    <tag k="surface" v="asphalt"/>
  </way>
  <way id="1087916379" version="1" timestamp="2022-08-21T13:11:15Z" changeset="125183212" uid="5589" user="user_5589">
    <nd ref="9967803600"/>
    <nd ref="129964530"/>
    <tag k="cycleway:left" v="no"/>
    <tag k="foot" v="yes"/>
    <tag k="highway" v="secondary"/>
    <tag k="lanes" v="1"/>
    <tag k="lanes:forward" v="1"/>
    <tag k="lit" v="yes"/>
    <tag k="maxspeed" v="50 mph"/>
    <tag k="oneway" v="yes"/>
    <tag k="ref" v="B4463"/>
    <tag k="shoulder" v="no"/>
    <tag k="sidewalk" v="no"/>
    <tag k="surface" v="asphalt"/>
  </way>
  <way id="1087916380" version="8" timestamp="2025-05-30T07:16:20Z" changeset="166955849" uid="5589" user="user_5589">
    <nd ref="9967803605"/>
    <nd ref="12294302697"/>
    <nd ref="8693839902"/>
    <nd ref="2179876320"/>
    <nd ref="2179876318"/>
    <nd ref="1594375119"/>
    <nd ref="9965883470"/>
    <nd ref="2178604049"/>
    <tag k="carriageway_ref" v="K"/>
    <tag k="destination" v="Birmingham"/>
    <tag k="destination:ref" v="M40"/>
    <tag k="highway" v="trunk_link"/>
    <tag k="junction:ref" v="15"/>
    <tag k="lanes" v="1"/>
    <tag k="lit" v="yes"/>
    <tag k="maxspeed" v="40 mph"/>
    <tag k="maxspeed:variable" v="no"/>
    <tag k="national_highways:area" v="9"/>
    <tag k="oneway" v="yes"/>
    <tag k="operator" v="National Highways"/>
    <tag k="operator:wikidata" v="Q5760006"/>
    <tag k="source" v="survey"/>
    <tag k="surface" v="asphalt"/>
  </way>
  <way id="1087916382" version="7" timestamp="2024-08-15T13:45:16Z" changeset="155281704" uid="5589" user="user_5589">
    <nd ref="9967834317"/>
    <nd ref="2199400615"/>
    <nd ref="2199400614"/>
    <nd ref="8693839894"/>
    <nd ref="2199400616"/>
    <nd ref="303764300"/>
    <tag k="carriageway_ref" v="A"/>
    <tag k="destination:lanes" v="B4463|Coventry|"/>
    <tag k="expressway" v="yes"/>
    <tag k="foot" v="yes"/>
    <tag k="highway" v="trunk"/>
    <tag k="lanes" v="2"/>
    <tag k="lanes:forward" v="2"/>
    <tag k="lit" v="yes"/>
    <tag k="maxspeed" v="40 mph"/>
    <tag k="name" v="Stratford Road"/>
    <tag k="national_highways:area" v="9"/>
    <tag k="oneway" v="yes"/>
    <tag k="operator" v="National Highways"/>
    <tag k="operator:wikidata" v="Q5760006"/>
    <tag k="parking:both" v="no"/>
    <tag k="parking:both:restriction" v="no_stopping"/>
    <tag k="parking:both:restriction:reason" v="clearway"/>
    <tag k="ref" v="A46"/>
    <tag k="shoulder" v="no"/>
    <tag k="sidewalk" v="no"/>
    <tag k="surface" v="asphalt"/>
  </way>
  <way id="1087916383" version="2" timestamp="2022-12-16T20:59:00Z" changeset="130169078" uid="5589" user="user_5589">
    <nd ref="8693839903"/>
    <nd ref="8693870935"/>
    <nd ref="1937795550"/>
    <nd ref="8693870928"/>
    <nd ref="1937795551"/>
    <nd ref="1937795548"/>
    <tag k="cycleway:both" v="no"/>
    <tag k="destination:lanes" v="Coventry;M40;A429|Stratford"/>
    <tag k="foot" v="yes"/>
    <tag k="highway" v="secondary"/>
    <tag k="lanes" v="2"/>
    <tag k="lanes:forward" v="2"/>
    <tag k="lit" v="yes"/>
    <tag k="maxspeed" v="40 mph"/>
    <tag k="oneway" v="yes"/>
    <tag k="ref" v="B4463"/>
    <tag k="shoulder" v="no"/>
    <tag k="sidewalk" v="no"/>
    <tag k="surface" v="asphalt"/>
  </way>
  <way id="1101652714" version="6" timestamp="2025-05-16T15:50:44Z" changeset="166357865" uid="133272" user="wongataa">
    <nd ref="1597497727"/>
    <nd ref="26335816"/>
    <nd ref="15830617"/>
    <tag k="cycleway:both" v="no"/>
    <tag k="destination:lanes" v="Cirencester;Stratford|Stratford;M40N|Coventry|Coventry"/>
    <tag k="foot" v="yes"/>
    <tag k="highway" v="trunk"/>
    <tag k="junction" v="roundabout"/>
    <tag k="lanes" v="4"/>
    <tag k="lit" v="yes"/>
    <tag k="maxspeed" v="40 mph"/>
    <tag k="name" v="Longbridge Roundabout"/>
    <tag k="oneway" v="yes"/>
    <tag k="parking:both" v="no"/>
    <tag k="parking:both:restriction" v="no_stopping"/>
    <tag k="parking:both:restriction:reason" v="clearway"/>
    <tag k="shoulder" v="no"/>
    <tag k="sidewalk" v="no"/>
    <tag k="surface" v="asphalt"/>
  </way>
  <way id="1147361652" version="2" timestamp="2025-01-02T17:19:42Z" changeset="160917916" uid="5229644" user="Nathan_A_RF">
    <nd ref="32059322"/>
    <nd ref="12469289558"/>
    <nd ref="1486011754"/>
    <nd ref="10676279014"/>
    <nd ref="32029027"/>
    <nd ref="1486011758"/>
    <nd ref="1486011764"/>
    <nd ref="1154355299"/>
    <nd ref="1486011770"/>
    <nd ref="1480230273"/>
    <nd ref="1597506102"/>
    <nd ref="26623894"/>
    <tag k="hgv" v="destination"/>
    <tag k="highway" v="unclassified"/>
    <tag k="highway_authority_ref" v="D5571"/>
    <tag k="maxweightrating:hgv" v="7.5"/>
    <tag k="name" v="Watery Lane"/>
  </way>
  <way id="1147361653" version="1" timestamp="2023-02-18T14:16:44Z" changeset="132716498" uid="5589" user="user_5589">
    <nd ref="10676279013"/>
    <nd ref="37869642"/>
    <tag k="highway" v="unclassified"/>
    <tag k="name" v="Vicarage Lane"/>
  </way>
  <way id="1147361654" version="1" timestamp="2023-02-18T14:16:44Z" changeset="132716498" uid="5589" user="user_5589">
    <nd ref="2178622004"/>
    <nd ref="2178622012"/>
    <nd ref="1480230269"/>
    <nd ref="1933014331"/>
    <tag k="highway" v="unclassified"/>
    <tag k="name" v="Stratford Road"/>
    <tag k="old_ref" v="A46"/>
    <tag k="oneway" v="no"/>
  </way>
  <way id="1153469005" version="4" timestamp="2024-11-02T09:50:24Z" changeset="158650736" uid="21081459" user="Flynn_">
    <nd ref="10727704101"/>
    <nd ref="1377818458"/>
    <nd ref="1597507697"/>
    <nd ref="1597507700"/>
    <nd ref="10727704100"/>
    <tag k="carriageway_ref" v="A"/>
    <tag k="expressway" v="yes"/>
    <tag k="foot" v="yes"/>
    <tag k="highway" v="trunk"/>
    <tag k="lanes" v="2"/>
    <tag k="lit" v="no"/>
    <tag k="maxspeed" v="70 mph"/>
    <tag k="name" v="Stratford Road"/>
    <tag k="national_highways:area" v="9"/>
    <tag k="oneway" v="yes"/>
    <tag k="operator" v="National Highways"/>
    <tag k="operator:wikidata" v="Q5760006"/>
    <tag k="parking:left" v="separate"/>
    <tag k="parking:right" v="no"/>
    <tag k="parking:right:restriction" v="no_stopping"/>
    <tag k="parking:right:restriction:reason" v="clearway"/>
    <tag k="ref" v="A46"/>
    <tag k="shoulder" v="both"/>
    <tag k="sidewalk" v="no"/>
    <tag k="surface" v="asphalt"/>
  </way>
  <way id="1153469006" version="4" timestamp="2024-11-02T09:50:24Z" changeset="158650736" uid="21081459" user="Flynn_">
    <nd ref="1154340191"/>
    <nd ref="1597507665"/>
    <nd ref="1597507666"/>
    <nd ref="1597507669"/>
    <nd ref="1597507683"/>
    <nd ref="1597507687"/>
    <nd ref="1597507690"/>
    <nd ref="1597507694"/>
    <nd ref="10727704101"/>
    <tag k="carriageway_ref" v="A"/>
    <tag k="expressway" v="yes"/>
    <tag k="foot" v="yes"/>
    <tag k="highway" v="trunk"/>
    <tag k="lanes" v="2"/>
    <tag k="lit" v="no"/>
    <tag k="maxspeed" v="70 mph"/>
    <tag k="name" v="Stratford Road"/>
    <tag k="national_highways:area" v="9"/>
    <tag k="oneway" v="yes"/>
    <tag k="operator" v="National Highways"/>
    <tag k="operator:wikidata" v="Q5760006"/>
    <tag k="parking:both" v="no"/>
    <tag k="parking:both:restriction" v="no_stopping"/>
    <tag k="parking:both:restriction:reason" v="clearway"/>
    <tag k="ref" v="A46"/>
    <tag k="shoulder" v="both"/>
    <tag k="sidewalk" v="no"/>
    <tag k="surface" v="asphalt"/>
  </way>
  <way id="1193867896" version="5" timestamp="2025-08-18T17:13:05Z" changeset="170630943" uid="5589" user="user_5589">
    <nd ref="11082029861"/>
    <nd ref="11082029860"/>
    <nd ref="11082029862"/>
    <tag k="bridge" v="yes"/>
    <tag k="highway" v="tertiary"/>
    <tag k="lanes" v="2"/>
    <tag k="lanes:backward" v="1"/>
    <tag k="lanes:forward" v="1"/>
    <tag k="layer" v="1"/>
    <tag k="maxspeed" v="30 mph"/>
    <tag k="maxspeed:type" v="sign"/>
    <tag k="maxweight:signed" v="no"/>
    <tag k="name" v="Bridge Street"/>
    <tag k="surface" v="asphalt"/>
  </way>
  <way id="1193867897" version="4" timestamp="2025-08-18T17:12:09Z" changeset="170630943" uid="5589" user="user_5589">
    <nd ref="11082029862"/>
    <nd ref="26335797"/>
    <tag k="highway" v="tertiary"/>
    <tag k="lanes" v="2"/>
    <tag k="lanes:backward" v="1"/>
    <tag k="lanes:forward" v="1"/>
    <tag k="maxspeed" v="30 mph"/>
    <tag k="maxspeed:type" v="sign"/>
    <tag k="name" v="Bridge Street"/>
    <tag k="surface" v="asphalt"/>
  </way>
  <way id="1193870486" version="2" timestamp="2025-08-18T17:12:01Z" changeset="170630808" uid="5589" user="user_5589">
    <nd ref="11082028959"/>
    <nd ref="11082029861"/>
    <tag k="highway" v="tertiary"/>
    <tag k="maxspeed" v="30 mph"/>
    <tag k="maxspeed:type" v="sign"/>
    <tag k="name" v="Bridge Street"/>
    <tag k="surface" v="asphalt"/>
  </way>
  <way id="1348031489" version="2" timestamp="2025-02-02T19:15:03Z" changeset="162059586" uid="19756269" user="RyanBush">
    <nd ref="1614188114"/>
    <nd ref="1143060023"/>
    <tag k="embankment" v="yes"/>
    <tag k="highway" v="trunk"/>
    <tag k="lanes" v="3"/>
    <tag k="lit" v="no"/>
    <tag k="maxspeed" v="50 mph"/>
    <tag k="maxspeed:type" v="sign"/>
    <tag k="name" v="Barford Bypass"/>
    <tag k="ref" v="A429"/>
    <tag k="shoulder" v="no"/>
    <tag k="sidewalk" v="no"/>
    <tag k="source" v="survey"/>
    <tag k="source:maxspeed" v="survey"/>
    <tag k="start_date" v="2007-02"/>
    <tag k="surface" v="asphalt"/>
  </way>
  <way id="1348031490" version="1" timestamp="2025-01-02T17:19:42Z" changeset="160917916" uid="5229644" user="Nathan_A_RF">
    <nd ref="12469289559"/>
    <nd ref="15830615"/>
    <tag k="destination:lanes:forward" v="Stratford;M40N|Coventry;Warwick;M40S"/>
    <tag k="highway" v="trunk"/>
    <tag k="lanes" v="3"/>
    <tag k="lanes:backward" v="1"/>
    <tag k="lanes:forward" v="2"/>
    <tag k="lit" v="yes"/>
    <tag k="maxspeed" v="40 mph"/>
    <tag k="ref" v="A429"/>
    <tag k="shoulder" v="no"/>
    <tag k="source" v="survey"/>
    <tag k="source:maxspeed" v="survey"/>
    <tag k="surface" v="asphalt"/>
  </way>
  <way id="1390888743" version="1" timestamp="2025-05-30T07:16:20Z" changeset="166955849" uid="5589" user="user_5589">
    <nd ref="1597497720"/>
    <nd ref="2178632422"/>
    <nd ref="1597497728"/>
    <nd ref="12874799937"/>
    <tag k="active_traffic_management" v="no"/>
    <tag k="carriageway_ref" v="J"/>
    <tag k="destination" v="Coventry;Stratford Upon Avon"/>
    <tag k="destination:lanes" v="Stratford|Cirencester;Stratford;Coventry|Warwick|Coventry"/>
    <tag k="destination:ref" v="A46;A444"/>
    <tag k="highway" v="motorway_link"/>
    <tag k="junction:ref" v="15"/>
    <tag k="lanes" v="4"/>
    <tag k="lit" v="yes"/>
    <tag k="maxspeed" v="70 mph"/>
    <tag k="maxspeed:type" v="GB:motorway"/>
    <tag k="maxspeed:variable" v="no"/>
    <tag k="national_highways:area" v="DBFO30"/>
    <tag k="oneway" v="yes"/>
    <tag k="operator" v="National Highways"/>
    <tag k="operator:wikidata" v="Q5760006"/>
    <tag k="ref" v="M40"/>
    <tag k="surface" v="asphalt"/>
  </way>

</osm>
