<?xml version="1.0" encoding="UTF-8"?>
<osm version="0.6" generator="Overpass API 0.7.62.8 e802775f">
<note>The data included in this document is from www.openstreetmap.org. The data is made available under ODbL.</note>
<meta osm_base="2025-10-23T16:49:45Z" areas="2025-10-23T08:56:18Z"/>

  <node id="639081" lat="52.4959042" lon="-1.5971801" version="4" timestamp="2016-09-08T14:35:12Z" changeset="42005547" uid="9065" user="brianboru"/>
  <node id="639140" lat="52.5122584" lon="-1.6215634" version="4" timestamp="2013-01-18T21:20:48Z" changeset="14701339" uid="411244" user="RobJN"/>
  <node id="98150458" lat="52.5108319" lon="-1.5977625" version="3" timestamp="2013-01-20T15:47:33Z" changeset="14722058" uid="411244" user="RobJN"/>
  <node id="254766233" lat="52.4957192" lon="-1.5844300" version="4" timestamp="2013-07-17T11:31:25Z" changeset="16986006" uid="9065" user="brianboru"/>
  <node id="254766282" lat="52.5013926" lon="-1.5790540" version="5" timestamp="2016-01-07T15:29:23Z" changeset="36426857" uid="9065" user="brianboru"/>
  <node id="1296252519" lat="52.5153508" lon="-1.5794601" version="2" timestamp="2016-09-06T09:20:13Z" changeset="41950010" uid="9065" user="brianboru"/>
  <node id="2118402924" lat="52.5054654" lon="-1.6277976" version="1" timestamp="2013-01-18T21:20:25Z" changeset="14701339" uid="411244" user="RobJN"/>
  <node id="8841271193" lat="52.5157458" lon="-1.5557152" version="1" timestamp="2021-06-17T08:27:24Z" changeset="106514254" uid="13262840" user="jakedowner"/>
  <way id="11018245" version="12" timestamp="2021-08-23T12:14:14Z" changeset="110113920" uid="10170582" user="priymose">
    <nd ref="639108"/>
    <nd ref="2121223209"/>
    <nd ref="2121223210"/>
    <nd ref="2121223211"/>
    <nd ref="2121223212"/>
    <nd ref="2121223213"/>
    <nd ref="2121223214"/>
    <nd ref="2121223215"/>
    <nd ref="2121223216"/>
    <nd ref="2121223217"/>
    <nd ref="2121223218"/>
    <nd ref="2121223219"/>
    <nd ref="98150424"/>
    <nd ref="2121223220"/>
    <nd ref="2121223221"/>
    <nd ref="2121223222"/>
    <nd ref="2121223223"/>
    <nd ref="2121223224"/>
    <nd ref="2121223225"/>
    <nd ref="2121223226"/>
    <nd ref="2121223227"/>
    <nd ref="2121223228"/>
    <nd ref="98150426"/>
    <nd ref="2121223229"/>
    <nd ref="2121223230"/>
    <nd ref="2121223231"/>
    <nd ref="2121223232"/>
    <nd ref="2121223233"/>
    <nd ref="2121223234"/>
    <nd ref="2121223235"/>
    <nd ref="2121223236"/>
    <nd ref="7994652579"/>
    <nd ref="2121223237"/>
    <nd ref="98150428"/>
    <nd ref="2121223238"/>
    <nd ref="2121223239"/>
    <nd ref="2121223240"/>
    <nd ref="2121223241"/>
    <nd ref="8448232492"/>
    <nd ref="8448232497"/>
    <nd ref="2121223242"/>
    <nd ref="2121223243"/>
    <nd ref="2121223244"/>
    <nd ref="98150448"/>
    <nd ref="2121223245"/>
    <nd ref="2121223246"/>
    <nd ref="2121223247"/>
    <nd ref="2121223248"/>
    <nd ref="2121223249"/>
    <nd ref="2121223250"/>
    <nd ref="8558882229"/>
    <nd ref="2121223251"/>
    <nd ref="2121223252"/>
    <nd ref="2121223253"/>
    <nd ref="98150451"/>
    <nd ref="2121223254"/>
    <nd ref="2121223255"/>
    <nd ref="9028676129"/>
    <nd ref="2121223257"/>
    <nd ref="2121223258"/>
    <nd ref="2121223259"/>
    <nd ref="2121223260"/>
    <nd ref="2121223261"/>
    <nd ref="98150454"/>
    <nd ref="2121223262"/>
    <nd ref="2121223263"/>
    <nd ref="2121223264"/>
    <nd ref="2121223265"/>
    <nd ref="8021856338"/>
    <nd ref="2121223267"/>
    <nd ref="8021856351"/>
    <nd ref="2121223268"/>
    <nd ref="2121223269"/>
    <nd ref="2121223270"/>
    <nd ref="2121223271"/>
    <nd ref="2121223272"/>
    <nd ref="2121223273"/>
    <nd ref="2121223274"/>
    <nd ref="98150456"/>
    <tag k="highway" v="unclassified"/>
    <tag k="name" v="Devitts Green Lane"/>
  </way>
  <way id="11018247" version="6" timestamp="2020-10-21T05:15:48Z" changeset="92801987" uid="10252557" user="anuvashi">
    <nd ref="98150456"/>
    <nd ref="4375650939"/>
    <nd ref="4375650938"/>
    <nd ref="878771471"/>
    <nd ref="98150480"/>
    <nd ref="878771473"/>
    <nd ref="98150482"/>
    <nd ref="8027060808"/>
    <nd ref="2353154667"/>
    <nd ref="2353154660"/>
    <nd ref="878771475"/>
    <nd ref="2353154654"/>
    <nd ref="2353154653"/>
    <nd ref="98150485"/>
    <nd ref="2353154641"/>
    <nd ref="2353154638"/>
    <nd ref="98150489"/>
    <nd ref="98150343"/>
    <tag k="highway" v="unclassified"/>
    <tag k="source" v="OS_OpenData_StreetView"/>
  </way>
  <way id="11018250" version="9" timestamp="2016-11-13T15:52:38Z" changeset="43608507" uid="9065" user="brianboru">
    <nd ref="98150458"/>
    <nd ref="2121223327"/>
    <nd ref="2121223344"/>
    <nd ref="2121223397"/>
    <nd ref="2121223432"/>
    <nd ref="2121223436"/>
    <nd ref="878770930"/>
    <nd ref="2353137409"/>
    <nd ref="98150493"/>
    <nd ref="2353137426"/>
    <nd ref="2353137428"/>
    <nd ref="98150498"/>
    <nd ref="98150503"/>
    <nd ref="98150507"/>
    <nd ref="4498666420"/>
    <nd ref="98150509"/>
    <nd ref="2354454719"/>
    <nd ref="2354454720"/>
    <nd ref="2354454721"/>
    <nd ref="98150511"/>
    <nd ref="2354454726"/>
    <nd ref="2354454727"/>
    <nd ref="4387313156"/>
    <nd ref="2354454728"/>
    <nd ref="878770947"/>
    <nd ref="1296252646"/>
    <nd ref="1296252644"/>
    <nd ref="1296252509"/>
    <nd ref="98150516"/>
    <nd ref="1296252572"/>
    <nd ref="878770949"/>
    <nd ref="2353137507"/>
    <nd ref="878770951"/>
    <nd ref="2353137525"/>
    <nd ref="2353137535"/>
    <nd ref="878770953"/>
    <nd ref="98150521"/>
    <nd ref="2353137566"/>
    <nd ref="2353137573"/>
    <nd ref="98150525"/>
    <nd ref="2353137597"/>
    <nd ref="2353137606"/>
    <nd ref="878770958"/>
    <nd ref="2353137619"/>
    <nd ref="2353137638"/>
    <nd ref="98150528"/>
    <nd ref="98150532"/>
    <tag k="highway" v="unclassified"/>
    <tag k="name" v="Wood Lane"/>
  </way>
  <way id="23386971" version="16" timestamp="2020-10-09T10:26:11Z" changeset="92229273" uid="9196186" user="Dowluri">
    <nd ref="1675680421"/>
    <nd ref="1675586417"/>
    <nd ref="98150336"/>
    <nd ref="98150337"/>
    <nd ref="253222279"/>
    <nd ref="1675586385"/>
    <nd ref="253222280"/>
    <nd ref="4380608124"/>
    <nd ref="253222282"/>
    <nd ref="253222284"/>
    <nd ref="7991681224"/>
    <nd ref="6905800256"/>
    <nd ref="98150338"/>
    <nd ref="2353154586"/>
    <nd ref="253222286"/>
    <nd ref="253222288"/>
    <nd ref="2353154613"/>
    <nd ref="2353154618"/>
    <nd ref="2353165555"/>
    <nd ref="98150343"/>
    <tag k="gritting" v="yes"/>
    <tag k="gritting_depot" v="Coleshill Heath Road"/>
    <tag k="gritting_operator" v="Warwickshire County Council"/>
    <tag k="gritting_route_ref" v="3"/>
    <tag k="gritting_route_revision" v="201105"/>
    <tag k="highway" v="tertiary"/>
    <tag k="maintenance" v="gritting"/>
    <tag k="name" v="Station Road"/>
    <tag k="surface" v="paved"/>
  </way>
  <way id="23388674" version="6" timestamp="2025-02-12T10:08:54Z" changeset="162422972" uid="20655669" user="samwwwblack">
    <nd ref="254766266"/>
    <nd ref="1394795561"/>
    <tag k="highway" v="unclassified"/>
    <tag k="lanes" v="2"/>
    <tag k="name" v="Stonehouse Lane"/>
    <tag k="source" v="NPE"/>
    <tag k="surface" v="paved"/>
  </way>
  <way id="23388675" version="31" timestamp="2025-02-12T10:08:55Z" changeset="162422972" uid="20655669" user="samwwwblack">
    <nd ref="254766292"/>
    <nd ref="8776537332"/>
    <nd ref="1617747466"/>
    <nd ref="3928750035"/>
    <nd ref="3928750008"/>
    <nd ref="1619385739"/>
    <nd ref="1619385737"/>
    <nd ref="3928749989"/>
    <nd ref="254766291"/>
    <nd ref="3928749988"/>
    <nd ref="254766290"/>
    <nd ref="3928749986"/>
    <nd ref="254766284"/>
    <nd ref="3928749985"/>
    <nd ref="2388560381"/>
    <nd ref="3928749983"/>
    <nd ref="2388560380"/>
    <nd ref="254766283"/>
    <nd ref="254766282"/>
    <nd ref="3932217220"/>
    <nd ref="2388559151"/>
    <nd ref="8186926123"/>
    <nd ref="878776250"/>
    <nd ref="878776254"/>
    <nd ref="6309654379"/>
    <nd ref="254766266"/>
    <nd ref="1394795666"/>
    <nd ref="1394795680"/>
    <nd ref="1394795385"/>
    <nd ref="254766279"/>
    <nd ref="2388538956"/>
    <nd ref="6309655892"/>
    <nd ref="7996301563"/>
    <nd ref="254766278"/>
    <nd ref="8767578282"/>
    <nd ref="1675683606"/>
    <nd ref="1675683607"/>
    <tag k="gritting" v="yes"/>
    <tag k="gritting_depot" v="Coleshill Heath Road"/>
    <tag k="gritting_operator" v="Warwickshire County Council"/>
    <tag k="gritting_route_ref" v="3"/>
    <tag k="gritting_route_revision" v="201105"/>
    <tag k="highway" v="tertiary"/>
    <tag k="lanes" v="2"/>
    <tag k="maintenance" v="gritting"/>
    <tag k="name" v="Spring Hill"/>
    <tag k="source" v="Warwicks CC Aerial Imagery 2013"/>
    <tag k="surface" v="asphalt"/>
  </way>
  <way id="23388676" version="18" timestamp="2022-08-19T15:25:32Z" changeset="125113268" uid="10370720" user="okwithmydecay">
    <nd ref="98150355"/>
    <nd ref="253222297"/>
    <nd ref="8034970917"/>
    <nd ref="1619356356"/>
    <nd ref="98150356"/>
    <nd ref="98150357"/>
    <nd ref="2067941962"/>
    <nd ref="253222298"/>
    <nd ref="1619356372"/>
    <nd ref="98150358"/>
    <nd ref="3974512921"/>
    <nd ref="8384635882"/>
    <nd ref="1617758161"/>
    <nd ref="9964157317"/>
    <nd ref="253222302"/>
    <nd ref="6869558668"/>
    <nd ref="253222300"/>
    <nd ref="98150359"/>
    <tag k="gritting" v="yes"/>
    <tag k="gritting_depot" v="Coleshill Heath Road"/>
    <tag k="gritting_operator" v="Warwickshire County Council"/>
    <tag k="gritting_route_ref" v="3"/>
    <tag k="gritting_route_revision" v="201105"/>
    <tag k="highway" v="tertiary"/>
    <tag k="maintenance" v="gritting"/>
    <tag k="maxspeed" v="30 mph"/>
    <tag k="name" v="Rectory Road"/>
    <tag k="surface" v="paved"/>
  </way>
  <way id="23390762" version="10" timestamp="2020-05-01T12:56:27Z" changeset="84471334" uid="6095563" user="Don Dapper">
    <nd ref="1296252519"/>
    <nd ref="98150378"/>
    <nd ref="1296252393"/>
    <nd ref="1296252430"/>
    <nd ref="1296252578"/>
    <nd ref="1296252400"/>
    <nd ref="1296252629"/>
    <nd ref="98150382"/>
    <nd ref="1296252595"/>
    <nd ref="98150386"/>
    <nd ref="1296252364"/>
    <nd ref="253222311"/>
    <nd ref="2235351600"/>
    <nd ref="7470611123"/>
    <tag k="gritting" v="yes"/>
    <tag k="gritting_depot" v="Coleshill Heath Road"/>
    <tag k="gritting_operator" v="Warwickshire County Council"/>
    <tag k="gritting_route_ref" v="3"/>
    <tag k="gritting_route_revision" v="201105"/>
    <tag k="highway" v="tertiary"/>
    <tag k="highway_authority_ref" v="C126"/>
    <tag k="maintenance" v="gritting"/>
    <tag k="name" v="Ansley Lane"/>
    <tag k="surface" v="paved"/>
  </way>
  <way id="23526616" version="12" timestamp="2024-10-23T18:22:51Z" changeset="158266345" uid="20655669" user="samwwwblack">
    <nd ref="254766282"/>
    <nd ref="3932217219"/>
    <nd ref="3932217218"/>
    <nd ref="254766302"/>
    <nd ref="3932217217"/>
    <nd ref="7492285497"/>
    <nd ref="2388575602"/>
    <nd ref="254766303"/>
    <nd ref="3932217216"/>
    <nd ref="2388559135"/>
    <nd ref="254766305"/>
    <nd ref="3932217215"/>
    <nd ref="2388559123"/>
    <nd ref="254766306"/>
    <nd ref="3932217214"/>
    <nd ref="2388559120"/>
    <nd ref="254766307"/>
    <nd ref="254766309"/>
    <nd ref="7994383712"/>
    <nd ref="2388559115"/>
    <nd ref="254766310"/>
    <nd ref="2388559109"/>
    <nd ref="878775384"/>
    <nd ref="2388559101"/>
    <nd ref="878775387"/>
    <nd ref="878775390"/>
    <nd ref="878774880"/>
    <nd ref="1394681229"/>
    <nd ref="1394681232"/>
    <nd ref="2396945712"/>
    <nd ref="1890665604"/>
    <nd ref="254766249"/>
    <tag k="highway" v="unclassified"/>
    <tag k="name" v="Lamp Lane"/>
    <tag k="source" v="NPE"/>
    <tag k="surface" v="asphalt"/>
  </way>
  <way id="74339838" version="12" timestamp="2025-01-14T22:39:14Z" changeset="161361613" uid="5229644" user="Nathan_A_RF">
    <nd ref="8841271193"/>
    <nd ref="878778368"/>
    <nd ref="2381351353"/>
    <nd ref="1619385768"/>
    <nd ref="9336693853"/>
    <nd ref="878778366"/>
    <nd ref="878778364"/>
    <nd ref="878778361"/>
    <nd ref="878778358"/>
    <nd ref="3924878256"/>
    <nd ref="878778355"/>
    <tag k="gritting" v="yes"/>
    <tag k="gritting_depot" v="Coleshill Heath Road"/>
    <tag k="gritting_operator" v="Warwickshire County Council"/>
    <tag k="gritting_route_ref" v="3"/>
    <tag k="gritting_route_revision" v="201105"/>
    <tag k="highway" v="tertiary"/>
    <tag k="maintenance" v="gritting"/>
    <tag k="maxspeed" v="60 mph"/>
    <tag k="maxspeed:type" v="GB:nsl_single"/>
    <tag k="name" v="Arley Lane"/>
    <tag k="source" v="NPE"/>
  </way>
  <way id="82205583" version="9" timestamp="2023-08-24T13:54:56Z" changeset="140323904" uid="5589" user="user_5589">
    <nd ref="957084440"/>
    <nd ref="639082"/>
    <tag k="bridge" v="yes"/>
    <tag k="cycleway:both" v="no"/>
    <tag k="gritting" v="yes"/>
    <tag k="gritting_depot" v="Coleshill Heath Road"/>
    <tag k="gritting_operator" v="Warwickshire County Council"/>
    <tag k="gritting_route_ref" v="3"/>
    <tag k="gritting_route_revision" v="201105"/>
    <tag k="highway" v="secondary"/>
    <tag k="lanes" v="2"/>
    <tag k="lanes:backward" v="1"/>
    <tag k="lanes:forward" v="1"/>
    <tag k="maintenance" v="gritting"/>
    <tag k="maxweight:signed" v="no"/>
    <tag k="name" v="Tamworth Road"/>
    <tag k="ref" v="B4098"/>
    <tag k="surface" v="asphalt"/>
  </way>
  <way id="82205584" version="5" timestamp="2023-08-24T13:55:04Z" changeset="140323686" uid="5589" user="user_5589">
    <nd ref="639082"/>
    <nd ref="639080"/>
    <nd ref="639079"/>
    <nd ref="639078"/>
    <tag k="gritting" v="yes"/>
    <tag k="gritting_depot" v="Coleshill Heath Road"/>
    <tag k="gritting_operator" v="Warwickshire County Council"/>
    <tag k="gritting_route_ref" v="3"/>
    <tag k="gritting_route_revision" v="201105"/>
    <tag k="highway" v="secondary"/>
    <tag k="maintenance" v="gritting"/>
    <tag k="name" v="Tamworth Road"/>
    <tag k="ref" v="B4098"/>
    <tag k="surface" v="asphalt"/>
  </way>
  <way id="85992345" version="7" timestamp="2021-06-15T10:26:34Z" changeset="106392854" uid="10252551" user="amanura">
    <nd ref="98150456"/>
    <nd ref="2121223275"/>
    <nd ref="2121223278"/>
    <nd ref="2121223280"/>
    <nd ref="2121223283"/>
    <nd ref="2121223288"/>
    <nd ref="2121223292"/>
    <nd ref="8835585804"/>
    <nd ref="2121223294"/>
    <nd ref="2121223298"/>
    <nd ref="2121223303"/>
    <tag k="highway" v="unclassified"/>
    <tag k="name" v="Devitts Green Lane"/>
    <tag k="source:name" v="OS_OpenData_Locator"/>
  </way>
  <way id="85992348" version="12" timestamp="2021-08-20T07:40:59Z" changeset="109970622" uid="10455633" user="tnayini">
    <nd ref="2353165565"/>
    <nd ref="8824065312"/>
    <nd ref="98150350"/>
    <nd ref="4380600937"/>
    <nd ref="253222291"/>
    <nd ref="9022069805"/>
    <nd ref="1619362231"/>
    <nd ref="9022099218"/>
    <nd ref="98150353"/>
    <nd ref="253222293"/>
    <nd ref="1619362298"/>
    <nd ref="1619362318"/>
    <nd ref="98150354"/>
    <nd ref="1619362334"/>
    <nd ref="253222295"/>
    <nd ref="1619385741"/>
    <nd ref="98150355"/>
    <tag k="gritting" v="yes"/>
    <tag k="gritting_depot" v="Coleshill Heath Road"/>
    <tag k="gritting_operator" v="Warwickshire County Council"/>
    <tag k="gritting_route_ref" v="3"/>
    <tag k="gritting_route_revision" v="201105"/>
    <tag k="highway" v="tertiary"/>
    <tag k="highway_authority_ref" v="C12"/>
    <tag k="maintenance" v="gritting"/>
    <tag k="maxspeed" v="30 mph"/>
    <tag k="name" v="Station Road"/>
    <tag k="surface" v="paved"/>
  </way>
  <way id="108131541" version="3" timestamp="2017-03-18T09:01:04Z" changeset="46950697" uid="26599" user="cdavila">
    <nd ref="1241066142"/>
    <nd ref="1675680496"/>
    <tag k="highway" v="unclassified"/>
    <tag k="name" v="Daw Mill Lane"/>
    <tag k="source" v="bing"/>
  </way>
  <way id="108131569" version="4" timestamp="2013-05-29T15:02:52Z" changeset="16339146" uid="9065" user="brianboru">
    <nd ref="1241066237"/>
    <nd ref="2118402857"/>
    <nd ref="2118402859"/>
    <nd ref="2118402855"/>
    <nd ref="1675680494"/>
    <nd ref="2118402830"/>
    <nd ref="2118402808"/>
    <nd ref="254766045"/>
    <nd ref="2118402761"/>
    <nd ref="1241066558"/>
    <nd ref="2118402755"/>
    <nd ref="2118402752"/>
    <nd ref="2118402758"/>
    <nd ref="2324425942"/>
    <nd ref="254766047"/>
    <nd ref="2118402766"/>
    <nd ref="2118402784"/>
    <nd ref="2118402832"/>
    <nd ref="2118402853"/>
    <nd ref="2118402867"/>
    <nd ref="254766048"/>
    <nd ref="2118402873"/>
    <nd ref="2118402928"/>
    <nd ref="1241066322"/>
    <nd ref="2118402965"/>
    <nd ref="2118402983"/>
    <nd ref="1241066454"/>
    <nd ref="2118402995"/>
    <nd ref="2118402999"/>
    <nd ref="2118403019"/>
    <nd ref="2118403025"/>
    <nd ref="2118403029"/>
    <nd ref="2118403034"/>
    <nd ref="2118403038"/>
    <nd ref="1241066115"/>
    <nd ref="2118403042"/>
    <nd ref="2118403046"/>
    <nd ref="2118403050"/>
    <nd ref="2118403054"/>
    <nd ref="254766049"/>
    <nd ref="2118403060"/>
    <nd ref="2118403068"/>
    <nd ref="2118403076"/>
    <nd ref="2118403078"/>
    <nd ref="2118403082"/>
    <nd ref="2118403088"/>
    <nd ref="2118403092"/>
    <nd ref="1241066268"/>
    <nd ref="2118403096"/>
    <nd ref="254766050"/>
    <nd ref="2118403098"/>
    <nd ref="2118403101"/>
    <nd ref="2118403100"/>
    <nd ref="2118403103"/>
    <nd ref="1241066420"/>
    <nd ref="2118403107"/>
    <nd ref="2118403109"/>
    <nd ref="639114"/>
    <tag k="highway" v="unclassified"/>
    <tag k="name" v="Daw Mill Lane"/>
    <tag k="source" v="bing"/>
  </way>
  <way id="125599896" version="9" timestamp="2020-10-12T07:13:14Z" changeset="92331969" uid="10252557" user="anuvashi">
    <nd ref="254766233"/>
    <nd ref="2387353760"/>
    <nd ref="1394681218"/>
    <nd ref="2387353763"/>
    <nd ref="254766219"/>
    <nd ref="2387353767"/>
    <nd ref="2387353768"/>
    <nd ref="254766218"/>
    <nd ref="2387353772"/>
    <nd ref="2387353774"/>
    <nd ref="254766217"/>
    <nd ref="2387353779"/>
    <nd ref="254766216"/>
    <nd ref="2387353786"/>
    <nd ref="254766215"/>
    <nd ref="2387353790"/>
    <nd ref="2387353792"/>
    <nd ref="2387353794"/>
    <nd ref="254766214"/>
    <nd ref="254766211"/>
    <nd ref="2387353802"/>
    <nd ref="1890665811"/>
    <nd ref="2387353803"/>
    <nd ref="254766209"/>
    <nd ref="2388559099"/>
    <nd ref="254766205"/>
    <nd ref="254766204"/>
    <nd ref="1394795505"/>
    <nd ref="7999064841"/>
    <nd ref="1674651042"/>
    <nd ref="7999064837"/>
    <nd ref="1674651096"/>
    <nd ref="1675680402"/>
    <nd ref="254766201"/>
    <nd ref="1674651062"/>
    <nd ref="253222277"/>
    <tag k="highway" v="unclassified"/>
    <tag k="name" v="Tippers Hill Lane"/>
    <tag k="not:name" v="Tipper's Hill Lane"/>
    <tag k="surface" v="paved"/>
  </way>
  <way id="125615071" version="3" timestamp="2025-02-12T10:08:54Z" changeset="162422972" uid="20655669" user="samwwwblack">
    <nd ref="1394795561"/>
    <nd ref="1394795606"/>
    <nd ref="1394795680"/>
    <tag k="highway" v="unclassified"/>
    <tag k="lanes" v="2"/>
    <tag k="name" v="Stonehouse Lane"/>
    <tag k="surface" v="asphalt"/>
  </way>
  <way id="125615077" version="3" timestamp="2021-06-16T02:43:17Z" changeset="106429629" uid="10305811" user="kumrnls">
    <nd ref="1394795561"/>
    <nd ref="1394795518"/>
    <nd ref="254766264"/>
    <nd ref="254766261"/>
    <nd ref="254766260"/>
    <nd ref="254766259"/>
    <nd ref="1394795593"/>
    <nd ref="1394795592"/>
    <nd ref="878772647"/>
    <nd ref="254766254"/>
    <nd ref="1394795627"/>
    <nd ref="8837275110"/>
    <nd ref="254766253"/>
    <nd ref="7702287005"/>
    <nd ref="1394795389"/>
    <nd ref="254766252"/>
    <tag k="highway" v="unclassified"/>
    <tag k="name" v="Stonehouse Lane"/>
    <tag k="source" v="NPE"/>
    <tag k="surface" v="paved"/>
  </way>
  <way id="125615078" version="4" timestamp="2017-03-18T09:01:04Z" changeset="46950697" uid="26599" user="cdavila">
    <nd ref="1675688788"/>
    <nd ref="878772654"/>
    <nd ref="4380600778"/>
    <nd ref="254766250"/>
    <nd ref="878772656"/>
    <nd ref="4380600768"/>
    <nd ref="253239287"/>
    <nd ref="98150337"/>
    <tag k="highway" v="unclassified"/>
    <tag k="name" v="Stonehouse Lane"/>
    <tag k="source" v="NPE"/>
    <tag k="surface" v="paved"/>
  </way>
  <way id="126392981" version="11" timestamp="2021-02-24T05:45:28Z" changeset="99873602" uid="9259458" user="aepunavy">
    <nd ref="1675688790"/>
    <nd ref="1617752148"/>
    <nd ref="1617752147"/>
    <nd ref="1617752143"/>
    <nd ref="1617752142"/>
    <nd ref="1617752144"/>
    <nd ref="4386851082"/>
    <nd ref="1617752150"/>
    <nd ref="4386851087"/>
    <nd ref="8451842185"/>
    <nd ref="1617752151"/>
    <nd ref="4386851090"/>
    <nd ref="1617752152"/>
    <nd ref="4386851088"/>
    <nd ref="1617755788"/>
    <nd ref="4386851092"/>
    <nd ref="1617755790"/>
    <nd ref="4386851096"/>
    <nd ref="4386851103"/>
    <nd ref="4386851112"/>
    <nd ref="1619356441"/>
    <nd ref="3932332483"/>
    <nd ref="4386851126"/>
    <nd ref="98150363"/>
    <tag k="highway" v="unclassified"/>
    <tag k="name" v="Church Lane"/>
    <tag k="source" v="OS_OpenData_StreetView"/>
  </way>
  <way id="126392982" version="6" timestamp="2024-10-23T18:24:58Z" changeset="158266345" uid="20655669" user="samwwwblack">
    <nd ref="909244411"/>
    <nd ref="2388575768"/>
    <nd ref="4386861957"/>
    <nd ref="1617752136"/>
    <nd ref="4386861959"/>
    <nd ref="1617752137"/>
    <nd ref="8408333287"/>
    <nd ref="2388575770"/>
    <nd ref="1617752138"/>
    <nd ref="2388575771"/>
    <nd ref="1401262090"/>
    <tag k="highway" v="unclassified"/>
    <tag k="name" v="Church Lane"/>
    <tag k="source" v="OS_OpenData_StreetView"/>
    <tag k="surface" v="asphalt"/>
  </way>
  <way id="148698092" version="4" timestamp="2023-12-06T15:06:36Z" changeset="144832561" uid="20655669" user="samwwwblack">
    <nd ref="1617747760"/>
    <nd ref="1617747725"/>
    <nd ref="8751842933"/>
    <nd ref="8751842935"/>
    <nd ref="8751842937"/>
    <nd ref="1617747677"/>
    <tag k="highway" v="residential"/>
    <tag k="lane_markings" v="no"/>
    <tag k="name" v="Charles Street"/>
    <tag k="source" v="OS_OpenData_StreetView"/>
    <tag k="surface" v="asphalt"/>
  </way>
  <way id="148698093" version="6" timestamp="2024-11-02T21:58:27Z" changeset="158678591" uid="20655669" user="samwwwblack">
    <nd ref="12308270697"/>
    <nd ref="1617747705"/>
    <nd ref="8751842944"/>
    <nd ref="8751842987"/>
    <nd ref="1617747669"/>
    <nd ref="1617747602"/>
    <tag k="highway" v="residential"/>
    <tag k="lane_markings" v="no"/>
    <tag k="name" v="Daffern Avenue"/>
    <tag k="source" v="OS_OpenData_StreetView"/>
    <tag k="surface" v="asphalt"/>
  </way>
  <way id="148698095" version="4" timestamp="2024-10-23T18:26:05Z" changeset="158266345" uid="20655669" user="samwwwblack">
    <nd ref="909244913"/>
    <nd ref="909244295"/>
    <nd ref="7479923644"/>
    <nd ref="1617747780"/>
    <nd ref="1617747749"/>
    <nd ref="1619348994"/>
    <tag k="highway" v="residential"/>
    <tag k="name" v="Fir Tree Lane"/>
    <tag k="source" v="OS_OpenData_StreetView"/>
    <tag k="surface" v="asphalt"/>
  </way>
  <way id="148698097" version="1" timestamp="2012-02-04T14:20:02Z" changeset="10584596" uid="9065" user="brianboru">
    <nd ref="1617747438"/>
    <nd ref="1617747436"/>
    <nd ref="1617747433"/>
    <tag k="highway" v="residential"/>
    <tag k="name" v="Four Fields Way"/>
    <tag k="source" v="OS_OpenData_StreetView"/>
  </way>
  <way id="148698098" version="1" timestamp="2012-02-04T14:20:03Z" changeset="10584596" uid="9065" user="brianboru">
    <nd ref="1617747448"/>
    <nd ref="1617747440"/>
    <nd ref="1617747436"/>
    <tag k="highway" v="residential"/>
    <tag k="name" v="Four Fields Way"/>
    <tag k="source" v="OS_OpenData_StreetView"/>
  </way>
  <way id="148698099" version="1" timestamp="2012-02-04T14:20:03Z" changeset="10584596" uid="9065" user="brianboru">
    <nd ref="1617747462"/>
    <nd ref="1617747450"/>
    <nd ref="1617747448"/>
    <nd ref="1617747434"/>
    <tag k="highway" v="residential"/>
    <tag k="name" v="Four Fields Way"/>
    <tag k="source" v="OS_OpenData_StreetView"/>
  </way>
  <way id="148698100" version="4" timestamp="2016-01-06T09:06:20Z" changeset="36397955" uid="9065" user="brianboru">
    <nd ref="1619350420"/>
    <nd ref="1617747484"/>
    <nd ref="1617747468"/>
    <nd ref="1617747465"/>
    <nd ref="3930000738"/>
    <nd ref="1617747455"/>
    <nd ref="1617747452"/>
    <nd ref="1617747450"/>
    <tag k="highway" v="residential"/>
    <tag k="name" v="Four Fields Way"/>
    <tag k="source" v="OS_OpenData_StreetView"/>
  </way>
  <way id="148698101" version="5" timestamp="2024-10-31T11:40:39Z" changeset="158577514" uid="20655669" user="samwwwblack">
    <nd ref="1619348977"/>
    <nd ref="1617747731"/>
    <nd ref="3922157185"/>
    <nd ref="1619349001"/>
    <nd ref="1619349009"/>
    <nd ref="3922157286"/>
    <nd ref="1619349010"/>
    <tag k="highway" v="residential"/>
    <tag k="lane_markings" v="no"/>
    <tag k="name" v="Frederick Road"/>
    <tag k="source" v="OS_OpenData_StreetView"/>
    <tag k="surface" v="asphalt"/>
  </way>
  <way id="148698102" version="2" timestamp="2012-02-05T19:58:32Z" changeset="10597602" uid="9065" user="brianboru">
    <nd ref="1617747843"/>
    <nd ref="1619349032"/>
    <tag k="highway" v="residential"/>
    <tag k="name" v="George Street"/>
    <tag k="source" v="OS_OpenData_StreetView"/>
  </way>
  <way id="148698104" version="4" timestamp="2024-10-23T18:26:44Z" changeset="158266345" uid="20655669" user="samwwwblack">
    <nd ref="1617747688"/>
    <nd ref="1864184521"/>
    <nd ref="3928732007"/>
    <nd ref="1617747664"/>
    <tag k="highway" v="residential"/>
    <tag k="name" v="Hawthorne Avenue"/>
    <tag k="source" v="OS_OpenData_StreetView"/>
    <tag k="surface" v="asphalt"/>
  </way>
  <way id="148698105" version="4" timestamp="2024-11-02T21:58:42Z" changeset="158678578" uid="20655669" user="samwwwblack">
    <nd ref="909244295"/>
    <nd ref="3922157403"/>
    <nd ref="3922157396"/>
    <nd ref="1617747814"/>
    <nd ref="3922157386"/>
    <nd ref="3922157375"/>
    <nd ref="1617747790"/>
    <nd ref="3922157234"/>
    <nd ref="1619349001"/>
    <tag k="highway" v="residential"/>
    <tag k="name" v="Hollick Crescent"/>
    <tag k="source" v="OS_OpenData_StreetView"/>
    <tag k="surface" v="asphalt"/>
  </way>
  <way id="148698106" version="4" timestamp="2023-12-06T15:06:41Z" changeset="144832561" uid="20655669" user="samwwwblack">
    <nd ref="1619349026"/>
    <nd ref="1617747725"/>
    <tag k="highway" v="residential"/>
    <tag k="lane_markings" v="no"/>
    <tag k="name" v="James Street"/>
    <tag k="source" v="OS_OpenData_StreetView"/>
    <tag k="surface" v="asphalt"/>
  </way>
  <way id="148698107" version="2" timestamp="2024-10-24T06:37:36Z" changeset="158281994" uid="20655669" user="samwwwblack">
    <nd ref="1617747532"/>
    <nd ref="1617747545"/>
    <tag k="highway" v="residential"/>
    <tag k="name" v="Lichfield Close"/>
    <tag k="source" v="OS_OpenData_StreetView"/>
    <tag k="source:name" v="OS_OpenData_Locator"/>
    <tag k="surface" v="asphalt"/>
  </way>
  <way id="148698108" version="2" timestamp="2024-10-24T06:37:40Z" changeset="158281994" uid="20655669" user="samwwwblack">
    <nd ref="1617747518"/>
    <nd ref="1617747508"/>
    <nd ref="1617747503"/>
    <tag k="highway" v="residential"/>
    <tag k="name" v="Lichfield Close"/>
    <tag k="source" v="OS_OpenData_StreetView"/>
    <tag k="source:name" v="OS_OpenData_Locator"/>
    <tag k="surface" v="asphalt"/>
  </way>
  <way id="148698109" version="5" timestamp="2024-10-24T06:37:32Z" changeset="158281994" uid="20655669" user="samwwwblack">
    <nd ref="1617747508"/>
    <nd ref="1617747530"/>
    <nd ref="3928740823"/>
    <nd ref="1617747532"/>
    <nd ref="1619350422"/>
    <nd ref="1619350421"/>
    <tag k="highway" v="residential"/>
    <tag k="name" v="Lichfield Close"/>
    <tag k="source" v="OS_OpenData_StreetView"/>
    <tag k="source:name" v="OS_OpenData_Locator"/>
    <tag k="surface" v="asphalt"/>
  </way>
  <way id="148698110" version="6" timestamp="2024-08-15T11:05:42Z" changeset="155277557" uid="20655669" user="samwwwblack">
    <nd ref="1617747650"/>
    <nd ref="1619350423"/>
    <nd ref="1617747566"/>
    <nd ref="1617747560"/>
    <nd ref="3928740851"/>
    <nd ref="1617747549"/>
    <nd ref="1617747528"/>
    <nd ref="3928740813"/>
    <nd ref="1617747522"/>
    <nd ref="1617747506"/>
    <nd ref="3928740795"/>
    <nd ref="3928740793"/>
    <nd ref="3928740790"/>
    <nd ref="1619350421"/>
    <nd ref="3928740776"/>
    <nd ref="1617747492"/>
    <nd ref="1619350420"/>
    <nd ref="1617747466"/>
    <tag k="highway" v="residential"/>
    <tag k="name" v="Morgan Close"/>
    <tag k="source" v="OS_OpenData_StreetView"/>
    <tag k="surface" v="asphalt"/>
  </way>
  <way id="148698112" version="5" timestamp="2024-11-02T21:58:36Z" changeset="158678578" uid="20655669" user="samwwwblack">
    <nd ref="1619349001"/>
    <nd ref="3922157222"/>
    <nd ref="3922157167"/>
    <nd ref="1617747739"/>
    <nd ref="8751842988"/>
    <nd ref="8751843025"/>
    <nd ref="1617747679"/>
    <nd ref="1617747627"/>
    <tag k="highway" v="residential"/>
    <tag k="name" v="Ryder Row"/>
    <tag k="source" v="OS_OpenData_StreetView"/>
    <tag k="surface" v="asphalt"/>
  </way>
  <way id="148698115" version="1" timestamp="2012-02-04T14:20:08Z" changeset="10584596" uid="9065" user="brianboru">
    <nd ref="1617747485"/>
    <nd ref="1617747483"/>
    <nd ref="1617747471"/>
    <tag k="highway" v="residential"/>
    <tag k="name" v="St Michael's Close"/>
    <tag k="source" v="OS_OpenData_StreetView"/>
  </way>
  <way id="148698116" version="1" timestamp="2012-02-04T14:20:08Z" changeset="10584596" uid="9065" user="brianboru">
    <nd ref="1617747483"/>
    <nd ref="1617747472"/>
    <nd ref="1617747470"/>
    <nd ref="1617747465"/>
    <tag k="highway" v="residential"/>
    <tag k="name" v="St Michael's Close"/>
    <tag k="source" v="OS_OpenData_StreetView"/>
  </way>
  <way id="148698117" version="5" timestamp="2024-10-23T18:26:53Z" changeset="158266345" uid="20655669" user="samwwwblack">
    <nd ref="1617747703"/>
    <nd ref="1619349007"/>
    <nd ref="3924878193"/>
    <nd ref="1619349008"/>
    <nd ref="3914158076"/>
    <nd ref="3924878218"/>
    <nd ref="1617747786"/>
    <nd ref="3924878233"/>
    <nd ref="1617747794"/>
    <nd ref="3924878243"/>
    <nd ref="1617747807"/>
    <nd ref="1617747812"/>
    <nd ref="3924878249"/>
    <nd ref="3924878251"/>
    <nd ref="3924878252"/>
    <nd ref="1617747823"/>
    <nd ref="3924878253"/>
    <nd ref="3924878250"/>
    <nd ref="1617747811"/>
    <nd ref="1617747774"/>
    <nd ref="1617747772"/>
    <nd ref="1619349005"/>
    <tag k="highway" v="residential"/>
    <tag k="name" v="Sycamore Crescent"/>
    <tag k="source" v="OS_OpenData_StreetView;bing"/>
    <tag k="surface" v="asphalt"/>
  </way>
  <way id="148698120" version="2" timestamp="2024-10-23T18:27:00Z" changeset="158266345" uid="20655669" user="samwwwblack">
    <nd ref="1617747591"/>
    <nd ref="1617747619"/>
    <tag k="highway" v="residential"/>
    <tag k="name" v="Sycamore Crescent"/>
    <tag k="source" v="OS_OpenData_StreetView"/>
    <tag k="surface" v="asphalt"/>
  </way>
  <way id="148698122" version="1" timestamp="2012-02-04T14:20:09Z" changeset="10584596" uid="9065" user="brianboru">
    <nd ref="1617747585"/>
    <nd ref="1617747597"/>
    <tag k="highway" v="residential"/>
    <tag k="name" v="Sycamore Crescent"/>
    <tag k="source" v="OS_OpenData_StreetView"/>
  </way>
  <way id="148698123" version="8" timestamp="2023-12-06T15:12:12Z" changeset="144832457" uid="20655669" user="samwwwblack">
    <nd ref="1619349008"/>
    <nd ref="3924878197"/>
    <nd ref="3914158072"/>
    <nd ref="1617747761"/>
    <nd ref="3924878195"/>
    <nd ref="1617747756"/>
    <nd ref="3924878191"/>
    <nd ref="3924878189"/>
    <nd ref="1619349005"/>
    <nd ref="1617747745"/>
    <nd ref="1617747719"/>
    <nd ref="1617747688"/>
    <nd ref="1617747671"/>
    <nd ref="3914157506"/>
    <nd ref="1617747662"/>
    <nd ref="1617747652"/>
    <nd ref="1617747625"/>
    <nd ref="1617747619"/>
    <nd ref="1617747612"/>
    <nd ref="3928731913"/>
    <nd ref="1617747589"/>
    <nd ref="3928731902"/>
    <nd ref="1617747586"/>
    <nd ref="1617747571"/>
    <nd ref="1617747568"/>
    <nd ref="3928731875"/>
    <nd ref="3928731880"/>
    <nd ref="1617747578"/>
    <nd ref="1617747597"/>
    <nd ref="1864184519"/>
    <nd ref="1617747664"/>
    <nd ref="1864184520"/>
    <nd ref="8751827659"/>
    <nd ref="1617747693"/>
    <nd ref="1617747703"/>
    <nd ref="1617747711"/>
    <nd ref="1619348997"/>
    <tag k="highway" v="residential"/>
    <tag k="name" v="Sycamore Crescent"/>
    <tag k="source" v="OS_OpenData_StreetView"/>
    <tag k="surface" v="asphalt"/>
  </way>
  <way id="148698126" version="2" timestamp="2024-10-23T18:27:05Z" changeset="158266345" uid="20655669" user="samwwwblack">
    <nd ref="1617747607"/>
    <nd ref="1617747591"/>
    <nd ref="1617747583"/>
    <tag k="highway" v="residential"/>
    <tag k="name" v="Sycamore Crescent"/>
    <tag k="source" v="OS_OpenData_StreetView"/>
    <tag k="surface" v="asphalt"/>
  </way>
  <way id="148698128" version="5" timestamp="2024-08-15T11:05:26Z" changeset="155277557" uid="20655669" user="samwwwblack">
    <nd ref="1617747706"/>
    <nd ref="3924846187"/>
    <nd ref="1617747648"/>
    <nd ref="3924846114"/>
    <nd ref="3924846105"/>
    <nd ref="1619350423"/>
    <tag k="highway" v="residential"/>
    <tag k="name" v="Tremelling Way"/>
    <tag k="source" v="OS_OpenData_StreetView"/>
    <tag k="surface" v="asphalt"/>
  </way>
  <way id="148698130" version="5" timestamp="2024-10-31T11:40:20Z" changeset="158577514" uid="20655669" user="samwwwblack">
    <nd ref="1617747681"/>
    <nd ref="3922156853"/>
    <nd ref="1617747683"/>
    <nd ref="3922156975"/>
    <nd ref="1617747687"/>
    <nd ref="1617747690"/>
    <nd ref="1619348977"/>
    <nd ref="1617747713"/>
    <nd ref="1617747723"/>
    <nd ref="1617747735"/>
    <nd ref="1619348994"/>
    <nd ref="1617747741"/>
    <nd ref="1617747724"/>
    <nd ref="1617747721"/>
    <nd ref="1619348991"/>
    <nd ref="3922157014"/>
    <nd ref="1617747695"/>
    <nd ref="3922156983"/>
    <nd ref="1617747685"/>
    <nd ref="1619348975"/>
    <nd ref="1617747681"/>
    <tag k="highway" v="residential"/>
    <tag k="junction" v="roundabout"/>
    <tag k="lane_markings" v="no"/>
    <tag k="source" v="bing"/>
    <tag k="surface" v="asphalt"/>
  </way>
  <way id="148698131" version="2" timestamp="2012-02-05T19:58:35Z" changeset="10597602" uid="9065" user="brianboru">
    <nd ref="1617747802"/>
    <nd ref="1619349026"/>
    <tag k="highway" v="residential"/>
    <tag k="source" v="bing"/>
  </way>
  <way id="148698132" version="1" timestamp="2012-02-04T14:20:11Z" changeset="10584596" uid="9065" user="brianboru">
    <nd ref="1617747697"/>
    <nd ref="1617747688"/>
    <tag k="highway" v="residential"/>
    <tag k="source" v="bing"/>
  </way>
  <way id="148698475" version="6" timestamp="2025-01-22T14:49:21Z" changeset="161641259" uid="20655669" user="samwwwblack">
    <nd ref="909244913"/>
    <nd ref="1617752122"/>
    <nd ref="1617752124"/>
    <nd ref="1617752129"/>
    <nd ref="3924846203"/>
    <nd ref="1617752130"/>
    <nd ref="1617752131"/>
    <nd ref="2388575727"/>
    <nd ref="1617752132"/>
    <nd ref="1617752133"/>
    <nd ref="1617752134"/>
    <nd ref="1617752135"/>
    <nd ref="2388575767"/>
    <nd ref="4386861955"/>
    <nd ref="909244411"/>
    <tag k="highway" v="unclassified"/>
    <tag k="lane_markings" v="no"/>
    <tag k="name" v="Fir Tree Lane"/>
    <tag k="source" v="OS_OpenData_StreetView"/>
    <tag k="surface" v="asphalt"/>
  </way>
  <way id="148698931" version="3" timestamp="2016-01-07T16:28:12Z" changeset="36428198" uid="9065" user="brianboru">
    <nd ref="1617755784"/>
    <nd ref="3932332310"/>
    <nd ref="1617755786"/>
    <nd ref="1617755789"/>
    <nd ref="1619356441"/>
    <tag k="highway" v="residential"/>
    <tag k="name" v="Church Close"/>
    <tag k="source" v="OS_OpenData_StreetView"/>
  </way>
  <way id="148698932" version="2" timestamp="2012-02-04T14:31:14Z" changeset="10584732" uid="9065" user="brianboru">
    <nd ref="1617755802"/>
    <nd ref="1617755800"/>
    <nd ref="1617755798"/>
    <tag k="highway" v="residential"/>
    <tag k="name" v="Elm Grove"/>
    <tag k="source" v="OS_OpenData_StreetView"/>
    <tag k="source:name" v="OS_OpenData_Locator"/>
  </way>
  <way id="148698933" version="3" timestamp="2012-02-05T20:08:31Z" changeset="10597704" uid="9065" user="brianboru">
    <nd ref="1617755800"/>
    <nd ref="1617755787"/>
    <nd ref="1617755785"/>
    <nd ref="1619356411"/>
    <tag k="highway" v="residential"/>
    <tag k="name" v="Elm Grove"/>
    <tag k="source" v="OS_OpenData_StreetView"/>
    <tag k="source:name" v="OS_OpenData_Locator"/>
  </way>
  <way id="148699190" version="3" timestamp="2025-06-12T11:21:07Z" changeset="167529187" uid="22417091" user="satchUK">
    <nd ref="1617758168"/>
    <nd ref="1619356406"/>
    <nd ref="12909222990"/>
    <nd ref="1619356401"/>
    <tag k="highway" v="residential"/>
    <tag k="name" v="Ash Grove"/>
    <tag k="source" v="OS_OpenData_StreetView"/>
    <tag k="source:name" v="OS_OpenData_Locator"/>
  </way>
  <way id="148699191" version="3" timestamp="2025-06-12T11:21:07Z" changeset="167529187" uid="22417091" user="satchUK">
    <nd ref="1617758167"/>
    <nd ref="12909222991"/>
    <nd ref="1619356387"/>
    <tag k="highway" v="residential"/>
    <tag k="name" v="Beech Grove"/>
    <tag k="source" v="OS_OpenData_StreetView"/>
    <tag k="source:name" v="OS_OpenData_Locator"/>
  </way>
  <way id="148699192" version="1" timestamp="2012-02-04T14:31:13Z" changeset="10584732" uid="9065" user="brianboru">
    <nd ref="1617758163"/>
    <nd ref="1617758160"/>
    <tag k="highway" v="residential"/>
    <tag k="name" v="Meadow Croft"/>
    <tag k="source" v="OS_OpenData_StreetView"/>
    <tag k="source:name" v="OS_OpenData_Locator"/>
  </way>
  <way id="148699193" version="1" timestamp="2012-02-04T14:31:13Z" changeset="10584732" uid="9065" user="brianboru">
    <nd ref="1617758161"/>
    <nd ref="1617758146"/>
    <nd ref="1617758160"/>
    <nd ref="1617758162"/>
    <nd ref="1617758164"/>
    <tag k="highway" v="residential"/>
    <tag k="name" v="Meadow Croft"/>
    <tag k="source" v="OS_OpenData_StreetView"/>
    <tag k="source:name" v="OS_OpenData_Locator"/>
  </way>
  <way id="148699380" version="3" timestamp="2016-01-07T16:28:12Z" changeset="36428198" uid="9065" user="brianboru">
    <nd ref="1619356372"/>
    <nd ref="1617759723"/>
    <nd ref="1617759719"/>
    <nd ref="1617759717"/>
    <nd ref="1617759715"/>
    <nd ref="1617759713"/>
    <nd ref="1617759711"/>
    <nd ref="1617759709"/>
    <nd ref="1617759708"/>
    <nd ref="1617759701"/>
    <nd ref="1617759699"/>
    <nd ref="3932332129"/>
    <nd ref="1617759697"/>
    <nd ref="1617759694"/>
    <nd ref="3932332123"/>
    <nd ref="1617759690"/>
    <nd ref="3932332119"/>
    <nd ref="1617759688"/>
    <nd ref="3932332120"/>
    <nd ref="1617759692"/>
    <nd ref="1619356356"/>
    <tag k="highway" v="residential"/>
    <tag k="name" v="Bournebrook View"/>
    <tag k="source" v="OS_OpenData_StreetView"/>
    <tag k="source:name" v="OS_OpenData_Locator"/>
  </way>
  <way id="148699381" version="1" timestamp="2012-02-04T14:33:44Z" changeset="10584750" uid="9065" user="brianboru">
    <nd ref="1617759682"/>
    <nd ref="1617759684"/>
    <tag k="highway" v="residential"/>
    <tag k="name" v="Bournebrook View"/>
    <tag k="source" v="OS_OpenData_StreetView"/>
    <tag k="source:name" v="OS_OpenData_Locator"/>
  </way>
  <way id="148699382" version="1" timestamp="2012-02-04T14:33:44Z" changeset="10584750" uid="9065" user="brianboru">
    <nd ref="1617759706"/>
    <nd ref="1617759704"/>
    <nd ref="1617759701"/>
    <tag k="highway" v="residential"/>
    <tag k="name" v="Bournebrook View"/>
    <tag k="source" v="OS_OpenData_StreetView"/>
    <tag k="source:name" v="OS_OpenData_Locator"/>
  </way>
  <way id="148699383" version="1" timestamp="2012-02-04T14:33:45Z" changeset="10584750" uid="9065" user="brianboru">
    <nd ref="1617759690"/>
    <nd ref="1617759686"/>
    <nd ref="1617759684"/>
    <nd ref="1617759680"/>
    <tag k="highway" v="residential"/>
    <tag k="name" v="Bournebrook View"/>
    <tag k="source" v="OS_OpenData_StreetView"/>
    <tag k="source:name" v="OS_OpenData_Locator"/>
  </way>
  <way id="148699384" version="1" timestamp="2012-02-04T14:33:45Z" changeset="10584750" uid="9065" user="brianboru">
    <nd ref="1617759725"/>
    <nd ref="1617759724"/>
    <nd ref="1617759721"/>
    <nd ref="1617759719"/>
    <tag k="highway" v="residential"/>
    <tag k="name" v="Rowland Court"/>
    <tag k="source" v="OS_OpenData_StreetView"/>
    <tag k="source:name" v="OS_OpenData_Locator"/>
  </way>
  <way id="148700968" version="8" timestamp="2024-10-23T18:24:04Z" changeset="158266345" uid="20655669" user="samwwwblack">
    <nd ref="1617775445"/>
    <nd ref="1617775443"/>
    <nd ref="1619348974"/>
    <nd ref="1676048179"/>
    <nd ref="1617775442"/>
    <nd ref="1676048175"/>
    <nd ref="1617775447"/>
    <nd ref="6309655908"/>
    <nd ref="7018693581"/>
    <nd ref="4196627843"/>
    <nd ref="1617775460"/>
    <nd ref="1617747758"/>
    <nd ref="3932331753"/>
    <nd ref="3932331752"/>
    <nd ref="1617775468"/>
    <nd ref="1617775466"/>
    <nd ref="1617775451"/>
    <nd ref="1617775450"/>
    <nd ref="3932331732"/>
    <nd ref="254766278"/>
    <tag k="highway" v="unclassified"/>
    <tag k="name" v="Colliers Way"/>
    <tag k="source" v="OS_OpenData_StreetView"/>
    <tag k="source:name" v="OS_OpenData_Locator"/>
    <tag k="surface" v="asphalt"/>
  </way>
  <way id="148700969" version="3" timestamp="2020-12-18T08:19:20Z" changeset="96052694" uid="11734026" user="sourabik">
    <nd ref="1617775485"/>
    <nd ref="1617775475"/>
    <nd ref="3932331833"/>
    <nd ref="1617775474"/>
    <nd ref="3932331799"/>
    <nd ref="3932331790"/>
    <nd ref="1617775473"/>
    <nd ref="3932331771"/>
    <nd ref="1617775471"/>
    <nd ref="3932331759"/>
    <nd ref="3932331749"/>
    <nd ref="8239676013"/>
    <nd ref="1617775464"/>
    <nd ref="1617775459"/>
    <nd ref="1617775451"/>
    <tag k="highway" v="residential"/>
    <tag k="name" v="Spinney Close"/>
    <tag k="source" v="OS_OpenData_StreetView"/>
    <tag k="source:name" v="OS_OpenData_Locator"/>
  </way>
  <way id="148700970" version="1" timestamp="2012-02-04T14:53:25Z" changeset="10584940" uid="9065" user="brianboru">
    <nd ref="1617775486"/>
    <nd ref="1617775485"/>
    <nd ref="1617775481"/>
    <tag k="highway" v="residential"/>
  </way>
  <way id="148700971" version="2" timestamp="2012-02-05T19:58:36Z" changeset="10597602" uid="9065" user="brianboru">
    <nd ref="1617775448"/>
    <nd ref="1617775446"/>
    <nd ref="1617775444"/>
    <nd ref="1619348974"/>
    <tag k="highway" v="unclassified"/>
    <tag k="source" v="bing"/>
  </way>
  <way id="148701155" version="9" timestamp="2025-01-22T14:49:55Z" changeset="161641259" uid="20655669" user="samwwwblack">
    <nd ref="909244411"/>
    <nd ref="4386861953"/>
    <nd ref="4386861952"/>
    <nd ref="1617779184"/>
    <nd ref="1617779180"/>
    <nd ref="2388575763"/>
    <nd ref="1617779164"/>
    <nd ref="4386861948"/>
    <nd ref="1617779161"/>
    <nd ref="1617779155"/>
    <nd ref="1617779158"/>
    <nd ref="1617779154"/>
    <nd ref="1617779152"/>
    <nd ref="1617779149"/>
    <nd ref="1617779146"/>
    <nd ref="1617779133"/>
    <nd ref="1617779129"/>
    <nd ref="1617779117"/>
    <nd ref="3924878396"/>
    <nd ref="1617779123"/>
    <nd ref="3924878397"/>
    <nd ref="1617779120"/>
    <nd ref="3924878395"/>
    <nd ref="3924878392"/>
    <nd ref="1617779113"/>
    <nd ref="3924878384"/>
    <nd ref="1617779110"/>
    <nd ref="1617779107"/>
    <nd ref="1617779104"/>
    <nd ref="1617779086"/>
    <nd ref="1617779080"/>
    <nd ref="1617779077"/>
    <nd ref="1617779072"/>
    <nd ref="909241811"/>
    <tag k="highway" v="unclassified"/>
    <tag k="lane_markings" v="no"/>
    <tag k="name" v="Church Lane"/>
    <tag k="source" v="OS_OpenData_StreetView"/>
    <tag k="surface" v="asphalt"/>
  </way>
  <way id="148701529" version="4" timestamp="2021-09-03T16:47:14Z" changeset="110687464" uid="133272" user="wongataa">
    <nd ref="1617784575"/>
    <nd ref="8024544498"/>
    <nd ref="7221666934"/>
    <nd ref="909241811"/>
    <tag k="highway" v="residential"/>
    <tag k="name" v="Hill Top"/>
    <tag k="source" v="OS_OpenData_StreetView"/>
  </way>
  <way id="148877383" version="4" timestamp="2023-12-06T15:07:02Z" changeset="144832561" uid="20655669" user="samwwwblack">
    <nd ref="1619348991"/>
    <nd ref="1619349012"/>
    <nd ref="1619349026"/>
    <nd ref="1619349030"/>
    <nd ref="1619349032"/>
    <nd ref="1617747832"/>
    <nd ref="3914158095"/>
    <nd ref="1617747839"/>
    <nd ref="1617747831"/>
    <nd ref="3914158094"/>
    <nd ref="3914158093"/>
    <nd ref="1617747826"/>
    <nd ref="1617747795"/>
    <tag k="highway" v="residential"/>
    <tag k="lane_markings" v="no"/>
    <tag k="name" v="George Street"/>
    <tag k="source" v="OS_OpenData_StreetView"/>
    <tag k="surface" v="asphalt"/>
  </way>
  <way id="148877384" version="7" timestamp="2024-11-07T15:58:40Z" changeset="158861801" uid="20655669" user="samwwwblack">
    <nd ref="1619348975"/>
    <nd ref="3922156833"/>
    <nd ref="8751842957"/>
    <nd ref="8751827702"/>
    <nd ref="8751842943"/>
    <nd ref="1617747646"/>
    <nd ref="6332217452"/>
    <nd ref="1617747567"/>
    <nd ref="3922156042"/>
    <nd ref="3922156032"/>
    <nd ref="1617747547"/>
    <tag k="highway" v="residential"/>
    <tag k="lane_markings" v="no"/>
    <tag k="lit" v="yes"/>
    <tag k="name" v="Ransome Road"/>
    <tag k="source" v="OS_OpenData_StreetView"/>
    <tag k="surface" v="asphalt"/>
  </way>
  <way id="148878290" version="4" timestamp="2023-11-30T20:41:20Z" changeset="144639610" uid="504708" user="HillWithSmallFields">
    <nd ref="1619356420"/>
    <nd ref="1619356421"/>
    <nd ref="1619356423"/>
    <nd ref="1619356425"/>
    <nd ref="1619356418"/>
    <nd ref="1619356415"/>
    <nd ref="1619356417"/>
    <nd ref="1619356416"/>
    <nd ref="1619356420"/>
    <tag k="amenity" v="place_of_worship"/>
    <tag k="building" v="yes"/>
    <tag k="denomination" v="anglican"/>
    <tag k="heritage" v="2"/>
    <tag k="heritage:operator" v="Historic England"/>
    <tag k="listed_status" v="Grade II*"/>
    <tag k="name" v="St Wilfrid"/>
    <tag k="ref:dove" v="14860"/>
    <tag k="religion" v="christian"/>
    <tag k="wikidata" v="Q17550513"/>
  </way>
  <way id="155186822" version="13" timestamp="2025-02-13T09:19:38Z" changeset="162458416" uid="20655669" user="samwwwblack">
    <nd ref="8841271194"/>
    <nd ref="3914158097"/>
    <nd ref="1617747795"/>
    <nd ref="1619349011"/>
    <nd ref="8751827692"/>
    <nd ref="3905101786"/>
    <nd ref="1619348997"/>
    <nd ref="909244823"/>
    <nd ref="8751827690"/>
    <nd ref="3905101758"/>
    <nd ref="3905101649"/>
    <nd ref="254766296"/>
    <nd ref="8751827688"/>
    <nd ref="1617747655"/>
    <nd ref="8751827686"/>
    <nd ref="3905101576"/>
    <nd ref="8751827683"/>
    <nd ref="3905101564"/>
    <nd ref="8751827666"/>
    <nd ref="8751827681"/>
    <nd ref="1617747593"/>
    <nd ref="8751827675"/>
    <nd ref="8751827679"/>
    <nd ref="1617747547"/>
    <nd ref="254766295"/>
    <nd ref="3922156029"/>
    <nd ref="254766294"/>
    <nd ref="1676048150"/>
    <nd ref="3928750502"/>
    <nd ref="254766292"/>
    <tag k="gritting" v="yes"/>
    <tag k="gritting_depot" v="Coleshill Heath Road"/>
    <tag k="gritting_operator" v="Warwickshire County Council"/>
    <tag k="gritting_route_ref" v="3"/>
    <tag k="gritting_route_revision" v="201105"/>
    <tag k="highway" v="tertiary"/>
    <tag k="lanes" v="2"/>
    <tag k="maintenance" v="gritting"/>
    <tag k="name" v="Gun Hill"/>
    <tag k="source" v="Warwicks CC Aerial Imagery 2013"/>
    <tag k="surface" v="asphalt"/>
  </way>
  <way id="196459674" version="3" timestamp="2020-09-29T04:42:01Z" changeset="91676655" uid="10252541" user="thadad">
    <nd ref="2067941981"/>
    <nd ref="3932332151"/>
    <nd ref="2067941979"/>
    <nd ref="3932332155"/>
    <nd ref="7953199235"/>
    <nd ref="2067941978"/>
    <nd ref="2067941962"/>
    <tag k="highway" v="residential"/>
    <tag k="name" v="Phil Collins Way"/>
    <tag k="source" v="OS_OpenData_StreetView"/>
    <tag k="source:name" v="OS_OpenData_Locator"/>
  </way>
  <way id="196459678" version="6" timestamp="2023-08-24T13:53:54Z" changeset="140323686" uid="5589" user="user_5589">
    <nd ref="1241208924"/>
    <nd ref="639115"/>
    <nd ref="2118403135"/>
    <nd ref="1241066543"/>
    <nd ref="2118403125"/>
    <nd ref="2118403121"/>
    <nd ref="639114"/>
    <nd ref="639111"/>
    <nd ref="639110"/>
    <nd ref="639109"/>
    <nd ref="2121223208"/>
    <nd ref="639108"/>
    <tag k="gritting" v="yes"/>
    <tag k="gritting_depot" v="Coleshill Heath Road"/>
    <tag k="gritting_operator" v="Warwickshire County Council"/>
    <tag k="gritting_route_ref" v="3"/>
    <tag k="gritting_route_revision" v="201105"/>
    <tag k="highway" v="secondary"/>
    <tag k="maintenance" v="gritting"/>
    <tag k="name" v="Slowley Hill"/>
    <tag k="ref" v="B4098"/>
    <tag k="source:name" v="OS_OpenData_Locator"/>
    <tag k="surface" v="asphalt"/>
  </way>
  <way id="196459681" version="7" timestamp="2023-08-24T13:54:37Z" changeset="140323686" uid="5589" user="user_5589">
    <nd ref="639108"/>
    <nd ref="98150423"/>
    <nd ref="639107"/>
    <nd ref="603688987"/>
    <nd ref="639106"/>
    <nd ref="7991647358"/>
    <nd ref="639105"/>
    <nd ref="639104"/>
    <nd ref="639103"/>
    <nd ref="8259039880"/>
    <nd ref="639102"/>
    <nd ref="603688996"/>
    <nd ref="639101"/>
    <nd ref="603689000"/>
    <nd ref="639100"/>
    <nd ref="3928764623"/>
    <nd ref="639099"/>
    <nd ref="639098"/>
    <nd ref="603689005"/>
    <nd ref="3928764621"/>
    <nd ref="639097"/>
    <nd ref="639096"/>
    <nd ref="639095"/>
    <nd ref="603689009"/>
    <nd ref="639094"/>
    <nd ref="639093"/>
    <nd ref="639092"/>
    <nd ref="639091"/>
    <nd ref="603689014"/>
    <nd ref="639090"/>
    <nd ref="639089"/>
    <nd ref="603689018"/>
    <nd ref="639088"/>
    <nd ref="639087"/>
    <nd ref="603689022"/>
    <nd ref="639086"/>
    <nd ref="639085"/>
    <nd ref="639084"/>
    <nd ref="639083"/>
    <nd ref="603689034"/>
    <nd ref="957084440"/>
    <tag k="gritting" v="yes"/>
    <tag k="gritting_depot" v="Coleshill Heath Road"/>
    <tag k="gritting_operator" v="Warwickshire County Council"/>
    <tag k="gritting_route_ref" v="3"/>
    <tag k="gritting_route_revision" v="201105"/>
    <tag k="highway" v="secondary"/>
    <tag k="maintenance" v="gritting"/>
    <tag k="name" v="Tamworth Road"/>
    <tag k="ref" v="B4098"/>
    <tag k="surface" v="asphalt"/>
  </way>
  <way id="196459683" version="6" timestamp="2025-06-12T11:21:07Z" changeset="167529187" uid="22417091" user="satchUK">
    <nd ref="2067941975"/>
    <nd ref="98150472"/>
    <nd ref="1619356387"/>
    <nd ref="98150476"/>
    <nd ref="4375381009"/>
    <nd ref="12909222972"/>
    <nd ref="1619356401"/>
    <nd ref="1619356410"/>
    <nd ref="1619356411"/>
    <nd ref="4371605269"/>
    <nd ref="4375381018"/>
    <nd ref="98150359"/>
    <tag k="highway" v="unclassified"/>
    <tag k="maxspeed" v="30 mph"/>
    <tag k="name" v="Oak Avenue"/>
  </way>
  <way id="201822181" version="4" timestamp="2021-02-08T06:38:25Z" changeset="98884678" uid="10252548" user="singhiyv">
    <nd ref="2118402924"/>
    <nd ref="254766027"/>
    <nd ref="2118402940"/>
    <nd ref="2118402938"/>
    <nd ref="2118402932"/>
    <nd ref="2118402926"/>
    <nd ref="2118402922"/>
    <nd ref="254766032"/>
    <nd ref="2118402913"/>
    <nd ref="2118402910"/>
    <nd ref="2118402895"/>
    <nd ref="2164406524"/>
    <nd ref="2118402892"/>
    <nd ref="2118402901"/>
    <nd ref="2118402907"/>
    <nd ref="2118402916"/>
    <nd ref="2118402920"/>
    <nd ref="2118402935"/>
    <nd ref="2118402944"/>
    <nd ref="254766034"/>
    <nd ref="2118402947"/>
    <nd ref="2118402950"/>
    <nd ref="2118402952"/>
    <nd ref="2118402951"/>
    <nd ref="2118402948"/>
    <nd ref="2118402946"/>
    <nd ref="2118402945"/>
    <nd ref="254766037"/>
    <nd ref="2118402954"/>
    <nd ref="2118402957"/>
    <nd ref="254766038"/>
    <nd ref="2118402970"/>
    <nd ref="2118402976"/>
    <nd ref="2118402975"/>
    <nd ref="2118402972"/>
    <nd ref="2118402963"/>
    <nd ref="2118402959"/>
    <nd ref="393423122"/>
    <nd ref="2118402930"/>
    <nd ref="2118402904"/>
    <nd ref="2118402870"/>
    <nd ref="2118402861"/>
    <nd ref="254766039"/>
    <nd ref="2118402826"/>
    <nd ref="2118402820"/>
    <nd ref="2118402805"/>
    <nd ref="2118402793"/>
    <nd ref="5020396917"/>
    <nd ref="2118402796"/>
    <nd ref="2118402799"/>
    <nd ref="2118402802"/>
    <nd ref="2118402814"/>
    <nd ref="2118402823"/>
    <nd ref="2118402834"/>
    <nd ref="2118402840"/>
    <nd ref="2118402842"/>
    <nd ref="2118402847"/>
    <nd ref="2118402849"/>
    <nd ref="2118402845"/>
    <nd ref="254766043"/>
    <nd ref="2118402836"/>
    <nd ref="2118402817"/>
    <nd ref="1241066520"/>
    <nd ref="2118402781"/>
    <nd ref="2118402771"/>
    <nd ref="2118402764"/>
    <nd ref="2118402769"/>
    <nd ref="254766044"/>
    <nd ref="2118402777"/>
    <nd ref="8403916474"/>
    <nd ref="2118402787"/>
    <nd ref="2118402811"/>
    <nd ref="1241066142"/>
    <tag k="highway" v="unclassified"/>
    <tag k="name" v="Daw Mill Lane"/>
    <tag k="source" v="NPE"/>
  </way>
  <way id="202146228" version="2" timestamp="2019-10-23T07:12:25Z" changeset="76084262" uid="10170575" user="bdevek">
    <nd ref="2121223303"/>
    <nd ref="2121223306"/>
    <nd ref="98150458"/>
    <nd ref="2121223310"/>
    <nd ref="2121223313"/>
    <nd ref="2121223317"/>
    <nd ref="2121223328"/>
    <nd ref="2121223332"/>
    <nd ref="2121223336"/>
    <nd ref="2121223343"/>
    <nd ref="2121223351"/>
    <nd ref="2121223372"/>
    <nd ref="2121223384"/>
    <nd ref="2121223389"/>
    <nd ref="2121223402"/>
    <nd ref="2121223405"/>
    <nd ref="98150463"/>
    <nd ref="2121223409"/>
    <nd ref="2121223411"/>
    <nd ref="2121223416"/>
    <nd ref="2121223414"/>
    <nd ref="2121223413"/>
    <nd ref="2121223415"/>
    <nd ref="2121223412"/>
    <nd ref="2121223408"/>
    <nd ref="2121223406"/>
    <nd ref="2121223404"/>
    <nd ref="2121223394"/>
    <nd ref="2121223392"/>
    <nd ref="2121223388"/>
    <nd ref="2121223387"/>
    <nd ref="2121223390"/>
    <nd ref="2121223395"/>
    <nd ref="2121223399"/>
    <nd ref="98150467"/>
    <nd ref="2121223407"/>
    <nd ref="2121223417"/>
    <nd ref="2121223420"/>
    <nd ref="2121223430"/>
    <nd ref="2121223431"/>
    <nd ref="2121223433"/>
    <nd ref="2121223435"/>
    <nd ref="878771365"/>
    <nd ref="2121223438"/>
    <nd ref="2121223439"/>
    <nd ref="2121223441"/>
    <nd ref="2121223443"/>
    <nd ref="2121223445"/>
    <nd ref="2121223447"/>
    <nd ref="2121223449"/>
    <nd ref="2121223451"/>
    <nd ref="2121223453"/>
    <nd ref="2121223454"/>
    <nd ref="2121223455"/>
    <nd ref="98150470"/>
    <nd ref="6907973254"/>
    <nd ref="2121223458"/>
    <nd ref="2121223465"/>
    <nd ref="2067941975"/>
    <tag k="highway" v="unclassified"/>
    <tag k="name" v="Woodside"/>
    <tag k="source:name" v="OS_OpenData_Locator"/>
  </way>
  <way id="285262517" version="5" timestamp="2020-05-01T12:56:27Z" changeset="84471334" uid="6095563" user="Don Dapper">
    <nd ref="98150359"/>
    <nd ref="3932332283"/>
    <nd ref="98150360"/>
    <nd ref="1296252377"/>
    <nd ref="1296252431"/>
    <nd ref="98150363"/>
    <nd ref="98150366"/>
    <nd ref="1296252483"/>
    <nd ref="1296252507"/>
    <nd ref="98150370"/>
    <nd ref="1617755803"/>
    <nd ref="253256986"/>
    <tag k="gritting" v="yes"/>
    <tag k="gritting_depot" v="Coleshill Heath Road"/>
    <tag k="gritting_operator" v="Warwickshire County Council"/>
    <tag k="gritting_route_ref" v="3"/>
    <tag k="gritting_route_revision" v="201105"/>
    <tag k="highway" v="tertiary"/>
    <tag k="maintenance" v="gritting"/>
    <tag k="maxspeed" v="30 mph"/>
    <tag k="name" v="Rectory Road"/>
    <tag k="surface" v="paved"/>
  </way>
  <way id="293223850" version="2" timestamp="2024-10-23T18:27:10Z" changeset="158266345" uid="20655669" user="samwwwblack">
    <nd ref="1617747591"/>
    <nd ref="2967976570"/>
    <tag k="highway" v="residential"/>
    <tag k="name" v="Laurel Close"/>
    <tag k="source" v="bing"/>
    <tag k="source:name" v="OS Locator"/>
    <tag k="surface" v="asphalt"/>
  </way>
  <way id="293223851" version="3" timestamp="2024-08-15T11:06:06Z" changeset="155277615" uid="20655669" user="samwwwblack">
    <nd ref="2967976569"/>
    <nd ref="2967976567"/>
    <tag k="highway" v="residential"/>
    <tag k="lane_markings" v="no"/>
    <tag k="name" v="Stewart Court"/>
    <tag k="source" v="bing"/>
    <tag k="source:name" v="OS Locator"/>
    <tag k="surface" v="asphalt"/>
  </way>
  <way id="293223852" version="3" timestamp="2024-08-15T11:06:02Z" changeset="155277615" uid="20655669" user="samwwwblack">
    <nd ref="1617747567"/>
    <nd ref="2967976569"/>
    <nd ref="2967976568"/>
    <tag k="highway" v="residential"/>
    <tag k="lane_markings" v="no"/>
    <tag k="name" v="Stewart Court"/>
    <tag k="source" v="bing"/>
    <tag k="source:name" v="OS Locator"/>
    <tag k="surface" v="asphalt"/>
  </way>
  <way id="305852808" version="3" timestamp="2023-08-24T13:53:10Z" changeset="140323686" uid="5589" user="user_5589">
    <nd ref="639140"/>
    <nd ref="2118403409"/>
    <nd ref="639139"/>
    <nd ref="2118403406"/>
    <nd ref="639138"/>
    <nd ref="2118403403"/>
    <nd ref="639137"/>
    <nd ref="639136"/>
    <nd ref="2118403400"/>
    <nd ref="2118403397"/>
    <nd ref="603688930"/>
    <nd ref="639135"/>
    <nd ref="2118403382"/>
    <nd ref="603688934"/>
    <nd ref="2118403356"/>
    <nd ref="639134"/>
    <nd ref="2118403333"/>
    <nd ref="2118403329"/>
    <nd ref="639133"/>
    <nd ref="2118403325"/>
    <nd ref="2118403323"/>
    <nd ref="639132"/>
    <nd ref="2118403309"/>
    <nd ref="2118403305"/>
    <nd ref="639131"/>
    <nd ref="639130"/>
    <nd ref="603688945"/>
    <nd ref="2118403301"/>
    <nd ref="639129"/>
    <nd ref="2118403299"/>
    <nd ref="639128"/>
    <nd ref="639127"/>
    <nd ref="639126"/>
    <nd ref="639125"/>
    <nd ref="639124"/>
    <nd ref="2118403292"/>
    <nd ref="639123"/>
    <nd ref="2118403288"/>
    <nd ref="639122"/>
    <nd ref="2118403284"/>
    <nd ref="2118403282"/>
    <nd ref="639121"/>
    <nd ref="2118403277"/>
    <nd ref="639120"/>
    <nd ref="2118403250"/>
    <nd ref="639119"/>
    <nd ref="2118403225"/>
    <nd ref="2118403202"/>
    <nd ref="603688968"/>
    <nd ref="639118"/>
    <nd ref="639117"/>
    <nd ref="603688976"/>
    <nd ref="639116"/>
    <nd ref="1241208764"/>
    <nd ref="1241208924"/>
    <tag k="gritting" v="yes"/>
    <tag k="gritting_depot" v="Coleshill Heath Road"/>
    <tag k="gritting_operator" v="Warwickshire County Council"/>
    <tag k="gritting_route_ref" v="3"/>
    <tag k="gritting_route_revision" v="201105"/>
    <tag k="highway" v="secondary"/>
    <tag k="maintenance" v="gritting"/>
    <tag k="name" v="Tamworth Road"/>
    <tag k="ref" v="B4098"/>
    <tag k="surface" v="asphalt"/>
  </way>
  <way id="358058411" version="5" timestamp="2024-11-07T16:05:45Z" changeset="158862091" uid="20655669" user="samwwwblack">
    <nd ref="3630853816"/>
    <nd ref="3630853817"/>
    <nd ref="3914157490"/>
    <nd ref="3630853818"/>
    <nd ref="3630853819"/>
    <nd ref="3630853816"/>
    <tag k="brand" v="Co-op Food"/>
    <tag k="brand:wikidata" v="Q3277439"/>
    <tag k="brand:wikipedia" v="en:Co-op Food"/>
    <tag k="building" v="retail"/>
    <tag k="name" v="Co-op Food"/>
    <tag k="operator" v="Heart of England Co-operative Society"/>
    <tag k="operator:wikidata" v="Q5692254"/>
    <tag k="shop" v="supermarket"/>
  </way>
  <way id="389050723" version="3" timestamp="2025-02-11T09:12:30Z" changeset="162381678" uid="20655669" user="samwwwblack">
    <nd ref="3922156675"/>
    <nd ref="3922156681"/>
    <nd ref="3922156662"/>
    <nd ref="3922156054"/>
    <nd ref="3922156675"/>
    <tag k="addr:housenumber" v="1a,1b"/>
    <tag k="addr:street" v="Ransome Road"/>
    <tag k="building" v="residential"/>
    <tag k="source" v="Warwicks CC Aerial Imagery 2013"/>
  </way>
  <way id="389050732" version="3" timestamp="2023-12-06T15:05:28Z" changeset="144832543" uid="20655669" user="samwwwblack">
    <nd ref="3922156777"/>
    <nd ref="3922156781"/>
    <nd ref="3922156735"/>
    <nd ref="3922156723"/>
    <nd ref="3922156776"/>
    <nd ref="3922156777"/>
    <tag k="addr:housenumber" v="1,3,5,7"/>
    <tag k="addr:street" v="Ransome Road"/>
    <tag k="building" v="residential"/>
    <tag k="source" v="Warwicks CC Aerial Imagery 2013"/>
  </way>
  <way id="389050778" version="2" timestamp="2016-05-20T07:16:56Z" changeset="39443642" uid="108511" user="Troon">
    <nd ref="3922157421"/>
    <nd ref="3922157402"/>
    <nd ref="3922157334"/>
    <nd ref="3922157360"/>
    <nd ref="3922157352"/>
    <nd ref="3922157364"/>
    <nd ref="3922157351"/>
    <nd ref="3922157366"/>
    <nd ref="3922157421"/>
    <tag k="addr:city" v="Arley"/>
    <tag k="addr:postcode" v="CV7 8HN"/>
    <tag k="addr:street" v="Colliers Way"/>
    <tag k="building" v="retail"/>
    <tag k="name" v="Jacksons of Old Arley"/>
    <tag k="shop" v="outdoor"/>
    <tag k="source" v="Warwicks CC Aerial Imagery 2013"/>
    <tag k="website" v="http://www.jacksonscamping.com/"/>
  </way>
  <way id="389329800" version="2" timestamp="2024-08-15T11:05:20Z" changeset="155277557" uid="20655669" user="samwwwblack">
    <nd ref="3924846187"/>
    <nd ref="3924846186"/>
    <tag k="highway" v="residential"/>
    <tag k="name" v="Tremelling Way"/>
    <tag k="source" v="Warwicks CC Aerial Imagery 2013"/>
    <tag k="surface" v="asphalt"/>
  </way>
  <way id="389332694" version="5" timestamp="2023-12-06T15:03:04Z" changeset="144832458" uid="20655669" user="samwwwblack">
    <nd ref="3924884390"/>
    <nd ref="3924884391"/>
    <nd ref="3924884388"/>
    <nd ref="3924884389"/>
    <nd ref="3924884386"/>
    <nd ref="3924884387"/>
    <nd ref="3924884382"/>
    <nd ref="3924884381"/>
    <nd ref="3924884384"/>
    <nd ref="3924884385"/>
    <nd ref="3924884390"/>
    <tag k="amenity" v="place_of_worship"/>
    <tag k="building" v="yes"/>
    <tag k="check_date" v="2023-12-06"/>
    <tag k="denomination" v="anglican"/>
    <tag k="name" v="St Michael"/>
    <tag k="religion" v="christian"/>
    <tag k="wikidata" v="Q105094271"/>
  </way>
  <way id="389704550" version="3" timestamp="2025-02-11T09:09:46Z" changeset="162381678" uid="20655669" user="samwwwblack">
    <nd ref="3928750503"/>
    <nd ref="3928750499"/>
    <nd ref="3928750494"/>
    <nd ref="3928750490"/>
    <nd ref="3928750489"/>
    <nd ref="3928750491"/>
    <nd ref="3928750495"/>
    <nd ref="3928750493"/>
    <nd ref="3928750497"/>
    <nd ref="3928750500"/>
    <nd ref="3928750503"/>
    <tag k="addr:housenumber" v="10"/>
    <tag k="addr:street" v="Spring Hill"/>
    <tag k="building" v="residential"/>
    <tag k="source" v="Warwicks CC Aerial Imagery 2013"/>
  </way>
  <way id="389704557" version="3" timestamp="2025-02-11T09:08:15Z" changeset="162381678" uid="20655669" user="samwwwblack">
    <nd ref="3928750009"/>
    <nd ref="3928750000"/>
    <nd ref="3928749994"/>
    <nd ref="3928750001"/>
    <nd ref="3928750009"/>
    <tag k="addr:housenumber" v="28"/>
    <tag k="addr:street" v="Spring Hill"/>
    <tag k="building" v="residential"/>
    <tag k="source" v="Warwicks CC Aerial Imagery 2013"/>
  </way>
  <way id="389704880" version="3" timestamp="2021-03-25T22:09:31Z" changeset="101746091" uid="145231" user="woodpeck_repair">
    <nd ref="3928753077"/>
    <nd ref="3928753078"/>
    <nd ref="3928753072"/>
    <nd ref="3928753074"/>
    <nd ref="3928753068"/>
    <nd ref="3928753065"/>
    <nd ref="3928753070"/>
    <nd ref="3928753069"/>
    <nd ref="3928753071"/>
    <nd ref="3928753073"/>
    <nd ref="3928753077"/>
    <tag k="building" v="residential"/>
    <tag k="heritage" v="2"/>
    <tag k="heritage:operator" v="Historic England"/>
    <tag k="listed_status" v="Grade II"/>
    <tag k="name" v="Stone House"/>
    <tag k="source" v="Warwicks CC Aerial Imagery 2013"/>
  </way>
  <way id="390068282" version="3" timestamp="2025-02-12T10:08:58Z" changeset="162422976" uid="20655669" user="samwwwblack">
    <nd ref="3932220390"/>
    <nd ref="3932220398"/>
    <nd ref="3932220375"/>
    <nd ref="3932220370"/>
    <nd ref="3932220374"/>
    <nd ref="3932220380"/>
    <nd ref="3932220390"/>
    <tag k="addr:housenumber" v="75"/>
    <tag k="addr:street" v="Spring Hill"/>
    <tag k="building" v="residential"/>
    <tag k="source" v="bing"/>
  </way>
  <way id="390079777" version="1" timestamp="2016-01-07T16:28:00Z" changeset="36428198" uid="9065" user="brianboru">
    <nd ref="3932332310"/>
    <nd ref="3932332305"/>
    <tag k="highway" v="residential"/>
    <tag k="name" v="Church Close"/>
    <tag k="source" v="Warwicks CC Aerial Imagery 2013"/>
  </way>
  <way id="390079778" version="1" timestamp="2016-01-07T16:28:00Z" changeset="36428198" uid="9065" user="brianboru">
    <nd ref="254766270"/>
    <nd ref="1617775492"/>
    <tag k="bridge" v="yes"/>
    <tag k="gritting" v="yes"/>
    <tag k="gritting_depot" v="Coleshill Heath Road"/>
    <tag k="gritting_operator" v="Warwickshire County Council"/>
    <tag k="gritting_route_ref" v="3"/>
    <tag k="gritting_route_revision" v="201105"/>
    <tag k="highway" v="tertiary"/>
    <tag k="layer" v="1"/>
    <tag k="maintenance" v="gritting"/>
    <tag k="name" v="Spring Hill"/>
    <tag k="source" v="Warwicks CC Aerial Imagery 2013"/>
    <tag k="surface" v="paved"/>
  </way>
  <way id="390079779" version="1" timestamp="2016-01-07T16:28:00Z" changeset="36428198" uid="9065" user="brianboru">
    <nd ref="1617775492"/>
    <nd ref="254766269"/>
    <nd ref="254766267"/>
    <nd ref="253239288"/>
    <nd ref="3932332077"/>
    <nd ref="98150355"/>
    <tag k="gritting" v="yes"/>
    <tag k="gritting_depot" v="Coleshill Heath Road"/>
    <tag k="gritting_operator" v="Warwickshire County Council"/>
    <tag k="gritting_route_ref" v="3"/>
    <tag k="gritting_route_revision" v="201105"/>
    <tag k="highway" v="tertiary"/>
    <tag k="maintenance" v="gritting"/>
    <tag k="name" v="Spring Hill"/>
    <tag k="source" v="Warwicks CC Aerial Imagery 2013"/>
    <tag k="surface" v="paved"/>
  </way>
  <way id="390079871" version="2" timestamp="2016-01-07T16:29:49Z" changeset="36428252" uid="9065" user="brianboru">
    <nd ref="3932332144"/>
    <nd ref="2067941981"/>
    <nd ref="3932332139"/>
    <tag k="highway" v="residential"/>
    <tag k="name" v="Phil Collins Way"/>
    <tag k="source" v="Warwicks CC Aerial Imagery 2013"/>
  </way>
  <way id="440917876" version="1" timestamp="2016-09-06T09:20:06Z" changeset="41950010" uid="9065" user="brianboru">
    <nd ref="4386851405"/>
    <nd ref="4386851407"/>
    <nd ref="4386851417"/>
    <nd ref="4386851419"/>
    <nd ref="4386851401"/>
    <nd ref="4386851403"/>
    <nd ref="4386851282"/>
    <nd ref="4386851278"/>
    <nd ref="4386851390"/>
    <nd ref="4386851391"/>
    <nd ref="4386851405"/>
    <tag k="amenity" v="pub"/>
    <tag k="building" v="pub"/>
    <tag k="name" v="Wagon Load of Lime"/>
    <tag k="source" v="Warwicks CC Aerial Imagery 2013"/>
  </way>
  <way id="441451010" version="4" timestamp="2023-08-24T13:55:23Z" changeset="140323686" uid="5589" user="user_5589">
    <nd ref="639081"/>
    <nd ref="639077"/>
    <tag k="bridge" v="yes"/>
    <tag k="cycleway:both" v="no"/>
    <tag k="gritting" v="yes"/>
    <tag k="gritting_depot" v="Coleshill Heath Road"/>
    <tag k="gritting_operator" v="Warwickshire County Council"/>
    <tag k="gritting_route_ref" v="3"/>
    <tag k="gritting_route_revision" v="201105"/>
    <tag k="highway" v="secondary"/>
    <tag k="layer" v="1"/>
    <tag k="maintenance" v="gritting"/>
    <tag k="maxweight:signed" v="no"/>
    <tag k="name" v="Tamworth Road"/>
    <tag k="ref" v="B4098"/>
    <tag k="surface" v="asphalt"/>
  </way>
  <way id="441451011" version="3" timestamp="2023-08-24T13:55:21Z" changeset="140323686" uid="5589" user="user_5589">
    <nd ref="639078"/>
    <nd ref="603689626"/>
    <nd ref="639081"/>
    <tag k="cycleway:both" v="no"/>
    <tag k="gritting" v="yes"/>
    <tag k="gritting_depot" v="Coleshill Heath Road"/>
    <tag k="gritting_operator" v="Warwickshire County Council"/>
    <tag k="gritting_route_ref" v="3"/>
    <tag k="gritting_route_revision" v="201105"/>
    <tag k="highway" v="secondary"/>
    <tag k="maintenance" v="gritting"/>
    <tag k="name" v="Tamworth Road"/>
    <tag k="ref" v="B4098"/>
    <tag k="surface" v="asphalt"/>
  </way>
  <way id="481180409" version="2" timestamp="2020-05-01T12:56:27Z" changeset="84471334" uid="6095563" user="Don Dapper">
    <nd ref="4741164392"/>
    <nd ref="1675680421"/>
    <tag k="gritting" v="yes"/>
    <tag k="gritting_depot" v="Coleshill Heath Road"/>
    <tag k="gritting_operator" v="Warwickshire County Council"/>
    <tag k="gritting_route_ref" v="3"/>
    <tag k="gritting_route_revision" v="201105"/>
    <tag k="highway" v="tertiary"/>
    <tag k="maintenance" v="gritting"/>
    <tag k="maxheight" v="3.7"/>
    <tag k="name" v="Station Road"/>
    <tag k="surface" v="paved"/>
  </way>
  <way id="481180410" version="2" timestamp="2020-05-01T12:56:27Z" changeset="84471334" uid="6095563" user="Don Dapper">
    <nd ref="639078"/>
    <nd ref="603688965"/>
    <nd ref="253222275"/>
    <nd ref="1674651076"/>
    <nd ref="253222276"/>
    <nd ref="1674651129"/>
    <nd ref="253222277"/>
    <nd ref="1675586394"/>
    <nd ref="1675586397"/>
    <nd ref="253222278"/>
    <nd ref="98150352"/>
    <nd ref="4741164392"/>
    <tag k="gritting" v="yes"/>
    <tag k="gritting_depot" v="Coleshill Heath Road"/>
    <tag k="gritting_operator" v="Warwickshire County Council"/>
    <tag k="gritting_route_ref" v="3"/>
    <tag k="gritting_route_revision" v="201105"/>
    <tag k="highway" v="tertiary"/>
    <tag k="maintenance" v="gritting"/>
    <tag k="name" v="Station Road"/>
    <tag k="surface" v="paved"/>
  </way>
  <way id="481180411" version="1" timestamp="2017-03-18T09:01:02Z" changeset="46950697" uid="26599" user="cdavila">
    <nd ref="4741164393"/>
    <nd ref="1675688788"/>
    <tag k="highway" v="unclassified"/>
    <tag k="maxheight" v="3.5"/>
    <tag k="name" v="Stonehouse Lane"/>
    <tag k="source" v="NPE"/>
    <tag k="surface" v="paved"/>
  </way>
  <way id="481180412" version="1" timestamp="2017-03-18T09:01:02Z" changeset="46950697" uid="26599" user="cdavila">
    <nd ref="254766252"/>
    <nd ref="4741164393"/>
    <tag k="highway" v="unclassified"/>
    <tag k="name" v="Stonehouse Lane"/>
    <tag k="source" v="NPE"/>
    <tag k="surface" v="paved"/>
  </way>
  <way id="481180413" version="1" timestamp="2017-03-18T09:01:02Z" changeset="46950697" uid="26599" user="cdavila">
    <nd ref="1675680496"/>
    <nd ref="1241066237"/>
    <tag k="highway" v="unclassified"/>
    <tag k="maxheight" v="3.8"/>
    <tag k="name" v="Daw Mill Lane"/>
    <tag k="source" v="bing"/>
  </way>
  <way id="481180414" version="1" timestamp="2017-03-18T09:01:02Z" changeset="46950697" uid="26599" user="cdavila">
    <nd ref="1675683607"/>
    <nd ref="4741164394"/>
    <tag k="gritting" v="yes"/>
    <tag k="gritting_depot" v="Coleshill Heath Road"/>
    <tag k="gritting_operator" v="Warwickshire County Council"/>
    <tag k="gritting_route_ref" v="3"/>
    <tag k="gritting_route_revision" v="201105"/>
    <tag k="highway" v="tertiary"/>
    <tag k="maintenance" v="gritting"/>
    <tag k="maxheight" v="3.8"/>
    <tag k="name" v="Spring Hill"/>
    <tag k="source" v="Warwicks CC Aerial Imagery 2013"/>
    <tag k="surface" v="paved"/>
  </way>
  <way id="481180415" version="1" timestamp="2017-03-18T09:01:02Z" changeset="46950697" uid="26599" user="cdavila">
    <nd ref="4741164394"/>
    <nd ref="254766272"/>
    <nd ref="254766271"/>
    <nd ref="1617775489"/>
    <nd ref="254766270"/>
    <tag k="gritting" v="yes"/>
    <tag k="gritting_depot" v="Coleshill Heath Road"/>
    <tag k="gritting_operator" v="Warwickshire County Council"/>
    <tag k="gritting_route_ref" v="3"/>
    <tag k="gritting_route_revision" v="201105"/>
    <tag k="highway" v="tertiary"/>
    <tag k="maintenance" v="gritting"/>
    <tag k="name" v="Spring Hill"/>
    <tag k="source" v="Warwicks CC Aerial Imagery 2013"/>
    <tag k="surface" v="paved"/>
  </way>
  <way id="481180416" version="2" timestamp="2024-10-23T18:25:11Z" changeset="158266345" uid="20655669" user="samwwwblack">
    <nd ref="4741164395"/>
    <nd ref="1675688790"/>
    <tag k="highway" v="unclassified"/>
    <tag k="maxheight" v="3.6"/>
    <tag k="name" v="Church Lane"/>
    <tag k="source" v="OS_OpenData_StreetView"/>
    <tag k="surface" v="asphalt"/>
  </way>
  <way id="481180417" version="2" timestamp="2024-10-23T18:25:03Z" changeset="158266345" uid="20655669" user="samwwwblack">
    <nd ref="1401262090"/>
    <nd ref="4386862289"/>
    <nd ref="2388575772"/>
    <nd ref="1617752139"/>
    <nd ref="1617752140"/>
    <nd ref="1617752141"/>
    <nd ref="1617752145"/>
    <nd ref="4741164395"/>
    <tag k="highway" v="unclassified"/>
    <tag k="name" v="Church Lane"/>
    <tag k="source" v="OS_OpenData_StreetView"/>
    <tag k="surface" v="asphalt"/>
  </way>
  <way id="488645982" version="3" timestamp="2020-05-01T12:56:27Z" changeset="84471334" uid="6095563" user="Don Dapper">
    <nd ref="253256986"/>
    <nd ref="253222304"/>
    <nd ref="4386851264"/>
    <nd ref="253222306"/>
    <nd ref="6503270094"/>
    <nd ref="6503270098"/>
    <nd ref="4386851266"/>
    <nd ref="98150372"/>
    <nd ref="1296252505"/>
    <nd ref="4386851270"/>
    <nd ref="1296252375"/>
    <nd ref="253222307"/>
    <nd ref="4386851389"/>
    <nd ref="4386851398"/>
    <nd ref="1296252556"/>
    <nd ref="4386851443"/>
    <nd ref="253222309"/>
    <nd ref="1296252552"/>
    <nd ref="98150375"/>
    <nd ref="1296252554"/>
    <nd ref="1296252423"/>
    <nd ref="1296252519"/>
    <tag k="gritting" v="yes"/>
    <tag k="gritting_depot" v="Coleshill Heath Road"/>
    <tag k="gritting_operator" v="Warwickshire County Council"/>
    <tag k="gritting_route_ref" v="3"/>
    <tag k="gritting_route_revision" v="201105"/>
    <tag k="highway" v="tertiary"/>
    <tag k="highway_authority_ref" v="C126"/>
    <tag k="maintenance" v="gritting"/>
    <tag k="maxspeed" v="30 mph"/>
    <tag k="name" v="Ansley Lane"/>
    <tag k="surface" v="paved"/>
  </way>
  <way id="488645986" version="2" timestamp="2020-05-01T12:56:27Z" changeset="84471334" uid="6095563" user="Don Dapper">
    <nd ref="98150343"/>
    <nd ref="2353165559"/>
    <nd ref="2353165560"/>
    <nd ref="2353165562"/>
    <nd ref="98150347"/>
    <nd ref="2353165563"/>
    <nd ref="2353165564"/>
    <nd ref="253222289"/>
    <nd ref="1619362208"/>
    <nd ref="2353165565"/>
    <tag k="gritting" v="yes"/>
    <tag k="gritting_depot" v="Coleshill Heath Road"/>
    <tag k="gritting_operator" v="Warwickshire County Council"/>
    <tag k="gritting_route_ref" v="3"/>
    <tag k="gritting_route_revision" v="201105"/>
    <tag k="highway" v="tertiary"/>
    <tag k="highway_authority_ref" v="C12"/>
    <tag k="maintenance" v="gritting"/>
    <tag k="name" v="Station Road"/>
    <tag k="surface" v="paved"/>
  </way>
  <way id="676155549" version="3" timestamp="2023-08-16T10:53:55Z" changeset="139957670" uid="9026132" user="PulisakZ">
    <nd ref="6332217456"/>
    <nd ref="11118733643"/>
    <nd ref="11118733644"/>
    <nd ref="11118733645"/>
    <nd ref="6596544852"/>
    <nd ref="6332217457"/>
    <tag k="highway" v="residential"/>
  </way>
  <way id="676155550" version="3" timestamp="2024-08-15T15:05:32Z" changeset="155287533" uid="20655669" user="samwwwblack">
    <nd ref="6332217456"/>
    <nd ref="6332217458"/>
    <nd ref="6332217459"/>
    <tag k="highway" v="residential"/>
    <tag k="name" v="Earnlege Way"/>
    <tag k="surface" v="asphalt"/>
  </way>
  <way id="702445801" version="1" timestamp="2019-07-08T13:39:02Z" changeset="72015156" uid="9065" user="brianboru">
    <nd ref="6596544811"/>
    <nd ref="6332217457"/>
    <nd ref="6596544810"/>
    <tag k="highway" v="residential"/>
    <tag k="source" v="Maxar Imagery"/>
  </way>
  <way id="702445802" version="1" timestamp="2019-07-08T13:39:02Z" changeset="72015156" uid="9065" user="brianboru">
    <nd ref="6596544813"/>
    <nd ref="6332217459"/>
    <nd ref="6596544812"/>
    <tag k="highway" v="residential"/>
    <tag k="source" v="Maxar Imagery"/>
  </way>
  <way id="706111548" version="2" timestamp="2025-02-12T10:08:59Z" changeset="162422971" uid="20655669" user="samwwwblack">
    <nd ref="6634788493"/>
    <nd ref="6634788494"/>
    <nd ref="6634788492"/>
    <tag k="highway" v="residential"/>
    <tag k="name" v="Teagles Gardens"/>
    <tag k="source" v="Maxar Imagery"/>
    <tag k="source:name" v="OS Open Roads"/>
    <tag k="surface" v="asphalt"/>
  </way>
  <way id="706111549" version="3" timestamp="2025-02-12T10:08:59Z" changeset="162422971" uid="20655669" user="samwwwblack">
    <nd ref="254766284"/>
    <nd ref="7843818286"/>
    <nd ref="7843818288"/>
    <nd ref="6634788494"/>
    <tag k="highway" v="residential"/>
    <tag k="name" v="Teagles Gardens"/>
    <tag k="source" v="Maxar Imagery"/>
    <tag k="source:name" v="OS Open Roads"/>
    <tag k="surface" v="asphalt"/>
  </way>
  <way id="955246646" version="5" timestamp="2025-01-14T22:39:14Z" changeset="161361613" uid="5229644" user="Nathan_A_RF">
    <nd ref="878778355"/>
    <nd ref="1676048174"/>
    <nd ref="9885355231"/>
    <nd ref="1619385746"/>
    <nd ref="3914158112"/>
    <nd ref="878778354"/>
    <nd ref="1619385743"/>
    <nd ref="3914158110"/>
    <nd ref="878778353"/>
    <nd ref="3914158109"/>
    <nd ref="3914158108"/>
    <nd ref="8396958950"/>
    <nd ref="8841271194"/>
    <tag k="gritting" v="yes"/>
    <tag k="gritting_depot" v="Coleshill Heath Road"/>
    <tag k="gritting_operator" v="Warwickshire County Council"/>
    <tag k="gritting_route_ref" v="3"/>
    <tag k="gritting_route_revision" v="201105"/>
    <tag k="highway" v="tertiary"/>
    <tag k="lanes" v="2"/>
    <tag k="maintenance" v="gritting"/>
    <tag k="maxspeed" v="60 mph"/>
    <tag k="maxspeed:type" v="GB:nsl_single"/>
    <tag k="name" v="Gun Hill"/>
    <tag k="source" v="Warwicks CC Aerial Imagery 2013"/>
    <tag k="surface" v="asphalt"/>
  </way>
  <way id="979371608" version="1" timestamp="2021-09-03T16:47:12Z" changeset="110687464" uid="133272" user="wongataa">
    <nd ref="909241811"/>
    <nd ref="3914158260"/>
    <nd ref="1617779067"/>
    <nd ref="1617779063"/>
    <nd ref="7052728588"/>
    <nd ref="1617779047"/>
    <nd ref="878778355"/>
    <tag k="highway" v="unclassified"/>
    <tag k="name" v="Hill Top"/>
    <tag k="source" v="OS_OpenData_StreetView"/>
  </way>
  <way id="1198612032" version="3" timestamp="2024-08-15T11:06:16Z" changeset="155277615" uid="20655669" user="samwwwblack">
    <nd ref="6332217452"/>
    <nd ref="11118733641"/>
    <nd ref="11118733640"/>
    <nd ref="11118733639"/>
    <nd ref="6332217453"/>
    <nd ref="6596574485"/>
    <nd ref="11118733642"/>
    <nd ref="6332217454"/>
    <nd ref="6596544814"/>
    <nd ref="6332217455"/>
    <nd ref="6596544815"/>
    <nd ref="6332217456"/>
    <tag k="highway" v="residential"/>
    <tag k="lanes" v="2"/>
    <tag k="name" v="Earnlege Way"/>
    <tag k="surface" v="asphalt"/>
  </way>
  <way id="1330282932" version="2" timestamp="2024-11-02T21:58:11Z" changeset="158678591" uid="20655669" user="samwwwblack">
    <nd ref="1617747731"/>
    <nd ref="3922157045"/>
    <nd ref="12308270697"/>
    <tag k="highway" v="residential"/>
    <tag k="lanes" v="2"/>
    <tag k="name" v="Daffern Avenue"/>
    <tag k="source" v="OS_OpenData_StreetView"/>
    <tag k="surface" v="asphalt"/>
  </way>

</osm>
