<?xml version="1.0" encoding="UTF-8"?>
<osm version="0.6" generator="Overpass API 0.7.62.8 e802775f">
<note>The data included in this document is from www.openstreetmap.org. The data is made available under ODbL.</note>
<meta osm_base="2025-10-23T16:55:47Z" areas="2025-10-23T12:46:58Z"/>

  <node id="70995146" lat="52.2591077" lon="-1.8646495" version="4" timestamp="2021-03-24T14:37:02Z" changeset="101654973" uid="9065" user="brianboru"/>
  <node id="269471257" lat="52.2945675" lon="-1.8515354" version="2" timestamp="2010-02-07T18:24:05Z" changeset="3817356" uid="208499" user="Steve Lockwood"/>
  <node id="274073298" lat="52.2900372" lon="-1.8400856" version="3" timestamp="2017-10-01T14:17:21Z" changeset="52537941" uid="545369" user="bigfatfrog67"/>
  <node id="5478869505" lat="52.2781695" lon="-1.8389074" version="3" timestamp="2021-06-09T14:36:35Z" changeset="106102198" uid="9065" user="brianboru"/>
  <way id="24328070" version="19" timestamp="2024-06-16T19:43:19Z" changeset="152775117" uid="411244" user="RobJN">
    <nd ref="70995146"/>
    <nd ref="8557389101"/>
    <nd ref="263860966"/>
    <nd ref="263860967"/>
    <nd ref="263860968"/>
    <nd ref="5478894487"/>
    <nd ref="2356930458"/>
    <nd ref="263860970"/>
    <nd ref="263860971"/>
    <nd ref="8818199438"/>
    <nd ref="263860972"/>
    <nd ref="263860974"/>
    <nd ref="710670654"/>
    <nd ref="263860975"/>
    <nd ref="5478873673"/>
    <nd ref="263860976"/>
    <nd ref="263860977"/>
    <nd ref="6904918553"/>
    <nd ref="263860979"/>
    <nd ref="5849798753"/>
    <nd ref="11986029346"/>
    <nd ref="11986029378"/>
    <nd ref="263860980"/>
    <nd ref="11986029347"/>
    <nd ref="710670660"/>
    <nd ref="8645830022"/>
    <nd ref="710670665"/>
    <nd ref="11964992873"/>
    <nd ref="11964992870"/>
    <nd ref="263860993"/>
    <nd ref="11964992872"/>
    <nd ref="5849798783"/>
    <nd ref="263860994"/>
    <nd ref="263860996"/>
    <nd ref="5849800394"/>
    <nd ref="5849800395"/>
    <nd ref="2279807065"/>
    <nd ref="5849798771"/>
    <nd ref="2279807096"/>
    <nd ref="8557486285"/>
    <nd ref="263860997"/>
    <nd ref="2279807154"/>
    <nd ref="263860998"/>
    <nd ref="8818299550"/>
    <nd ref="2279807127"/>
    <nd ref="263861000"/>
    <nd ref="2279807135"/>
    <nd ref="263861001"/>
    <nd ref="8239418796"/>
    <nd ref="263861003"/>
    <tag k="highway" v="unclassified"/>
    <tag k="source" v="survey"/>
  </way>
  <way id="27413913" version="10" timestamp="2014-04-27T16:26:53Z" changeset="21981536" uid="411244" user="RobJN">
    <nd ref="269471257"/>
    <nd ref="297304713"/>
    <nd ref="297304714"/>
    <nd ref="297304715"/>
    <nd ref="1207749297"/>
    <nd ref="297304716"/>
    <nd ref="2624169460"/>
    <nd ref="297304717"/>
    <nd ref="297304721"/>
    <nd ref="2624169459"/>
    <nd ref="274073299"/>
    <tag k="highway" v="unclassified"/>
    <tag k="source" v="survey"/>
  </way>
  <way id="37190373" version="16" timestamp="2021-06-13T16:56:07Z" changeset="106290369" uid="1983103" user="Jorisbo">
    <nd ref="5478869505"/>
    <nd ref="263861036"/>
    <nd ref="263861038"/>
    <nd ref="7309102124"/>
    <nd ref="263861040"/>
    <nd ref="8797382556"/>
    <nd ref="263861041"/>
    <nd ref="8563994305"/>
    <nd ref="8797382578"/>
    <nd ref="8797382557"/>
    <nd ref="263861044"/>
    <nd ref="263861046"/>
    <nd ref="2247871843"/>
    <nd ref="1858858231"/>
    <nd ref="1858858233"/>
    <nd ref="263861047"/>
    <nd ref="8797389540"/>
    <nd ref="263861049"/>
    <nd ref="263861051"/>
    <nd ref="1858858236"/>
    <nd ref="1858858238"/>
    <nd ref="263861053"/>
    <nd ref="263861055"/>
    <nd ref="263861057"/>
    <nd ref="263861059"/>
    <nd ref="263861061"/>
    <nd ref="263861063"/>
    <nd ref="2277081649"/>
    <nd ref="263861065"/>
    <nd ref="263861066"/>
    <nd ref="2277081670"/>
    <nd ref="263861068"/>
    <nd ref="263861070"/>
    <nd ref="8829854266"/>
    <nd ref="2277081692"/>
    <nd ref="263861072"/>
    <nd ref="263861074"/>
    <nd ref="263861076"/>
    <nd ref="8829854265"/>
    <nd ref="263861078"/>
    <nd ref="8829854264"/>
    <nd ref="8829854263"/>
    <nd ref="263861079"/>
    <nd ref="8829854262"/>
    <nd ref="2277081752"/>
    <nd ref="8829854261"/>
    <nd ref="263861081"/>
    <nd ref="263861084"/>
    <nd ref="8829854259"/>
    <nd ref="263861085"/>
    <nd ref="8829854260"/>
    <nd ref="2279659552"/>
    <nd ref="8571709128"/>
    <nd ref="263861087"/>
    <nd ref="2279659570"/>
    <nd ref="263861089"/>
    <nd ref="263861091"/>
    <nd ref="263861093"/>
    <nd ref="263861095"/>
    <nd ref="6521817611"/>
    <nd ref="263861097"/>
    <nd ref="8797389549"/>
    <nd ref="2277081869"/>
    <nd ref="8545158147"/>
    <nd ref="263861098"/>
    <nd ref="2277081968"/>
    <nd ref="263861100"/>
    <nd ref="2585348443"/>
    <nd ref="2277082027"/>
    <nd ref="263861102"/>
    <tag k="highway" v="unclassified"/>
    <tag k="source" v="survey"/>
  </way>
  <way id="37190375" version="5" timestamp="2021-05-27T06:01:04Z" changeset="105396186" uid="10170582" user="priymose">
    <nd ref="263861003"/>
    <nd ref="5479016403"/>
    <nd ref="5849800398"/>
    <nd ref="263861005"/>
    <nd ref="8771125064"/>
    <nd ref="263861007"/>
    <nd ref="5479016371"/>
    <nd ref="263861008"/>
    <nd ref="2277099162"/>
    <nd ref="5479016370"/>
    <nd ref="263861010"/>
    <nd ref="263861012"/>
    <nd ref="2277099167"/>
    <nd ref="263861014"/>
    <nd ref="2277099169"/>
    <nd ref="263861016"/>
    <nd ref="432790048"/>
    <tag k="highway" v="unclassified"/>
    <tag k="source" v="survey"/>
  </way>
  <way id="172422693" version="1" timestamp="2012-07-21T15:48:21Z" changeset="12413917" uid="545369" user="bigfatfrog67">
    <nd ref="1833285468"/>
    <nd ref="1833285501"/>
    <nd ref="1833285315"/>
    <nd ref="1833285373"/>
    <nd ref="1833285415"/>
    <nd ref="1833285486"/>
    <nd ref="1833285376"/>
    <nd ref="1833285408"/>
    <nd ref="1833285468"/>
    <tag k="addr:postcode" v="B80 7ED"/>
    <tag k="addr:street" v="Manor Drive"/>
    <tag k="building" v="house"/>
    <tag k="name" v="Orchard House"/>
    <tag k="source" v="Bing, OS Open Data"/>
  </way>
  <way id="172422697" version="1" timestamp="2012-07-21T15:48:22Z" changeset="12413917" uid="545369" user="bigfatfrog67">
    <nd ref="1833285223"/>
    <nd ref="1833285452"/>
    <nd ref="1833285483"/>
    <nd ref="1833285454"/>
    <nd ref="1833285458"/>
    <nd ref="1833285377"/>
    <nd ref="1833285397"/>
    <nd ref="1833285302"/>
    <nd ref="1833285416"/>
    <nd ref="1833285241"/>
    <nd ref="1833285487"/>
    <nd ref="1833285499"/>
    <nd ref="1833285451"/>
    <nd ref="1833285493"/>
    <nd ref="1833285305"/>
    <nd ref="1833285226"/>
    <nd ref="1833285329"/>
    <nd ref="1833285261"/>
    <nd ref="1833285228"/>
    <nd ref="1833285419"/>
    <nd ref="1833285374"/>
    <nd ref="1833285308"/>
    <nd ref="1833285445"/>
    <nd ref="1833285244"/>
    <nd ref="1833285250"/>
    <nd ref="1833285222"/>
    <nd ref="1833285462"/>
    <nd ref="1833285265"/>
    <nd ref="1833285223"/>
    <tag k="addr:postcode" v="B80 7ED"/>
    <tag k="addr:street" v="Manor Drive"/>
    <tag k="building" v="house"/>
    <tag k="name" v="Morton Bagot Manor"/>
    <tag k="source" v="Bing, OS Open Data"/>
  </way>
  <way id="172422698" version="1" timestamp="2012-07-21T15:48:22Z" changeset="12413917" uid="545369" user="bigfatfrog67">
    <nd ref="1833285443"/>
    <nd ref="1833285368"/>
    <nd ref="1833285409"/>
    <nd ref="1833285275"/>
    <nd ref="1833285448"/>
    <nd ref="1833285466"/>
    <nd ref="1833285326"/>
    <nd ref="1833285258"/>
    <nd ref="1833285482"/>
    <nd ref="1833285224"/>
    <nd ref="1833285332"/>
    <nd ref="1833285443"/>
    <tag k="addr:postcode" v="B80 7ED"/>
    <tag k="addr:street" v="Manor Drive"/>
    <tag k="building" v="house"/>
    <tag k="name" v="The Bungalows"/>
    <tag k="source" v="Bing, OS Open Data"/>
  </way>
  <way id="172422700" version="3" timestamp="2013-08-26T12:32:20Z" changeset="17516260" uid="545369" user="bigfatfrog67">
    <nd ref="1833285331"/>
    <nd ref="1833285425"/>
    <nd ref="1833285491"/>
    <nd ref="1833285450"/>
    <nd ref="1833285453"/>
    <nd ref="1833285382"/>
    <nd ref="1833285267"/>
    <nd ref="1833285371"/>
    <nd ref="1833285299"/>
    <nd ref="1833285489"/>
    <nd ref="1833285417"/>
    <nd ref="1833285277"/>
    <nd ref="1833285271"/>
    <nd ref="1833285225"/>
    <nd ref="1833285227"/>
    <nd ref="1833285318"/>
    <nd ref="1833285353"/>
    <nd ref="1833285333"/>
    <nd ref="1833285254"/>
    <nd ref="1833285359"/>
    <nd ref="1833285375"/>
    <nd ref="1833285412"/>
    <nd ref="1833311253"/>
    <nd ref="1833311167"/>
    <nd ref="1833285248"/>
    <nd ref="1833311128"/>
    <tag k="highway" v="unclassified"/>
    <tag k="name" v="Manor Drive"/>
  </way>
  <way id="172424920" version="1" timestamp="2012-07-21T16:18:27Z" changeset="12413917" uid="545369" user="bigfatfrog67">
    <nd ref="1833311230"/>
    <nd ref="1833311208"/>
    <nd ref="1833311219"/>
    <nd ref="1833311193"/>
    <nd ref="1833311263"/>
    <nd ref="1833311206"/>
    <nd ref="1833311230"/>
    <tag k="addr:postcode" v="B80 7ED"/>
    <tag k="addr:street" v="Manor Drive"/>
    <tag k="building" v="house"/>
    <tag k="name" v="Manor Farm"/>
    <tag k="source" v="Bing, OS Open Data"/>
  </way>
  <way id="218756906" version="2" timestamp="2017-10-11T11:33:59Z" changeset="52821571" uid="9065" user="brianboru">
    <nd ref="2279807372"/>
    <nd ref="2279807349"/>
    <nd ref="2279807320"/>
    <nd ref="2279807326"/>
    <nd ref="2279807335"/>
    <nd ref="2279807351"/>
    <nd ref="2279807340"/>
    <nd ref="2279807353"/>
    <nd ref="2279807357"/>
    <nd ref="2279807360"/>
    <nd ref="2279807362"/>
    <nd ref="2279807365"/>
    <nd ref="2279807372"/>
    <tag k="building" v="residential"/>
    <tag k="heritage" v="2"/>
    <tag k="heritage:operator" v="Historic England"/>
    <tag k="listed_status" v="Grade II"/>
    <tag k="name" v="Netherstead Hall"/>
    <tag k="source" v="bing"/>
  </way>
  <way id="277626388" version="9" timestamp="2025-02-22T22:41:45Z" changeset="162833995" uid="563773" user="mrpacmanmap">
    <nd ref="274073298"/>
    <nd ref="2624169438"/>
    <nd ref="274073300"/>
    <nd ref="2624169430"/>
    <nd ref="2624169425"/>
    <nd ref="8545158131"/>
    <nd ref="297304725"/>
    <nd ref="2624169421"/>
    <nd ref="2624169419"/>
    <nd ref="297304729"/>
    <nd ref="297304731"/>
    <nd ref="297304734"/>
    <nd ref="1833285331"/>
    <nd ref="8797389545"/>
    <nd ref="297304738"/>
    <nd ref="297304742"/>
    <nd ref="297304749"/>
    <nd ref="1858858240"/>
    <nd ref="263861057"/>
    <nd ref="2261840785"/>
    <nd ref="297304753"/>
    <nd ref="2279807924"/>
    <nd ref="297304755"/>
    <nd ref="8829854267"/>
    <nd ref="2279807919"/>
    <nd ref="297304756"/>
    <nd ref="297304757"/>
    <nd ref="2261840783"/>
    <nd ref="2261840782"/>
    <nd ref="297304759"/>
    <tag k="highway" v="unclassified"/>
    <tag k="source" v="survey"/>
  </way>
  <way id="277626398" version="3" timestamp="2021-03-25T07:06:43Z" changeset="101694766" uid="9196107" user="bashwith">
    <nd ref="274073299"/>
    <nd ref="2624169456"/>
    <nd ref="8559239960"/>
    <nd ref="300659774"/>
    <nd ref="274073297"/>
    <nd ref="2624169444"/>
    <nd ref="632667625"/>
    <nd ref="6555907796"/>
    <nd ref="274073298"/>
    <tag k="highway" v="unclassified"/>
    <tag k="source" v="survey"/>
  </way>
  <way id="530908043" version="4" timestamp="2020-10-13T08:52:23Z" changeset="92401380" uid="281267" user="smb1001">
    <nd ref="5154344652"/>
    <nd ref="5154344651"/>
    <nd ref="5154344650"/>
    <nd ref="5154344649"/>
    <nd ref="5154344648"/>
    <nd ref="5154344647"/>
    <nd ref="5154344646"/>
    <nd ref="5154344645"/>
    <nd ref="5154344652"/>
    <tag k="amenity" v="place_of_worship"/>
    <tag k="building" v="church"/>
    <tag k="denomination" v="anglican"/>
    <tag k="heritage" v="2"/>
    <tag k="heritage:operator" v="Historic England"/>
    <tag k="listed_status" v="Grade II*"/>
    <tag k="name" v="Holy Trinity Church"/>
    <tag k="religion" v="christian"/>
    <tag k="wikidata" v="Q17551648"/>
  </way>
  <way id="569754760" version="1" timestamp="2018-03-14T21:12:11Z" changeset="57190939" uid="545369" user="bigfatfrog67">
    <nd ref="432790048"/>
    <nd ref="5154285492"/>
    <nd ref="263861018"/>
    <nd ref="263861020"/>
    <nd ref="263861021"/>
    <nd ref="263861023"/>
    <nd ref="263861025"/>
    <nd ref="263861027"/>
    <nd ref="263861028"/>
    <nd ref="263861031"/>
    <nd ref="2279807722"/>
    <nd ref="263861033"/>
    <nd ref="2279807731"/>
    <nd ref="263861034"/>
    <nd ref="2279807737"/>
    <nd ref="2279807739"/>
    <nd ref="5478869505"/>
    <tag k="highway" v="unclassified"/>
    <tag k="source" v="survey"/>
  </way>

</osm>
