<?xml version="1.0" encoding="UTF-8"?>
<osm version="0.6" generator="Overpass API 0.7.62.8 e802775f">
<note>The data included in this document is from www.openstreetmap.org. The data is made available under ODbL.</note>
<meta osm_base="2025-10-23T16:49:45Z" areas="2025-10-23T12:46:58Z"/>

  <node id="30040520" lat="52.2249091" lon="-1.7868810" version="3" timestamp="2010-06-27T09:00:05Z" changeset="5087554" uid="9065" user="brianboru"/>
  <node id="70995194" lat="52.2501235" lon="-1.8293185" version="4" timestamp="2021-06-14T06:00:14Z" changeset="106310347" uid="9065" user="brianboru"/>
  <node id="70995252" lat="52.2516218" lon="-1.7972352" version="3" timestamp="2013-05-25T15:46:31Z" changeset="16280835" uid="9065" user="brianboru"/>
  <node id="255396936" lat="52.2180032" lon="-1.7844018" version="2" timestamp="2013-09-03T19:00:00Z" changeset="17659511" uid="9065" user="brianboru"/>
  <node id="274074843" lat="52.2582147" lon="-1.8357260" version="2" timestamp="2012-04-17T15:22:24Z" changeset="11334026" uid="411244" user="RobJN"/>
  <node id="279313963" lat="52.2203309" lon="-1.8145072" version="3" timestamp="2014-04-27T16:27:05Z" changeset="21981536" uid="411244" user="RobJN"/>
  <node id="297304777" lat="52.2714700" lon="-1.8091129" version="3" timestamp="2013-04-24T17:52:41Z" changeset="15852064" uid="9065" user="brianboru"/>
  <node id="300659890" lat="52.2515046" lon="-1.8244613" version="2" timestamp="2012-04-17T15:22:27Z" changeset="11334026" uid="411244" user="RobJN"/>
  <node id="366904576" lat="52.2470258" lon="-1.7507333" version="5" timestamp="2013-05-25T16:14:50Z" changeset="16281292" uid="9065" user="brianboru">
    <tag k="name" v="Bearley Cross"/>
  </node>
  <node id="611027436" lat="52.2229817" lon="-1.7992692" version="2" timestamp="2011-10-06T18:41:12Z" changeset="9488006" uid="208499" user="Steve Lockwood"/>
  <node id="1793322910" lat="52.2323019" lon="-1.8210194" version="1" timestamp="2012-06-18T16:10:49Z" changeset="11938698" uid="411244" user="RobJN"/>
  <way id="4717465" version="14" timestamp="2019-04-12T22:40:21Z" changeset="69164215" uid="322039" user="MacLondon">
    <nd ref="30037806"/>
    <nd ref="2444896560"/>
    <nd ref="30037807"/>
    <nd ref="2378711131"/>
    <nd ref="30037808"/>
    <nd ref="2378711133"/>
    <nd ref="2445005561"/>
    <nd ref="30037809"/>
    <nd ref="2378711136"/>
    <nd ref="30037810"/>
    <nd ref="30037811"/>
    <nd ref="2378711145"/>
    <nd ref="2378711149"/>
    <nd ref="2378711154"/>
    <nd ref="2378711158"/>
    <nd ref="2378711162"/>
    <nd ref="30037813"/>
    <nd ref="2378711159"/>
    <nd ref="30037814"/>
    <tag k="highway" v="unclassified"/>
    <tag k="name" v="Wood Lane"/>
  </way>
  <way id="4717718" version="3" timestamp="2019-04-12T22:40:22Z" changeset="69164215" uid="322039" user="MacLondon">
    <nd ref="30040520"/>
    <nd ref="30040526"/>
    <nd ref="30040527"/>
    <nd ref="30040528"/>
    <nd ref="30040529"/>
    <nd ref="30040530"/>
    <nd ref="2378711128"/>
    <nd ref="30037806"/>
    <tag k="highway" v="unclassified"/>
  </way>
  <way id="4717721" version="9" timestamp="2025-02-23T15:29:21Z" changeset="162857241" uid="563773" user="mrpacmanmap">
    <nd ref="2140372147"/>
    <nd ref="653835281"/>
    <nd ref="252755092"/>
    <nd ref="2369272131"/>
    <nd ref="252755093"/>
    <nd ref="2369272208"/>
    <nd ref="2369272239"/>
    <nd ref="252755094"/>
    <nd ref="2369272257"/>
    <nd ref="2369272258"/>
    <nd ref="2369272261"/>
    <nd ref="252755095"/>
    <nd ref="252755096"/>
    <nd ref="2378711249"/>
    <nd ref="2378711251"/>
    <nd ref="2378711256"/>
    <nd ref="252755097"/>
    <nd ref="2378711270"/>
    <nd ref="4111124076"/>
    <nd ref="792312849"/>
    <nd ref="4111124078"/>
    <nd ref="4111124079"/>
    <nd ref="4111124080"/>
    <nd ref="4111124081"/>
    <nd ref="252755098"/>
    <tag k="highway" v="tertiary"/>
    <tag k="name" v="Wilmcote Lane"/>
  </way>
  <way id="23342556" version="9" timestamp="2016-04-10T06:16:29Z" changeset="38443300" uid="9065" user="brianboru">
    <nd ref="252755098"/>
    <nd ref="4111126289"/>
    <nd ref="2378711293"/>
    <nd ref="252755099"/>
    <nd ref="4111126290"/>
    <nd ref="2378711299"/>
    <tag k="highway" v="tertiary"/>
    <tag k="name" v="Brook Road"/>
    <tag k="oneway" v="no"/>
    <tag k="source" v="bing"/>
    <tag k="source:name" v="OS_Locator"/>
  </way>
  <way id="23584826" version="3" timestamp="2013-09-03T18:59:59Z" changeset="17659511" uid="9065" user="brianboru">
    <nd ref="30037806"/>
    <nd ref="2444896559"/>
    <nd ref="255396934"/>
    <nd ref="2444896558"/>
    <nd ref="2444896557"/>
    <nd ref="2444896556"/>
    <nd ref="255396935"/>
    <nd ref="2444896555"/>
    <nd ref="2444896554"/>
    <nd ref="255396936"/>
    <tag k="highway" v="unclassified"/>
    <tag k="source" v="NPE"/>
  </way>
  <way id="25148307" version="5" timestamp="2014-01-10T20:56:45Z" changeset="19924408" uid="346039" user="fitzsimons">
    <nd ref="300659890"/>
    <nd ref="1720704866"/>
    <nd ref="1720704874"/>
    <nd ref="1720704875"/>
    <nd ref="1720704877"/>
    <nd ref="1720704879"/>
    <nd ref="300659887"/>
    <nd ref="1720704881"/>
    <nd ref="1720704883"/>
    <nd ref="2235553921"/>
    <nd ref="300659883"/>
    <nd ref="1720704889"/>
    <nd ref="1720704891"/>
    <nd ref="1720704894"/>
    <nd ref="1720704895"/>
    <nd ref="300659881"/>
    <nd ref="1720704902"/>
    <nd ref="2235553926"/>
    <nd ref="1720704910"/>
    <nd ref="1720704915"/>
    <nd ref="1720704921"/>
    <nd ref="1720704931"/>
    <nd ref="1720704932"/>
    <nd ref="1720704934"/>
    <nd ref="1720704935"/>
    <nd ref="300659878"/>
    <nd ref="1720704937"/>
    <nd ref="1720704938"/>
    <nd ref="1720704939"/>
    <nd ref="1720704953"/>
    <nd ref="1720704955"/>
    <nd ref="1720704956"/>
    <nd ref="1720704957"/>
    <nd ref="1720704960"/>
    <nd ref="1720704987"/>
    <nd ref="1720704998"/>
    <nd ref="1720705011"/>
    <nd ref="1720705051"/>
    <nd ref="274074843"/>
    <tag k="highway" v="unclassified"/>
    <tag k="source" v="survey"/>
  </way>
  <way id="27388387" version="12" timestamp="2021-03-25T05:43:42Z" changeset="101689276" uid="9196107" user="bashwith">
    <nd ref="297304777"/>
    <nd ref="2279807292"/>
    <nd ref="2279658844"/>
    <nd ref="2279658826"/>
    <nd ref="300661706"/>
    <nd ref="6726609500"/>
    <nd ref="2319706770"/>
    <nd ref="2279658808"/>
    <nd ref="300661707"/>
    <nd ref="3366686985"/>
    <nd ref="2279807029"/>
    <nd ref="6472230879"/>
    <nd ref="2319706715"/>
    <nd ref="300661709"/>
    <nd ref="8057527073"/>
    <nd ref="2279806977"/>
    <nd ref="300661710"/>
    <nd ref="2279806963"/>
    <nd ref="300661711"/>
    <nd ref="2279806954"/>
    <nd ref="2279806942"/>
    <nd ref="2279806932"/>
    <nd ref="300661712"/>
    <nd ref="300661714"/>
    <nd ref="300661715"/>
    <nd ref="300661716"/>
    <nd ref="2279806838"/>
    <nd ref="2279806836"/>
    <nd ref="300661718"/>
    <nd ref="2279806813"/>
    <nd ref="2319723241"/>
    <nd ref="300661721"/>
    <nd ref="300661726"/>
    <nd ref="2319723238"/>
    <nd ref="300661730"/>
    <nd ref="3366697823"/>
    <nd ref="300661733"/>
    <nd ref="2279806761"/>
    <nd ref="300661737"/>
    <nd ref="300661741"/>
    <nd ref="300661745"/>
    <nd ref="2279806724"/>
    <nd ref="8559072643"/>
    <nd ref="1720705336"/>
    <nd ref="300661748"/>
    <tag k="highway" v="unclassified"/>
    <tag k="source" v="survey"/>
  </way>
  <way id="27417049" version="3" timestamp="2020-07-15T02:08:33Z" changeset="88001827" uid="10173453" user="sanganh">
    <nd ref="300661748"/>
    <nd ref="7715129772"/>
    <nd ref="1720705332"/>
    <nd ref="1720705330"/>
    <nd ref="300659800"/>
    <nd ref="1720705324"/>
    <nd ref="1720705310"/>
    <nd ref="1720705307"/>
    <nd ref="300659805"/>
    <nd ref="1720705283"/>
    <nd ref="1720705268"/>
    <nd ref="1720705261"/>
    <nd ref="1720705236"/>
    <nd ref="1720705223"/>
    <nd ref="1720705219"/>
    <nd ref="1720705207"/>
    <nd ref="1720705184"/>
    <nd ref="70995234"/>
    <tag k="highway" v="unclassified"/>
    <tag k="source" v="survey"/>
  </way>
  <way id="27417051" version="7" timestamp="2021-05-27T06:02:07Z" changeset="105396259" uid="10170582" user="priymose">
    <nd ref="70995234"/>
    <nd ref="8771127107"/>
    <nd ref="8562788409"/>
    <nd ref="2319706350"/>
    <nd ref="2876778169"/>
    <nd ref="70995236"/>
    <nd ref="2319706341"/>
    <nd ref="2319706336"/>
    <nd ref="2319706332"/>
    <nd ref="70995240"/>
    <nd ref="2319706325"/>
    <nd ref="70995241"/>
    <nd ref="2319706323"/>
    <nd ref="2319706318"/>
    <nd ref="70995243"/>
    <nd ref="2319706314"/>
    <nd ref="2319706312"/>
    <nd ref="70995244"/>
    <nd ref="2319706304"/>
    <nd ref="70995245"/>
    <nd ref="2319706300"/>
    <nd ref="2319706299"/>
    <nd ref="70995248"/>
    <nd ref="2319706289"/>
    <nd ref="792340920"/>
    <nd ref="792340880"/>
    <nd ref="792340896"/>
    <nd ref="2319706283"/>
    <nd ref="2319706280"/>
    <nd ref="2319706279"/>
    <nd ref="70995251"/>
    <nd ref="2319706270"/>
    <nd ref="2319706268"/>
    <nd ref="2319706269"/>
    <nd ref="2319706271"/>
    <nd ref="70995252"/>
    <tag k="highway" v="unclassified"/>
  </way>
  <way id="27419120" version="13" timestamp="2013-06-22T16:50:03Z" changeset="16658898" uid="9065" user="brianboru">
    <nd ref="70995252"/>
    <nd ref="2319706275"/>
    <nd ref="2319706278"/>
    <nd ref="792340907"/>
    <nd ref="2319706285"/>
    <nd ref="70995254"/>
    <nd ref="2319706292"/>
    <nd ref="2319706294"/>
    <nd ref="2319706296"/>
    <nd ref="2319706298"/>
    <nd ref="2319706297"/>
    <nd ref="70995257"/>
    <nd ref="2204844664"/>
    <nd ref="2356237753"/>
    <nd ref="70995259"/>
    <nd ref="2319706295"/>
    <nd ref="792340925"/>
    <nd ref="70995262"/>
    <nd ref="2319706310"/>
    <nd ref="1676094107"/>
    <nd ref="2319706319"/>
    <nd ref="305674686"/>
    <nd ref="2319706327"/>
    <nd ref="2319706330"/>
    <nd ref="2319706333"/>
    <nd ref="2319706335"/>
    <nd ref="70995264"/>
    <nd ref="2319706338"/>
    <nd ref="2319706340"/>
    <nd ref="253145077"/>
    <tag k="highway" v="secondary"/>
    <tag k="ref" v="B4089"/>
    <tag k="source" v="survey"/>
  </way>
  <way id="27433887" version="5" timestamp="2025-07-30T15:58:12Z" changeset="169728510" uid="5322" user="nik">
    <nd ref="250535969"/>
    <nd ref="1793336739"/>
    <nd ref="1793336740"/>
    <nd ref="1793336741"/>
    <nd ref="1793336742"/>
    <nd ref="1793336743"/>
    <nd ref="1793336744"/>
    <nd ref="432787633"/>
    <tag k="highway" v="secondary"/>
    <tag k="ref" v="B4089"/>
    <tag k="surface" v="asphalt"/>
  </way>
  <way id="28026436" version="2" timestamp="2013-09-03T19:00:00Z" changeset="17659511" uid="9065" user="brianboru">
    <nd ref="255396936"/>
    <nd ref="307737385"/>
    <nd ref="2444896553"/>
    <nd ref="2444896552"/>
    <nd ref="255396937"/>
    <nd ref="2444896551"/>
    <nd ref="2444896550"/>
    <nd ref="255396938"/>
    <nd ref="2444896549"/>
    <nd ref="255396939"/>
    <nd ref="2444896548"/>
    <nd ref="255396940"/>
    <nd ref="2444896547"/>
    <nd ref="307737383"/>
    <tag k="highway" v="unclassified"/>
    <tag k="source" v="survey"/>
  </way>
  <way id="30339351" version="6" timestamp="2020-11-12T00:23:31Z" changeset="93956909" uid="10252541" user="thadad">
    <nd ref="252755111"/>
    <nd ref="8109879455"/>
    <nd ref="334595104"/>
    <nd ref="334595109"/>
    <nd ref="334595112"/>
    <nd ref="334595114"/>
    <nd ref="2322891451"/>
    <nd ref="334595117"/>
    <nd ref="334595120"/>
    <nd ref="2322891444"/>
    <nd ref="334595124"/>
    <tag k="highway" v="tertiary"/>
    <tag k="maxspeed" v="60 mph"/>
    <tag k="maxspeed:type" v="GB:nsl_single"/>
    <tag k="name" v="White House Hill"/>
    <tag k="source" v="survey"/>
  </way>
  <way id="30486691" version="7" timestamp="2019-08-20T09:56:32Z" changeset="73530475" uid="9634896" user="dvvuyyur">
    <nd ref="334595124"/>
    <nd ref="2322891443"/>
    <nd ref="334595127"/>
    <nd ref="334595131"/>
    <nd ref="2322891452"/>
    <nd ref="2660322065"/>
    <nd ref="334595133"/>
    <nd ref="2322891455"/>
    <nd ref="334595135"/>
    <nd ref="2322891458"/>
    <nd ref="334595138"/>
    <nd ref="6726243176"/>
    <nd ref="6726250494"/>
    <nd ref="334595142"/>
    <nd ref="2369272664"/>
    <nd ref="334595144"/>
    <nd ref="334595146"/>
    <nd ref="2369272680"/>
    <nd ref="334595558"/>
    <nd ref="334595150"/>
    <nd ref="334595153"/>
    <tag k="highway" v="tertiary"/>
    <tag k="maxspeed" v="60 mph"/>
    <tag k="maxspeed:type" v="GB:nsl_single"/>
    <tag k="name" v="White House Hill"/>
    <tag k="source" v="survey"/>
  </way>
  <way id="32628889" version="14" timestamp="2021-11-07T11:20:21Z" changeset="113475661" uid="9065" user="brianboru">
    <nd ref="366904576"/>
    <nd ref="366904580"/>
    <nd ref="2204844438"/>
    <nd ref="1676127465"/>
    <nd ref="2204844436"/>
    <nd ref="366904585"/>
    <nd ref="366904588"/>
    <nd ref="366904590"/>
    <nd ref="1676127461"/>
    <nd ref="366904592"/>
    <nd ref="2320729849"/>
    <nd ref="366904593"/>
    <nd ref="2953240321"/>
    <nd ref="366904596"/>
    <nd ref="2319732362"/>
    <nd ref="366904597"/>
    <nd ref="366904602"/>
    <nd ref="366904604"/>
    <nd ref="2204844399"/>
    <nd ref="1962955714"/>
    <nd ref="9232806360"/>
    <nd ref="9232806361"/>
    <nd ref="9232806363"/>
    <nd ref="366904616"/>
    <nd ref="2500693200"/>
    <nd ref="2698261778"/>
    <nd ref="366904618"/>
    <nd ref="9232806347"/>
    <nd ref="2698261772"/>
    <nd ref="2698356993"/>
    <nd ref="366904625"/>
    <nd ref="2698357003"/>
    <nd ref="2698357014"/>
    <nd ref="366904628"/>
    <nd ref="2369272682"/>
    <nd ref="366904631"/>
    <nd ref="334595153"/>
    <tag k="highway" v="tertiary"/>
    <tag k="maxspeed" v="60 mph"/>
    <tag k="maxspeed:type" v="GB:nsl_single"/>
    <tag k="name" v="Salters Lane"/>
    <tag k="oneway" v="no"/>
    <tag k="source" v="survey"/>
  </way>
  <way id="32628891" version="9" timestamp="2025-02-23T14:36:38Z" changeset="162854799" uid="563773" user="mrpacmanmap">
    <nd ref="9232806347"/>
    <nd ref="9232806342"/>
    <nd ref="9232806340"/>
    <nd ref="9232806338"/>
    <nd ref="9232806336"/>
    <nd ref="9232806334"/>
    <nd ref="2369272582"/>
    <nd ref="2369272572"/>
    <nd ref="366904644"/>
    <nd ref="2369272534"/>
    <nd ref="366904648"/>
    <nd ref="366904651"/>
    <nd ref="2369272427"/>
    <nd ref="2369272422"/>
    <nd ref="2369272414"/>
    <nd ref="366904653"/>
    <nd ref="2369272390"/>
    <nd ref="2369272383"/>
    <nd ref="366904657"/>
    <nd ref="2369272369"/>
    <nd ref="2369272366"/>
    <nd ref="1962969526"/>
    <tag k="highway" v="unclassified"/>
    <tag k="name" v="Newnham Lane"/>
    <tag k="source" v="survey"/>
  </way>
  <way id="37189745" version="7" timestamp="2019-06-21T01:58:42Z" changeset="71465286" uid="9196098" user="flevin">
    <nd ref="432786110"/>
    <nd ref="250535964"/>
    <nd ref="1793336710"/>
    <nd ref="1793336711"/>
    <nd ref="1793336712"/>
    <nd ref="250535965"/>
    <nd ref="1793336713"/>
    <nd ref="1793336714"/>
    <nd ref="1793336715"/>
    <nd ref="250535966"/>
    <nd ref="1793336716"/>
    <nd ref="1793336717"/>
    <nd ref="6562042198"/>
    <nd ref="3839364971"/>
    <nd ref="1793336718"/>
    <nd ref="1793336719"/>
    <nd ref="1793336720"/>
    <nd ref="1793336721"/>
    <nd ref="2536983078"/>
    <nd ref="1793336722"/>
    <nd ref="1793336723"/>
    <nd ref="1793336725"/>
    <nd ref="1793336726"/>
    <nd ref="1793336727"/>
    <nd ref="1793336728"/>
    <nd ref="250535967"/>
    <nd ref="1793336729"/>
    <nd ref="1793336731"/>
    <nd ref="1793336732"/>
    <nd ref="1793336733"/>
    <nd ref="250535968"/>
    <nd ref="1793336734"/>
    <nd ref="1793336735"/>
    <nd ref="1793336736"/>
    <nd ref="1793336738"/>
    <nd ref="250535969"/>
    <tag k="highway" v="secondary"/>
    <tag k="maxspeed" v="40 mph"/>
    <tag k="name" v="Henley Road"/>
    <tag k="ref" v="B4089"/>
  </way>
  <way id="37189831" version="6" timestamp="2020-12-29T07:46:28Z" changeset="96581726" uid="10455629" user="jgopatho">
    <nd ref="432787633"/>
    <nd ref="1793336745"/>
    <nd ref="8269256839"/>
    <nd ref="1793336746"/>
    <nd ref="250535970"/>
    <nd ref="2356237690"/>
    <nd ref="2356237692"/>
    <nd ref="2356237694"/>
    <nd ref="250535971"/>
    <nd ref="250535972"/>
    <nd ref="2319706266"/>
    <nd ref="2319706267"/>
    <nd ref="70995252"/>
    <tag k="highway" v="secondary"/>
    <tag k="ref" v="B4089"/>
  </way>
  <way id="37190384" version="5" timestamp="2021-05-31T06:20:26Z" changeset="105599377" uid="9065" user="brianboru">
    <nd ref="274074843"/>
    <nd ref="1720705118"/>
    <nd ref="1720705156"/>
    <nd ref="1720705176"/>
    <nd ref="1720705183"/>
    <nd ref="274074844"/>
    <nd ref="1720705186"/>
    <nd ref="1720705197"/>
    <nd ref="300659777"/>
    <nd ref="1720705209"/>
    <nd ref="1720705212"/>
    <nd ref="1720705210"/>
    <nd ref="1720705205"/>
    <nd ref="1720705199"/>
    <nd ref="1720705192"/>
    <nd ref="1720705187"/>
    <nd ref="1720705194"/>
    <nd ref="1720705201"/>
    <nd ref="300659779"/>
    <nd ref="1720705214"/>
    <nd ref="1720705217"/>
    <nd ref="1720705225"/>
    <nd ref="1720705235"/>
    <nd ref="1720705238"/>
    <nd ref="300659781"/>
    <nd ref="1720705248"/>
    <nd ref="1720705252"/>
    <nd ref="1720705250"/>
    <nd ref="1720705244"/>
    <nd ref="1720705240"/>
    <nd ref="1720705242"/>
    <nd ref="1720705246"/>
    <nd ref="1720705257"/>
    <nd ref="300659783"/>
    <nd ref="1720705262"/>
    <nd ref="1720705266"/>
    <nd ref="1720705280"/>
    <nd ref="6539443005"/>
    <nd ref="2617849824"/>
    <nd ref="1720705311"/>
    <nd ref="1720705312"/>
    <nd ref="1720705313"/>
    <nd ref="300659784"/>
    <nd ref="1720705322"/>
    <nd ref="1720705326"/>
    <nd ref="1720705328"/>
    <nd ref="1720705334"/>
    <nd ref="300659787"/>
    <nd ref="1720705338"/>
    <nd ref="1720705348"/>
    <nd ref="1720705360"/>
    <nd ref="1720705365"/>
    <nd ref="1720705371"/>
    <nd ref="1720705372"/>
    <nd ref="300659788"/>
    <nd ref="1720705383"/>
    <nd ref="1720705384"/>
    <nd ref="1720705385"/>
    <nd ref="1720705387"/>
    <nd ref="1720705388"/>
    <nd ref="300659791"/>
    <nd ref="1720705392"/>
    <nd ref="1720705393"/>
    <nd ref="1720705406"/>
    <nd ref="1720705404"/>
    <nd ref="1720705390"/>
    <nd ref="1720705389"/>
    <nd ref="300659793"/>
    <nd ref="1720705386"/>
    <nd ref="1720705374"/>
    <nd ref="1720705368"/>
    <nd ref="1720705363"/>
    <nd ref="1720705362"/>
    <nd ref="1720705361"/>
    <nd ref="300659796"/>
    <nd ref="1720705356"/>
    <nd ref="1720705354"/>
    <nd ref="1720705352"/>
    <nd ref="1720705350"/>
    <nd ref="1720705346"/>
    <nd ref="1720705344"/>
    <nd ref="1720705340"/>
    <nd ref="300659798"/>
    <nd ref="300661748"/>
    <tag k="highway" v="unclassified"/>
    <tag k="source" v="survey"/>
  </way>
  <way id="48063869" version="4" timestamp="2014-04-27T16:26:48Z" changeset="21981536" uid="411244" user="RobJN">
    <nd ref="611027445"/>
    <nd ref="2536982894"/>
    <nd ref="611027446"/>
    <tag k="highway" v="residential"/>
    <tag k="name" v="Church Lane"/>
  </way>
  <way id="64388552" version="4" timestamp="2025-02-23T15:29:21Z" changeset="162857241" uid="563773" user="mrpacmanmap">
    <nd ref="252755103"/>
    <nd ref="4111126323"/>
    <nd ref="12613042059"/>
    <nd ref="4108048563"/>
    <nd ref="792312939"/>
    <nd ref="4108048564"/>
    <nd ref="792312711"/>
    <nd ref="4108048573"/>
    <nd ref="792312913"/>
    <nd ref="792312670"/>
    <nd ref="792312750"/>
    <nd ref="792312865"/>
    <nd ref="792313160"/>
    <tag k="highway" v="residential"/>
    <tag k="name" v="Guild Road"/>
    <tag k="source" v="visual survey;OS_OpenStreetMap_StreetView"/>
  </way>
  <way id="64388554" version="2" timestamp="2016-04-10T06:16:30Z" changeset="38443300" uid="9065" user="brianboru">
    <nd ref="792312973"/>
    <nd ref="4111126740"/>
    <nd ref="792313110"/>
    <nd ref="4111126758"/>
    <nd ref="792312779"/>
    <tag k="highway" v="residential"/>
    <tag k="name" v="Sunnyside"/>
    <tag k="source" v="OS_OpenData_StreetView"/>
  </way>
  <way id="64388560" version="5" timestamp="2023-11-30T20:41:20Z" changeset="144639610" uid="504708" user="HillWithSmallFields">
    <nd ref="792313064"/>
    <nd ref="1676085730"/>
    <nd ref="1676085721"/>
    <nd ref="792312676"/>
    <nd ref="792312878"/>
    <nd ref="792313170"/>
    <nd ref="1676085719"/>
    <nd ref="1676085717"/>
    <nd ref="792313064"/>
    <tag k="amenity" v="place_of_worship"/>
    <tag k="building" v="yes"/>
    <tag k="denomination" v="anglican"/>
    <tag k="heritage" v="2"/>
    <tag k="heritage:operator" v="Historic England"/>
    <tag k="listed_status" v="Grade I"/>
    <tag k="name" v="St John the Baptist"/>
    <tag k="ref:dove" v="17054"/>
    <tag k="religion" v="christian"/>
    <tag k="source" v="visual survey;OS_OpenStreetMap_StreetView"/>
    <tag k="wikidata" v="Q17528297"/>
  </way>
  <way id="64388561" version="1" timestamp="2010-06-27T08:51:15Z" changeset="5087483" uid="9065" user="brianboru">
    <nd ref="792312683"/>
    <nd ref="792312750"/>
    <tag k="highway" v="residential"/>
    <tag k="name" v="Guild Road"/>
    <tag k="source" v="visual survey;OS_OpenStreetMap_StreetView"/>
  </way>
  <way id="64388563" version="4" timestamp="2021-05-17T01:25:05Z" changeset="104789688" uid="493595" user="Yorvik Prestigitator">
    <nd ref="792312633"/>
    <nd ref="4108048558"/>
    <nd ref="4108048560"/>
    <nd ref="792312759"/>
    <nd ref="792313028"/>
    <nd ref="4108048550"/>
    <nd ref="4108048552"/>
    <nd ref="4108048551"/>
    <nd ref="792312970"/>
    <nd ref="792312657"/>
    <nd ref="792312633"/>
    <tag k="amenity" v="community_centre"/>
    <tag k="building" v="public"/>
    <tag k="community_centre" v="village_hall"/>
    <tag k="heritage" v="2"/>
    <tag k="heritage:operator" v="Historic England"/>
    <tag k="listed_status" v="Grade II*"/>
    <tag k="name" v="Aston Cantlow Village Hall"/>
    <tag k="source" v="visual survey;OS_OpenStreetMap_StreetView"/>
  </way>
  <way id="64388566" version="4" timestamp="2025-02-23T15:29:21Z" changeset="162857241" uid="563773" user="mrpacmanmap">
    <nd ref="12613042086"/>
    <nd ref="792312779"/>
    <nd ref="792312815"/>
    <nd ref="4111126556"/>
    <nd ref="4108071728"/>
    <nd ref="792313096"/>
    <nd ref="792312766"/>
    <tag k="highway" v="residential"/>
    <tag k="name" v="Chapel Lane"/>
    <tag k="source" v="visual survey;OS_OpenStreetMap_StreetView"/>
  </way>
  <way id="144201084" version="12" timestamp="2021-11-03T17:24:31Z" changeset="113342188" uid="9065" user="brianboru">
    <nd ref="279313963"/>
    <nd ref="2821104932"/>
    <nd ref="2367037026"/>
    <nd ref="2367037033"/>
    <nd ref="2367037048"/>
    <nd ref="2367037055"/>
    <nd ref="9221765995"/>
    <nd ref="9221765994"/>
    <nd ref="279313964"/>
    <nd ref="9221765993"/>
    <nd ref="279313965"/>
    <nd ref="279313966"/>
    <nd ref="279313967"/>
    <nd ref="279313968"/>
    <nd ref="279313969"/>
    <nd ref="279313970"/>
    <nd ref="279313971"/>
    <nd ref="1457069377"/>
    <nd ref="1457069378"/>
    <nd ref="279313972"/>
    <nd ref="1457055791"/>
    <nd ref="279313973"/>
    <nd ref="279313974"/>
    <nd ref="2378711266"/>
    <nd ref="2378711285"/>
    <nd ref="279313975"/>
    <nd ref="2489687761"/>
    <nd ref="2536982737"/>
    <nd ref="2489687724"/>
    <nd ref="2489687719"/>
    <nd ref="2489687747"/>
    <nd ref="279313977"/>
    <nd ref="279313978"/>
    <nd ref="7760979046"/>
    <nd ref="611027441"/>
    <nd ref="2378711271"/>
    <nd ref="792312660"/>
    <nd ref="2378711267"/>
    <nd ref="1457069379"/>
    <nd ref="6909166443"/>
    <nd ref="4111124075"/>
    <nd ref="8562581305"/>
    <nd ref="2378711278"/>
    <nd ref="4111124082"/>
    <nd ref="252755098"/>
    <tag k="highway" v="unclassified"/>
    <tag k="name" v="Mill Lane"/>
    <tag k="source" v="NPE"/>
  </way>
  <way id="155191160" version="6" timestamp="2025-02-23T15:29:21Z" changeset="162857241" uid="563773" user="mrpacmanmap">
    <nd ref="252755111"/>
    <nd ref="334595532"/>
    <nd ref="252755112"/>
    <nd ref="2536983056"/>
    <nd ref="2536983068"/>
    <tag k="highway" v="tertiary"/>
    <tag k="lanes" v="2"/>
    <tag k="maxspeed" v="60 mph"/>
    <tag k="maxspeed:type" v="GB:nsl_single"/>
    <tag k="source" v="bing"/>
  </way>
  <way id="191288041" version="10" timestamp="2025-02-23T15:29:21Z" changeset="162857241" uid="563773" user="mrpacmanmap">
    <nd ref="252755103"/>
    <nd ref="4111126332"/>
    <nd ref="792313167"/>
    <nd ref="4108071670"/>
    <nd ref="7183661347"/>
    <nd ref="252755104"/>
    <nd ref="4111126368"/>
    <nd ref="4111126392"/>
    <nd ref="792312840"/>
    <nd ref="4108071701"/>
    <nd ref="12613042072"/>
    <nd ref="792312766"/>
    <tag k="highway" v="tertiary"/>
    <tag k="maxspeed" v="30 mph"/>
    <tag k="name" v="Bearley Road"/>
    <tag k="oneway" v="no"/>
    <tag k="source" v="bing"/>
    <tag k="source:name" v="OS_Locator"/>
  </way>
  <way id="246691050" version="3" timestamp="2014-06-20T22:04:59Z" changeset="23053160" uid="411244" user="RobJN">
    <nd ref="2536983071"/>
    <nd ref="2536983073"/>
    <tag k="bridge" v="yes"/>
    <tag k="highway" v="tertiary"/>
    <tag k="lanes" v="1"/>
    <tag k="layer" v="1"/>
    <tag k="maxspeed" v="60 mph"/>
    <tag k="maxspeed:type" v="GB:nsl_single"/>
    <tag k="source" v="bing"/>
  </way>
  <way id="246691052" version="3" timestamp="2014-06-20T22:04:59Z" changeset="23053160" uid="411244" user="RobJN">
    <nd ref="2536983073"/>
    <nd ref="252755113"/>
    <nd ref="252755114"/>
    <nd ref="1793336724"/>
    <nd ref="1793336730"/>
    <nd ref="1793336737"/>
    <nd ref="250535969"/>
    <tag k="highway" v="tertiary"/>
    <tag k="lanes" v="2"/>
    <tag k="maxspeed" v="60 mph"/>
    <tag k="maxspeed:type" v="GB:nsl_single"/>
    <tag k="source" v="bing"/>
  </way>
  <way id="246704514" version="2" timestamp="2014-06-20T22:04:53Z" changeset="23053160" uid="411244" user="RobJN">
    <nd ref="2489617345"/>
    <nd ref="432786110"/>
    <tag k="highway" v="secondary"/>
    <tag k="maxspeed" v="40 mph"/>
    <tag k="name" v="Henley Road"/>
    <tag k="ref" v="B4089"/>
  </way>
  <way id="277626347" version="4" timestamp="2021-03-16T09:21:20Z" changeset="101107574" uid="10219386" user="bathines">
    <nd ref="792312766"/>
    <nd ref="252755105"/>
    <nd ref="4108071723"/>
    <nd ref="632677168"/>
    <nd ref="8523815492"/>
    <nd ref="2368370502"/>
    <nd ref="2871575908"/>
    <tag k="highway" v="tertiary"/>
    <tag k="maxspeed" v="30 mph"/>
    <tag k="name" v="Bearley Road"/>
    <tag k="oneway" v="no"/>
    <tag k="source" v="bing"/>
    <tag k="source:name" v="OS_Locator"/>
  </way>
  <way id="277626351" version="2" timestamp="2021-05-17T01:25:05Z" changeset="104789688" uid="493595" user="Yorvik Prestigitator">
    <nd ref="611027446"/>
    <nd ref="8737458442"/>
    <nd ref="2378805926"/>
    <tag k="highway" v="residential"/>
    <tag k="name" v="Church Lane"/>
  </way>
  <way id="277626352" version="1" timestamp="2014-04-27T16:26:16Z" changeset="21981536" uid="411244" user="RobJN">
    <nd ref="2378805926"/>
    <nd ref="252755102"/>
    <tag k="highway" v="residential"/>
    <tag k="name" v="Church Lane"/>
  </way>
  <way id="277626367" version="3" timestamp="2021-03-29T12:34:43Z" changeset="101917893" uid="10305810" user="peddil">
    <nd ref="611027436"/>
    <nd ref="30037815"/>
    <nd ref="30037816"/>
    <nd ref="2235575989"/>
    <nd ref="30037817"/>
    <nd ref="30040534"/>
    <nd ref="30037818"/>
    <nd ref="30037819"/>
    <nd ref="8571599000"/>
    <nd ref="30037820"/>
    <nd ref="279313964"/>
    <tag k="highway" v="unclassified"/>
    <tag k="name" v="Wood Lane"/>
  </way>
  <way id="277626369" version="2" timestamp="2019-04-12T22:41:36Z" changeset="69164215" uid="322039" user="MacLondon">
    <nd ref="30037814"/>
    <nd ref="611027436"/>
    <tag k="highway" v="unclassified"/>
    <tag k="name" v="Wood Lane"/>
  </way>
  <way id="277626399" version="2" timestamp="2019-03-01T20:08:19Z" changeset="67698149" uid="9065" user="brianboru">
    <nd ref="70995194"/>
    <nd ref="2356194671"/>
    <nd ref="2356194676"/>
    <nd ref="70995195"/>
    <nd ref="6311532676"/>
    <nd ref="2356194681"/>
    <nd ref="2356194685"/>
    <nd ref="6311533686"/>
    <nd ref="2356194689"/>
    <nd ref="2235553910"/>
    <nd ref="70995200"/>
    <nd ref="2235553914"/>
    <nd ref="6311533704"/>
    <nd ref="1720704860"/>
    <nd ref="1720704862"/>
    <nd ref="1720704864"/>
    <nd ref="300659890"/>
    <nd ref="70995201"/>
    <nd ref="1720704878"/>
    <nd ref="70995204"/>
    <nd ref="1720704880"/>
    <nd ref="1720704882"/>
    <nd ref="1720704884"/>
    <nd ref="1720704892"/>
    <nd ref="70995206"/>
    <nd ref="1720704896"/>
    <nd ref="1720704899"/>
    <nd ref="1720704900"/>
    <nd ref="70995209"/>
    <nd ref="1720704904"/>
    <nd ref="1720704908"/>
    <nd ref="1720704909"/>
    <nd ref="1720704911"/>
    <nd ref="1720704913"/>
    <nd ref="1720704918"/>
    <nd ref="1720704919"/>
    <nd ref="1720704923"/>
    <nd ref="70995211"/>
    <nd ref="1720704933"/>
    <nd ref="1720704936"/>
    <nd ref="1720704941"/>
    <nd ref="70995214"/>
    <nd ref="1720704958"/>
    <nd ref="1720704959"/>
    <nd ref="1720704961"/>
    <nd ref="70995216"/>
    <nd ref="1720704963"/>
    <nd ref="1720704964"/>
    <nd ref="1720704977"/>
    <nd ref="1720704980"/>
    <nd ref="1720704982"/>
    <nd ref="1720704984"/>
    <nd ref="70995220"/>
    <nd ref="1720704986"/>
    <nd ref="1720704989"/>
    <nd ref="1720704991"/>
    <nd ref="1720704993"/>
    <nd ref="1720704994"/>
    <nd ref="1720704996"/>
    <nd ref="70995223"/>
    <nd ref="70995224"/>
    <nd ref="70995225"/>
    <nd ref="1720705000"/>
    <nd ref="1720705002"/>
    <nd ref="1720705005"/>
    <nd ref="1720705007"/>
    <nd ref="1720705009"/>
    <nd ref="1720705012"/>
    <nd ref="1720705014"/>
    <nd ref="1720705019"/>
    <nd ref="1720705020"/>
    <nd ref="1720705021"/>
    <nd ref="1720705022"/>
    <nd ref="70995229"/>
    <nd ref="1720705023"/>
    <nd ref="1720705024"/>
    <nd ref="1720705025"/>
    <nd ref="1720705026"/>
    <nd ref="1720705028"/>
    <nd ref="1720705030"/>
    <nd ref="1720705037"/>
    <nd ref="1720705038"/>
    <nd ref="1720705040"/>
    <nd ref="1720705046"/>
    <nd ref="1720705042"/>
    <nd ref="1720705044"/>
    <nd ref="70995231"/>
    <nd ref="1720705048"/>
    <nd ref="1720705049"/>
    <nd ref="1720705050"/>
    <nd ref="1720705052"/>
    <nd ref="1720705053"/>
    <nd ref="1720705055"/>
    <nd ref="1720705057"/>
    <nd ref="1720705061"/>
    <nd ref="1720705068"/>
    <nd ref="1720705080"/>
    <nd ref="1720705104"/>
    <nd ref="70995234"/>
    <tag k="highway" v="unclassified"/>
  </way>
  <way id="283271382" version="5" timestamp="2021-05-17T01:25:05Z" changeset="104789688" uid="493595" user="Yorvik Prestigitator">
    <nd ref="2378711299"/>
    <nd ref="4111126306"/>
    <nd ref="252755100"/>
    <nd ref="4108070072"/>
    <nd ref="252755101"/>
    <nd ref="4111126318"/>
    <nd ref="4108070088"/>
    <nd ref="792312654"/>
    <nd ref="252755102"/>
    <nd ref="8737458444"/>
    <nd ref="8737458455"/>
    <nd ref="4108048554"/>
    <nd ref="8737458453"/>
    <nd ref="252755103"/>
    <tag k="highway" v="tertiary"/>
    <tag k="maxspeed" v="30 mph"/>
    <tag k="name" v="Brook Road"/>
    <tag k="oneway" v="no"/>
    <tag k="source" v="bing"/>
    <tag k="source:name" v="OS_Locator"/>
  </way>
  <way id="283271383" version="2" timestamp="2020-11-12T00:23:31Z" changeset="93956909" uid="10252541" user="thadad">
    <nd ref="2871575908"/>
    <nd ref="252755106"/>
    <nd ref="2369272387"/>
    <nd ref="1676085765"/>
    <nd ref="2369272416"/>
    <nd ref="252755107"/>
    <nd ref="2369272440"/>
    <nd ref="2369272465"/>
    <nd ref="252755108"/>
    <nd ref="1676085767"/>
    <nd ref="252755109"/>
    <nd ref="252755110"/>
    <nd ref="2322891473"/>
    <nd ref="8109879460"/>
    <nd ref="252755111"/>
    <tag k="highway" v="tertiary"/>
    <tag k="name" v="Bearley Road"/>
    <tag k="oneway" v="no"/>
    <tag k="source" v="bing"/>
    <tag k="source:name" v="OS_Locator"/>
  </way>
  <way id="288985115" version="1" timestamp="2014-06-20T22:04:36Z" changeset="23053160" uid="411244" user="RobJN">
    <nd ref="1793322910"/>
    <nd ref="1793322911"/>
    <nd ref="250556930"/>
    <nd ref="1793322935"/>
    <nd ref="1793322937"/>
    <nd ref="1793322939"/>
    <nd ref="1793322941"/>
    <nd ref="250556929"/>
    <nd ref="1793322943"/>
    <nd ref="1793322945"/>
    <nd ref="1793322947"/>
    <nd ref="2489691533"/>
    <nd ref="250556928"/>
    <nd ref="2437344270"/>
    <nd ref="1793322951"/>
    <nd ref="1793322953"/>
    <nd ref="1793322957"/>
    <nd ref="1793322959"/>
    <nd ref="1793322962"/>
    <nd ref="250556927"/>
    <nd ref="1793322966"/>
    <nd ref="1793322968"/>
    <nd ref="1793322975"/>
    <nd ref="1793322976"/>
    <nd ref="1793322981"/>
    <nd ref="1793322982"/>
    <nd ref="250556926"/>
    <nd ref="1793322983"/>
    <nd ref="1793322984"/>
    <nd ref="1793322985"/>
    <nd ref="1793322987"/>
    <nd ref="1793322989"/>
    <nd ref="1793322992"/>
    <nd ref="1793322996"/>
    <nd ref="250556925"/>
    <nd ref="1793323000"/>
    <nd ref="1793323001"/>
    <nd ref="1793323002"/>
    <nd ref="250556924"/>
    <nd ref="1793323004"/>
    <nd ref="1793323006"/>
    <nd ref="1793323007"/>
    <nd ref="1793323008"/>
    <nd ref="1793323009"/>
    <nd ref="250556923"/>
    <nd ref="1793323010"/>
    <nd ref="1793323011"/>
    <nd ref="1793323012"/>
    <nd ref="1793323013"/>
    <nd ref="1793323014"/>
    <nd ref="1793323015"/>
    <nd ref="1793323016"/>
    <nd ref="1793323017"/>
    <nd ref="1793323019"/>
    <nd ref="250556922"/>
    <nd ref="1793323020"/>
    <nd ref="1793323021"/>
    <nd ref="1793323022"/>
    <nd ref="1793323023"/>
    <nd ref="1793323024"/>
    <nd ref="1793323025"/>
    <nd ref="250536105"/>
    <nd ref="1793323027"/>
    <nd ref="1793323028"/>
    <nd ref="1793323029"/>
    <nd ref="1793323031"/>
    <nd ref="250535947"/>
    <nd ref="1793323032"/>
    <nd ref="1793323033"/>
    <nd ref="1793323034"/>
    <nd ref="250535948"/>
    <nd ref="1793323035"/>
    <nd ref="1793323036"/>
    <nd ref="250535949"/>
    <nd ref="1793323037"/>
    <nd ref="1793323040"/>
    <nd ref="1793323042"/>
    <nd ref="250535950"/>
    <nd ref="1793323043"/>
    <nd ref="1793323044"/>
    <nd ref="250535951"/>
    <nd ref="1793323045"/>
    <nd ref="1793323046"/>
    <nd ref="1793323047"/>
    <nd ref="250535952"/>
    <nd ref="1793323048"/>
    <nd ref="1793323049"/>
    <nd ref="250535953"/>
    <nd ref="1793323050"/>
    <nd ref="1793323051"/>
    <nd ref="1793323052"/>
    <nd ref="1793323053"/>
    <nd ref="250535954"/>
    <nd ref="1793323054"/>
    <nd ref="1793323055"/>
    <nd ref="1793323056"/>
    <nd ref="250535955"/>
    <nd ref="1793323057"/>
    <nd ref="1793323058"/>
    <nd ref="1793323059"/>
    <nd ref="1793323060"/>
    <nd ref="1793323062"/>
    <nd ref="1793323063"/>
    <nd ref="250535956"/>
    <nd ref="1793323064"/>
    <nd ref="1649769225"/>
    <nd ref="1793323065"/>
    <nd ref="1793323066"/>
    <nd ref="250535957"/>
    <nd ref="1793323067"/>
    <nd ref="1793323068"/>
    <nd ref="1793323069"/>
    <nd ref="250535958"/>
    <nd ref="1793323075"/>
    <nd ref="1793323083"/>
    <nd ref="1793323093"/>
    <nd ref="1793323101"/>
    <nd ref="1793323118"/>
    <nd ref="1793323135"/>
    <nd ref="1793323140"/>
    <nd ref="250535959"/>
    <nd ref="1793323149"/>
    <nd ref="1793323150"/>
    <nd ref="1793323159"/>
    <nd ref="250535960"/>
    <nd ref="1793323168"/>
    <nd ref="1793323173"/>
    <nd ref="1793323177"/>
    <nd ref="1793323181"/>
    <nd ref="250535961"/>
    <nd ref="1793323196"/>
    <nd ref="1649769429"/>
    <nd ref="1793323217"/>
    <nd ref="1793323225"/>
    <nd ref="1793323229"/>
    <nd ref="1793323236"/>
    <nd ref="1793323246"/>
    <nd ref="250535962"/>
    <nd ref="1793336702"/>
    <nd ref="1793336703"/>
    <nd ref="1793336704"/>
    <nd ref="250535963"/>
    <tag k="highway" v="secondary"/>
    <tag k="maxspeed" v="50 mph"/>
    <tag k="name" v="Henley Road"/>
    <tag k="ref" v="B4089"/>
  </way>
  <way id="288985116" version="1" timestamp="2014-06-20T22:04:36Z" changeset="23053160" uid="411244" user="RobJN">
    <nd ref="250535963"/>
    <nd ref="1793336705"/>
    <nd ref="1793336706"/>
    <nd ref="1793336707"/>
    <nd ref="1793336708"/>
    <nd ref="2489617345"/>
    <tag k="highway" v="secondary"/>
    <tag k="maxspeed" v="40 mph"/>
    <tag k="name" v="Henley Road"/>
    <tag k="ref" v="B4089"/>
  </way>
  <way id="408900398" version="2" timestamp="2021-04-01T15:27:17Z" changeset="102136393" uid="30587" user="IknowJoseph">
    <nd ref="4108048556"/>
    <nd ref="4108048546"/>
    <nd ref="4108048547"/>
    <nd ref="4108048548"/>
    <nd ref="4108048549"/>
    <nd ref="4108048553"/>
    <nd ref="4108048555"/>
    <nd ref="4108048559"/>
    <nd ref="4108048557"/>
    <nd ref="4108048556"/>
    <tag k="amenity" v="pub"/>
    <tag k="building" v="pub"/>
    <tag k="name" v="Kings Head"/>
    <tag k="wikidata" v="Q26275303"/>
  </way>
  <way id="409210891" version="1" timestamp="2016-04-10T06:16:21Z" changeset="38443300" uid="9065" user="brianboru">
    <nd ref="4111126359"/>
    <nd ref="792312683"/>
    <nd ref="4111126360"/>
    <tag k="highway" v="residential"/>
    <tag k="name" v="Guild Road"/>
    <tag k="source" v="Warwicks Aerial Imagery OGLv2"/>
  </way>
  <way id="1362309344" version="2" timestamp="2025-04-05T13:46:40Z" changeset="164552200" uid="346039" user="fitzsimons">
    <nd ref="2235589932"/>
    <nd ref="366904661"/>
    <nd ref="366904664"/>
    <nd ref="2235589946"/>
    <nd ref="2235589952"/>
    <nd ref="2235589950"/>
    <nd ref="632677406"/>
    <nd ref="366904667"/>
    <nd ref="2369272371"/>
    <nd ref="366904670"/>
    <nd ref="2369272352"/>
    <nd ref="366904674"/>
    <nd ref="366904678"/>
    <nd ref="2235589922"/>
    <nd ref="8239128067"/>
    <nd ref="11655785258"/>
    <nd ref="366904681"/>
    <tag k="highway" v="unclassified"/>
    <tag k="name" v="Newnham Lane"/>
    <tag k="source" v="survey"/>
  </way>
  <way id="1362309345" version="2" timestamp="2025-04-05T13:46:40Z" changeset="164552200" uid="346039" user="fitzsimons">
    <nd ref="1962969526"/>
    <nd ref="366904660"/>
    <nd ref="2369272362"/>
    <nd ref="2235589932"/>
    <tag k="highway" v="unclassified"/>
    <tag k="name" v="Newnham Lane"/>
    <tag k="source" v="survey"/>
  </way>
  <way id="1362324332" version="1" timestamp="2025-02-23T15:29:21Z" changeset="162857241" uid="563773" user="mrpacmanmap">
    <nd ref="30040520"/>
    <nd ref="792336842"/>
    <nd ref="307763407"/>
    <tag k="highway" v="unclassified"/>
    <tag k="name" v="Aston Cantlow Road"/>
    <tag k="source" v="gps_survey"/>
  </way>
  <way id="1362324334" version="1" timestamp="2025-02-23T15:29:21Z" changeset="162857241" uid="563773" user="mrpacmanmap">
    <nd ref="2140372147"/>
    <nd ref="252755091"/>
    <nd ref="30040533"/>
    <nd ref="30040520"/>
    <tag k="highway" v="tertiary"/>
    <tag k="name" v="Wilmcote Lane"/>
  </way>
  <way id="1362324344" version="1" timestamp="2025-02-23T15:29:21Z" changeset="162857241" uid="563773" user="mrpacmanmap">
    <nd ref="12613042086"/>
    <nd ref="792312754"/>
    <tag k="highway" v="residential"/>
    <tag k="name" v="Chapel Lane"/>
    <tag k="source" v="visual survey;OS_OpenStreetMap_StreetView"/>
  </way>
  <way id="1362324346" version="1" timestamp="2025-02-23T15:29:21Z" changeset="162857241" uid="563773" user="mrpacmanmap">
    <nd ref="2536983068"/>
    <nd ref="2536983071"/>
    <tag k="highway" v="tertiary"/>
    <tag k="lanes" v="2"/>
    <tag k="maxspeed" v="60 mph"/>
    <tag k="maxspeed:type" v="GB:nsl_single"/>
    <tag k="source" v="bing"/>
  </way>

</osm>
