<?xml version="1.0" encoding="UTF-8"?>
<osm version="0.6" generator="Overpass API 0.7.62.8 e802775f">
<note>The data included in this document is from www.openstreetmap.org. The data is made available under ODbL.</note>
<meta osm_base="2025-10-23T16:58:48Z" areas="2025-10-23T12:46:58Z"/>

  <node id="30040520" lat="52.2249091" lon="-1.7868810" version="3" timestamp="2010-06-27T09:00:05Z" changeset="5087554" uid="9065" user="brianboru"/>
  <node id="31596578" lat="52.2120623" lon="-1.7690038" version="2" timestamp="2013-09-03T20:29:44Z" changeset="17661151" uid="9065" user="brianboru"/>
  <node id="246631349" lat="52.2230152" lon="-1.7359167" version="2" timestamp="2011-11-11T15:37:15Z" changeset="9797182" uid="243152" user="ChinnorBoy"/>
  <node id="280461061" lat="52.2447502" lon="-1.7480344" version="4" timestamp="2025-02-23T22:01:34Z" changeset="162870292" uid="563773" user="mrpacmanmap"/>
  <node id="2445014763" lat="52.2088566" lon="-1.7748245" version="1" timestamp="2013-09-03T20:47:31Z" changeset="17661481" uid="9065" user="brianboru"/>
  <way id="4717705" version="4" timestamp="2013-03-22T21:42:56Z" changeset="15459616" uid="38588" user="mentor">
    <nd ref="30040468"/>
    <nd ref="2207331496"/>
    <nd ref="2207331498"/>
    <nd ref="2207331499"/>
    <nd ref="30040470"/>
    <tag k="highway" v="tertiary"/>
    <tag k="name" v="Station Road"/>
  </way>
  <way id="4717707" version="7" timestamp="2019-04-12T22:40:22Z" changeset="69164215" uid="322039" user="MacLondon">
    <nd ref="30040478"/>
    <nd ref="4099789118"/>
    <nd ref="1676079481"/>
    <nd ref="1676079495"/>
    <nd ref="1676079534"/>
    <nd ref="4099789230"/>
    <nd ref="4099789253"/>
    <nd ref="1676079589"/>
    <nd ref="31554719"/>
    <nd ref="30040477"/>
    <nd ref="4099789360"/>
    <nd ref="1676056444"/>
    <nd ref="1676056460"/>
    <nd ref="1676056466"/>
    <nd ref="312721343"/>
    <tag k="highway" v="tertiary"/>
    <tag k="layer" v="1"/>
    <tag k="name" v="Station Road"/>
    <tag k="source" v="gps_survey"/>
  </way>
  <way id="4717708" version="7" timestamp="2019-12-31T09:32:32Z" changeset="79049087" uid="10455640" user="madnikhi">
    <nd ref="30040478"/>
    <nd ref="1676079452"/>
    <nd ref="30040479"/>
    <nd ref="6759588708"/>
    <nd ref="4099788806"/>
    <nd ref="31567981"/>
    <nd ref="31567982"/>
    <nd ref="31567983"/>
    <nd ref="1676079380"/>
    <nd ref="31596545"/>
    <nd ref="31596548"/>
    <nd ref="31596549"/>
    <nd ref="7097819536"/>
    <nd ref="31596551"/>
    <nd ref="1676079338"/>
    <nd ref="31596560"/>
    <tag k="highway" v="tertiary"/>
    <tag k="name" v="Church Road"/>
  </way>
  <way id="4717716" version="21" timestamp="2025-02-23T15:29:21Z" changeset="162857241" uid="563773" user="mrpacmanmap">
    <nd ref="2903190957"/>
    <nd ref="30040518"/>
    <nd ref="1676079821"/>
    <nd ref="30040517"/>
    <nd ref="30040516"/>
    <nd ref="2504790349"/>
    <nd ref="4102118530"/>
    <nd ref="30040515"/>
    <nd ref="1676079817"/>
    <nd ref="30040514"/>
    <nd ref="1676079814"/>
    <nd ref="30040513"/>
    <nd ref="4101581279"/>
    <nd ref="4102118216"/>
    <nd ref="30040512"/>
    <nd ref="30040511"/>
    <nd ref="4101531403"/>
    <nd ref="30040510"/>
    <nd ref="2369271860"/>
    <nd ref="1676079755"/>
    <nd ref="4101581214"/>
    <nd ref="4101531402"/>
    <nd ref="30040509"/>
    <nd ref="4101531397"/>
    <nd ref="4101531383"/>
    <nd ref="312721357"/>
    <nd ref="2041536972"/>
    <nd ref="312721345"/>
    <nd ref="12599700973"/>
    <nd ref="1676079655"/>
    <nd ref="2444823617"/>
    <nd ref="30040508"/>
    <nd ref="7944179131"/>
    <nd ref="1676079632"/>
    <nd ref="30040507"/>
    <nd ref="1676079615"/>
    <nd ref="4099789305"/>
    <nd ref="30040506"/>
    <nd ref="30040505"/>
    <nd ref="1676079489"/>
    <nd ref="12613042004"/>
    <nd ref="30040478"/>
    <tag k="highway" v="unclassified"/>
    <tag k="name" v="Aston Cantlow Road"/>
    <tag k="source" v="gps_survey"/>
  </way>
  <way id="4879536" version="4" timestamp="2012-03-15T18:42:50Z" changeset="10991408" uid="9065" user="brianboru">
    <nd ref="30040470"/>
    <nd ref="31554715"/>
    <tag k="bridge" v="yes"/>
    <tag k="highway" v="tertiary"/>
    <tag k="layer" v="1"/>
    <tag k="name" v="Station Road"/>
  </way>
  <way id="4880896" version="7" timestamp="2025-02-23T15:29:21Z" changeset="162857241" uid="563773" user="mrpacmanmap">
    <nd ref="30040508"/>
    <nd ref="31567989"/>
    <nd ref="31567987"/>
    <nd ref="31567985"/>
    <nd ref="31567984"/>
    <nd ref="8410866311"/>
    <nd ref="12599700971"/>
    <nd ref="1676079419"/>
    <nd ref="1676079426"/>
    <nd ref="12613042027"/>
    <nd ref="30040479"/>
    <tag k="highway" v="residential"/>
    <tag k="name" v="Swanfold"/>
    <tag k="source" v="gps_survey"/>
  </way>
  <way id="8473456" version="4" timestamp="2021-07-21T10:40:17Z" changeset="108360212" uid="12143003" user="Bphillips96">
    <nd ref="31567993"/>
    <nd ref="31567991"/>
    <nd ref="8938554977"/>
    <nd ref="31567987"/>
    <tag k="highway" v="residential"/>
    <tag k="name" v="Swan's Close"/>
    <tag k="source" v="gps_survey"/>
  </way>
  <way id="8473504" version="5" timestamp="2016-04-06T07:38:17Z" changeset="38342554" uid="9065" user="brianboru">
    <nd ref="31596560"/>
    <nd ref="1676079333"/>
    <nd ref="31596584"/>
    <nd ref="632677144"/>
    <nd ref="632677146"/>
    <nd ref="632677142"/>
    <nd ref="1676079319"/>
    <nd ref="4101530648"/>
    <nd ref="4101530636"/>
    <nd ref="1676079318"/>
    <nd ref="4101530632"/>
    <nd ref="4101530634"/>
    <nd ref="4101530633"/>
    <nd ref="1676079317"/>
    <nd ref="4101530618"/>
    <nd ref="1676079314"/>
    <tag k="highway" v="residential"/>
    <tag k="name" v="Manor Drive"/>
    <tag k="source" v="survey"/>
    <tag k="source:name" v="OS_OpenData_Locator"/>
  </way>
  <way id="15131366" version="12" timestamp="2021-06-07T13:30:16Z" changeset="105975581" uid="3199858" user="Mateusz Konieczny - bot account">
    <nd ref="31596578"/>
    <nd ref="2444994280"/>
    <nd ref="1673238328"/>
    <nd ref="1673238301"/>
    <nd ref="31597201"/>
    <nd ref="31597202"/>
    <nd ref="1526235056"/>
    <nd ref="31597204"/>
    <nd ref="1526235045"/>
    <nd ref="31597205"/>
    <nd ref="2359510751"/>
    <nd ref="31597206"/>
    <nd ref="2359510750"/>
    <nd ref="2359510749"/>
    <nd ref="1205502602"/>
    <nd ref="31597208"/>
    <tag k="highway" v="tertiary"/>
    <tag k="name" v="The Ridgway"/>
  </way>
  <way id="23342638" version="15" timestamp="2020-02-27T03:08:27Z" changeset="81527473" uid="10455633" user="tnayini">
    <nd ref="31554715"/>
    <nd ref="2207331501"/>
    <nd ref="252755595"/>
    <nd ref="6511632252"/>
    <nd ref="312721341"/>
    <nd ref="4099789514"/>
    <nd ref="2359493967"/>
    <nd ref="2359493973"/>
    <nd ref="312721340"/>
    <nd ref="2359510918"/>
    <nd ref="2359493977"/>
    <nd ref="312721342"/>
    <nd ref="2359493975"/>
    <nd ref="252755596"/>
    <nd ref="2359493976"/>
    <nd ref="1676056468"/>
    <nd ref="1676056470"/>
    <nd ref="4099789525"/>
    <nd ref="252755597"/>
    <nd ref="4099789528"/>
    <nd ref="1676056473"/>
    <nd ref="252755598"/>
    <nd ref="6483406176"/>
    <nd ref="2359495541"/>
    <nd ref="7246549071"/>
    <nd ref="2359495537"/>
    <nd ref="2359495536"/>
    <nd ref="252755599"/>
    <nd ref="2359495538"/>
    <nd ref="252755600"/>
    <nd ref="252755601"/>
    <tag k="highway" v="tertiary"/>
    <tag k="highway_authority_ref" v="C41"/>
    <tag k="name" v="Featherbed Lane"/>
    <tag k="source" v="gps_survey"/>
  </way>
  <way id="28026259" version="2" timestamp="2024-12-28T22:12:57Z" changeset="160731891" uid="7438650" user="Matt Aardvar">
    <nd ref="31596562"/>
    <nd ref="307735513"/>
    <tag k="access" v="private"/>
    <tag k="highway" v="residential"/>
    <tag k="name" v="Park Close"/>
    <tag k="source" v="survey"/>
  </way>
  <way id="28465006" version="4" timestamp="2016-04-06T07:38:18Z" changeset="38342554" uid="9065" user="brianboru">
    <nd ref="312721349"/>
    <nd ref="4101530941"/>
    <nd ref="4101530950"/>
    <nd ref="4101530962"/>
    <nd ref="4101530965"/>
    <nd ref="4101530971"/>
    <nd ref="4101530984"/>
    <nd ref="312721350"/>
    <nd ref="4101531099"/>
    <nd ref="4101531107"/>
    <nd ref="4101531114"/>
    <nd ref="312721351"/>
    <nd ref="4101531117"/>
    <nd ref="312721346"/>
    <nd ref="4101531122"/>
    <nd ref="4101531133"/>
    <nd ref="4101531181"/>
    <nd ref="312721345"/>
    <tag k="highway" v="residential"/>
    <tag k="name" v="Stone Pits Meadow"/>
    <tag k="source" v="gps_survey"/>
  </way>
  <way id="28465007" version="5" timestamp="2020-09-26T07:10:43Z" changeset="91541277" uid="10455632" user="depsm">
    <nd ref="4101580285"/>
    <nd ref="312721354"/>
    <nd ref="4101580233"/>
    <nd ref="4101580224"/>
    <nd ref="312721355"/>
    <nd ref="4101530960"/>
    <nd ref="7944179135"/>
    <nd ref="312721356"/>
    <nd ref="4101530966"/>
    <nd ref="4101530977"/>
    <nd ref="4101580232"/>
    <nd ref="312721357"/>
    <tag k="highway" v="residential"/>
    <tag k="name" v="Glebe Estate"/>
    <tag k="source" v="gps_survey"/>
  </way>
  <way id="28485160" version="2" timestamp="2016-04-06T07:38:17Z" changeset="38342554" uid="9065" user="brianboru">
    <nd ref="312721346"/>
    <nd ref="4101531110"/>
    <nd ref="4101531108"/>
    <nd ref="4101531102"/>
    <nd ref="4101531096"/>
    <nd ref="4101531095"/>
    <nd ref="4101530987"/>
    <nd ref="4101530985"/>
    <nd ref="4101530983"/>
    <nd ref="312721347"/>
    <nd ref="4101530967"/>
    <nd ref="4101530961"/>
    <nd ref="4101530952"/>
    <nd ref="4101530938"/>
    <nd ref="4101530934"/>
    <nd ref="312721348"/>
    <tag k="highway" v="residential"/>
    <tag k="name" v="Arden Close"/>
    <tag k="noexit" v="yes"/>
    <tag k="source" v="gps_survey"/>
  </way>
  <way id="49796250" version="5" timestamp="2021-08-24T13:38:37Z" changeset="110175414" uid="10127749" user="nbhiss">
    <nd ref="632677452"/>
    <nd ref="9032332006"/>
    <nd ref="30040468"/>
    <tag k="highway" v="tertiary"/>
    <tag k="layer" v="1"/>
    <tag k="name" v="Station Road"/>
    <tag k="source" v="gps_survey"/>
  </way>
  <way id="49796251" version="5" timestamp="2019-04-12T22:41:11Z" changeset="69164215" uid="322039" user="MacLondon">
    <nd ref="312721343"/>
    <nd ref="632677452"/>
    <tag k="bridge" v="yes"/>
    <tag k="bridge_ref" v="59"/>
    <tag k="highway" v="tertiary"/>
    <tag k="layer" v="1"/>
    <tag k="name" v="Station Road"/>
    <tag k="source" v="gps_survey"/>
  </way>
  <way id="64390930" version="3" timestamp="2025-02-23T15:29:21Z" changeset="162857241" uid="563773" user="mrpacmanmap">
    <nd ref="792336883"/>
    <nd ref="2444846856"/>
    <nd ref="792336829"/>
    <nd ref="2444846861"/>
    <nd ref="792336875"/>
    <nd ref="30040513"/>
    <tag k="access" v="private"/>
    <tag k="highway" v="residential"/>
    <tag k="name" v="Marsh Road"/>
    <tag k="source" v="visual survey;OS_OpenStreetMap_StreetView"/>
  </way>
  <way id="64390932" version="1" timestamp="2010-06-27T09:00:04Z" changeset="5087554" uid="9065" user="brianboru">
    <nd ref="792336894"/>
    <nd ref="792336875"/>
    <tag k="highway" v="residential"/>
    <tag k="source" v="OS_OpenData_StreetView"/>
  </way>
  <way id="64390936" version="2" timestamp="2020-12-18T06:56:02Z" changeset="96047493" uid="11734022" user="pppalepu">
    <nd ref="792336847"/>
    <nd ref="792336894"/>
    <nd ref="8239519213"/>
    <nd ref="792336863"/>
    <tag k="highway" v="residential"/>
    <tag k="name" v="Aston Hill"/>
    <tag k="source" v="OS_OpenData_StreetView"/>
  </way>
  <way id="144161021" version="27" timestamp="2025-02-23T22:01:34Z" changeset="162870292" uid="563773" user="mrpacmanmap">
    <nd ref="280461061"/>
    <nd ref="322623"/>
    <nd ref="8494869546"/>
    <nd ref="322624"/>
    <nd ref="6902650619"/>
    <nd ref="739371047"/>
    <nd ref="322625"/>
    <nd ref="1702589332"/>
    <nd ref="322626"/>
    <nd ref="2504779238"/>
    <nd ref="322627"/>
    <nd ref="2504779778"/>
    <nd ref="322628"/>
    <nd ref="322629"/>
    <nd ref="322632"/>
    <nd ref="8573748560"/>
    <nd ref="4102393611"/>
    <nd ref="6776470981"/>
    <nd ref="1702589330"/>
    <nd ref="6310991548"/>
    <nd ref="322630"/>
    <nd ref="9221737834"/>
    <nd ref="1702589328"/>
    <nd ref="11979016080"/>
    <nd ref="1702592804"/>
    <nd ref="6310991535"/>
    <nd ref="322640"/>
    <nd ref="6310991525"/>
    <nd ref="2444846888"/>
    <nd ref="322641"/>
    <nd ref="1702589327"/>
    <nd ref="6885414108"/>
    <nd ref="322643"/>
    <nd ref="322645"/>
    <nd ref="322646"/>
    <nd ref="1498820983"/>
    <nd ref="322647"/>
    <nd ref="11978872130"/>
    <nd ref="252755601"/>
    <nd ref="322648"/>
    <nd ref="322649"/>
    <nd ref="1498820986"/>
    <nd ref="322650"/>
    <nd ref="246631349"/>
    <nd ref="322651"/>
    <nd ref="1634490352"/>
    <nd ref="322652"/>
    <nd ref="322653"/>
    <nd ref="1498820990"/>
    <nd ref="322654"/>
    <nd ref="1498820985"/>
    <nd ref="322657"/>
    <nd ref="1498820984"/>
    <nd ref="322658"/>
    <nd ref="1498820987"/>
    <nd ref="322659"/>
    <nd ref="1498820981"/>
    <nd ref="322660"/>
    <nd ref="6905372510"/>
    <nd ref="1498820991"/>
    <nd ref="322661"/>
    <nd ref="6539471653"/>
    <nd ref="6539471641"/>
    <nd ref="1634490331"/>
    <nd ref="322662"/>
    <nd ref="322976"/>
    <nd ref="9066720815"/>
    <nd ref="322977"/>
    <nd ref="59998239"/>
    <nd ref="322978"/>
    <nd ref="1498820988"/>
    <nd ref="246631393"/>
    <nd ref="322979"/>
    <tag k="cycleway:both" v="no"/>
    <tag k="highway" v="primary"/>
    <tag k="maxspeed" v="50 mph"/>
    <tag k="name" v="Birmingham Road"/>
    <tag k="old_ref" v="A34"/>
    <tag k="ref" v="A3400"/>
    <tag k="source" v="survey"/>
    <tag k="surface" v="asphalt"/>
  </way>
  <way id="144200686" version="6" timestamp="2021-06-07T13:30:58Z" changeset="105975581" uid="3199858" user="Mateusz Konieczny - bot account">
    <nd ref="2445014763"/>
    <nd ref="2445054344"/>
    <nd ref="2444994264"/>
    <nd ref="2445054345"/>
    <nd ref="631640793"/>
    <nd ref="2444994265"/>
    <nd ref="2444994266"/>
    <nd ref="2444994269"/>
    <nd ref="8711746028"/>
    <nd ref="8711746029"/>
    <nd ref="8711746030"/>
    <nd ref="2444994272"/>
    <nd ref="2444994277"/>
    <nd ref="2444994278"/>
    <nd ref="6527710001"/>
    <nd ref="31597199"/>
    <nd ref="307737468"/>
    <nd ref="2444994281"/>
    <nd ref="2444994282"/>
    <nd ref="31596578"/>
    <tag k="highway" v="unclassified"/>
    <tag k="name" v="Billesley Road"/>
    <tag k="source" v="NPE"/>
  </way>
  <way id="144200689" version="6" timestamp="2013-09-03T20:29:42Z" changeset="17661151" uid="9065" user="brianboru">
    <nd ref="31596560"/>
    <nd ref="31596563"/>
    <nd ref="1676079294"/>
    <nd ref="31596562"/>
    <nd ref="1676079205"/>
    <nd ref="2359510854"/>
    <nd ref="2359510853"/>
    <nd ref="31596565"/>
    <nd ref="31596567"/>
    <nd ref="1676079166"/>
    <nd ref="31596570"/>
    <nd ref="1676079162"/>
    <nd ref="1673238331"/>
    <nd ref="31596572"/>
    <nd ref="1673238330"/>
    <nd ref="2444994286"/>
    <nd ref="31596574"/>
    <nd ref="2444994284"/>
    <nd ref="1673238329"/>
    <nd ref="31596578"/>
    <tag k="highway" v="tertiary"/>
    <tag k="name" v="Billesley Road"/>
  </way>
  <way id="146590741" version="11" timestamp="2024-06-13T19:25:59Z" changeset="152647381" uid="411244" user="RobJN">
    <nd ref="246631349"/>
    <nd ref="1598632771"/>
    <nd ref="2270966828"/>
    <nd ref="1598632773"/>
    <nd ref="1598632780"/>
    <nd ref="1598632812"/>
    <nd ref="2270966829"/>
    <nd ref="1598632818"/>
    <nd ref="1634490115"/>
    <nd ref="1634490151"/>
    <nd ref="1598632848"/>
    <nd ref="1598632856"/>
    <nd ref="11978872127"/>
    <nd ref="1598632860"/>
    <nd ref="1598632894"/>
    <nd ref="1598632899"/>
    <nd ref="1598632939"/>
    <nd ref="2270966832"/>
    <nd ref="1598632945"/>
    <nd ref="1598632949"/>
    <nd ref="11979016064"/>
    <nd ref="1598632953"/>
    <nd ref="7941295171"/>
    <nd ref="1598632960"/>
    <nd ref="6501703710"/>
    <nd ref="1598632963"/>
    <nd ref="1598632983"/>
    <nd ref="1598632986"/>
    <nd ref="1598632988"/>
    <nd ref="1598633001"/>
    <nd ref="8894208477"/>
    <nd ref="1598633003"/>
    <nd ref="1598633004"/>
    <nd ref="1598632999"/>
    <nd ref="1598632995"/>
    <nd ref="2265981307"/>
    <nd ref="1598632993"/>
    <nd ref="1598632997"/>
    <nd ref="1598633006"/>
    <nd ref="1598633042"/>
    <nd ref="1598633045"/>
    <nd ref="1598633047"/>
    <nd ref="1598633043"/>
    <nd ref="1598633040"/>
    <nd ref="1598633035"/>
    <nd ref="6571852570"/>
    <nd ref="1598633027"/>
    <nd ref="1598633024"/>
    <nd ref="8410844405"/>
    <nd ref="1598633030"/>
    <nd ref="252755985"/>
    <tag k="highway" v="unclassified"/>
    <tag k="name" v="Gospel Oak Lane"/>
  </way>
  <way id="155187845" version="1" timestamp="2012-03-15T18:42:49Z" changeset="10991408" uid="9065" user="brianboru">
    <nd ref="1676056460"/>
    <nd ref="1676056447"/>
    <nd ref="1676056446"/>
    <nd ref="1676056448"/>
    <tag k="highway" v="residential"/>
    <tag k="name" v="The Close"/>
    <tag k="source" v="OS_OpenData_StreetView"/>
    <tag k="source:name" v="OS_Locator"/>
  </way>
  <way id="155187846" version="2" timestamp="2016-04-05T12:48:13Z" changeset="38316467" uid="9065" user="brianboru">
    <nd ref="1676056466"/>
    <nd ref="4099789405"/>
    <nd ref="4099789387"/>
    <nd ref="1676056445"/>
    <nd ref="1676056443"/>
    <nd ref="1676056442"/>
    <tag k="highway" v="residential"/>
    <tag k="name" v="The Wharf"/>
  </way>
  <way id="155190740" version="1" timestamp="2012-03-15T19:12:01Z" changeset="10991700" uid="9065" user="brianboru">
    <nd ref="1676079655"/>
    <nd ref="1676079559"/>
    <tag k="highway" v="residential"/>
    <tag k="name" v="Foxes Lane"/>
    <tag k="source" v="OS_OpenData_StreetView"/>
    <tag k="source:name" v="OS_Locator"/>
  </way>
  <way id="155190743" version="1" timestamp="2012-03-15T19:12:02Z" changeset="10991700" uid="9065" user="brianboru">
    <nd ref="1676079472"/>
    <nd ref="1676079478"/>
    <tag k="highway" v="residential"/>
    <tag k="name" v="Masons Close"/>
    <tag k="source" v="OS_OpenData_StreetView"/>
    <tag k="source:name" v="OS_Locator"/>
  </way>
  <way id="155190744" version="2" timestamp="2016-04-05T12:48:13Z" changeset="38316467" uid="9065" user="brianboru">
    <nd ref="1676079632"/>
    <nd ref="1676079566"/>
    <nd ref="1676079496"/>
    <nd ref="1676079472"/>
    <nd ref="1676079465"/>
    <nd ref="1676079443"/>
    <tag k="highway" v="residential"/>
    <tag k="name" v="Masons Close"/>
    <tag k="source" v="OS_OpenData_StreetView"/>
    <tag k="source:name" v="OS_Locator"/>
  </way>
  <way id="155190745" version="1" timestamp="2012-03-15T19:12:02Z" changeset="10991700" uid="9065" user="brianboru">
    <nd ref="1676079589"/>
    <nd ref="1676079547"/>
    <nd ref="1676079513"/>
    <nd ref="1676079491"/>
    <nd ref="1676079476"/>
    <nd ref="1676079444"/>
    <nd ref="1676079437"/>
    <nd ref="1676079436"/>
    <nd ref="1676079441"/>
    <nd ref="1676079440"/>
    <tag k="highway" v="residential"/>
    <tag k="name" v="The Orchard"/>
    <tag k="source" v="OS_OpenData_StreetView"/>
    <tag k="source:name" v="OS_Locator"/>
  </way>
  <way id="155190746" version="2" timestamp="2016-04-06T08:04:18Z" changeset="38343254" uid="9065" user="brianboru">
    <nd ref="1676079781"/>
    <nd ref="4101581272"/>
    <nd ref="4101581271"/>
    <nd ref="4101581273"/>
    <nd ref="1676079783"/>
    <nd ref="1676079789"/>
    <nd ref="4101581276"/>
    <nd ref="4101581275"/>
    <nd ref="4101581274"/>
    <nd ref="1676079798"/>
    <nd ref="1676079780"/>
    <nd ref="1676079755"/>
    <tag k="highway" v="residential"/>
    <tag k="name" v="Woodcot Park Drive"/>
    <tag k="source" v="OS_OpenData_StreetView"/>
  </way>
  <way id="155190755" version="2" timestamp="2016-04-05T12:48:14Z" changeset="38316467" uid="9065" user="brianboru">
    <nd ref="30040506"/>
    <nd ref="1676079516"/>
    <nd ref="4099789186"/>
    <nd ref="1676079505"/>
    <nd ref="1676079485"/>
    <tag k="highway" v="residential"/>
    <tag k="source" v="OS_OpenData_StreetView"/>
  </way>
  <way id="155190756" version="4" timestamp="2024-12-28T22:12:57Z" changeset="160731891" uid="7438650" user="Matt Aardvar">
    <nd ref="1676079308"/>
    <nd ref="4101530599"/>
    <nd ref="1676079315"/>
    <nd ref="4101530608"/>
    <nd ref="1676079314"/>
    <nd ref="4101530478"/>
    <nd ref="1676079306"/>
    <nd ref="4101530448"/>
    <nd ref="4101530440"/>
    <nd ref="1676079302"/>
    <nd ref="1676079296"/>
    <tag k="access" v="private"/>
    <tag k="highway" v="residential"/>
    <tag k="name" v="Manor Drive"/>
    <tag k="source" v="survey"/>
    <tag k="source:name" v="OS_OpenData_Locator"/>
  </way>
  <way id="316070119" version="3" timestamp="2016-04-06T10:46:02Z" changeset="38347343" uid="9065" user="brianboru">
    <nd ref="30040510"/>
    <nd ref="3221822263"/>
    <nd ref="4102110561"/>
    <nd ref="3221822264"/>
    <tag k="highway" v="residential"/>
    <tag k="name" v="Edkins Park"/>
    <tag k="source:name" v="OS_Locator"/>
  </way>
  <way id="407885036" version="2" timestamp="2020-10-05T21:15:09Z" changeset="92007731" uid="364" user="Edward">
    <nd ref="4099088098"/>
    <nd ref="4099088099"/>
    <nd ref="4099088096"/>
    <nd ref="4099088097"/>
    <nd ref="4099088095"/>
    <nd ref="4099088094"/>
    <nd ref="4099088098"/>
    <tag k="amenity" v="place_of_worship"/>
    <tag k="building" v="church"/>
    <tag k="denomination" v="anglican"/>
    <tag k="name" v="St Andrews Church"/>
    <tag k="religion" v="christian"/>
    <tag k="wikidata" v="Q26638188"/>
  </way>
  <way id="407958357" version="1" timestamp="2016-04-05T12:48:03Z" changeset="38316467" uid="9065" user="brianboru">
    <nd ref="4099789046"/>
    <nd ref="4099789050"/>
    <nd ref="4099789013"/>
    <nd ref="4099789009"/>
    <nd ref="4099788995"/>
    <nd ref="4099788990"/>
    <nd ref="4099789025"/>
    <nd ref="4099789021"/>
    <nd ref="4099789045"/>
    <nd ref="4099789046"/>
    <tag k="amenity" v="pub"/>
    <tag k="building" v="pub"/>
    <tag k="name" v="The Mary Arden"/>
  </way>
  <way id="407958359" version="2" timestamp="2019-12-24T15:14:53Z" changeset="78824453" uid="346039" user="fitzsimons">
    <nd ref="4099789215"/>
    <nd ref="7082552456"/>
    <nd ref="4099789202"/>
    <nd ref="4099789193"/>
    <nd ref="4099789189"/>
    <nd ref="4099789167"/>
    <nd ref="4099789160"/>
    <nd ref="4099789159"/>
    <nd ref="1676079507"/>
    <nd ref="4099789211"/>
    <nd ref="4099789209"/>
    <nd ref="4099789215"/>
    <tag k="amenity" v="post_office"/>
    <tag k="building" v="retail"/>
    <tag k="name" v="The Post Office Store"/>
    <tag k="shop" v="convenience"/>
    <tag k="source" v="Warwicks CC Aerial Imagery 2013"/>
  </way>
  <way id="407958362" version="3" timestamp="2020-10-03T15:49:35Z" changeset="91907058" uid="5589" user="user_5589">
    <nd ref="4099789212"/>
    <nd ref="4099789208"/>
    <nd ref="4099789201"/>
    <nd ref="4099789198"/>
    <nd ref="4099789183"/>
    <nd ref="4099789187"/>
    <nd ref="4099789180"/>
    <nd ref="4099789185"/>
    <nd ref="4099789195"/>
    <nd ref="4099789194"/>
    <nd ref="4099789212"/>
    <tag k="addr:housenumber" v="28"/>
    <tag k="addr:street" v="Swanfold"/>
    <tag k="building" v="residential"/>
    <tag k="source" v="Warwicks CC Aerial Imagery 2013"/>
  </way>
  <way id="407958377" version="3" timestamp="2020-10-03T15:49:35Z" changeset="91907058" uid="5589" user="user_5589">
    <nd ref="4099788989"/>
    <nd ref="4099788992"/>
    <nd ref="4099788962"/>
    <nd ref="4099788961"/>
    <nd ref="4099788944"/>
    <nd ref="4099788945"/>
    <nd ref="4099788917"/>
    <nd ref="4099788916"/>
    <nd ref="4099788935"/>
    <nd ref="4099788936"/>
    <nd ref="4099788960"/>
    <nd ref="4099788959"/>
    <nd ref="4099788989"/>
    <tag k="addr:housenumber" v="25"/>
    <tag k="addr:street" v="Swanfold"/>
    <tag k="building" v="residential"/>
    <tag k="source" v="Warwicks CC Aerial Imagery 2013"/>
  </way>
  <way id="407958380" version="3" timestamp="2020-10-03T15:49:35Z" changeset="91907058" uid="5589" user="user_5589">
    <nd ref="4099789136"/>
    <nd ref="4099789137"/>
    <nd ref="4099789125"/>
    <nd ref="4099789123"/>
    <nd ref="4099789114"/>
    <nd ref="4099789115"/>
    <nd ref="4099789095"/>
    <nd ref="4099789094"/>
    <nd ref="4099789077"/>
    <nd ref="4099789075"/>
    <nd ref="4099789086"/>
    <nd ref="4099789085"/>
    <nd ref="4099789110"/>
    <nd ref="4099789111"/>
    <nd ref="4099789136"/>
    <tag k="addr:housenumber" v="24"/>
    <tag k="addr:street" v="Swanfold"/>
    <tag k="building" v="residential"/>
    <tag k="source" v="Warwicks CC Aerial Imagery 2013"/>
  </way>
  <way id="407958381" version="3" timestamp="2020-10-03T15:49:35Z" changeset="91907058" uid="5589" user="user_5589">
    <nd ref="4099789037"/>
    <nd ref="4099789038"/>
    <nd ref="4099789036"/>
    <nd ref="4099789035"/>
    <nd ref="4099789018"/>
    <nd ref="4099789016"/>
    <nd ref="4099789005"/>
    <nd ref="4099789006"/>
    <nd ref="4099789051"/>
    <nd ref="4099789052"/>
    <nd ref="4099789071"/>
    <nd ref="4099789070"/>
    <nd ref="4099789061"/>
    <nd ref="4099789060"/>
    <nd ref="4099789056"/>
    <nd ref="4099789043"/>
    <nd ref="4099789037"/>
    <tag k="addr:housenumber" v="27"/>
    <tag k="addr:street" v="Swanfold"/>
    <tag k="building" v="residential"/>
    <tag k="source" v="Warwicks CC Aerial Imagery 2013"/>
  </way>
  <way id="407958390" version="3" timestamp="2020-10-03T15:49:35Z" changeset="91907058" uid="5589" user="user_5589">
    <nd ref="4099788908"/>
    <nd ref="4099788909"/>
    <nd ref="4099788851"/>
    <nd ref="4099788847"/>
    <nd ref="4099788908"/>
    <tag k="addr:housenumber" v="23"/>
    <tag k="addr:street" v="Swanfold"/>
    <tag k="building" v="residential"/>
    <tag k="source" v="Warwicks CC Aerial Imagery 2013"/>
  </way>
  <way id="407958404" version="3" timestamp="2020-10-03T15:49:35Z" changeset="91907058" uid="5589" user="user_5589">
    <nd ref="4099789240"/>
    <nd ref="4099789237"/>
    <nd ref="4099789213"/>
    <nd ref="4099789217"/>
    <nd ref="4099789240"/>
    <tag k="addr:housenumber" v="30"/>
    <tag k="addr:street" v="Swanfold"/>
    <tag k="building" v="residential"/>
    <tag k="source" v="Warwicks CC Aerial Imagery 2013"/>
  </way>
  <way id="407958451" version="3" timestamp="2020-10-03T15:49:35Z" changeset="91907058" uid="5589" user="user_5589">
    <nd ref="4099789173"/>
    <nd ref="4099789175"/>
    <nd ref="4099789156"/>
    <nd ref="4099789158"/>
    <nd ref="4099789148"/>
    <nd ref="4099789146"/>
    <nd ref="4099789162"/>
    <nd ref="4099789161"/>
    <nd ref="4099789173"/>
    <tag k="addr:housenumber" v="26"/>
    <tag k="addr:street" v="Swanfold"/>
    <tag k="building" v="residential"/>
    <tag k="source" v="Warwicks CC Aerial Imagery 2013"/>
  </way>
  <way id="407958454" version="3" timestamp="2020-10-03T15:49:35Z" changeset="91907058" uid="5589" user="user_5589">
    <nd ref="4099789065"/>
    <nd ref="4099789068"/>
    <nd ref="4099789033"/>
    <nd ref="4099789032"/>
    <nd ref="4099789026"/>
    <nd ref="4099789023"/>
    <nd ref="4099789039"/>
    <nd ref="4099789041"/>
    <nd ref="4099789065"/>
    <tag k="addr:housenumber" v="22"/>
    <tag k="addr:street" v="Swanfold"/>
    <tag k="building" v="residential"/>
    <tag k="source" v="Warwicks CC Aerial Imagery 2013"/>
  </way>
  <way id="407958459" version="3" timestamp="2020-10-03T15:49:35Z" changeset="91907058" uid="5589" user="user_5589">
    <nd ref="4099788996"/>
    <nd ref="4099788998"/>
    <nd ref="4099788976"/>
    <nd ref="4099788975"/>
    <nd ref="4099788923"/>
    <nd ref="4099788918"/>
    <nd ref="4099788953"/>
    <nd ref="4099788954"/>
    <nd ref="4099788996"/>
    <tag k="addr:housenumber" v="20"/>
    <tag k="addr:street" v="Swanfold"/>
    <tag k="building" v="residential"/>
    <tag k="source" v="Warwicks CC Aerial Imagery 2013"/>
  </way>
  <way id="408159496" version="1" timestamp="2016-04-06T07:38:10Z" changeset="38342554" uid="9065" user="brianboru">
    <nd ref="4101530906"/>
    <nd ref="312721348"/>
    <nd ref="4101530904"/>
    <tag k="highway" v="residential"/>
    <tag k="name" v="Arden Close"/>
    <tag k="source" v="Warwicks CC Aerial Imagery 2013"/>
  </way>
  <way id="408159499" version="1" timestamp="2016-04-06T07:38:10Z" changeset="38342554" uid="9065" user="brianboru">
    <nd ref="4101530914"/>
    <nd ref="312721349"/>
    <nd ref="4101530911"/>
    <tag k="highway" v="residential"/>
    <tag k="name" v="Stone Pits Meadow"/>
    <tag k="source" v="Warwicks CC Aerial Imagery 2013"/>
  </way>
  <way id="408159603" version="3" timestamp="2020-10-03T15:50:54Z" changeset="91907106" uid="5589" user="user_5589">
    <nd ref="4101531291"/>
    <nd ref="4101531188"/>
    <nd ref="4101531165"/>
    <nd ref="4101531170"/>
    <nd ref="4101531161"/>
    <nd ref="4101531166"/>
    <nd ref="4101531291"/>
    <tag k="addr:housenumber" v="71"/>
    <tag k="addr:street" v="Aston Cantlow Road"/>
    <tag k="building" v="residential"/>
    <tag k="source" v="Warwicks CC Aerial Imagery 2013"/>
  </way>
  <way id="408159609" version="2" timestamp="2025-02-19T02:25:44Z" changeset="162683136" uid="493595" user="Yorvik Prestigitator">
    <nd ref="4101531359"/>
    <nd ref="4101531344"/>
    <nd ref="4101531339"/>
    <nd ref="4101531333"/>
    <nd ref="4101531323"/>
    <nd ref="4101531331"/>
    <nd ref="4101531359"/>
    <tag k="amenity" v="social_centre"/>
    <tag k="building" v="yes"/>
    <tag k="name" v="Wilmcote Sports and Social Club"/>
    <tag k="source" v="Warwicks CC Aerial Imagery 2013"/>
  </way>
  <way id="408160764" version="3" timestamp="2020-10-03T15:50:54Z" changeset="91907106" uid="5589" user="user_5589">
    <nd ref="4101538764"/>
    <nd ref="4101538763"/>
    <nd ref="4101538762"/>
    <nd ref="4101538761"/>
    <nd ref="4101538758"/>
    <nd ref="4101538760"/>
    <nd ref="4101538764"/>
    <tag k="addr:housenumber" v="1"/>
    <tag k="addr:street" v="Stone Pits Meadow"/>
    <tag k="building" v="residential"/>
    <tag k="source" v="Warwicks CC Aerial Imagery 2013"/>
  </way>
  <way id="408160773" version="3" timestamp="2020-10-03T15:50:54Z" changeset="91907106" uid="5589" user="user_5589">
    <nd ref="4101538755"/>
    <nd ref="4101538756"/>
    <nd ref="4101538757"/>
    <nd ref="4101538759"/>
    <nd ref="4101538753"/>
    <nd ref="4101538750"/>
    <nd ref="4101538751"/>
    <nd ref="4101538752"/>
    <nd ref="4101538754"/>
    <nd ref="4101538755"/>
    <tag k="addr:housenumber" v="3"/>
    <tag k="addr:street" v="Stone Pits Meadow"/>
    <tag k="building" v="residential"/>
    <tag k="source" v="Warwicks CC Aerial Imagery 2013"/>
  </way>
  <way id="408161950" version="3" timestamp="2020-10-03T15:50:54Z" changeset="91907106" uid="5589" user="user_5589">
    <nd ref="4101548597"/>
    <nd ref="4101547785"/>
    <nd ref="4101547784"/>
    <nd ref="4101547759"/>
    <nd ref="4101547761"/>
    <nd ref="4101547758"/>
    <nd ref="4101547760"/>
    <nd ref="4101547788"/>
    <nd ref="4101547786"/>
    <nd ref="4101548599"/>
    <nd ref="4101548597"/>
    <tag k="addr:housenumber" v="11"/>
    <tag k="addr:street" v="Stone Pits Meadow"/>
    <tag k="building" v="residential"/>
    <tag k="source" v="Warwicks CC Aerial Imagery 2013"/>
  </way>
  <way id="408161952" version="3" timestamp="2020-10-03T15:50:54Z" changeset="91907106" uid="5589" user="user_5589">
    <nd ref="4101548703"/>
    <nd ref="4101548682"/>
    <nd ref="4101548680"/>
    <nd ref="4101548689"/>
    <nd ref="4101548690"/>
    <nd ref="4101548694"/>
    <nd ref="4101548699"/>
    <nd ref="4101548701"/>
    <nd ref="4101548704"/>
    <nd ref="4101548705"/>
    <nd ref="4101548703"/>
    <tag k="addr:housenumber" v="2"/>
    <tag k="addr:street" v="Stone Pits Meadow"/>
    <tag k="building" v="residential"/>
    <tag k="source" v="Warwicks CC Aerial Imagery 2013"/>
  </way>
  <way id="408161956" version="3" timestamp="2020-10-03T15:50:54Z" changeset="91907106" uid="5589" user="user_5589">
    <nd ref="4101548625"/>
    <nd ref="4101548622"/>
    <nd ref="4101548615"/>
    <nd ref="4101548617"/>
    <nd ref="4101548625"/>
    <tag k="addr:housenumber" v="20"/>
    <tag k="addr:street" v="Stone Pits Meadow"/>
    <tag k="building" v="residential"/>
    <tag k="source" v="Warwicks CC Aerial Imagery 2013"/>
  </way>
  <way id="408161957" version="3" timestamp="2020-10-03T15:50:54Z" changeset="91907106" uid="5589" user="user_5589">
    <nd ref="4101548620"/>
    <nd ref="4101548618"/>
    <nd ref="4101548610"/>
    <nd ref="4101548613"/>
    <nd ref="4101548620"/>
    <tag k="addr:housenumber" v="7"/>
    <tag k="addr:street" v="Stone Pits Meadow"/>
    <tag k="building" v="residential"/>
    <tag k="source" v="Warwicks CC Aerial Imagery 2013"/>
  </way>
  <way id="408161963" version="3" timestamp="2020-10-03T15:50:54Z" changeset="91907106" uid="5589" user="user_5589">
    <nd ref="4101548679"/>
    <nd ref="4101548678"/>
    <nd ref="4101548671"/>
    <nd ref="4101548675"/>
    <nd ref="4101548679"/>
    <tag k="addr:housenumber" v="10"/>
    <tag k="addr:street" v="Stone Pits Meadow"/>
    <tag k="building" v="residential"/>
    <tag k="source" v="Warwicks CC Aerial Imagery 2013"/>
  </way>
  <way id="408161975" version="3" timestamp="2020-10-03T15:50:54Z" changeset="91907106" uid="5589" user="user_5589">
    <nd ref="4101548674"/>
    <nd ref="4101548670"/>
    <nd ref="4101548666"/>
    <nd ref="4101548668"/>
    <nd ref="4101548674"/>
    <tag k="addr:housenumber" v="12"/>
    <tag k="addr:street" v="Stone Pits Meadow"/>
    <tag k="building" v="residential"/>
    <tag k="source" v="Warwicks CC Aerial Imagery 2013"/>
  </way>
  <way id="408161976" version="3" timestamp="2020-10-03T15:50:54Z" changeset="91907106" uid="5589" user="user_5589">
    <nd ref="4101548710"/>
    <nd ref="4101548706"/>
    <nd ref="4101548686"/>
    <nd ref="4101548691"/>
    <nd ref="4101548693"/>
    <nd ref="4101548696"/>
    <nd ref="4101548710"/>
    <tag k="addr:housenumber" v="6"/>
    <tag k="addr:street" v="Stone Pits Meadow"/>
    <tag k="building" v="residential"/>
    <tag k="source" v="Warwicks CC Aerial Imagery 2013"/>
  </way>
  <way id="408161980" version="3" timestamp="2020-10-03T15:50:54Z" changeset="91907106" uid="5589" user="user_5589">
    <nd ref="4101548719"/>
    <nd ref="4101548718"/>
    <nd ref="4101548716"/>
    <nd ref="4101548714"/>
    <nd ref="4101548695"/>
    <nd ref="4101548702"/>
    <nd ref="4101548719"/>
    <tag k="addr:housenumber" v="8"/>
    <tag k="addr:street" v="Stone Pits Meadow"/>
    <tag k="building" v="residential"/>
    <tag k="source" v="Warwicks CC Aerial Imagery 2013"/>
  </way>
  <way id="408161981" version="3" timestamp="2020-10-03T15:50:54Z" changeset="91907106" uid="5589" user="user_5589">
    <nd ref="4101548637"/>
    <nd ref="4101548633"/>
    <nd ref="4101548619"/>
    <nd ref="4101548621"/>
    <nd ref="4101548630"/>
    <nd ref="4101548632"/>
    <nd ref="4101548637"/>
    <tag k="addr:housenumber" v="5"/>
    <tag k="addr:street" v="Stone Pits Meadow"/>
    <tag k="building" v="residential"/>
    <tag k="source" v="Warwicks CC Aerial Imagery 2013"/>
  </way>
  <way id="408161982" version="3" timestamp="2020-10-03T15:50:54Z" changeset="91907106" uid="5589" user="user_5589">
    <nd ref="4101548639"/>
    <nd ref="4101548634"/>
    <nd ref="4101548627"/>
    <nd ref="4101548631"/>
    <nd ref="4101548623"/>
    <nd ref="4101548626"/>
    <nd ref="4101548639"/>
    <tag k="addr:housenumber" v="18"/>
    <tag k="addr:street" v="Stone Pits Meadow"/>
    <tag k="building" v="residential"/>
    <tag k="source" v="Warwicks CC Aerial Imagery 2013"/>
  </way>
  <way id="408161983" version="3" timestamp="2020-10-03T15:50:54Z" changeset="91907106" uid="5589" user="user_5589">
    <nd ref="4101548711"/>
    <nd ref="4101548707"/>
    <nd ref="4101548683"/>
    <nd ref="4101548687"/>
    <nd ref="4101548684"/>
    <nd ref="4101548688"/>
    <nd ref="4101548711"/>
    <tag k="addr:housenumber" v="4"/>
    <tag k="addr:street" v="Stone Pits Meadow"/>
    <tag k="building" v="residential"/>
    <tag k="source" v="Warwicks CC Aerial Imagery 2013"/>
  </way>
  <way id="408161984" version="3" timestamp="2020-10-03T15:50:54Z" changeset="91907106" uid="5589" user="user_5589">
    <nd ref="4101548667"/>
    <nd ref="4101548664"/>
    <nd ref="4101548659"/>
    <nd ref="4101548656"/>
    <nd ref="4101548651"/>
    <nd ref="4101548658"/>
    <nd ref="4101548667"/>
    <tag k="addr:housenumber" v="14"/>
    <tag k="addr:street" v="Stone Pits Meadow"/>
    <tag k="building" v="residential"/>
    <tag k="source" v="Warwicks CC Aerial Imagery 2013"/>
  </way>
  <way id="408161985" version="3" timestamp="2020-10-03T15:50:54Z" changeset="91907106" uid="5589" user="user_5589">
    <nd ref="4101548590"/>
    <nd ref="4101547757"/>
    <nd ref="4101547755"/>
    <nd ref="4101547776"/>
    <nd ref="4101547779"/>
    <nd ref="4101547787"/>
    <nd ref="4101548591"/>
    <nd ref="4101548592"/>
    <nd ref="4101548590"/>
    <tag k="addr:housenumber" v="15"/>
    <tag k="addr:street" v="Stone Pits Meadow"/>
    <tag k="building" v="residential"/>
    <tag k="source" v="Warwicks CC Aerial Imagery 2013"/>
  </way>
  <way id="408161986" version="3" timestamp="2020-10-03T15:50:54Z" changeset="91907106" uid="5589" user="user_5589">
    <nd ref="4101548654"/>
    <nd ref="4101548649"/>
    <nd ref="4101548644"/>
    <nd ref="4101548642"/>
    <nd ref="4101548636"/>
    <nd ref="4101548645"/>
    <nd ref="4101548648"/>
    <nd ref="4101548650"/>
    <nd ref="4101548654"/>
    <tag k="addr:housenumber" v="16"/>
    <tag k="addr:street" v="Stone Pits Meadow"/>
    <tag k="building" v="residential"/>
    <tag k="source" v="Warwicks CC Aerial Imagery 2013"/>
  </way>
  <way id="408161987" version="3" timestamp="2020-10-03T15:50:54Z" changeset="91907106" uid="5589" user="user_5589">
    <nd ref="4101548603"/>
    <nd ref="4101548602"/>
    <nd ref="4101547763"/>
    <nd ref="4101547765"/>
    <nd ref="4101547769"/>
    <nd ref="4101547773"/>
    <nd ref="4101548595"/>
    <nd ref="4101548594"/>
    <nd ref="4101548603"/>
    <tag k="addr:housenumber" v="9"/>
    <tag k="addr:street" v="Stone Pits Meadow"/>
    <tag k="building" v="residential"/>
    <tag k="source" v="Warwicks CC Aerial Imagery 2013"/>
  </way>
  <way id="408167005" version="1" timestamp="2016-04-06T08:04:13Z" changeset="38343254" uid="9065" user="brianboru">
    <nd ref="312721352"/>
    <nd ref="312721354"/>
    <tag k="highway" v="residential"/>
    <tag k="name" v="Glebe Estate"/>
    <tag k="source" v="gps_survey"/>
  </way>
  <way id="408167006" version="3" timestamp="2025-02-19T02:25:44Z" changeset="162683136" uid="493595" user="Yorvik Prestigitator">
    <nd ref="4101581023"/>
    <nd ref="4101581020"/>
    <nd ref="4101580996"/>
    <nd ref="9951328922"/>
    <nd ref="9951328920"/>
    <nd ref="9951328918"/>
    <nd ref="9951328919"/>
    <nd ref="9951328921"/>
    <nd ref="4101581004"/>
    <nd ref="4101581014"/>
    <nd ref="4101581011"/>
    <nd ref="4101581023"/>
    <tag k="amenity" v="community_centre"/>
    <tag k="building" v="public"/>
    <tag k="community_centre" v="village_hall"/>
    <tag k="description" v="Phone for bookings on 07527 142818"/>
    <tag k="name" v="Wilmcote Village Hall and Youth Centre"/>
    <tag k="source" v="Warwicks CC Aerial Imagery 2013"/>
  </way>
  <way id="408167038" version="3" timestamp="2025-02-19T02:25:44Z" changeset="162683136" uid="493595" user="Yorvik Prestigitator">
    <nd ref="4101581036"/>
    <nd ref="4101581035"/>
    <nd ref="9951269908"/>
    <nd ref="4101581025"/>
    <nd ref="4101581031"/>
    <nd ref="4101581036"/>
    <tag k="amenity" v="scout_hut"/>
    <tag k="building" v="yes"/>
    <tag k="name" v="1st Wilmcote Scout Group"/>
    <tag k="source" v="Warwicks CC Aerial Imagery 2013"/>
  </way>
  <way id="408280639" version="1" timestamp="2016-04-06T12:31:33Z" changeset="38349892" uid="9065" user="brianboru">
    <nd ref="4102379119"/>
    <nd ref="4102379114"/>
    <nd ref="4102379113"/>
    <nd ref="4102379115"/>
    <nd ref="4102379116"/>
    <nd ref="4102379118"/>
    <nd ref="4102379120"/>
    <nd ref="4102379117"/>
    <nd ref="4102379119"/>
    <tag k="addr:city" v="Stratford upon Avon"/>
    <tag k="addr:place" v="Pathlow"/>
    <tag k="addr:postcode" v="CV37 0ES"/>
    <tag k="addr:street" v="Birmingham Road"/>
    <tag k="building" v="residential"/>
    <tag k="name" v="Holly Tree Cottage B&amp;B"/>
    <tag k="source" v="Warwicks CC Aerial Imagery 2013"/>
    <tag k="tourism" v="guest_house"/>
  </way>
  <way id="673897579" version="2" timestamp="2024-12-28T18:19:17Z" changeset="160724997" uid="7438650" user="Matt Aardvar">
    <nd ref="6310991535"/>
    <nd ref="6310991536"/>
    <nd ref="6310991537"/>
    <nd ref="6310991538"/>
    <nd ref="6310991539"/>
    <nd ref="6310991540"/>
    <nd ref="6310991541"/>
    <nd ref="6310991542"/>
    <nd ref="6310991545"/>
    <nd ref="6310991543"/>
    <nd ref="6310991544"/>
    <tag k="access" v="private"/>
    <tag k="highway" v="residential"/>
  </way>
  <way id="673897580" version="2" timestamp="2024-12-28T18:19:17Z" changeset="160724997" uid="7438650" user="Matt Aardvar">
    <nd ref="6310991545"/>
    <nd ref="6310991546"/>
    <nd ref="6310991547"/>
    <tag k="access" v="private"/>
    <tag k="highway" v="residential"/>
  </way>
  <way id="1362324332" version="1" timestamp="2025-02-23T15:29:21Z" changeset="162857241" uid="563773" user="mrpacmanmap">
    <nd ref="30040520"/>
    <nd ref="792336842"/>
    <nd ref="307763407"/>
    <tag k="highway" v="unclassified"/>
    <tag k="name" v="Aston Cantlow Road"/>
    <tag k="source" v="gps_survey"/>
  </way>
  <way id="1362324333" version="1" timestamp="2025-02-23T15:29:21Z" changeset="162857241" uid="563773" user="mrpacmanmap">
    <nd ref="307763407"/>
    <nd ref="30040519"/>
    <nd ref="2903190957"/>
    <tag k="highway" v="unclassified"/>
    <tag k="name" v="Aston Cantlow Road"/>
    <tag k="source" v="gps_survey"/>
  </way>

</osm>
