<?xml version="1.0" encoding="UTF-8"?>
<osm version="0.6" generator="Overpass API 0.7.62.8 e802775f">
<note>The data included in this document is from www.openstreetmap.org. The data is made available under ODbL.</note>
<meta osm_base="2025-10-23T17:14:15Z" areas="2025-10-23T14:54:58Z"/>

  <node id="20622481" lat="52.2069071" lon="-1.8221705" version="4" timestamp="2021-03-19T16:44:16Z" changeset="101342001" uid="9065" user="brianboru"/>
  <node id="20622487" lat="52.2054008" lon="-1.8117652" version="2" timestamp="2011-04-26T19:55:27Z" changeset="7978981" uid="411244" user="RobJN"/>
  <node id="20622496" lat="52.2032009" lon="-1.7960091" version="3" timestamp="2013-05-14T12:31:35Z" changeset="16124855" uid="84263" user="Robert Whittaker"/>
  <node id="307737383" lat="52.2134660" lon="-1.7871700" version="2" timestamp="2013-09-03T19:00:01Z" changeset="17659511" uid="9065" user="brianboru"/>
  <node id="1545771584" lat="52.1779319" lon="-1.7896702" version="3" timestamp="2021-03-20T16:13:36Z" changeset="101393524" uid="9065" user="brianboru"/>
  <node id="2020086237" lat="52.1811511" lon="-1.7681921" version="1" timestamp="2012-11-18T16:56:00Z" changeset="13920884" uid="4951" user="PeterEastern"/>
  <node id="2020099683" lat="52.1756665" lon="-1.7895492" version="3" timestamp="2021-03-20T16:13:36Z" changeset="101393524" uid="9065" user="brianboru"/>
  <node id="2337408202" lat="52.1883106" lon="-1.7963426" version="3" timestamp="2015-04-02T15:36:43Z" changeset="29931555" uid="2512300" user="samely"/>
  <node id="2940652494" lat="52.1877840" lon="-1.7955637" version="2" timestamp="2015-04-02T15:36:52Z" changeset="29931555" uid="2512300" user="samely"/>
  <node id="12112291679" lat="52.1769514" lon="-1.7759933" version="1" timestamp="2024-08-15T09:41:32Z" changeset="155274701" uid="7819986" user="Howling0"/>
  <way id="23092108" version="13" timestamp="2019-04-05T18:35:54Z" changeset="68933092" uid="9065" user="brianboru">
    <nd ref="1545771584"/>
    <nd ref="2366341681"/>
    <nd ref="2366341682"/>
    <nd ref="349167411"/>
    <nd ref="2366341683"/>
    <nd ref="2366341684"/>
    <nd ref="249269707"/>
    <nd ref="349167410"/>
    <nd ref="249269709"/>
    <nd ref="249269710"/>
    <nd ref="249269711"/>
    <nd ref="2445079922"/>
    <nd ref="2366344017"/>
    <nd ref="2445079923"/>
    <nd ref="6386342991"/>
    <nd ref="631650297"/>
    <tag k="highway" v="tertiary"/>
    <tag k="lanes" v="2"/>
    <tag k="name" v="Binton Hill"/>
    <tag k="source" v="npe;survey"/>
  </way>
  <way id="23109929" version="5" timestamp="2020-12-18T09:04:42Z" changeset="96055629" uid="10170582" user="priymose">
    <nd ref="20622487"/>
    <nd ref="1261254359"/>
    <nd ref="249496111"/>
    <nd ref="1261254426"/>
    <nd ref="249496112"/>
    <nd ref="1261254159"/>
    <nd ref="1684756044"/>
    <nd ref="1261254251"/>
    <nd ref="249496113"/>
    <nd ref="1261254328"/>
    <nd ref="559157153"/>
    <nd ref="8239774738"/>
    <nd ref="249496114"/>
    <nd ref="559157152"/>
    <nd ref="249496115"/>
    <nd ref="559157145"/>
    <nd ref="559157143"/>
    <nd ref="1261254202"/>
    <nd ref="249269719"/>
    <tag k="highway" v="tertiary"/>
    <tag k="source" v="npe"/>
  </way>
  <way id="23110234" version="17" timestamp="2021-03-08T17:27:11Z" changeset="100653316" uid="12396713" user="Tom Draper">
    <nd ref="1545771547"/>
    <nd ref="2286553045"/>
    <nd ref="8497631473"/>
    <nd ref="336746862"/>
    <nd ref="2256141488"/>
    <nd ref="349167412"/>
    <tag k="cycleway:left" v="track"/>
    <tag k="cycleway:left:segregated" v="no"/>
    <tag k="cycleway:right" v="no"/>
    <tag k="highway" v="tertiary"/>
    <tag k="lanes" v="2"/>
    <tag k="lit" v="no"/>
    <tag k="maxspeed" v="30 mph"/>
    <tag k="name" v="Binton Road"/>
    <tag k="sidewalk" v="left"/>
    <tag k="source" v="survey"/>
    <tag k="source:name" v="OS_OpenData_Locator"/>
    <tag k="surface" v="asphalt"/>
  </way>
  <way id="28026437" version="4" timestamp="2013-09-03T21:25:02Z" changeset="17662073" uid="9065" user="brianboru">
    <nd ref="307737383"/>
    <nd ref="307737688"/>
    <nd ref="2444896546"/>
    <nd ref="255396941"/>
    <nd ref="2444896545"/>
    <nd ref="255396942"/>
    <nd ref="2444896544"/>
    <nd ref="2445054441"/>
    <nd ref="2445054430"/>
    <nd ref="255396943"/>
    <nd ref="2445014720"/>
    <nd ref="255396688"/>
    <nd ref="2445054212"/>
    <nd ref="255396944"/>
    <nd ref="255396945"/>
    <tag k="highway" v="unclassified"/>
    <tag k="source" v="NPE"/>
  </way>
  <way id="31350015" version="5" timestamp="2021-01-28T09:15:45Z" changeset="98282645" uid="12116568" user="Roman Oleynik">
    <nd ref="249269719"/>
    <nd ref="1261254116"/>
    <nd ref="1684756005"/>
    <nd ref="1684756008"/>
    <nd ref="1261254389"/>
    <nd ref="1684756033"/>
    <nd ref="249269720"/>
    <nd ref="1684756034"/>
    <nd ref="1684756035"/>
    <nd ref="1684756037"/>
    <nd ref="1684756038"/>
    <nd ref="1684756039"/>
    <nd ref="1684756040"/>
    <nd ref="1684756041"/>
    <nd ref="249269721"/>
    <nd ref="249269722"/>
    <nd ref="1600349481"/>
    <nd ref="8370917045"/>
    <nd ref="249269723"/>
    <nd ref="1684756051"/>
    <nd ref="1684756054"/>
    <nd ref="1684756057"/>
    <nd ref="1684756060"/>
    <nd ref="249269724"/>
    <nd ref="1684756063"/>
    <nd ref="1684756066"/>
    <nd ref="1684756069"/>
    <nd ref="20622498"/>
    <tag k="highway" v="tertiary"/>
    <tag k="lanes" v="2"/>
    <tag k="source" v="bing"/>
  </way>
  <way id="31350018" version="12" timestamp="2021-11-06T03:32:27Z" changeset="113432838" uid="322039" user="MacLondon">
    <nd ref="349167412"/>
    <nd ref="2020099683"/>
    <tag k="bridge" v="viaduct"/>
    <tag k="cycleway:left" v="track"/>
    <tag k="cycleway:left:segregated" v="no"/>
    <tag k="cycleway:right" v="no"/>
    <tag k="highway" v="tertiary"/>
    <tag k="lanes" v="2"/>
    <tag k="layer" v="1"/>
    <tag k="lit" v="no"/>
    <tag k="maxspeed" v="30 mph"/>
    <tag k="maxweight" v="10"/>
    <tag k="maxweightrating" v="10"/>
    <tag k="motor_vehicle" v="designated"/>
    <tag k="name" v="Binton Road"/>
    <tag k="sidewalk" v="left"/>
    <tag k="source" v="survey"/>
    <tag k="source:name" v="OS_OpenData_Locator"/>
    <tag k="surface" v="asphalt"/>
  </way>
  <way id="48768448" version="6" timestamp="2015-06-09T08:09:18Z" changeset="31836544" uid="5589" user="user_5589">
    <nd ref="20622496"/>
    <nd ref="618870361"/>
    <nd ref="618870363"/>
    <nd ref="618870365"/>
    <nd ref="618870367"/>
    <nd ref="2445072433"/>
    <nd ref="1600349492"/>
    <nd ref="1684756049"/>
    <nd ref="1684756042"/>
    <nd ref="1600349481"/>
    <tag k="highway" v="unclassified"/>
    <tag k="lanes" v="1"/>
    <tag k="maxweight" v="7.5"/>
    <tag k="oneway" v="no"/>
  </way>
  <way id="49689736" version="6" timestamp="2021-03-25T09:46:03Z" changeset="101706474" uid="9196107" user="bashwith">
    <nd ref="631650278"/>
    <nd ref="631650281"/>
    <nd ref="631650301"/>
    <nd ref="631650303"/>
    <nd ref="8559800772"/>
    <nd ref="631650306"/>
    <tag k="highway" v="unclassified"/>
    <tag k="lane_markings" v="no"/>
    <tag k="source" v="survey"/>
    <tag k="surface" v="asphalt"/>
  </way>
  <way id="141209603" version="8" timestamp="2022-07-31T14:46:57Z" changeset="124306400" uid="9065" user="brianboru">
    <nd ref="1545771584"/>
    <nd ref="2366341680"/>
    <nd ref="1545771454"/>
    <nd ref="1545771547"/>
    <nd ref="1545771409"/>
    <nd ref="1545771551"/>
    <nd ref="1545771383"/>
    <nd ref="1545771460"/>
    <nd ref="2286553030"/>
    <nd ref="1545771422"/>
    <nd ref="9922610372"/>
    <nd ref="1545771572"/>
    <nd ref="1545771553"/>
    <nd ref="1545771315"/>
    <nd ref="2286553018"/>
    <nd ref="1545771560"/>
    <nd ref="312881855"/>
    <nd ref="1545771555"/>
    <nd ref="1545771496"/>
    <nd ref="2578700119"/>
    <nd ref="1545771542"/>
    <nd ref="8541243137"/>
    <nd ref="1545771458"/>
    <nd ref="8541243138"/>
    <nd ref="1545771413"/>
    <nd ref="2578659598"/>
    <nd ref="1545771329"/>
    <nd ref="1545771588"/>
    <nd ref="1545771538"/>
    <nd ref="1545771451"/>
    <nd ref="1545771420"/>
    <nd ref="8541241115"/>
    <nd ref="8541241114"/>
    <nd ref="1545771504"/>
    <nd ref="8541241113"/>
    <nd ref="1545771426"/>
    <nd ref="8541241112"/>
    <nd ref="1545771549"/>
    <nd ref="8541241111"/>
    <nd ref="1545771474"/>
    <tag k="highway" v="secondary"/>
    <tag k="lanes" v="2"/>
    <tag k="maxspeed" v="50 mph"/>
    <tag k="name" v="Evesham Road"/>
    <tag k="ref" v="B439"/>
  </way>
  <way id="191432682" version="5" timestamp="2021-03-20T16:13:37Z" changeset="101393524" uid="9065" user="brianboru">
    <nd ref="2020086237"/>
    <nd ref="29940355"/>
    <nd ref="29940356"/>
    <nd ref="2585533656"/>
    <nd ref="1545771359"/>
    <nd ref="1545771534"/>
    <nd ref="8541243348"/>
    <nd ref="1545771540"/>
    <nd ref="8541243349"/>
    <nd ref="1545771447"/>
    <nd ref="1545771452"/>
    <nd ref="1545771399"/>
    <nd ref="842599323"/>
    <nd ref="631650278"/>
    <nd ref="8541243330"/>
    <nd ref="1545771520"/>
    <nd ref="8541243329"/>
    <nd ref="312881852"/>
    <nd ref="312881853"/>
    <nd ref="1545771456"/>
    <nd ref="2366341687"/>
    <nd ref="1545771576"/>
    <nd ref="2366341688"/>
    <nd ref="2366341686"/>
    <nd ref="2366341685"/>
    <nd ref="1545771584"/>
    <tag k="highway" v="secondary"/>
    <tag k="lanes" v="2"/>
    <tag k="maxspeed" v="50 mph"/>
    <tag k="ref" v="B439"/>
  </way>
  <way id="191434830" version="11" timestamp="2021-06-29T10:39:15Z" changeset="107141424" uid="10252543" user="srikmar">
    <nd ref="631650297"/>
    <nd ref="6386342993"/>
    <nd ref="6386342992"/>
    <nd ref="349167409"/>
    <nd ref="2445079924"/>
    <nd ref="7533187328"/>
    <nd ref="249269712"/>
    <nd ref="2445079925"/>
    <nd ref="6386342994"/>
    <nd ref="249269713"/>
    <nd ref="2445079926"/>
    <nd ref="7169292015"/>
    <nd ref="632633646"/>
    <nd ref="8083127129"/>
    <nd ref="2445079927"/>
    <nd ref="2940652468"/>
    <nd ref="8557873514"/>
    <nd ref="349167407"/>
    <nd ref="2940652476"/>
    <nd ref="2940652483"/>
    <nd ref="249269714"/>
    <nd ref="6572307054"/>
    <nd ref="6386342642"/>
    <nd ref="2940652485"/>
    <nd ref="2940652489"/>
    <nd ref="2940652490"/>
    <nd ref="8874711792"/>
    <nd ref="349167403"/>
    <tag k="highway" v="tertiary"/>
    <tag k="lanes" v="2"/>
    <tag k="maxspeed" v="30 mph"/>
    <tag k="name" v="Main Road"/>
    <tag k="source" v="npe;survey"/>
    <tag k="source:name" v="OS_OpenData_Locator"/>
  </way>
  <way id="191434835" version="9" timestamp="2021-11-06T03:32:27Z" changeset="113432838" uid="322039" user="MacLondon">
    <nd ref="2020099683"/>
    <nd ref="382379332"/>
    <nd ref="249328480"/>
    <tag k="bridge" v="viaduct"/>
    <tag k="cycleway:left" v="no"/>
    <tag k="cycleway:right" v="track"/>
    <tag k="cycleway:right:segregated" v="no"/>
    <tag k="highway" v="tertiary"/>
    <tag k="lanes" v="2"/>
    <tag k="layer" v="1"/>
    <tag k="lit" v="no"/>
    <tag k="maxspeed" v="30 mph"/>
    <tag k="maxweight" v="10"/>
    <tag k="maxweightrating" v="10"/>
    <tag k="motor_vehicle" v="designated"/>
    <tag k="name" v="Binton Road"/>
    <tag k="sidewalk" v="right"/>
    <tag k="source" v="survey"/>
    <tag k="surface" v="asphalt"/>
  </way>
  <way id="191434836" version="7" timestamp="2021-02-05T16:24:42Z" changeset="98779627" uid="9641456" user="rababdul">
    <nd ref="631650306"/>
    <nd ref="2366344035"/>
    <nd ref="2366344031"/>
    <nd ref="631650308"/>
    <nd ref="2366344026"/>
    <nd ref="631650311"/>
    <nd ref="631650313"/>
    <nd ref="631650315"/>
    <nd ref="631650321"/>
    <nd ref="2578728777"/>
    <nd ref="2366344024"/>
    <nd ref="2366344022"/>
    <nd ref="631650323"/>
    <nd ref="631650325"/>
    <nd ref="631650327"/>
    <nd ref="8397459538"/>
    <nd ref="631650284"/>
    <nd ref="6538912756"/>
    <nd ref="1629328900"/>
    <nd ref="631650286"/>
    <nd ref="631650289"/>
    <nd ref="6386342680"/>
    <nd ref="2366344020"/>
    <nd ref="631650291"/>
    <nd ref="631650293"/>
    <nd ref="8256631908"/>
    <nd ref="631650295"/>
    <nd ref="631650297"/>
    <tag k="highway" v="unclassified"/>
    <tag k="name" v="Church Bank"/>
    <tag k="source" v="survey"/>
    <tag k="source:name" v="OS_OpenData_Locator"/>
  </way>
  <way id="191434837" version="5" timestamp="2015-04-02T15:36:40Z" changeset="29931555" uid="2512300" user="samely">
    <nd ref="349167403"/>
    <nd ref="2940652492"/>
    <nd ref="2940652493"/>
    <nd ref="249269715"/>
    <nd ref="3431742312"/>
    <nd ref="2337408202"/>
    <tag k="highway" v="tertiary"/>
    <tag k="lanes" v="2"/>
    <tag k="maxspeed" v="30 mph"/>
    <tag k="name" v="Binton Hill"/>
    <tag k="source" v="npe;survey"/>
  </way>
  <way id="208491914" version="2" timestamp="2022-07-19T15:06:35Z" changeset="123812715" uid="9065" user="brianboru">
    <nd ref="2187800010"/>
    <nd ref="9897735101"/>
    <nd ref="9897735099"/>
    <nd ref="9897735100"/>
    <nd ref="2187800008"/>
    <nd ref="2187800002"/>
    <nd ref="9897735098"/>
    <nd ref="9897735097"/>
    <nd ref="2187800009"/>
    <nd ref="2187800013"/>
    <nd ref="2187800010"/>
    <tag k="addr:city" v="Alcester"/>
    <tag k="addr:postcode" v="B49 6NQ"/>
    <tag k="addr:street" v="Alcester Road"/>
    <tag k="amenity" v="pub"/>
    <tag k="building" v="residential"/>
    <tag k="fhrs:id" v="502682"/>
    <tag k="name" v="The Stag"/>
    <tag k="phone" v="+44 1789 764634"/>
    <tag k="website" v="https://www.stagredhill.co.uk/"/>
  </way>
  <way id="219505056" version="2" timestamp="2020-08-13T13:59:42Z" changeset="89361264" uid="9065" user="brianboru">
    <nd ref="2286553030"/>
    <nd ref="2286553024"/>
    <tag k="designation" v="permissive_footpath"/>
    <tag k="highway" v="residential"/>
  </way>
  <way id="219505058" version="4" timestamp="2022-07-19T16:06:21Z" changeset="123814824" uid="9065" user="brianboru">
    <nd ref="2286553024"/>
    <nd ref="7810188264"/>
    <nd ref="2286553019"/>
    <nd ref="7810188263"/>
    <nd ref="2286553012"/>
    <nd ref="7810188269"/>
    <nd ref="7810188270"/>
    <nd ref="7810188271"/>
    <nd ref="2286553005"/>
    <nd ref="7810188268"/>
    <nd ref="7810188267"/>
    <nd ref="7810188266"/>
    <nd ref="7810188265"/>
    <tag k="highway" v="residential"/>
    <tag k="name" v="The Holt"/>
    <tag k="sidewalk" v="left"/>
  </way>
  <way id="224896452" version="1" timestamp="2013-06-08T18:33:23Z" changeset="16472445" uid="782788" user="GordonFS">
    <nd ref="2337405968"/>
    <nd ref="2337405964"/>
    <nd ref="2337405967"/>
    <nd ref="2337405965"/>
    <nd ref="2337405968"/>
    <tag k="building" v="yes"/>
    <tag k="name" v="Clay Barn"/>
  </way>
  <way id="224896563" version="6" timestamp="2021-03-25T08:34:12Z" changeset="101701054" uid="10252560" user="rkkapilk">
    <nd ref="2337408202"/>
    <nd ref="2578697045"/>
    <nd ref="249269716"/>
    <nd ref="349167400"/>
    <nd ref="632633650"/>
    <nd ref="1600349399"/>
    <nd ref="249269717"/>
    <nd ref="349167394"/>
    <nd ref="6907907722"/>
    <nd ref="8559521624"/>
    <nd ref="8538424880"/>
    <nd ref="8538424879"/>
    <nd ref="349167379"/>
    <nd ref="1684756002"/>
    <nd ref="632633633"/>
    <nd ref="2329783930"/>
    <nd ref="1684756003"/>
    <nd ref="249269718"/>
    <nd ref="2329783934"/>
    <nd ref="349167388"/>
    <nd ref="3431742313"/>
    <nd ref="632633636"/>
    <nd ref="249269719"/>
    <tag k="highway" v="tertiary"/>
    <tag k="lanes" v="2"/>
    <tag k="name" v="Binton Hill"/>
    <tag k="source" v="npe;survey"/>
  </way>
  <way id="228009152" version="4" timestamp="2020-10-05T21:15:22Z" changeset="92007731" uid="364" user="Edward">
    <nd ref="2366344033"/>
    <nd ref="2366344037"/>
    <nd ref="6386342990"/>
    <nd ref="6386342989"/>
    <nd ref="6386342988"/>
    <nd ref="6386342987"/>
    <nd ref="2366344038"/>
    <nd ref="2366344041"/>
    <nd ref="6386342986"/>
    <nd ref="6386342985"/>
    <nd ref="6386342684"/>
    <nd ref="6386342683"/>
    <nd ref="6386342682"/>
    <nd ref="6386342681"/>
    <nd ref="2366344033"/>
    <tag k="amenity" v="place_of_worship"/>
    <tag k="building" v="church"/>
    <tag k="denomination" v="anglican"/>
    <tag k="name" v="St Peter"/>
    <tag k="religion" v="christian"/>
    <tag k="wikidata" v="Q26662729"/>
  </way>
  <way id="252523906" version="1" timestamp="2013-12-18T19:32:32Z" changeset="19520969" uid="9065" user="brianboru">
    <nd ref="2585533656"/>
    <nd ref="2585533652"/>
    <nd ref="2585533649"/>
    <nd ref="2585533648"/>
    <tag k="highway" v="unclassified"/>
    <tag k="source" v="bing"/>
  </way>
  <way id="290547885" version="2" timestamp="2015-04-02T15:36:40Z" changeset="29931555" uid="2512300" user="samely">
    <nd ref="2940652494"/>
    <nd ref="2940652495"/>
    <nd ref="3431742312"/>
    <tag k="highway" v="residential"/>
    <tag k="name" v="Field View"/>
    <tag k="source" v="Warwickshire CC Aerial Imagery 2013"/>
    <tag k="source:name" v="OS Locator"/>
  </way>
  <way id="290547886" version="1" timestamp="2014-06-30T14:58:08Z" changeset="23351002" uid="9065" user="brianboru">
    <nd ref="2940652489"/>
    <nd ref="2940652488"/>
    <nd ref="2940652487"/>
    <nd ref="2940652484"/>
    <tag k="highway" v="residential"/>
    <tag k="name" v="Orchard Rise"/>
    <tag k="source" v="Warwickshire CC Aerial Imagery 2013"/>
    <tag k="source:name" v="OS Locator"/>
  </way>
  <way id="290547887" version="1" timestamp="2014-06-30T14:58:08Z" changeset="23351002" uid="9065" user="brianboru">
    <nd ref="2940652492"/>
    <nd ref="2940652491"/>
    <tag k="highway" v="residential"/>
    <tag k="name" v="Townsend Close"/>
    <tag k="source" v="Warwickshire CC Aerial Imagery 2013"/>
    <tag k="source:name" v="OS Locator"/>
  </way>
  <way id="410927615" version="13" timestamp="2025-10-14T11:24:26Z" changeset="173269757" uid="384887" user="robw">
    <nd ref="20622481"/>
    <nd ref="2303731517"/>
    <nd ref="20622482"/>
    <nd ref="2303731538"/>
    <nd ref="20622484"/>
    <nd ref="20622485"/>
    <nd ref="20622487"/>
    <nd ref="20622488"/>
    <nd ref="1261254410"/>
    <nd ref="2445464554"/>
    <nd ref="20622489"/>
    <nd ref="20622491"/>
    <nd ref="1261254310"/>
    <nd ref="20622492"/>
    <nd ref="20622493"/>
    <nd ref="20622495"/>
    <nd ref="618870334"/>
    <nd ref="2303731579"/>
    <nd ref="20622496"/>
    <nd ref="20622497"/>
    <nd ref="2187799986"/>
    <nd ref="1261254275"/>
    <nd ref="20622498"/>
    <nd ref="255396945"/>
    <nd ref="20622499"/>
    <nd ref="20622501"/>
    <nd ref="1261254195"/>
    <nd ref="1261254446"/>
    <nd ref="20622502"/>
    <nd ref="1261254384"/>
    <nd ref="20622503"/>
    <nd ref="20622504"/>
    <nd ref="20622505"/>
    <nd ref="2329763063"/>
    <nd ref="20622506"/>
    <nd ref="1261254333"/>
    <nd ref="1261254255"/>
    <nd ref="20622508"/>
    <nd ref="1261254170"/>
    <nd ref="20622509"/>
    <nd ref="1261254249"/>
    <nd ref="20622510"/>
    <nd ref="20622511"/>
    <nd ref="1261254158"/>
    <nd ref="20622513"/>
    <nd ref="1261254422"/>
    <nd ref="20622514"/>
    <nd ref="13232611492"/>
    <nd ref="2020099681"/>
    <nd ref="13232611491"/>
    <nd ref="20622515"/>
    <nd ref="1526239458"/>
    <nd ref="20622516"/>
    <nd ref="6904549460"/>
    <nd ref="20622518"/>
    <nd ref="12469917477"/>
    <nd ref="20622520"/>
    <tag k="highway" v="trunk"/>
    <tag k="lanes" v="2"/>
    <tag k="maxspeed" v="60 mph"/>
    <tag k="maxspeed:type" v="GB:nsl_single"/>
    <tag k="name" v="Alcester Road"/>
    <tag k="national_highways:area" v="9"/>
    <tag k="old_ref" v="A422"/>
    <tag k="operator" v="National Highways"/>
    <tag k="operator:wikidata" v="Q5760006"/>
    <tag k="ref" v="A46"/>
    <tag k="shoulder" v="no"/>
    <tag k="sidewalk" v="no"/>
    <tag k="surface" v="asphalt"/>
  </way>
  <way id="919321458" version="2" timestamp="2021-10-21T17:09:21Z" changeset="112802352" uid="493595" user="Yorvik Prestigitator">
    <nd ref="8538395485"/>
    <nd ref="8538395484"/>
    <nd ref="8538395483"/>
    <nd ref="8538395482"/>
    <nd ref="8538395485"/>
    <tag k="addr:city" v="Binton"/>
    <tag k="addr:street" v="Main Road"/>
    <tag k="amenity" v="community_centre"/>
    <tag k="building" v="public"/>
    <tag k="community_centre" v="village_hall"/>
    <tag k="name" v="Binton Village Hall"/>
    <tag k="operator" v="Binton Village Hall"/>
  </way>
  <way id="1307926777" version="1" timestamp="2024-08-15T09:41:32Z" changeset="155274701" uid="7819986" user="Howling0">
    <nd ref="12112291678"/>
    <nd ref="2585533648"/>
    <nd ref="1545771359"/>
    <tag k="highway" v="tertiary"/>
    <tag k="name" v="Luddington Road"/>
    <tag k="source" v="npescans;survey"/>
  </way>
  <way id="1307926778" version="1" timestamp="2024-08-15T09:41:32Z" changeset="155274701" uid="7819986" user="Howling0">
    <nd ref="12112291679"/>
    <nd ref="12112291678"/>
    <tag k="bridge" v="yes"/>
    <tag k="highway" v="tertiary"/>
    <tag k="layer" v="1"/>
    <tag k="name" v="Luddington Road"/>
    <tag k="source" v="npescans;survey"/>
  </way>

</osm>
