<?xml version="1.0" encoding="UTF-8"?>
<osm version="0.6" generator="Overpass API 0.7.62.8 e802775f">
<note>The data included in this document is from www.openstreetmap.org. The data is made available under ODbL.</note>
<meta osm_base="2025-10-23T16:47:45Z" areas="2025-10-23T12:46:58Z"/>

  <node id="2262649" lat="52.4910113" lon="-1.6816125" version="2" timestamp="2013-05-07T14:03:24Z" changeset="16011681" uid="9065" user="brianboru"/>
  <node id="2382521" lat="52.4573255" lon="-1.6500913" version="3" timestamp="2012-01-23T09:55:28Z" changeset="10473642" uid="9065" user="brianboru"/>
  <node id="13787920" lat="52.5088883" lon="-1.6693015" version="4" timestamp="2022-12-18T14:01:30Z" changeset="130213510" uid="7463" user="kesterlester"/>
  <node id="1240917966" lat="52.4751294" lon="-1.6201980" version="3" timestamp="2018-09-17T09:37:41Z" changeset="62658523" uid="9065" user="brianboru"/>
  <node id="1240918056" lat="52.4959440" lon="-1.6382669" version="2" timestamp="2013-12-09T06:58:15Z" changeset="19353141" uid="133272" user="wongataa"/>
  <node id="1240918175" lat="52.4987249" lon="-1.6396780" version="2" timestamp="2013-09-05T18:12:53Z" changeset="17691660" uid="346039" user="fitzsimons"/>
  <node id="1434645206" lat="52.4720500" lon="-1.6669041" version="2" timestamp="2011-11-16T20:31:49Z" changeset="9848483" uid="735" user="blackadder"/>
  <node id="1556744945" lat="52.4771171" lon="-1.6818209" version="1" timestamp="2011-12-21T08:19:15Z" changeset="10169521" uid="5926" user="c2r"/>
  <node id="1556744978" lat="52.4777635" lon="-1.6813005" version="1" timestamp="2011-12-21T08:19:17Z" changeset="10169521" uid="5926" user="c2r"/>
  <node id="1556745024" lat="52.4672883" lon="-1.6031191" version="2" timestamp="2012-11-19T05:19:12Z" changeset="13927744" uid="24119" user="Mauls"/>
  <node id="4778790195" lat="52.4703688" lon="-1.6539291" version="1" timestamp="2017-04-06T12:04:22Z" changeset="47504930" uid="133272" user="wongataa"/>
  <node id="12844814960" lat="52.4889911" lon="-1.6437049" version="1" timestamp="2025-05-17T20:00:18Z" changeset="166407062" uid="22318191" user="Feathers McGraw"/>
  <way id="3091744" version="25" timestamp="2024-01-22T18:56:44Z" changeset="146565751" uid="16951803" user="Vas111">
    <nd ref="199812"/>
    <nd ref="291925"/>
    <nd ref="1505623730"/>
    <nd ref="247651"/>
    <nd ref="1505623727"/>
    <nd ref="247652"/>
    <nd ref="1556744943"/>
    <tag k="carriageway_ref" v="B"/>
    <tag k="highway" v="motorway"/>
    <tag k="int_ref" v="E 24"/>
    <tag k="lanes" v="4"/>
    <tag k="lit" v="yes"/>
    <tag k="maxspeed" v="70 mph"/>
    <tag k="maxspeed:type" v="GB:motorway"/>
    <tag k="national_highways:area" v="9"/>
    <tag k="oneway" v="yes"/>
    <tag k="operator" v="National Highways"/>
    <tag k="operator:wikidata" v="Q5760006"/>
    <tag k="proposed:active_traffic_management" v="yes"/>
    <tag k="ref" v="M6"/>
    <tag k="surface" v="asphalt"/>
  </way>
  <way id="8003521" version="15" timestamp="2025-05-17T20:00:18Z" changeset="166407062" uid="22318191" user="Feathers McGraw">
    <nd ref="2382565"/>
    <nd ref="2262566"/>
    <nd ref="2262567"/>
    <nd ref="2262569"/>
    <nd ref="2299739474"/>
    <nd ref="2262570"/>
    <nd ref="2520919632"/>
    <nd ref="2262571"/>
    <nd ref="2299739478"/>
    <nd ref="2262572"/>
    <nd ref="1240918053"/>
    <nd ref="2262574"/>
    <nd ref="2520919637"/>
    <nd ref="1241018814"/>
    <nd ref="2262575"/>
    <tag k="gritting" v="yes"/>
    <tag k="gritting_depot" v="Coleshill Heath Road"/>
    <tag k="gritting_operator" v="Warwickshire County Council"/>
    <tag k="gritting_route_ref" v="3"/>
    <tag k="gritting_route_revision" v="201105"/>
    <tag k="highway" v="tertiary"/>
    <tag k="highway_authority_ref" v="C15"/>
    <tag k="lanes" v="2"/>
    <tag k="maintenance" v="gritting"/>
    <tag k="maxspeed" v="40 mph"/>
    <tag k="name" v="Church Lane"/>
    <tag k="source" v="survey"/>
    <tag k="source:maxspeed" v="survey"/>
    <tag k="surface" v="paved"/>
  </way>
  <way id="15547943" version="8" timestamp="2015-06-11T18:18:35Z" changeset="31903576" uid="9065" user="brianboru">
    <nd ref="2262578"/>
    <nd ref="3588250646"/>
    <nd ref="2262579"/>
    <nd ref="2262581"/>
    <nd ref="2262582"/>
    <nd ref="2262584"/>
    <nd ref="2262585"/>
    <nd ref="2262586"/>
    <nd ref="2262587"/>
    <nd ref="2262589"/>
    <nd ref="2262590"/>
    <nd ref="2262591"/>
    <nd ref="3588250651"/>
    <nd ref="2262592"/>
    <nd ref="2262593"/>
    <nd ref="3588250674"/>
    <nd ref="2262594"/>
    <nd ref="2262596"/>
    <nd ref="3588251407"/>
    <nd ref="2262597"/>
    <nd ref="2262599"/>
    <nd ref="3588050965"/>
    <nd ref="3588251411"/>
    <nd ref="2262600"/>
    <nd ref="2262602"/>
    <nd ref="2262601"/>
    <nd ref="2262603"/>
    <nd ref="3588050966"/>
    <nd ref="2262604"/>
    <nd ref="3588050968"/>
    <nd ref="2262605"/>
    <nd ref="3588050969"/>
    <nd ref="2262606"/>
    <nd ref="2262608"/>
    <nd ref="2262609"/>
    <nd ref="3588050970"/>
    <nd ref="2262610"/>
    <nd ref="2262611"/>
    <nd ref="2262613"/>
    <nd ref="3588050978"/>
    <nd ref="2262614"/>
    <nd ref="3588050981"/>
    <nd ref="2262615"/>
    <nd ref="3588050979"/>
    <nd ref="3588050980"/>
    <nd ref="2262618"/>
    <nd ref="2262619"/>
    <nd ref="2262620"/>
    <nd ref="2262621"/>
    <nd ref="2262623"/>
    <nd ref="2262624"/>
    <nd ref="2262626"/>
    <nd ref="2262627"/>
    <nd ref="3588050990"/>
    <nd ref="3588050991"/>
    <nd ref="2262628"/>
    <nd ref="2262630"/>
    <nd ref="3588251597"/>
    <nd ref="2262631"/>
    <nd ref="2262633"/>
    <nd ref="2262635"/>
    <nd ref="2262636"/>
    <nd ref="2294720976"/>
    <nd ref="2262638"/>
    <nd ref="2294720980"/>
    <nd ref="2294720982"/>
    <nd ref="2262639"/>
    <nd ref="2262640"/>
    <nd ref="2262641"/>
    <nd ref="2262642"/>
    <nd ref="2262643"/>
    <nd ref="2262645"/>
    <nd ref="2262646"/>
    <nd ref="2262648"/>
    <tag k="highway" v="unclassified"/>
    <tag k="maxweight" v="2.5"/>
    <tag k="name" v="Arnolds Lane"/>
    <tag k="surface" v="paved"/>
  </way>
  <way id="15548070" version="6" timestamp="2014-10-01T13:18:38Z" changeset="25789848" uid="735" user="blackadder">
    <nd ref="2262648"/>
    <nd ref="2262649"/>
    <tag k="gritting" v="yes"/>
    <tag k="gritting_depot" v="Coleshill Heath Road"/>
    <tag k="gritting_operator" v="Warwickshire County Council"/>
    <tag k="gritting_route_ref" v="3"/>
    <tag k="gritting_route_revision" v="201105"/>
    <tag k="highway" v="tertiary"/>
    <tag k="highway_authority_ref" v="C14"/>
    <tag k="maintenance" v="gritting"/>
    <tag k="name" v="Maxstoke Lane"/>
  </way>
  <way id="23386308" version="12" timestamp="2025-05-17T20:00:18Z" changeset="166407062" uid="22318191" user="Feathers McGraw">
    <nd ref="2382584"/>
    <nd ref="253215010"/>
    <nd ref="1240917964"/>
    <nd ref="254762098"/>
    <nd ref="1240918366"/>
    <nd ref="3586416306"/>
    <nd ref="1240917991"/>
    <nd ref="1240918088"/>
    <nd ref="3586416288"/>
    <tag k="highway" v="unclassified"/>
    <tag k="lanes" v="2"/>
    <tag k="maxspeed" v="40 mph"/>
    <tag k="name" v="Fillongley Road"/>
    <tag k="source" v="Warwicks Aerial Imagery OGLv2"/>
  </way>
  <way id="23386310" version="3" timestamp="2020-07-30T17:30:22Z" changeset="88745762" uid="133272" user="wongataa">
    <nd ref="2262542"/>
    <nd ref="253215011"/>
    <tag k="highway" v="unclassified"/>
    <tag k="name" v="Bentley Lane"/>
    <tag k="surface" v="paved"/>
  </way>
  <way id="23388660" version="17" timestamp="2025-02-12T13:42:13Z" changeset="162430899" uid="563773" user="mrpacmanmap">
    <nd ref="13787920"/>
    <nd ref="13787918"/>
    <nd ref="2302141945"/>
    <nd ref="13787923"/>
    <nd ref="6865686158"/>
    <nd ref="2302141936"/>
    <nd ref="13787917"/>
    <nd ref="2302141929"/>
    <nd ref="13787924"/>
    <nd ref="2302141925"/>
    <nd ref="2302141923"/>
    <nd ref="13787925"/>
    <nd ref="13787926"/>
    <nd ref="13787928"/>
    <nd ref="2302141916"/>
    <nd ref="13787927"/>
    <nd ref="13787930"/>
    <nd ref="13787929"/>
    <nd ref="2302141907"/>
    <nd ref="2302141905"/>
    <nd ref="13787931"/>
    <nd ref="2302141899"/>
    <nd ref="559710216"/>
    <nd ref="13787932"/>
    <nd ref="12582199289"/>
    <nd ref="253215009"/>
    <nd ref="559704178"/>
    <nd ref="1671931748"/>
    <nd ref="13787933"/>
    <nd ref="13787934"/>
    <tag k="gritting" v="yes"/>
    <tag k="gritting_depot" v="Coleshill Heath Road"/>
    <tag k="gritting_operator" v="Warwickshire County Council"/>
    <tag k="gritting_route_ref" v="3"/>
    <tag k="gritting_route_revision" v="201105"/>
    <tag k="highway" v="tertiary"/>
    <tag k="highway_authority_ref" v="C14"/>
    <tag k="maintenance" v="gritting"/>
    <tag k="name" v="Castle Lane"/>
    <tag k="surface" v="paved"/>
  </way>
  <way id="23388662" version="10" timestamp="2015-06-10T18:10:33Z" changeset="31878276" uid="9065" user="brianboru">
    <nd ref="2382587"/>
    <nd ref="2382588"/>
    <nd ref="2382589"/>
    <tag k="gritting" v="yes"/>
    <tag k="gritting_depot" v="Coleshill Heath Road"/>
    <tag k="gritting_operator" v="Warwickshire County Council"/>
    <tag k="gritting_route_ref" v="3"/>
    <tag k="gritting_route_revision" v="201105"/>
    <tag k="highway" v="tertiary"/>
    <tag k="highway_authority_ref" v="C14"/>
    <tag k="maintenance" v="gritting"/>
    <tag k="maxspeed" v="40 mph"/>
    <tag k="name" v="Coleshill Road"/>
    <tag k="source" v="bing"/>
  </way>
  <way id="23388663" version="12" timestamp="2025-05-17T20:00:18Z" changeset="166407062" uid="22318191" user="Feathers McGraw">
    <nd ref="2382584"/>
    <nd ref="1240918322"/>
    <nd ref="13787938"/>
    <nd ref="2382585"/>
    <nd ref="1240918195"/>
    <nd ref="2382586"/>
    <nd ref="1241012236"/>
    <nd ref="8813320477"/>
    <nd ref="13787937"/>
    <nd ref="2382587"/>
    <tag k="gritting" v="yes"/>
    <tag k="gritting_depot" v="Coleshill Heath Road"/>
    <tag k="gritting_operator" v="Warwickshire County Council"/>
    <tag k="gritting_route_ref" v="3"/>
    <tag k="gritting_route_revision" v="201105"/>
    <tag k="highway" v="tertiary"/>
    <tag k="highway_authority_ref" v="C14"/>
    <tag k="lanes" v="2"/>
    <tag k="maintenance" v="gritting"/>
    <tag k="maxspeed" v="40 mph"/>
    <tag k="name" v="Fillongley Road"/>
  </way>
  <way id="23388666" version="11" timestamp="2025-05-17T20:00:18Z" changeset="166407062" uid="22318191" user="Feathers McGraw">
    <nd ref="2262575"/>
    <nd ref="2262576"/>
    <nd ref="2520919639"/>
    <tag k="gritting" v="yes"/>
    <tag k="gritting_depot" v="Coleshill Heath Road"/>
    <tag k="gritting_operator" v="Warwickshire County Council"/>
    <tag k="gritting_route_ref" v="3"/>
    <tag k="gritting_route_revision" v="201105"/>
    <tag k="highway" v="tertiary"/>
    <tag k="highway_authority_ref" v="C15"/>
    <tag k="lanes" v="2"/>
    <tag k="maintenance" v="gritting"/>
    <tag k="maxspeed" v="40 mph"/>
    <tag k="name" v="New End Road"/>
    <tag k="source" v="survey"/>
    <tag k="source:maxspeed" v="survey"/>
    <tag k="surface" v="paved"/>
  </way>
  <way id="23526604" version="8" timestamp="2021-05-20T09:16:14Z" changeset="105015059" uid="9196107" user="bashwith">
    <nd ref="253215011"/>
    <nd ref="254765913"/>
    <nd ref="254765915"/>
    <nd ref="254765916"/>
    <nd ref="254765917"/>
    <nd ref="8749003031"/>
    <nd ref="2299699918"/>
    <nd ref="254765919"/>
    <nd ref="793836579"/>
    <nd ref="254765920"/>
    <nd ref="2299700017"/>
    <nd ref="254765921"/>
    <nd ref="2299700057"/>
    <nd ref="254765923"/>
    <nd ref="254765924"/>
    <nd ref="793836580"/>
    <nd ref="2299700155"/>
    <nd ref="2299700159"/>
    <nd ref="7994528555"/>
    <nd ref="2299700167"/>
    <nd ref="254765926"/>
    <nd ref="2299700173"/>
    <nd ref="2299700171"/>
    <nd ref="254765927"/>
    <nd ref="2299700137"/>
    <nd ref="2299700135"/>
    <nd ref="2299700145"/>
    <nd ref="5762930171"/>
    <nd ref="254765928"/>
    <nd ref="254765931"/>
    <nd ref="1240918083"/>
    <nd ref="254765863"/>
    <tag k="highway" v="unclassified"/>
    <tag k="name" v="Bentley Lane"/>
    <tag k="source" v="NPE"/>
  </way>
  <way id="23526613" version="7" timestamp="2022-12-18T09:36:08Z" changeset="130206326" uid="7463" user="kesterlester">
    <nd ref="254765850"/>
    <nd ref="1240918316"/>
    <nd ref="254765932"/>
    <nd ref="2302141823"/>
    <nd ref="254765933"/>
    <nd ref="10271055546"/>
    <nd ref="2302141845"/>
    <nd ref="10271055547"/>
    <nd ref="2302141847"/>
    <nd ref="254765935"/>
    <nd ref="2302141851"/>
    <nd ref="2302141853"/>
    <nd ref="254765937"/>
    <nd ref="254765938"/>
    <nd ref="1240918197"/>
    <nd ref="254765941"/>
    <nd ref="1240918127"/>
    <nd ref="1240918219"/>
    <nd ref="1240918358"/>
    <nd ref="254765942"/>
    <nd ref="1240917989"/>
    <nd ref="254765943"/>
    <nd ref="1240918085"/>
    <nd ref="1240918182"/>
    <nd ref="1240918297"/>
    <nd ref="1240917949"/>
    <nd ref="1240918212"/>
    <nd ref="1240918348"/>
    <nd ref="254765945"/>
    <nd ref="1240917981"/>
    <nd ref="1240918075"/>
    <nd ref="254765946"/>
    <nd ref="254765947"/>
    <nd ref="1240918171"/>
    <nd ref="1240917960"/>
    <nd ref="1240918056"/>
    <tag k="highway" v="unclassified"/>
    <tag k="name" v="Kingshill Lane"/>
    <tag k="source" v="NPE"/>
  </way>
  <way id="26294337" version="6" timestamp="2015-06-11T15:18:32Z" changeset="31899584" uid="9065" user="brianboru">
    <nd ref="2262649"/>
    <nd ref="2262650"/>
    <tag k="bridge" v="yes"/>
    <tag k="gritting" v="yes"/>
    <tag k="gritting_depot" v="Coleshill Heath Road"/>
    <tag k="gritting_operator" v="Warwickshire County Council"/>
    <tag k="gritting_route_ref" v="3"/>
    <tag k="gritting_route_revision" v="201105"/>
    <tag k="heritage" v="2"/>
    <tag k="heritage:operator" v="Historic England"/>
    <tag k="highway" v="tertiary"/>
    <tag k="highway_authority_ref" v="C14"/>
    <tag k="layer" v="1"/>
    <tag k="listed_status" v="Grade II"/>
    <tag k="maintenance" v="gritting"/>
    <tag k="name" v="Maxstoke Lane"/>
  </way>
  <way id="108114892" version="10" timestamp="2025-05-17T20:00:18Z" changeset="166407062" uid="22318191" user="Feathers McGraw">
    <nd ref="1240917966"/>
    <nd ref="1240918031"/>
    <nd ref="1240918130"/>
    <nd ref="2262490"/>
    <nd ref="2262492"/>
    <nd ref="1240986336"/>
    <nd ref="1240986327"/>
    <nd ref="2262493"/>
    <nd ref="2262494"/>
    <nd ref="2262495"/>
    <nd ref="2262497"/>
    <nd ref="2262498"/>
    <nd ref="253215017"/>
    <nd ref="2262499"/>
    <nd ref="2262500"/>
    <nd ref="1240918166"/>
    <nd ref="253215015"/>
    <nd ref="1240983197"/>
    <nd ref="2262502"/>
    <nd ref="2262503"/>
    <nd ref="2262504"/>
    <nd ref="2262505"/>
    <nd ref="2262506"/>
    <nd ref="2262507"/>
    <nd ref="1240918047"/>
    <nd ref="2262509"/>
    <nd ref="1240917955"/>
    <nd ref="2262510"/>
    <nd ref="1240918302"/>
    <nd ref="2262511"/>
    <nd ref="2262512"/>
    <nd ref="1240918187"/>
    <nd ref="2262514"/>
    <nd ref="1240918410"/>
    <nd ref="2262515"/>
    <nd ref="1240918253"/>
    <nd ref="2262516"/>
    <nd ref="8741889098"/>
    <nd ref="1240918160"/>
    <nd ref="2262517"/>
    <nd ref="1240918061"/>
    <nd ref="2262518"/>
    <nd ref="1240917968"/>
    <nd ref="2262519"/>
    <nd ref="1240918132"/>
    <nd ref="5762929866"/>
    <nd ref="2262521"/>
    <nd ref="1240918032"/>
    <nd ref="2262522"/>
    <nd ref="1240918438"/>
    <nd ref="2262524"/>
    <nd ref="1240918008"/>
    <nd ref="2262526"/>
    <nd ref="1240918393"/>
    <nd ref="2262525"/>
    <nd ref="2262527"/>
    <nd ref="9022629929"/>
    <nd ref="2262529"/>
    <nd ref="7130317134"/>
    <nd ref="2262530"/>
    <nd ref="2262531"/>
    <nd ref="2262532"/>
    <nd ref="1240918239"/>
    <nd ref="2262534"/>
    <nd ref="1240918150"/>
    <nd ref="1240918120"/>
    <nd ref="2262535"/>
    <nd ref="1240918020"/>
    <nd ref="2262536"/>
    <nd ref="1240918422"/>
    <nd ref="1240918093"/>
    <nd ref="1240917993"/>
    <nd ref="2262537"/>
    <nd ref="1240918371"/>
    <nd ref="2262539"/>
    <nd ref="253215012"/>
    <nd ref="2262540"/>
    <nd ref="2262541"/>
    <nd ref="2262542"/>
    <nd ref="2262544"/>
    <nd ref="2262545"/>
    <nd ref="2262546"/>
    <nd ref="1240918135"/>
    <nd ref="1240918225"/>
    <nd ref="2262547"/>
    <nd ref="1240918035"/>
    <nd ref="2262548"/>
    <nd ref="2262549"/>
    <nd ref="2262551"/>
    <nd ref="2262552"/>
    <nd ref="2262554"/>
    <nd ref="2262555"/>
    <nd ref="1240918444"/>
    <nd ref="2262556"/>
    <nd ref="2262557"/>
    <nd ref="1240918280"/>
    <tag k="highway" v="tertiary"/>
    <tag k="lanes" v="2"/>
    <tag k="maxspeed" v="60 mph"/>
    <tag k="maxspeed:type" v="GB:nsl_single"/>
    <tag k="name" v="Green End Road"/>
    <tag k="surface" v="paved"/>
  </way>
  <way id="108114899" version="3" timestamp="2021-07-19T07:41:50Z" changeset="108228857" uid="133272" user="wongataa">
    <nd ref="1240918175"/>
    <nd ref="1240918412"/>
    <nd ref="1240918117"/>
    <nd ref="1240918016"/>
    <nd ref="1240918048"/>
    <nd ref="1240917956"/>
    <nd ref="1240918147"/>
    <nd ref="1240918434"/>
    <nd ref="1240918235"/>
    <nd ref="1240918390"/>
    <nd ref="1240918005"/>
    <nd ref="1240918027"/>
    <tag k="highway" v="unclassified"/>
    <tag k="source" v="NPE"/>
  </way>
  <way id="108126732" version="10" timestamp="2020-10-05T21:12:42Z" changeset="92007731" uid="364" user="Edward">
    <nd ref="1241018816"/>
    <nd ref="1241018812"/>
    <nd ref="1241018806"/>
    <nd ref="2520955920"/>
    <nd ref="2520955917"/>
    <nd ref="2520955915"/>
    <nd ref="2520955918"/>
    <nd ref="1241018817"/>
    <nd ref="2520919561"/>
    <nd ref="1241018816"/>
    <tag k="amenity" v="place_of_worship"/>
    <tag k="building" v="church"/>
    <tag k="denomination" v="anglican"/>
    <tag k="heritage" v="2"/>
    <tag k="heritage:operator" v="Historic England"/>
    <tag k="listed_status" v="Grade II*"/>
    <tag k="name" v="St.Michael &amp; All Angels"/>
    <tag k="religion" v="christian"/>
    <tag k="source" v="bing"/>
    <tag k="wikidata" v="Q17550656"/>
  </way>
  <way id="130168810" version="19" timestamp="2024-01-22T18:56:44Z" changeset="146565751" uid="16951803" user="Vas111">
    <nd ref="1434645206"/>
    <nd ref="208665"/>
    <nd ref="1505623736"/>
    <nd ref="208668"/>
    <nd ref="208667"/>
    <nd ref="247647"/>
    <nd ref="247646"/>
    <nd ref="208666"/>
    <tag k="carriageway_ref" v="A"/>
    <tag k="highway" v="motorway"/>
    <tag k="int_ref" v="E 24"/>
    <tag k="lanes" v="4"/>
    <tag k="lit" v="yes"/>
    <tag k="maxspeed" v="70 mph"/>
    <tag k="maxspeed:type" v="GB:motorway"/>
    <tag k="national_highways:area" v="9"/>
    <tag k="oneway" v="yes"/>
    <tag k="operator" v="National Highways"/>
    <tag k="operator:wikidata" v="Q5760006"/>
    <tag k="proposed:active_traffic_management" v="yes"/>
    <tag k="ref" v="M6"/>
    <tag k="surface" v="asphalt"/>
  </way>
  <way id="137269095" version="4" timestamp="2017-04-06T12:04:23Z" changeset="47504930" uid="133272" user="wongataa">
    <nd ref="2382550"/>
    <nd ref="2382551"/>
    <nd ref="2382552"/>
    <nd ref="2382553"/>
    <nd ref="2382554"/>
    <nd ref="2299763330"/>
    <tag k="gritting" v="yes"/>
    <tag k="gritting_depot" v="Coleshill Heath Road"/>
    <tag k="gritting_operator" v="Warwickshire County Council"/>
    <tag k="gritting_route_ref" v="3"/>
    <tag k="gritting_route_revision" v="201105"/>
    <tag k="highway" v="tertiary"/>
    <tag k="highway_authority_ref" v="C15"/>
    <tag k="maintenance" v="gritting"/>
    <tag k="name" v="Packington Lane"/>
    <tag k="surface" v="paved"/>
  </way>
  <way id="142234715" version="19" timestamp="2023-03-13T23:30:15Z" changeset="133645225" uid="5589" user="user_5589">
    <nd ref="1556744945"/>
    <nd ref="199833"/>
    <nd ref="199831"/>
    <nd ref="199830"/>
    <nd ref="1505623745"/>
    <nd ref="199829"/>
    <nd ref="199827"/>
    <nd ref="247645"/>
    <nd ref="1505623743"/>
    <nd ref="247630"/>
    <nd ref="1505623742"/>
    <nd ref="247631"/>
    <nd ref="1505623739"/>
    <nd ref="247649"/>
    <nd ref="15893371"/>
    <nd ref="15893372"/>
    <nd ref="15893373"/>
    <nd ref="1505623734"/>
    <nd ref="1505623732"/>
    <nd ref="199812"/>
    <tag k="bicycle" v="no"/>
    <tag k="carriageway_ref" v="B"/>
    <tag k="foot" v="no"/>
    <tag k="highway" v="motorway"/>
    <tag k="int_ref" v="E 24"/>
    <tag k="lanes" v="3"/>
    <tag k="lit" v="yes"/>
    <tag k="maxspeed" v="70 mph"/>
    <tag k="maxspeed:type" v="GB:motorway"/>
    <tag k="oneway" v="yes"/>
    <tag k="operator" v="National Highways"/>
    <tag k="operator:wikidata" v="Q5760006"/>
    <tag k="parking:both" v="no"/>
    <tag k="parking:both:restriction" v="no_stopping"/>
    <tag k="ref" v="M6 Toll"/>
    <tag k="surface" v="asphalt"/>
    <tag k="toll" v="no"/>
  </way>
  <way id="142234720" version="14" timestamp="2024-01-22T18:56:44Z" changeset="146565751" uid="16951803" user="Vas111">
    <nd ref="1556744950"/>
    <nd ref="247653"/>
    <nd ref="1505623725"/>
    <nd ref="247650"/>
    <nd ref="1505623729"/>
    <nd ref="291924"/>
    <nd ref="1505623731"/>
    <nd ref="208664"/>
    <nd ref="1505623733"/>
    <nd ref="1434645206"/>
    <tag k="carriageway_ref" v="A"/>
    <tag k="highway" v="motorway"/>
    <tag k="int_ref" v="E 24"/>
    <tag k="lanes" v="3"/>
    <tag k="lit" v="yes"/>
    <tag k="maxspeed" v="70 mph"/>
    <tag k="maxspeed:type" v="GB:motorway"/>
    <tag k="national_highways:area" v="9"/>
    <tag k="oneway" v="yes"/>
    <tag k="operator" v="National Highways"/>
    <tag k="operator:wikidata" v="Q5760006"/>
    <tag k="proposed:active_traffic_management" v="yes"/>
    <tag k="ref" v="M6"/>
    <tag k="surface" v="asphalt"/>
  </way>
  <way id="142234729" version="17" timestamp="2024-01-22T18:56:44Z" changeset="146565751" uid="16951803" user="Vas111">
    <nd ref="1556744978"/>
    <nd ref="206652"/>
    <nd ref="1505623750"/>
    <nd ref="206653"/>
    <nd ref="1505623747"/>
    <nd ref="1505623746"/>
    <nd ref="206689"/>
    <nd ref="206690"/>
    <nd ref="1505623741"/>
    <nd ref="199813"/>
    <nd ref="1505623738"/>
    <tag k="carriageway_ref" v="B"/>
    <tag k="highway" v="motorway"/>
    <tag k="lanes" v="3"/>
    <tag k="lit" v="yes"/>
    <tag k="maxspeed" v="70 mph"/>
    <tag k="maxspeed:type" v="GB:motorway"/>
    <tag k="national_highways:area" v="9"/>
    <tag k="oneway" v="yes"/>
    <tag k="operator" v="National Highways"/>
    <tag k="operator:wikidata" v="Q5760006"/>
    <tag k="proposed:active_traffic_management" v="yes"/>
    <tag k="ref" v="M6"/>
    <tag k="surface" v="asphalt"/>
  </way>
  <way id="142234749" version="14" timestamp="2024-01-22T18:56:44Z" changeset="146565751" uid="16951803" user="Vas111">
    <nd ref="1556744943"/>
    <nd ref="4778790190"/>
    <tag k="carriageway_ref" v="B"/>
    <tag k="highway" v="motorway"/>
    <tag k="int_ref" v="E 24"/>
    <tag k="lanes" v="4"/>
    <tag k="lit" v="no"/>
    <tag k="maxspeed" v="70 mph"/>
    <tag k="maxspeed:type" v="GB:motorway"/>
    <tag k="national_highways:area" v="9"/>
    <tag k="oneway" v="yes"/>
    <tag k="operator" v="National Highways"/>
    <tag k="operator:wikidata" v="Q5760006"/>
    <tag k="proposed:active_traffic_management" v="yes"/>
    <tag k="ref" v="M6"/>
    <tag k="surface" v="asphalt"/>
  </way>
  <way id="142234756" version="16" timestamp="2024-01-22T18:56:44Z" changeset="146565751" uid="16951803" user="Vas111">
    <nd ref="1556745024"/>
    <nd ref="2260855"/>
    <nd ref="2099837498"/>
    <nd ref="2099837501"/>
    <nd ref="208654"/>
    <nd ref="15894181"/>
    <nd ref="2099837505"/>
    <nd ref="15894177"/>
    <nd ref="208657"/>
    <nd ref="15894180"/>
    <nd ref="208660"/>
    <nd ref="208661"/>
    <nd ref="4778790194"/>
    <tag k="carriageway_ref" v="A"/>
    <tag k="highway" v="motorway"/>
    <tag k="int_ref" v="E 24"/>
    <tag k="lanes" v="3"/>
    <tag k="lit" v="no"/>
    <tag k="maxheight" v="default"/>
    <tag k="maxspeed" v="70 mph"/>
    <tag k="maxspeed:type" v="GB:motorway"/>
    <tag k="national_highways:area" v="9"/>
    <tag k="oneway" v="yes"/>
    <tag k="operator" v="National Highways"/>
    <tag k="operator:wikidata" v="Q5760006"/>
    <tag k="proposed:active_traffic_management" v="yes"/>
    <tag k="ref" v="M6"/>
    <tag k="surface" v="asphalt"/>
  </way>
  <way id="147005604" version="7" timestamp="2018-07-25T13:20:17Z" changeset="61056811" uid="9065" user="brianboru">
    <nd ref="2382521"/>
    <nd ref="1602029458"/>
    <nd ref="1602029459"/>
    <nd ref="1602029460"/>
    <nd ref="1602029461"/>
    <nd ref="1602029462"/>
    <nd ref="1602029463"/>
    <nd ref="1602029464"/>
    <nd ref="5784250972"/>
    <nd ref="1602029465"/>
    <nd ref="1602029466"/>
    <nd ref="5784250983"/>
    <nd ref="1602029467"/>
    <nd ref="1602029468"/>
    <nd ref="1602029469"/>
    <nd ref="1241044920"/>
    <nd ref="1602029470"/>
    <nd ref="1602029471"/>
    <nd ref="1602029472"/>
    <nd ref="1602029473"/>
    <nd ref="1602029474"/>
    <nd ref="1602029475"/>
    <nd ref="1602029476"/>
    <nd ref="1602029477"/>
    <nd ref="1602029478"/>
    <nd ref="1602029479"/>
    <nd ref="1602029480"/>
    <nd ref="1602029481"/>
    <nd ref="1602029482"/>
    <nd ref="1602029483"/>
    <nd ref="5784245520"/>
    <nd ref="1602029484"/>
    <nd ref="1602029485"/>
    <nd ref="1602029486"/>
    <nd ref="1602029487"/>
    <nd ref="1602029488"/>
    <nd ref="3455529508"/>
    <nd ref="1602029489"/>
    <nd ref="2382550"/>
    <tag k="gritting" v="yes"/>
    <tag k="gritting_depot" v="Coleshill Heath Road"/>
    <tag k="gritting_operator" v="Warwickshire County Council"/>
    <tag k="gritting_route_ref" v="3"/>
    <tag k="gritting_route_revision" v="201105"/>
    <tag k="highway" v="tertiary"/>
    <tag k="highway_authority_ref" v="C15"/>
    <tag k="maintenance" v="gritting"/>
    <tag k="name" v="Packington Lane"/>
    <tag k="source" v="survey"/>
    <tag k="surface" v="paved"/>
  </way>
  <way id="220891986" version="3" timestamp="2023-02-12T23:53:54Z" changeset="132466725" uid="493595" user="Yorvik Prestigitator">
    <nd ref="2299699825"/>
    <nd ref="2299699824"/>
    <nd ref="2299699809"/>
    <nd ref="2299699810"/>
    <nd ref="2299699825"/>
    <tag k="addr:city" v="Maxstoke"/>
    <tag k="amenity" v="community_centre"/>
    <tag k="building" v="public"/>
    <tag k="community_centre" v="village_hall"/>
    <tag k="name" v="Maxstoke Village Hall"/>
    <tag k="source" v="bing"/>
  </way>
  <way id="220893410" version="7" timestamp="2015-06-10T17:41:42Z" changeset="31877452" uid="9065" user="brianboru">
    <nd ref="2299739314"/>
    <nd ref="2299739315"/>
    <nd ref="2299739323"/>
    <nd ref="2299739325"/>
    <nd ref="2299739319"/>
    <nd ref="2299739321"/>
    <nd ref="2299739303"/>
    <nd ref="2299739301"/>
    <nd ref="2299739288"/>
    <nd ref="2299739294"/>
    <nd ref="2299739282"/>
    <nd ref="2299739280"/>
    <nd ref="2299739300"/>
    <nd ref="2299739298"/>
    <nd ref="2299739314"/>
    <tag k="building" v="residential"/>
    <tag k="heritage" v="2"/>
    <tag k="heritage:operator" v="Historic England"/>
    <tag k="listed_status" v="Grade II"/>
    <tag k="name" v="The Old Rectory"/>
    <tag k="source" v="bing"/>
  </way>
  <way id="220893426" version="10" timestamp="2021-03-25T21:50:59Z" changeset="101746091" uid="145231" user="woodpeck_repair">
    <nd ref="2299739267"/>
    <nd ref="2520919542"/>
    <nd ref="2299739233"/>
    <nd ref="2299739235"/>
    <nd ref="2299739237"/>
    <nd ref="2299739239"/>
    <nd ref="2299739229"/>
    <nd ref="2299739231"/>
    <nd ref="2299739267"/>
    <tag k="building" v="residential"/>
    <tag k="heritage" v="2"/>
    <tag k="heritage:operator" v="Historic England"/>
    <tag k="listed_status" v="Grade II*"/>
    <tag k="name" v="Priory Farmhouse"/>
    <tag k="source" v="bing"/>
  </way>
  <way id="244820833" version="5" timestamp="2025-05-17T20:00:18Z" changeset="166407062" uid="22318191" user="Feathers McGraw">
    <nd ref="1240918280"/>
    <nd ref="1240918404"/>
    <nd ref="2262559"/>
    <nd ref="10272055669"/>
    <nd ref="2262560"/>
    <nd ref="1240918242"/>
    <nd ref="2262561"/>
    <nd ref="2262562"/>
    <nd ref="2262563"/>
    <nd ref="2262564"/>
    <nd ref="2382565"/>
    <tag k="highway" v="tertiary"/>
    <tag k="lanes" v="2"/>
    <tag k="maxspeed" v="40 mph"/>
    <tag k="name" v="Green End Road"/>
    <tag k="source" v="survey"/>
    <tag k="source:maxspeed" v="survey"/>
    <tag k="surface" v="paved"/>
  </way>
  <way id="244820834" version="7" timestamp="2025-05-17T20:00:18Z" changeset="166407062" uid="22318191" user="Feathers McGraw">
    <nd ref="2520919639"/>
    <nd ref="2262577"/>
    <nd ref="1241018813"/>
    <nd ref="2262578"/>
    <nd ref="2382566"/>
    <nd ref="2382567"/>
    <nd ref="2382568"/>
    <nd ref="2382569"/>
    <nd ref="2382570"/>
    <nd ref="2382571"/>
    <nd ref="2382572"/>
    <nd ref="2382573"/>
    <nd ref="1241018818"/>
    <nd ref="2382574"/>
    <nd ref="1241018807"/>
    <nd ref="3588251459"/>
    <nd ref="2382575"/>
    <nd ref="3588251489"/>
    <nd ref="2382576"/>
    <nd ref="3588251642"/>
    <nd ref="2382577"/>
    <nd ref="2382578"/>
    <nd ref="2299700219"/>
    <nd ref="3588251794"/>
    <nd ref="2382579"/>
    <nd ref="2299700226"/>
    <nd ref="3586415973"/>
    <nd ref="2382580"/>
    <nd ref="3586415974"/>
    <nd ref="2382581"/>
    <nd ref="2382582"/>
    <tag k="gritting" v="yes"/>
    <tag k="gritting_depot" v="Coleshill Heath Road"/>
    <tag k="gritting_operator" v="Warwickshire County Council"/>
    <tag k="gritting_route_ref" v="3"/>
    <tag k="gritting_route_revision" v="201105"/>
    <tag k="highway" v="tertiary"/>
    <tag k="highway_authority_ref" v="C15"/>
    <tag k="lanes" v="2"/>
    <tag k="maintenance" v="gritting"/>
    <tag k="maxspeed" v="60 mph"/>
    <tag k="maxspeed:type" v="GB:nsl_single"/>
    <tag k="name" v="New End Road"/>
    <tag k="source" v="Warwicks Aerial Imagery OGLv2"/>
    <tag k="surface" v="paved"/>
  </way>
  <way id="244823598" version="5" timestamp="2021-08-25T11:09:05Z" changeset="110224480" uid="10170582" user="priymose">
    <nd ref="2299763330"/>
    <nd ref="2382555"/>
    <nd ref="2299763332"/>
    <nd ref="2382556"/>
    <nd ref="2382557"/>
    <nd ref="2382558"/>
    <nd ref="2299763340"/>
    <nd ref="2382559"/>
    <nd ref="2299763350"/>
    <nd ref="2299763355"/>
    <nd ref="2382560"/>
    <nd ref="2382561"/>
    <nd ref="8559991665"/>
    <nd ref="8559991663"/>
    <nd ref="2382562"/>
    <nd ref="9034640751"/>
    <nd ref="2520955912"/>
    <nd ref="2520955914"/>
    <nd ref="2382563"/>
    <nd ref="2520919537"/>
    <nd ref="2382564"/>
    <nd ref="2382565"/>
    <tag k="gritting" v="yes"/>
    <tag k="gritting_depot" v="Coleshill Heath Road"/>
    <tag k="gritting_operator" v="Warwickshire County Council"/>
    <tag k="gritting_route_ref" v="3"/>
    <tag k="gritting_route_revision" v="201105"/>
    <tag k="highway" v="tertiary"/>
    <tag k="highway_authority_ref" v="C15"/>
    <tag k="maintenance" v="gritting"/>
    <tag k="maxspeed" v="40 mph"/>
    <tag k="name" v="Packington Lane"/>
    <tag k="source:maxspeed" v="survey"/>
    <tag k="surface" v="paved"/>
  </way>
  <way id="250919631" version="4" timestamp="2021-07-19T07:41:50Z" changeset="108228857" uid="133272" user="wongataa">
    <nd ref="1240918027"/>
    <nd ref="2572565491"/>
    <nd ref="1240918056"/>
    <tag k="highway" v="unclassified"/>
  </way>
  <way id="265080375" version="2" timestamp="2021-07-19T07:41:50Z" changeset="108228857" uid="133272" user="wongataa">
    <nd ref="1240918027"/>
    <nd ref="1240918275"/>
    <nd ref="254765947"/>
    <tag k="highway" v="unclassified"/>
    <tag k="source" v="NPE"/>
  </way>
  <way id="265080376" version="2" timestamp="2021-07-19T07:41:50Z" changeset="108228857" uid="133272" user="wongataa">
    <nd ref="1240918056"/>
    <nd ref="793836581"/>
    <tag k="highway" v="unclassified"/>
    <tag k="name" v="Cow Lane"/>
    <tag k="source" v="NPE"/>
  </way>
  <way id="352864799" version="1" timestamp="2015-06-10T18:10:25Z" changeset="31878276" uid="9065" user="brianboru">
    <nd ref="2262645"/>
    <nd ref="3586416326"/>
    <nd ref="3586416328"/>
    <nd ref="3586416330"/>
    <tag k="highway" v="unclassified"/>
    <tag k="name" v="Arnolds Lane"/>
    <tag k="source" v="Warwicks Aerial Imagery OGLv2"/>
  </way>
  <way id="352864800" version="3" timestamp="2019-04-13T00:39:44Z" changeset="69165871" uid="322039" user="MacLondon">
    <nd ref="13787934"/>
    <nd ref="3586416362"/>
    <nd ref="13787936"/>
    <nd ref="13787935"/>
    <nd ref="1241012216"/>
    <nd ref="3586416333"/>
    <nd ref="3586416320"/>
    <nd ref="2382587"/>
    <tag k="gritting" v="yes"/>
    <tag k="gritting_depot" v="Coleshill Heath Road"/>
    <tag k="gritting_operator" v="Warwickshire County Council"/>
    <tag k="gritting_route_ref" v="3"/>
    <tag k="gritting_route_revision" v="201105"/>
    <tag k="highway" v="tertiary"/>
    <tag k="highway_authority_ref" v="C14"/>
    <tag k="maintenance" v="gritting"/>
    <tag k="maxspeed" v="40 mph"/>
    <tag k="name" v="Castle Lane"/>
    <tag k="surface" v="paved"/>
  </way>
  <way id="352864801" version="2" timestamp="2021-08-20T10:17:31Z" changeset="109978721" uid="10170582" user="priymose">
    <nd ref="2382589"/>
    <nd ref="3586416291"/>
    <nd ref="2382590"/>
    <nd ref="3586416279"/>
    <nd ref="1241012221"/>
    <nd ref="2382591"/>
    <nd ref="1241012230"/>
    <nd ref="2382592"/>
    <nd ref="1241012218"/>
    <nd ref="3586416323"/>
    <nd ref="2382593"/>
    <nd ref="2382594"/>
    <nd ref="1241012228"/>
    <nd ref="2382595"/>
    <nd ref="3586416329"/>
    <nd ref="2382596"/>
    <nd ref="2382597"/>
    <nd ref="1241010089"/>
    <nd ref="2382598"/>
    <nd ref="2294731606"/>
    <nd ref="2382599"/>
    <nd ref="1241010091"/>
    <nd ref="2382600"/>
    <nd ref="1241010072"/>
    <nd ref="3586416331"/>
    <nd ref="2382601"/>
    <nd ref="1241010074"/>
    <nd ref="2294721015"/>
    <nd ref="2382602"/>
    <nd ref="9022443163"/>
    <nd ref="1241010076"/>
    <nd ref="2382603"/>
    <nd ref="1241010090"/>
    <nd ref="3586416330"/>
    <nd ref="2382604"/>
    <nd ref="2262648"/>
    <tag k="gritting" v="yes"/>
    <tag k="gritting_depot" v="Coleshill Heath Road"/>
    <tag k="gritting_operator" v="Warwickshire County Council"/>
    <tag k="gritting_route_ref" v="3"/>
    <tag k="gritting_route_revision" v="201105"/>
    <tag k="highway" v="tertiary"/>
    <tag k="highway_authority_ref" v="C14"/>
    <tag k="maintenance" v="gritting"/>
    <tag k="name" v="Coleshill Road"/>
    <tag k="source" v="bing"/>
  </way>
  <way id="352864802" version="4" timestamp="2025-05-17T20:00:18Z" changeset="166407062" uid="22318191" user="Feathers McGraw">
    <nd ref="12844814960"/>
    <nd ref="1240918191"/>
    <nd ref="254765851"/>
    <nd ref="1240918097"/>
    <nd ref="5762930192"/>
    <nd ref="254765856"/>
    <nd ref="1240917957"/>
    <nd ref="5762930191"/>
    <nd ref="254765858"/>
    <nd ref="1240918051"/>
    <nd ref="1240918355"/>
    <nd ref="254765860"/>
    <nd ref="254765861"/>
    <nd ref="5762930188"/>
    <nd ref="1240917987"/>
    <nd ref="5762930186"/>
    <nd ref="254765863"/>
    <nd ref="1240342885"/>
    <nd ref="799904537"/>
    <nd ref="254765864"/>
    <nd ref="1240918292"/>
    <nd ref="799904538"/>
    <nd ref="254765865"/>
    <nd ref="1240918450"/>
    <nd ref="1240342892"/>
    <nd ref="254765869"/>
    <nd ref="254765870"/>
    <nd ref="1240918038"/>
    <nd ref="1240918140"/>
    <nd ref="254765871"/>
    <nd ref="1240918164"/>
    <nd ref="254765873"/>
    <nd ref="1240918066"/>
    <nd ref="254765875"/>
    <nd ref="1240918260"/>
    <nd ref="254765890"/>
    <nd ref="1240918019"/>
    <nd ref="254765892"/>
    <nd ref="1240918419"/>
    <nd ref="799887767"/>
    <nd ref="1240918119"/>
    <nd ref="1240918352"/>
    <nd ref="1240918214"/>
    <nd ref="254765893"/>
    <nd ref="1240918151"/>
    <nd ref="1240918240"/>
    <nd ref="254765895"/>
    <nd ref="254765896"/>
    <nd ref="1240918395"/>
    <nd ref="1240918009"/>
    <nd ref="1240918107"/>
    <nd ref="254765901"/>
    <nd ref="1240918200"/>
    <tag k="highway" v="unclassified"/>
    <tag k="lanes" v="1"/>
    <tag k="maxspeed" v="60 mph"/>
    <tag k="maxspeed:type" v="GB:nsl_single"/>
    <tag k="name" v="Fillongley Road"/>
    <tag k="source" v="NPE"/>
    <tag k="surface" v="paved"/>
  </way>
  <way id="352864807" version="3" timestamp="2025-05-17T20:00:18Z" changeset="166407062" uid="22318191" user="Feathers McGraw">
    <nd ref="2382582"/>
    <nd ref="3586415979"/>
    <nd ref="3586415990"/>
    <nd ref="2382583"/>
    <nd ref="3586416208"/>
    <nd ref="2382584"/>
    <tag k="gritting" v="yes"/>
    <tag k="gritting_depot" v="Coleshill Heath Road"/>
    <tag k="gritting_operator" v="Warwickshire County Council"/>
    <tag k="gritting_route_ref" v="3"/>
    <tag k="gritting_route_revision" v="201105"/>
    <tag k="highway" v="tertiary"/>
    <tag k="highway_authority_ref" v="C15"/>
    <tag k="lanes" v="2"/>
    <tag k="maintenance" v="gritting"/>
    <tag k="maxspeed" v="40 mph"/>
    <tag k="name" v="New End Road"/>
    <tag k="surface" v="paved"/>
  </way>
  <way id="353021952" version="4" timestamp="2021-03-25T21:42:10Z" changeset="101746091" uid="145231" user="woodpeck_repair">
    <nd ref="3588052606"/>
    <nd ref="3588052602"/>
    <nd ref="3588052604"/>
    <nd ref="3588052598"/>
    <nd ref="3588052596"/>
    <nd ref="3588052595"/>
    <nd ref="3588052593"/>
    <nd ref="3588052600"/>
    <nd ref="3588052606"/>
    <tag k="addr:housename" v="Cut Tree Cottage"/>
    <tag k="addr:postcode" v="B46 2QL"/>
    <tag k="addr:street" v="Arnolds Lane"/>
    <tag k="building" v="residential"/>
    <tag k="heritage" v="2"/>
    <tag k="heritage:operator" v="Historic England"/>
    <tag k="listed_status" v="Grade II"/>
    <tag k="name" v="Cut Tree Cottage"/>
    <tag k="source" v="Warwicks Aerial Imagery OGLv2"/>
  </way>
  <way id="442726781" version="11" timestamp="2024-01-22T18:56:44Z" changeset="146565751" uid="16951803" user="Vas111">
    <nd ref="1505623738"/>
    <nd ref="15893374"/>
    <nd ref="1505623735"/>
    <nd ref="199812"/>
    <tag k="carriageway_ref" v="B"/>
    <tag k="highway" v="motorway"/>
    <tag k="lanes" v="3"/>
    <tag k="lit" v="yes"/>
    <tag k="maxspeed" v="70 mph"/>
    <tag k="maxspeed:type" v="GB:motorway"/>
    <tag k="national_highways:area" v="9"/>
    <tag k="oneway" v="yes"/>
    <tag k="operator" v="National Highways"/>
    <tag k="operator:wikidata" v="Q5760006"/>
    <tag k="proposed:active_traffic_management" v="yes"/>
    <tag k="ref" v="M6"/>
    <tag k="surface" v="asphalt"/>
  </way>
  <way id="485110107" version="8" timestamp="2023-03-13T23:30:15Z" changeset="133645225" uid="5589" user="user_5589">
    <nd ref="4778790190"/>
    <nd ref="4778790195"/>
    <tag k="bicycle" v="no"/>
    <tag k="bridge" v="yes"/>
    <tag k="carriageway_ref" v="B"/>
    <tag k="highway" v="motorway"/>
    <tag k="int_ref" v="E 24"/>
    <tag k="lanes" v="4"/>
    <tag k="layer" v="1"/>
    <tag k="lit" v="no"/>
    <tag k="maxspeed" v="70 mph"/>
    <tag k="maxspeed:type" v="GB:motorway"/>
    <tag k="national_highways:area" v="9"/>
    <tag k="oneway" v="yes"/>
    <tag k="operator" v="National Highways"/>
    <tag k="operator:wikidata" v="Q5760006"/>
    <tag k="parking:both" v="no"/>
    <tag k="parking:both:restriction" v="no_stopping"/>
    <tag k="proposed:active_traffic_management" v="yes"/>
    <tag k="ref" v="M6"/>
    <tag k="surface" v="asphalt"/>
  </way>
  <way id="485110108" version="10" timestamp="2024-01-22T18:56:44Z" changeset="146565751" uid="16951803" user="Vas111">
    <nd ref="4778790195"/>
    <nd ref="208662"/>
    <nd ref="203129"/>
    <nd ref="2021102507"/>
    <nd ref="15894178"/>
    <nd ref="2021102530"/>
    <nd ref="208656"/>
    <nd ref="1434642624"/>
    <tag k="carriageway_ref" v="B"/>
    <tag k="highway" v="motorway"/>
    <tag k="int_ref" v="E 24"/>
    <tag k="lanes" v="4"/>
    <tag k="lit" v="no"/>
    <tag k="maxheight" v="default"/>
    <tag k="maxspeed" v="70 mph"/>
    <tag k="maxspeed:type" v="GB:motorway"/>
    <tag k="national_highways:area" v="9"/>
    <tag k="oneway" v="yes"/>
    <tag k="operator" v="National Highways"/>
    <tag k="operator:wikidata" v="Q5760006"/>
    <tag k="proposed:active_traffic_management" v="yes"/>
    <tag k="ref" v="M6"/>
    <tag k="surface" v="asphalt"/>
  </way>
  <way id="485110109" version="9" timestamp="2023-03-13T23:30:15Z" changeset="133645225" uid="5589" user="user_5589">
    <nd ref="4778790194"/>
    <nd ref="4778790191"/>
    <tag k="bicycle" v="no"/>
    <tag k="bridge" v="yes"/>
    <tag k="carriageway_ref" v="A"/>
    <tag k="foot" v="no"/>
    <tag k="highway" v="motorway"/>
    <tag k="int_ref" v="E 24"/>
    <tag k="lanes" v="3"/>
    <tag k="layer" v="1"/>
    <tag k="lit" v="no"/>
    <tag k="maxspeed" v="70 mph"/>
    <tag k="maxspeed:type" v="GB:motorway"/>
    <tag k="national_highways:area" v="9"/>
    <tag k="oneway" v="yes"/>
    <tag k="operator" v="National Highways"/>
    <tag k="operator:wikidata" v="Q5760006"/>
    <tag k="parking:both" v="no"/>
    <tag k="parking:both:restriction" v="no_stopping"/>
    <tag k="proposed:active_traffic_management" v="yes"/>
    <tag k="ref" v="M6"/>
    <tag k="surface" v="asphalt"/>
  </way>
  <way id="485110110" version="9" timestamp="2024-01-22T18:56:44Z" changeset="146565751" uid="16951803" user="Vas111">
    <nd ref="4778790191"/>
    <nd ref="1556744950"/>
    <tag k="carriageway_ref" v="A"/>
    <tag k="highway" v="motorway"/>
    <tag k="int_ref" v="E 24"/>
    <tag k="lanes" v="3"/>
    <tag k="lit" v="no"/>
    <tag k="maxspeed" v="70 mph"/>
    <tag k="maxspeed:type" v="GB:motorway"/>
    <tag k="national_highways:area" v="9"/>
    <tag k="oneway" v="yes"/>
    <tag k="operator" v="National Highways"/>
    <tag k="operator:wikidata" v="Q5760006"/>
    <tag k="proposed:active_traffic_management" v="yes"/>
    <tag k="ref" v="M6"/>
    <tag k="surface" v="asphalt"/>
  </way>
  <way id="832320459" version="1" timestamp="2020-07-30T17:30:22Z" changeset="88745762" uid="133272" user="wongataa">
    <nd ref="253215011"/>
    <nd ref="253215012"/>
    <tag k="highway" v="unclassified"/>
    <tag k="name" v="Bentley Lane"/>
    <tag k="surface" v="paved"/>
  </way>
  <way id="1387609028" version="1" timestamp="2025-05-17T20:00:18Z" changeset="166407062" uid="22318191" user="Feathers McGraw">
    <nd ref="3586416288"/>
    <nd ref="254762104"/>
    <nd ref="254762108"/>
    <nd ref="1240918184"/>
    <nd ref="254762113"/>
    <nd ref="1240918299"/>
    <nd ref="1240917951"/>
    <nd ref="1240918044"/>
    <nd ref="254765843"/>
    <nd ref="1240917978"/>
    <nd ref="1240918071"/>
    <nd ref="254765845"/>
    <nd ref="1240918169"/>
    <nd ref="1240918272"/>
    <nd ref="1240918427"/>
    <nd ref="254765846"/>
    <nd ref="1240918022"/>
    <nd ref="1240918123"/>
    <nd ref="1240918276"/>
    <nd ref="1240918217"/>
    <nd ref="799887813"/>
    <nd ref="1240918059"/>
    <nd ref="1240918158"/>
    <nd ref="1240918252"/>
    <nd ref="8256094686"/>
    <nd ref="1240983286"/>
    <nd ref="1240918409"/>
    <nd ref="1240918013"/>
    <nd ref="254765847"/>
    <nd ref="1240918113"/>
    <nd ref="254765849"/>
    <nd ref="1240918342"/>
    <nd ref="1240918208"/>
    <nd ref="1240918230"/>
    <nd ref="1240917997"/>
    <nd ref="5762930199"/>
    <nd ref="1240983116"/>
    <nd ref="254765850"/>
    <nd ref="5762930193"/>
    <nd ref="12844814960"/>
    <tag k="highway" v="unclassified"/>
    <tag k="lanes" v="2"/>
    <tag k="maxspeed" v="60 mph"/>
    <tag k="maxspeed:type" v="GB:nsl_single"/>
    <tag k="name" v="Fillongley Road"/>
    <tag k="source" v="NPE"/>
  </way>
  <relation id="317958" version="5" timestamp="2019-05-30T17:50:28Z" changeset="70780925" uid="9065" user="brianboru">
    <member type="way" ref="44022071" role="outer"/>
    <member type="way" ref="44022073" role="inner"/>
    <tag k="building" v="yes"/>
    <tag k="castle_type" v="defensive"/>
    <tag k="heritage" v="2"/>
    <tag k="heritage:operator" v="Historic England"/>
    <tag k="historic" v="castle"/>
    <tag k="listed_status" v="Grade I"/>
    <tag k="name" v="Maxstoke Castle"/>
    <tag k="source" v="OOC 1:25K"/>
    <tag k="type" v="multipolygon"/>
    <tag k="wikidata" v="Q6796030"/>
    <tag k="wikipedia" v="en:Maxstoke Castle"/>
  </relation>

</osm>
