<?xml version="1.0" encoding="UTF-8"?>
<osm version="0.6" generator="Overpass API 0.7.62.8 e802775f">
<note>The data included in this document is from www.openstreetmap.org. The data is made available under ODbL.</note>
<meta osm_base="2025-10-23T16:51:45Z" areas="2025-10-23T12:46:58Z"/>

  <node id="25289915" lat="52.0502437" lon="-1.5015196" version="10" timestamp="2013-04-06T08:24:39Z" changeset="15629262" uid="9065" user="brianboru"/>
  <node id="772256803" lat="52.0253761" lon="-1.5112200" version="4" timestamp="2012-05-13T08:57:08Z" changeset="11583572" uid="9065" user="brianboru"/>
  <node id="1540763204" lat="52.0252820" lon="-1.5111516" version="5" timestamp="2021-04-01T15:27:05Z" changeset="102136393" uid="30587" user="IknowJoseph">
    <tag k="ford" v="yes"/>
    <tag k="name" v="Traitor's Ford"/>
    <tag k="source" v="survey"/>
    <tag k="wikidata" v="Q7833030"/>
  </node>
  <node id="1540780214" lat="52.0484646" lon="-1.5503499" version="2" timestamp="2019-04-08T15:14:42Z" changeset="69011214" uid="9065" user="brianboru"/>
  <node id="1546097459" lat="52.0842684" lon="-1.5363099" version="2" timestamp="2013-12-01T13:39:30Z" changeset="19210487" uid="9065" user="brianboru"/>
  <node id="1546097590" lat="52.0676083" lon="-1.5123383" version="1" timestamp="2011-12-14T17:46:41Z" changeset="10117896" uid="165" user="Richard"/>
  <node id="1546097799" lat="52.0801811" lon="-1.5539696" version="2" timestamp="2013-12-01T13:39:30Z" changeset="19210487" uid="9065" user="brianboru"/>
  <node id="1546097828" lat="52.0676614" lon="-1.5120094" version="2" timestamp="2012-01-11T22:38:15Z" changeset="10365391" uid="445666" user="SomePlaceMapperCT"/>
  <node id="1546098451" lat="52.0728510" lon="-1.4896141" version="3" timestamp="2013-10-29T13:26:03Z" changeset="18601476" uid="9065" user="brianboru"/>
  <node id="1546098921" lat="52.0668144" lon="-1.5367034" version="2" timestamp="2013-11-03T15:33:22Z" changeset="18696141" uid="9065" user="brianboru"/>
  <node id="1550251691" lat="52.0599913" lon="-1.6168439" version="1" timestamp="2011-12-17T13:04:37Z" changeset="10138173" uid="165" user="Richard"/>
  <node id="1592862632" lat="52.0326021" lon="-1.5239985" version="1" timestamp="2012-01-16T13:31:23Z" changeset="10408324" uid="165" user="Richard"/>
  <node id="3055747828" lat="52.0295682" lon="-1.5136062" version="1" timestamp="2014-09-02T16:19:01Z" changeset="25185697" uid="1061235" user="extremedogwalkers">
    <tag k="building" v="house"/>
    <tag k="name" v="Lower Atchill Farm"/>
  </node>
  <way id="4745983" version="5" timestamp="2019-04-12T22:40:25Z" changeset="69164215" uid="322039" user="MacLondon">
    <nd ref="1540763204"/>
    <nd ref="772256818"/>
    <tag k="highway" v="unclassified"/>
  </way>
  <way id="25609218" version="10" timestamp="2025-01-02T18:12:26Z" changeset="160919885" uid="5229644" user="Nathan_A_RF">
    <nd ref="1592862632"/>
    <nd ref="1352864323"/>
    <nd ref="1352864366"/>
    <nd ref="1750793795"/>
    <nd ref="279128188"/>
    <nd ref="1750793802"/>
    <nd ref="1750793808"/>
    <nd ref="1750793809"/>
    <nd ref="279128189"/>
    <nd ref="1750793816"/>
    <nd ref="279128190"/>
    <nd ref="279128191"/>
    <nd ref="279128192"/>
    <nd ref="1750793827"/>
    <nd ref="279128193"/>
    <nd ref="279128194"/>
    <nd ref="1750793829"/>
    <nd ref="1750793830"/>
    <nd ref="279128195"/>
    <nd ref="1750793831"/>
    <nd ref="279128196"/>
    <nd ref="279128197"/>
    <nd ref="279128198"/>
    <nd ref="279128199"/>
    <nd ref="1750793903"/>
    <nd ref="1610698092"/>
    <nd ref="1610698093"/>
    <nd ref="279128200"/>
    <nd ref="279128201"/>
    <nd ref="1610698100"/>
    <nd ref="279128202"/>
    <nd ref="279128203"/>
    <nd ref="279128204"/>
    <nd ref="279128205"/>
    <nd ref="279128206"/>
    <nd ref="279128207"/>
    <nd ref="279128208"/>
    <tag k="fixme" v="alignment"/>
    <tag k="highway" v="unclassified"/>
    <tag k="lanes" v="1"/>
    <tag k="maxspeed" v="60 mph"/>
    <tag k="maxspeed:type" v="GB:nsl_single"/>
    <tag k="name" v="Holloway Lane"/>
    <tag k="source" v="NPE"/>
    <tag k="source:maxspeed" v="survey"/>
    <tag k="source:name" v="OS_Locator"/>
  </way>
  <way id="25609242" version="9" timestamp="2013-06-16T15:05:05Z" changeset="16577165" uid="49031" user="craigloftus">
    <nd ref="279128280"/>
    <nd ref="1586342231"/>
    <nd ref="2347751334"/>
    <nd ref="1705640465"/>
    <nd ref="1586342235"/>
    <tag k="highway" v="unclassified"/>
    <tag k="name" v="Lower Green"/>
    <tag k="source" v="NPE"/>
    <tag k="source:name" v="OS_OpenData_Locator"/>
  </way>
  <way id="26436851" version="9" timestamp="2019-08-29T08:14:11Z" changeset="73870213" uid="10221594" user="afurquan">
    <nd ref="1546097799"/>
    <nd ref="1546110216"/>
    <nd ref="2563009254"/>
    <nd ref="1546110213"/>
    <nd ref="289686367"/>
    <nd ref="2562945131"/>
    <nd ref="289686368"/>
    <nd ref="289686369"/>
    <nd ref="6755508057"/>
    <nd ref="2559826795"/>
    <nd ref="289686370"/>
    <nd ref="289686371"/>
    <nd ref="289686372"/>
    <nd ref="2559826826"/>
    <nd ref="289686373"/>
    <nd ref="2559826829"/>
    <nd ref="289686374"/>
    <nd ref="289686375"/>
    <nd ref="289686376"/>
    <nd ref="2559826833"/>
    <nd ref="2559826835"/>
    <nd ref="289686377"/>
    <nd ref="289686378"/>
    <nd ref="289686379"/>
    <nd ref="2559826842"/>
    <nd ref="289686381"/>
    <nd ref="289686382"/>
    <nd ref="2559826848"/>
    <nd ref="2559826850"/>
    <nd ref="2559826852"/>
    <nd ref="289686383"/>
    <nd ref="671826228"/>
    <tag k="highway" v="residential"/>
    <tag k="name" v="Brailes Road"/>
  </way>
  <way id="26436866" version="9" timestamp="2024-01-05T09:06:55Z" changeset="145912324" uid="18869198" user="TB-E">
    <nd ref="1546097799"/>
    <nd ref="2559826771"/>
    <nd ref="2559826774"/>
    <nd ref="289686463"/>
    <nd ref="289686464"/>
    <nd ref="289686465"/>
    <nd ref="289686466"/>
    <nd ref="2561753818"/>
    <nd ref="2559826781"/>
    <nd ref="1305287245"/>
    <nd ref="8326911114"/>
    <nd ref="2559826788"/>
    <nd ref="2559826791"/>
    <nd ref="1546097459"/>
    <nd ref="1546097467"/>
    <nd ref="1546097455"/>
    <nd ref="1546097437"/>
    <nd ref="1546097430"/>
    <nd ref="6564250162"/>
    <nd ref="1546098507"/>
    <nd ref="1546098501"/>
    <nd ref="1546098484"/>
    <nd ref="1546098481"/>
    <nd ref="1546098478"/>
    <nd ref="1546098473"/>
    <nd ref="1546098354"/>
    <nd ref="6905172436"/>
    <nd ref="1546098340"/>
    <nd ref="1546098335"/>
    <nd ref="1546098332"/>
    <nd ref="1546098329"/>
    <nd ref="1546098326"/>
    <nd ref="1546097994"/>
    <nd ref="1546097991"/>
    <nd ref="1546097965"/>
    <nd ref="1546097961"/>
    <nd ref="1546097951"/>
    <nd ref="1546097936"/>
    <nd ref="1546097928"/>
    <nd ref="1546097925"/>
    <nd ref="1546097917"/>
    <nd ref="1546097885"/>
    <nd ref="1546097878"/>
    <nd ref="1546098064"/>
    <nd ref="1546098017"/>
    <nd ref="8026024226"/>
    <nd ref="1546097668"/>
    <nd ref="1546098419"/>
    <nd ref="420421942"/>
    <nd ref="1546097484"/>
    <nd ref="1546097427"/>
    <nd ref="1546097795"/>
    <nd ref="11491185538"/>
    <nd ref="2895105057"/>
    <nd ref="2895105058"/>
    <nd ref="1546098360"/>
    <nd ref="2895105060"/>
    <nd ref="1546097604"/>
    <nd ref="2559810780"/>
    <nd ref="1546097559"/>
    <nd ref="2559810787"/>
    <nd ref="1546097568"/>
    <nd ref="6465396628"/>
    <nd ref="1546097523"/>
    <tag k="highway" v="unclassified"/>
    <tag k="source" v="NPE"/>
  </way>
  <way id="37264707" version="6" timestamp="2013-06-04T09:38:29Z" changeset="16417147" uid="782788" user="GordonFS">
    <nd ref="13797361"/>
    <nd ref="1750813045"/>
    <nd ref="25289921"/>
    <nd ref="25289920"/>
    <nd ref="13797679"/>
    <nd ref="25289919"/>
    <nd ref="25289917"/>
    <nd ref="1270116267"/>
    <nd ref="2252168403"/>
    <nd ref="25289915"/>
    <tag k="highway" v="secondary"/>
    <tag k="lanes" v="2"/>
    <tag k="ref" v="B4035"/>
  </way>
  <way id="38304745" version="5" timestamp="2019-04-08T15:14:44Z" changeset="69011214" uid="9065" user="brianboru">
    <nd ref="452074465"/>
    <nd ref="1827305939"/>
    <nd ref="452074466"/>
    <nd ref="6391257192"/>
    <nd ref="6391257191"/>
    <nd ref="1586342263"/>
    <nd ref="452074467"/>
    <nd ref="6391257190"/>
    <nd ref="1586342260"/>
    <nd ref="452074468"/>
    <nd ref="1610633623"/>
    <nd ref="452074471"/>
    <nd ref="452074472"/>
    <tag k="highway" v="unclassified"/>
  </way>
  <way id="38304746" version="3" timestamp="2019-04-08T15:14:44Z" changeset="69011214" uid="9065" user="brianboru">
    <nd ref="452074473"/>
    <nd ref="1750825931"/>
    <nd ref="452074474"/>
    <nd ref="6391257208"/>
    <nd ref="452074471"/>
    <tag k="highway" v="unclassified"/>
  </way>
  <way id="38304747" version="3" timestamp="2019-04-08T15:14:44Z" changeset="69011214" uid="9065" user="brianboru">
    <nd ref="452074468"/>
    <nd ref="452074476"/>
    <nd ref="452074464"/>
    <tag k="highway" v="unclassified"/>
  </way>
  <way id="38304748" version="2" timestamp="2012-01-29T15:41:46Z" changeset="10531268" uid="9065" user="brianboru">
    <nd ref="452074476"/>
    <nd ref="1610633612"/>
    <nd ref="452074477"/>
    <nd ref="1610633598"/>
    <nd ref="452074478"/>
    <tag k="highway" v="unclassified"/>
  </way>
  <way id="38304749" version="6" timestamp="2024-02-23T12:47:38Z" changeset="147810678" uid="84263" user="Robert Whittaker">
    <nd ref="452074479"/>
    <nd ref="452074480"/>
    <nd ref="452074481"/>
    <nd ref="1650514124"/>
    <tag k="designation" v="public_footpath"/>
    <tag k="foot" v="designated"/>
    <tag k="highway" v="unclassified"/>
    <tag k="name" v="Butchers Lane"/>
    <tag k="prow_ref" v="SS44"/>
    <tag k="surface" v="gravel"/>
  </way>
  <way id="38304750" version="4" timestamp="2013-06-16T15:05:04Z" changeset="16577165" uid="49031" user="craigloftus">
    <nd ref="452074484"/>
    <nd ref="452074485"/>
    <nd ref="1616837172"/>
    <nd ref="452074486"/>
    <nd ref="1648544818"/>
    <nd ref="2347751351"/>
    <nd ref="452074487"/>
    <nd ref="1616837241"/>
    <nd ref="452074488"/>
    <tag k="highway" v="unclassified"/>
    <tag k="name" v="Friars Lane"/>
  </way>
  <way id="38336196" version="5" timestamp="2024-02-23T12:45:10Z" changeset="147810557" uid="84263" user="Robert Whittaker">
    <nd ref="2347751346"/>
    <nd ref="452666981"/>
    <nd ref="452666983"/>
    <nd ref="452666982"/>
    <nd ref="1648544759"/>
    <nd ref="1648544764"/>
    <nd ref="1648544771"/>
    <nd ref="1648544769"/>
    <nd ref="1648544780"/>
    <nd ref="1648544784"/>
    <nd ref="1648544787"/>
    <nd ref="1648544786"/>
    <nd ref="1648544782"/>
    <nd ref="1648544779"/>
    <nd ref="1648544773"/>
    <nd ref="1648544768"/>
    <nd ref="1648544766"/>
    <nd ref="1648544767"/>
    <nd ref="1648544769"/>
    <tag k="highway" v="unclassified"/>
    <tag k="name" v="Rectory Lane"/>
    <tag k="source" v="GPS"/>
  </way>
  <way id="38336197" version="2" timestamp="2012-02-26T13:24:28Z" changeset="10798076" uid="555600" user="Scroggsie">
    <nd ref="452666983"/>
    <nd ref="452666984"/>
    <nd ref="1648544733"/>
    <nd ref="1648544735"/>
    <nd ref="1648544729"/>
    <tag k="highway" v="unclassified"/>
    <tag k="source" v="bing"/>
  </way>
  <way id="38336198" version="3" timestamp="2012-11-30T06:43:39Z" changeset="14095178" uid="4951" user="PeterEastern">
    <nd ref="452666985"/>
    <nd ref="452666986"/>
    <nd ref="452666987"/>
    <tag k="fixme" v="not sure which road around here is actually called the park"/>
    <tag k="highway" v="unclassified"/>
    <tag k="name" v="The Park"/>
    <tag k="source" v="GPS"/>
    <tag k="source:name" v="OS_OpenData_Locator"/>
  </way>
  <way id="38336199" version="4" timestamp="2012-05-13T09:14:31Z" changeset="11583727" uid="9065" user="brianboru">
    <nd ref="452666987"/>
    <nd ref="1750813041"/>
    <nd ref="452666993"/>
    <tag k="highway" v="unclassified"/>
    <tag k="name" v="Cow Lane"/>
    <tag k="source" v="GPS"/>
  </way>
  <way id="38688733" version="3" timestamp="2019-04-08T10:07:46Z" changeset="69000835" uid="9065" user="brianboru">
    <nd ref="458390777"/>
    <nd ref="1616877571"/>
    <nd ref="458390780"/>
    <nd ref="6390466136"/>
    <nd ref="458390783"/>
    <nd ref="458390793"/>
    <tag k="highway" v="residential"/>
    <tag k="name" v="School Lane"/>
    <tag k="source" v="GPS"/>
  </way>
  <way id="38688922" version="4" timestamp="2025-03-17T02:11:09Z" changeset="163712328" uid="493595" user="Yorvik Prestigitator">
    <nd ref="458395773"/>
    <nd ref="458395777"/>
    <nd ref="458395785"/>
    <nd ref="458395745"/>
    <nd ref="12671185222"/>
    <nd ref="3647276105"/>
    <nd ref="458395743"/>
    <nd ref="3647276107"/>
    <nd ref="3647276108"/>
    <nd ref="3647276109"/>
    <nd ref="458395732"/>
    <nd ref="3647276110"/>
    <nd ref="3647276111"/>
    <nd ref="3647276112"/>
    <nd ref="458395731"/>
    <nd ref="3647276114"/>
    <nd ref="3647276115"/>
    <nd ref="1586342250"/>
    <nd ref="3647276116"/>
    <nd ref="458395729"/>
    <nd ref="1540780120"/>
    <tag k="highway" v="residential"/>
    <tag k="name" v="Jeffs Close"/>
    <tag k="source" v="GPS"/>
  </way>
  <way id="38688933" version="5" timestamp="2020-12-28T09:57:02Z" changeset="96525498" uid="10170582" user="priymose">
    <nd ref="1586342241"/>
    <nd ref="458396320"/>
    <nd ref="458396321"/>
    <nd ref="6391256626"/>
    <nd ref="2529073305"/>
    <nd ref="458396322"/>
    <nd ref="8266374873"/>
    <nd ref="2529073283"/>
    <nd ref="458396323"/>
    <nd ref="6391256627"/>
    <nd ref="458396326"/>
    <nd ref="6391256628"/>
    <nd ref="2529073276"/>
    <nd ref="458396328"/>
    <nd ref="458396330"/>
    <nd ref="2529073281"/>
    <nd ref="458396332"/>
    <nd ref="2529073320"/>
    <nd ref="458396335"/>
    <tag k="highway" v="residential"/>
    <tag k="name" v="Orchard Close"/>
    <tag k="source" v="GPS"/>
  </way>
  <way id="38689348" version="2" timestamp="2012-02-26T00:46:44Z" changeset="10793684" uid="555600" user="Scroggsie">
    <nd ref="458401337"/>
    <nd ref="458401338"/>
    <nd ref="458401339"/>
    <nd ref="458401340"/>
    <tag k="highway" v="residential"/>
    <tag k="name" v="Blakes Close"/>
    <tag k="source" v="GPS"/>
  </way>
  <way id="39052930" version="1" timestamp="2009-08-14T19:20:08Z" changeset="2146173" uid="51046" user="clive_4332">
    <nd ref="466113907"/>
    <nd ref="466113914"/>
    <nd ref="466113928"/>
    <tag k="highway" v="residential"/>
    <tag k="name" v="Blew Gates"/>
    <tag k="source" v="GPS"/>
  </way>
  <way id="39052943" version="2" timestamp="2012-01-11T22:38:07Z" changeset="10365391" uid="445666" user="SomePlaceMapperCT">
    <nd ref="466113914"/>
    <nd ref="466114065"/>
    <tag k="highway" v="residential"/>
    <tag k="name" v="Blew Gates"/>
    <tag k="source" v="GPS"/>
  </way>
  <way id="61942581" version="2" timestamp="2019-04-12T22:41:15Z" changeset="69164215" uid="322039" user="MacLondon">
    <nd ref="772256818"/>
    <nd ref="772256803"/>
    <tag k="highway" v="unclassified"/>
  </way>
  <way id="61942583" version="6" timestamp="2014-11-16T08:50:52Z" changeset="26816617" uid="38588" user="mentor">
    <nd ref="25289915"/>
    <nd ref="2252168404"/>
    <nd ref="25289916"/>
    <nd ref="13797675"/>
    <nd ref="25289914"/>
    <nd ref="25289913"/>
    <nd ref="1270116701"/>
    <nd ref="25289912"/>
    <nd ref="25289911"/>
    <nd ref="25289910"/>
    <tag k="highway" v="secondary"/>
    <tag k="ref" v="B4035"/>
    <tag k="source" v="survey"/>
  </way>
  <way id="61942586" version="9" timestamp="2019-04-12T22:41:15Z" changeset="69164215" uid="322039" user="MacLondon">
    <nd ref="772256803"/>
    <nd ref="1270259427"/>
    <nd ref="1540763194"/>
    <nd ref="1270259465"/>
    <nd ref="1270259440"/>
    <nd ref="1540763183"/>
    <nd ref="1270259449"/>
    <nd ref="1270259463"/>
    <nd ref="30246801"/>
    <nd ref="1270259424"/>
    <nd ref="1270263027"/>
    <nd ref="1540763180"/>
    <nd ref="2521127529"/>
    <nd ref="2521127533"/>
    <nd ref="2521127538"/>
    <nd ref="1540763172"/>
    <nd ref="1540763156"/>
    <nd ref="1540763149"/>
    <nd ref="1540763163"/>
    <nd ref="30246810"/>
    <nd ref="30246811"/>
    <nd ref="1540763144"/>
    <nd ref="30246812"/>
    <nd ref="30246813"/>
    <nd ref="30246814"/>
    <nd ref="1540763138"/>
    <nd ref="30246815"/>
    <nd ref="2041530487"/>
    <tag k="highway" v="unclassified"/>
    <tag k="lanes" v="1"/>
  </way>
  <way id="111509163" version="2" timestamp="2014-09-02T16:19:02Z" changeset="25185697" uid="1061235" user="extremedogwalkers">
    <nd ref="1270263044"/>
    <nd ref="1270263015"/>
    <nd ref="1270263035"/>
    <nd ref="1270262973"/>
    <nd ref="1270263011"/>
    <nd ref="1270263048"/>
    <nd ref="1270262984"/>
    <nd ref="1270263028"/>
    <nd ref="1270262957"/>
    <nd ref="1270262997"/>
    <nd ref="1270263044"/>
    <tag k="building" v="yes"/>
    <tag k="name" v="Lower Atchhill Farm"/>
    <tag k="source" v="bing"/>
  </way>
  <way id="138012939" version="3" timestamp="2025-03-17T02:11:09Z" changeset="163712328" uid="493595" user="Yorvik Prestigitator">
    <nd ref="1513266612"/>
    <nd ref="1513266711"/>
    <nd ref="1513266757"/>
    <nd ref="1513266735"/>
    <nd ref="1513266653"/>
    <nd ref="1513266602"/>
    <nd ref="1513266686"/>
    <nd ref="1513266682"/>
    <nd ref="1513266612"/>
    <tag k="addr:street" v="Castle Hill Lane"/>
    <tag k="amenity" v="community_centre"/>
    <tag k="building" v="public"/>
    <tag k="community_centre" v="village_hall"/>
    <tag k="name" v="Brailes Village Hall"/>
    <tag k="source" v="visual survey;bing"/>
  </way>
  <way id="138012943" version="9" timestamp="2023-11-30T20:41:20Z" changeset="144639610" uid="504708" user="HillWithSmallFields">
    <nd ref="1513266455"/>
    <nd ref="1513266667"/>
    <nd ref="1513266662"/>
    <nd ref="1513266658"/>
    <nd ref="1616837252"/>
    <nd ref="1616837244"/>
    <nd ref="1616837248"/>
    <nd ref="1616837263"/>
    <nd ref="1513266655"/>
    <nd ref="1513266580"/>
    <nd ref="1513266690"/>
    <nd ref="1513266513"/>
    <nd ref="1513266567"/>
    <nd ref="1513266514"/>
    <nd ref="1513266608"/>
    <nd ref="1513266661"/>
    <nd ref="1513266687"/>
    <nd ref="1513266684"/>
    <nd ref="1513266455"/>
    <tag k="amenity" v="place_of_worship"/>
    <tag k="building" v="church"/>
    <tag k="denomination" v="anglican"/>
    <tag k="heritage" v="2"/>
    <tag k="heritage:operator" v="Historic England"/>
    <tag k="listed_status" v="Grade I"/>
    <tag k="name" v="St George"/>
    <tag k="ref:dove" v="16294"/>
    <tag k="religion" v="christian"/>
    <tag k="wikidata" v="Q17528286"/>
  </way>
  <way id="140685567" version="21" timestamp="2025-03-17T02:11:09Z" changeset="163712328" uid="493595" user="Yorvik Prestigitator">
    <nd ref="13797360"/>
    <nd ref="1610634558"/>
    <nd ref="25289962"/>
    <nd ref="6178039455"/>
    <nd ref="1610634548"/>
    <nd ref="25289963"/>
    <nd ref="1546098505"/>
    <nd ref="1610634532"/>
    <nd ref="1610634527"/>
    <nd ref="13797712"/>
    <nd ref="2518788778"/>
    <nd ref="25289961"/>
    <nd ref="1677045696"/>
    <nd ref="1610634445"/>
    <nd ref="6782462956"/>
    <nd ref="25289960"/>
    <nd ref="1616837523"/>
    <nd ref="25289959"/>
    <nd ref="1610634331"/>
    <nd ref="1610634289"/>
    <nd ref="1540780118"/>
    <nd ref="1616837496"/>
    <nd ref="1610634146"/>
    <nd ref="1540780116"/>
    <nd ref="1610633911"/>
    <nd ref="452074465"/>
    <nd ref="1611098948"/>
    <nd ref="25289957"/>
    <nd ref="13797715"/>
    <nd ref="452074464"/>
    <nd ref="25289956"/>
    <nd ref="25289955"/>
    <nd ref="452074478"/>
    <nd ref="13797717"/>
    <nd ref="1610694327"/>
    <nd ref="25289954"/>
    <nd ref="25289953"/>
    <nd ref="1610694297"/>
    <nd ref="13797716"/>
    <nd ref="1610694295"/>
    <nd ref="6391257233"/>
    <nd ref="1610694293"/>
    <nd ref="25289951"/>
    <nd ref="6390459898"/>
    <nd ref="9070627881"/>
    <nd ref="25289950"/>
    <nd ref="8940768969"/>
    <nd ref="1546098350"/>
    <nd ref="25289949"/>
    <nd ref="6390459897"/>
    <nd ref="25289952"/>
    <nd ref="7257078002"/>
    <nd ref="6178047487"/>
    <nd ref="12671185219"/>
    <nd ref="25289948"/>
    <nd ref="6178047486"/>
    <nd ref="1586342259"/>
    <nd ref="1540780260"/>
    <tag k="highway" v="secondary"/>
    <tag k="lanes" v="2"/>
    <tag k="maxspeed" v="30 mph"/>
    <tag k="ref" v="B4035"/>
    <tag k="source" v="survey"/>
    <tag k="source:maxspeed" v="survey"/>
  </way>
  <way id="140685571" version="7" timestamp="2021-11-08T17:04:09Z" changeset="113530723" uid="9065" user="brianboru">
    <nd ref="1611098889"/>
    <nd ref="1540780241"/>
    <nd ref="1540780133"/>
    <nd ref="1540780136"/>
    <nd ref="1540780137"/>
    <nd ref="1610694054"/>
    <nd ref="1540780204"/>
    <nd ref="1540780208"/>
    <nd ref="1610072338"/>
    <nd ref="1540780251"/>
    <nd ref="1610072335"/>
    <tag k="highway" v="unclassified"/>
    <tag k="lanes" v="1"/>
    <tag k="name" v="Henbrook Lane"/>
    <tag k="source" v="bing"/>
    <tag k="source:name" v="OS_Locator"/>
  </way>
  <way id="140685573" version="16" timestamp="2021-09-13T06:01:38Z" changeset="111123458" uid="11558580" user="jaabhil">
    <nd ref="1540780260"/>
    <nd ref="7853768926"/>
    <nd ref="1540780112"/>
    <nd ref="458401337"/>
    <nd ref="3647276098"/>
    <nd ref="1610072376"/>
    <nd ref="1540780228"/>
    <nd ref="1540780140"/>
    <nd ref="9085510174"/>
    <nd ref="9085510178"/>
    <nd ref="1540780168"/>
    <nd ref="4631840943"/>
    <nd ref="1540780214"/>
    <tag k="highway" v="unclassified"/>
    <tag k="maxspeed" v="30 mph"/>
    <tag k="name" v="Sutton Lane"/>
  </way>
  <way id="141233345" version="15" timestamp="2025-09-01T07:17:12Z" changeset="171299612" uid="18869198" user="TB-E">
    <nd ref="1546097459"/>
    <nd ref="2559826792"/>
    <nd ref="2559826790"/>
    <nd ref="1546097472"/>
    <nd ref="1546097442"/>
    <nd ref="2559826783"/>
    <nd ref="1546097487"/>
    <nd ref="1546097542"/>
    <nd ref="1546097492"/>
    <nd ref="1546097530"/>
    <nd ref="1546097495"/>
    <nd ref="2519494784"/>
    <nd ref="2252168492"/>
    <nd ref="1546097433"/>
    <nd ref="2519494783"/>
    <nd ref="1546097672"/>
    <nd ref="1546098013"/>
    <nd ref="1546097679"/>
    <nd ref="1546098791"/>
    <nd ref="2519494762"/>
    <nd ref="1546098026"/>
    <nd ref="1546098590"/>
    <nd ref="1546097698"/>
    <nd ref="1546098592"/>
    <nd ref="6759196641"/>
    <nd ref="1546098534"/>
    <nd ref="7632448531"/>
    <nd ref="1546097997"/>
    <nd ref="1546097686"/>
    <nd ref="1546098344"/>
    <nd ref="1546098155"/>
    <nd ref="1546097947"/>
    <nd ref="1546097987"/>
    <nd ref="1546097527"/>
    <nd ref="1546098001"/>
    <nd ref="2561753533"/>
    <nd ref="1546098147"/>
    <nd ref="1546097545"/>
    <nd ref="1546098521"/>
    <nd ref="1546097572"/>
    <nd ref="1546098163"/>
    <nd ref="1546098037"/>
    <nd ref="1546098895"/>
    <nd ref="1546098510"/>
    <nd ref="1546098921"/>
    <nd ref="1546097941"/>
    <nd ref="1546098337"/>
    <nd ref="1546097440"/>
    <nd ref="1546097549"/>
    <nd ref="1546097930"/>
    <nd ref="1546098467"/>
    <nd ref="1546097682"/>
    <nd ref="1546097732"/>
    <nd ref="1546097790"/>
    <nd ref="1546098005"/>
    <nd ref="1546098068"/>
    <nd ref="1546097556"/>
    <nd ref="1546097563"/>
    <nd ref="1546097535"/>
    <nd ref="1546097504"/>
    <nd ref="1546097692"/>
    <nd ref="1546097701"/>
    <nd ref="1546097753"/>
    <nd ref="1546097721"/>
    <nd ref="1546097763"/>
    <nd ref="1546097729"/>
    <nd ref="1546097735"/>
    <nd ref="1546097738"/>
    <nd ref="1546097750"/>
    <nd ref="1546097747"/>
    <nd ref="1546097758"/>
    <nd ref="1546097788"/>
    <nd ref="1546097766"/>
    <nd ref="1546098072"/>
    <nd ref="6559368902"/>
    <nd ref="1546098074"/>
    <nd ref="1546098076"/>
    <nd ref="1546098079"/>
    <nd ref="1546098083"/>
    <nd ref="1546098092"/>
    <nd ref="1546098103"/>
    <nd ref="1546098096"/>
    <nd ref="1546098099"/>
    <nd ref="1546098108"/>
    <nd ref="1546098131"/>
    <nd ref="2561753354"/>
    <nd ref="1546098140"/>
    <nd ref="2561753353"/>
    <nd ref="1546098513"/>
    <nd ref="1546098527"/>
    <nd ref="1546098564"/>
    <nd ref="1546098573"/>
    <nd ref="1546098618"/>
    <nd ref="2561760970"/>
    <nd ref="1546098626"/>
    <nd ref="1546098634"/>
    <nd ref="1546098647"/>
    <nd ref="1546098670"/>
    <nd ref="2561760945"/>
    <nd ref="1546098677"/>
    <nd ref="1546098680"/>
    <nd ref="1546098682"/>
    <nd ref="1546098685"/>
    <nd ref="1546098689"/>
    <nd ref="1546098692"/>
    <nd ref="1546098700"/>
    <nd ref="1546098705"/>
    <nd ref="1546098170"/>
    <nd ref="1546098178"/>
    <nd ref="1616837578"/>
    <nd ref="2561760911"/>
    <nd ref="1677045706"/>
    <nd ref="13111831000"/>
    <nd ref="1610634551"/>
    <tag k="highway" v="unclassified"/>
    <tag k="name" v="Castle Hill"/>
    <tag k="source:name" v="OS_Locator"/>
  </way>
  <way id="141233350" version="5" timestamp="2025-03-17T02:11:09Z" changeset="163712328" uid="493595" user="Yorvik Prestigitator">
    <nd ref="1546098350"/>
    <nd ref="12671185218"/>
    <nd ref="12671185215"/>
    <nd ref="1546098428"/>
    <nd ref="1616868024"/>
    <nd ref="1610633677"/>
    <nd ref="1546098432"/>
    <nd ref="1546098435"/>
    <nd ref="7097584064"/>
    <nd ref="1610633999"/>
    <tag k="highway" v="unclassified"/>
    <tag k="maxspeed" v="30 mph"/>
    <tag k="source" v="visual survey;bing"/>
  </way>
  <way id="141233353" version="4" timestamp="2013-12-01T11:09:51Z" changeset="19207892" uid="9065" user="brianboru">
    <nd ref="1546098451"/>
    <nd ref="1546098839"/>
    <nd ref="1546098850"/>
    <nd ref="1546098871"/>
    <nd ref="1546098882"/>
    <nd ref="1546098900"/>
    <nd ref="1546098922"/>
    <nd ref="1546098941"/>
    <nd ref="1546097402"/>
    <nd ref="1880858323"/>
    <nd ref="1546097501"/>
    <nd ref="1546097633"/>
    <nd ref="1546097600"/>
    <nd ref="1546097641"/>
    <nd ref="1546097594"/>
    <nd ref="1546097622"/>
    <nd ref="1546097576"/>
    <nd ref="2022078132"/>
    <nd ref="1546097820"/>
    <nd ref="2022078131"/>
    <nd ref="1546097693"/>
    <nd ref="1546097793"/>
    <nd ref="1546097696"/>
    <nd ref="1546097850"/>
    <nd ref="1546097866"/>
    <nd ref="1546097826"/>
    <nd ref="1546097853"/>
    <nd ref="1546097872"/>
    <nd ref="1546097869"/>
    <nd ref="1546097876"/>
    <nd ref="264483513"/>
    <nd ref="2559618857"/>
    <nd ref="1546097809"/>
    <nd ref="1546097862"/>
    <nd ref="1546097856"/>
    <nd ref="1546097813"/>
    <nd ref="2559618881"/>
    <nd ref="1546097859"/>
    <nd ref="1546097883"/>
    <nd ref="1546097890"/>
    <nd ref="2559618905"/>
    <nd ref="1546097921"/>
    <tag k="highway" v="unclassified"/>
  </way>
  <way id="141233354" version="4" timestamp="2019-08-30T10:05:56Z" changeset="73914027" uid="10219377" user="pravalg">
    <nd ref="1546097828"/>
    <nd ref="1546098807"/>
    <nd ref="1546097654"/>
    <nd ref="1546097999"/>
    <nd ref="1546098480"/>
    <nd ref="1546097482"/>
    <nd ref="1546097595"/>
    <nd ref="1546097802"/>
    <nd ref="1546098085"/>
    <nd ref="1546098089"/>
    <nd ref="1546098628"/>
    <nd ref="1546098643"/>
    <nd ref="1546098651"/>
    <nd ref="1546098683"/>
    <nd ref="1546098267"/>
    <nd ref="1546098384"/>
    <nd ref="1546098392"/>
    <nd ref="1546098398"/>
    <nd ref="1546098402"/>
    <nd ref="1546098407"/>
    <nd ref="1546098410"/>
    <nd ref="1546098414"/>
    <nd ref="1546098181"/>
    <nd ref="1546098220"/>
    <nd ref="1546098228"/>
    <nd ref="1546098224"/>
    <nd ref="1546098312"/>
    <nd ref="1546098254"/>
    <nd ref="6759016212"/>
    <nd ref="1546098300"/>
    <nd ref="1546098543"/>
    <nd ref="1546098642"/>
    <nd ref="1546098520"/>
    <nd ref="1546098637"/>
    <nd ref="1546098632"/>
    <nd ref="1546098614"/>
    <nd ref="1546098620"/>
    <nd ref="420421956"/>
    <nd ref="1546098712"/>
    <nd ref="1546098734"/>
    <nd ref="1546098740"/>
    <nd ref="1546098780"/>
    <nd ref="1546098796"/>
    <nd ref="1546098809"/>
    <nd ref="1546098857"/>
    <nd ref="1546098865"/>
    <nd ref="1546098903"/>
    <nd ref="1546098911"/>
    <nd ref="1546098936"/>
    <nd ref="1546097601"/>
    <nd ref="1546097663"/>
    <nd ref="1546097609"/>
    <nd ref="1546097613"/>
    <nd ref="1546097540"/>
    <nd ref="1546097635"/>
    <nd ref="1546097658"/>
    <nd ref="1546097433"/>
    <tag k="highway" v="unclassified"/>
    <tag k="name" v="Winderton Road"/>
  </way>
  <way id="141233361" version="11" timestamp="2021-07-30T06:48:00Z" changeset="108865456" uid="11558590" user="gppavani">
    <nd ref="1546098921"/>
    <nd ref="1546098250"/>
    <nd ref="1546098257"/>
    <nd ref="1546098262"/>
    <nd ref="1546098269"/>
    <nd ref="1546098273"/>
    <nd ref="1546098306"/>
    <nd ref="1546098516"/>
    <nd ref="1546098524"/>
    <nd ref="1546098538"/>
    <nd ref="2559631634"/>
    <nd ref="2559631631"/>
    <nd ref="1546098554"/>
    <nd ref="1546098556"/>
    <nd ref="1546098559"/>
    <nd ref="1546098568"/>
    <nd ref="1546098558"/>
    <nd ref="1546098599"/>
    <nd ref="1546098580"/>
    <nd ref="1546098587"/>
    <nd ref="1546098577"/>
    <nd ref="1546098584"/>
    <nd ref="1546098623"/>
    <nd ref="1546098708"/>
    <nd ref="1546098726"/>
    <nd ref="1546098730"/>
    <nd ref="1546098746"/>
    <nd ref="1546098737"/>
    <nd ref="1546098744"/>
    <nd ref="1546098748"/>
    <nd ref="1546098751"/>
    <nd ref="1616837585"/>
    <nd ref="1546098755"/>
    <nd ref="1546098756"/>
    <nd ref="1546098759"/>
    <nd ref="1546098761"/>
    <nd ref="1546098774"/>
    <nd ref="1546098777"/>
    <nd ref="1612806064"/>
    <nd ref="1546098783"/>
    <nd ref="7287281019"/>
    <nd ref="1546098787"/>
    <nd ref="1546098794"/>
    <nd ref="1546098801"/>
    <nd ref="1546098804"/>
    <nd ref="1546098827"/>
    <nd ref="5234910859"/>
    <nd ref="8962196212"/>
    <nd ref="1546098813"/>
    <nd ref="2519494514"/>
    <nd ref="1546098829"/>
    <nd ref="1546098833"/>
    <nd ref="6884534084"/>
    <nd ref="1546098835"/>
    <nd ref="1546098845"/>
    <nd ref="1546098853"/>
    <nd ref="1546098860"/>
    <nd ref="1546098868"/>
    <nd ref="1546098880"/>
    <nd ref="1546098885"/>
    <nd ref="1546098891"/>
    <nd ref="1546098888"/>
    <nd ref="1546098907"/>
    <nd ref="1546098918"/>
    <nd ref="1546098916"/>
    <nd ref="1546097933"/>
    <nd ref="1546098009"/>
    <nd ref="1546097414"/>
    <nd ref="1546098483"/>
    <nd ref="1546097620"/>
    <nd ref="1546097893"/>
    <nd ref="1546098143"/>
    <nd ref="1546098160"/>
    <nd ref="1546098486"/>
    <nd ref="1546098843"/>
    <nd ref="1546098021"/>
    <nd ref="1546097957"/>
    <nd ref="1546098469"/>
    <nd ref="1546097590"/>
    <nd ref="1546097828"/>
    <nd ref="1546097817"/>
    <nd ref="1546098135"/>
    <nd ref="1546098531"/>
    <nd ref="1546098596"/>
    <nd ref="1546098672"/>
    <nd ref="1546098678"/>
    <nd ref="1546098697"/>
    <nd ref="1546098187"/>
    <nd ref="2252168445"/>
    <nd ref="1546098216"/>
    <nd ref="1546098234"/>
    <nd ref="2252168443"/>
    <nd ref="1546098240"/>
    <nd ref="1546098244"/>
    <nd ref="1546098318"/>
    <nd ref="1546098387"/>
    <nd ref="1546098390"/>
    <nd ref="1546098395"/>
    <nd ref="2252168430"/>
    <nd ref="1546097921"/>
    <tag k="highway" v="unclassified"/>
  </way>
  <way id="141233947" version="4" timestamp="2023-05-30T19:51:39Z" changeset="136761296" uid="4339666" user="stephengmatthews">
    <nd ref="1546097799"/>
    <nd ref="1546110068"/>
    <nd ref="1546110038"/>
    <nd ref="1546110077"/>
    <nd ref="1546110080"/>
    <nd ref="6483374172"/>
    <nd ref="1546110084"/>
    <nd ref="6483374154"/>
    <nd ref="1546110070"/>
    <nd ref="2561753695"/>
    <nd ref="1546110089"/>
    <nd ref="6483374165"/>
    <nd ref="2561753681"/>
    <nd ref="1546110092"/>
    <nd ref="1546110105"/>
    <nd ref="2561753642"/>
    <nd ref="1546110109"/>
    <nd ref="1546110114"/>
    <nd ref="1546110117"/>
    <nd ref="1546110120"/>
    <nd ref="1546110137"/>
    <nd ref="1546110136"/>
    <nd ref="1546110128"/>
    <nd ref="1546110139"/>
    <nd ref="1546110140"/>
    <nd ref="1546110145"/>
    <nd ref="1546110123"/>
    <nd ref="1546110143"/>
    <nd ref="10940496134"/>
    <nd ref="1546110126"/>
    <nd ref="1546110146"/>
    <nd ref="1546110164"/>
    <nd ref="1546110148"/>
    <nd ref="1546110151"/>
    <nd ref="1546110167"/>
    <nd ref="1546110169"/>
    <nd ref="1546110172"/>
    <nd ref="1546110174"/>
    <nd ref="1546110177"/>
    <nd ref="1546110182"/>
    <nd ref="1546110179"/>
    <nd ref="1546110199"/>
    <nd ref="1546110185"/>
    <nd ref="1546110195"/>
    <nd ref="1546110209"/>
    <nd ref="1546110203"/>
    <nd ref="1546110205"/>
    <nd ref="2561753355"/>
    <nd ref="2561753353"/>
    <tag k="highway" v="unclassified"/>
  </way>
  <way id="141626971" version="6" timestamp="2021-11-08T17:30:43Z" changeset="113531588" uid="9065" user="brianboru">
    <nd ref="1546097799"/>
    <nd ref="1550251923"/>
    <nd ref="1550251724"/>
    <nd ref="1550251722"/>
    <nd ref="1550251720"/>
    <nd ref="1550251727"/>
    <nd ref="1550251731"/>
    <nd ref="2252117056"/>
    <nd ref="1550251736"/>
    <nd ref="1550251738"/>
    <nd ref="1550251740"/>
    <nd ref="1550251751"/>
    <nd ref="1550251745"/>
    <nd ref="1550251750"/>
    <nd ref="1550251744"/>
    <nd ref="1550251752"/>
    <nd ref="1550251820"/>
    <nd ref="1550251642"/>
    <nd ref="1550251791"/>
    <nd ref="1550251790"/>
    <nd ref="1550251911"/>
    <nd ref="2563009099"/>
    <nd ref="1550251645"/>
    <nd ref="1550251916"/>
    <nd ref="1550251839"/>
    <nd ref="1550251888"/>
    <nd ref="1550251906"/>
    <nd ref="1550251904"/>
    <nd ref="1550251809"/>
    <nd ref="1550251902"/>
    <nd ref="1550251773"/>
    <nd ref="1550251841"/>
    <nd ref="1550251909"/>
    <nd ref="1550251910"/>
    <nd ref="1550251896"/>
    <nd ref="1550251874"/>
    <nd ref="1550251907"/>
    <nd ref="1550251840"/>
    <nd ref="1550251659"/>
    <nd ref="1550251755"/>
    <nd ref="1550251653"/>
    <nd ref="1550251867"/>
    <nd ref="1550251670"/>
    <nd ref="1550251695"/>
    <nd ref="1550251754"/>
    <nd ref="1550251813"/>
    <nd ref="1550251787"/>
    <nd ref="1550251628"/>
    <nd ref="1550251823"/>
    <nd ref="1550251886"/>
    <nd ref="1550251797"/>
    <nd ref="1550251620"/>
    <nd ref="1550251718"/>
    <nd ref="1550251912"/>
    <nd ref="1550251756"/>
    <nd ref="1550251742"/>
    <nd ref="1550251814"/>
    <nd ref="1550251644"/>
    <nd ref="1550251812"/>
    <nd ref="1550251879"/>
    <nd ref="1550251799"/>
    <nd ref="1550251629"/>
    <nd ref="1550251778"/>
    <nd ref="1550251853"/>
    <nd ref="1550251890"/>
    <nd ref="1550251630"/>
    <nd ref="1550251640"/>
    <nd ref="1550251811"/>
    <nd ref="1550251733"/>
    <nd ref="1550251648"/>
    <nd ref="1550251655"/>
    <nd ref="1550251824"/>
    <nd ref="1550251782"/>
    <nd ref="1550251872"/>
    <nd ref="1550251626"/>
    <nd ref="1550251635"/>
    <nd ref="1550251646"/>
    <nd ref="1550251762"/>
    <nd ref="1550251767"/>
    <nd ref="1550251683"/>
    <nd ref="1550251637"/>
    <nd ref="1550251734"/>
    <nd ref="1550251870"/>
    <nd ref="1550251792"/>
    <nd ref="1550251786"/>
    <nd ref="1550251622"/>
    <nd ref="1550251661"/>
    <nd ref="1550251775"/>
    <nd ref="1550251636"/>
    <nd ref="1550251815"/>
    <nd ref="1550251895"/>
    <nd ref="1550251804"/>
    <nd ref="1550251873"/>
    <nd ref="9235994563"/>
    <nd ref="1550251634"/>
    <tag k="highway" v="unclassified"/>
  </way>
  <way id="141626972" version="8" timestamp="2019-10-22T11:13:32Z" changeset="76043880" uid="10219386" user="bathines">
    <nd ref="1550251691"/>
    <nd ref="1550251856"/>
    <nd ref="25290007"/>
    <nd ref="1550251633"/>
    <nd ref="1550251763"/>
    <nd ref="25290008"/>
    <nd ref="25290006"/>
    <nd ref="25290005"/>
    <nd ref="25290004"/>
    <nd ref="25290003"/>
    <nd ref="13797365"/>
    <nd ref="25290002"/>
    <nd ref="25290001"/>
    <nd ref="1610634586"/>
    <nd ref="25290000"/>
    <nd ref="6769079763"/>
    <nd ref="25289999"/>
    <nd ref="13797372"/>
    <nd ref="25289998"/>
    <nd ref="25289997"/>
    <nd ref="1509628915"/>
    <nd ref="1610634610"/>
    <nd ref="25289996"/>
    <nd ref="1610634614"/>
    <nd ref="25289995"/>
    <nd ref="1550251901"/>
    <nd ref="1610634626"/>
    <nd ref="25289994"/>
    <nd ref="1610634628"/>
    <nd ref="1513329444"/>
    <nd ref="13797376"/>
    <nd ref="25289993"/>
    <nd ref="13797373"/>
    <nd ref="25289992"/>
    <nd ref="13797374"/>
    <nd ref="1610634623"/>
    <nd ref="25289991"/>
    <nd ref="1513329448"/>
    <nd ref="1610634615"/>
    <nd ref="25289990"/>
    <nd ref="6905352145"/>
    <nd ref="1610634613"/>
    <nd ref="1610634612"/>
    <nd ref="25289989"/>
    <nd ref="1610634611"/>
    <nd ref="13797375"/>
    <nd ref="25289988"/>
    <nd ref="1509683011"/>
    <nd ref="13797370"/>
    <nd ref="25289985"/>
    <nd ref="25289986"/>
    <nd ref="1509697965"/>
    <nd ref="25289987"/>
    <nd ref="13797381"/>
    <nd ref="25289984"/>
    <nd ref="1610634609"/>
    <nd ref="1610634608"/>
    <nd ref="25289983"/>
    <nd ref="25289982"/>
    <nd ref="1610634588"/>
    <nd ref="25289981"/>
    <nd ref="13797382"/>
    <nd ref="25289980"/>
    <nd ref="25289979"/>
    <nd ref="13797378"/>
    <nd ref="2561808628"/>
    <nd ref="25289978"/>
    <nd ref="25289975"/>
    <nd ref="13797383"/>
    <nd ref="25289974"/>
    <nd ref="25289973"/>
    <nd ref="25289972"/>
    <nd ref="1610634565"/>
    <nd ref="13797377"/>
    <nd ref="1610634566"/>
    <nd ref="25289971"/>
    <nd ref="25289970"/>
    <nd ref="25289969"/>
    <tag k="highway" v="secondary"/>
    <tag k="lanes" v="2"/>
    <tag k="maxspeed" v="50 mph"/>
    <tag k="ref" v="B4035"/>
    <tag k="source" v="survey"/>
    <tag k="source:maxspeed" v="survey"/>
  </way>
  <way id="145202294" version="1" timestamp="2012-01-11T22:38:05Z" changeset="10365391" uid="445666" user="SomePlaceMapperCT">
    <nd ref="1586342241"/>
    <nd ref="1586342245"/>
    <tag k="bridge" v="yes"/>
    <tag k="highway" v="residential"/>
    <tag k="layer" v="1"/>
    <tag k="name" v="Orchard Close"/>
    <tag k="source" v="bing"/>
  </way>
  <way id="145202301" version="1" timestamp="2012-01-11T22:38:05Z" changeset="10365391" uid="445666" user="SomePlaceMapperCT">
    <nd ref="1586342245"/>
    <nd ref="1586342248"/>
    <nd ref="1586342250"/>
    <tag k="highway" v="residential"/>
    <tag k="name" v="Orchard Close"/>
    <tag k="source" v="GPS"/>
  </way>
  <way id="145202304" version="1" timestamp="2012-01-11T22:38:05Z" changeset="10365391" uid="445666" user="SomePlaceMapperCT">
    <nd ref="1546097590"/>
    <nd ref="1586342265"/>
    <nd ref="1586342267"/>
    <nd ref="1586342271"/>
    <nd ref="1546098807"/>
    <tag k="highway" v="unclassified"/>
    <tag k="source" v="bing"/>
  </way>
  <way id="147941479" version="4" timestamp="2024-12-27T15:12:12Z" changeset="160680517" uid="21226027" user="DorneyLake123">
    <nd ref="1610633110"/>
    <nd ref="1610632986"/>
    <nd ref="1610632933"/>
    <nd ref="1610632947"/>
    <nd ref="1610632952"/>
    <nd ref="1610633018"/>
    <nd ref="1610633004"/>
    <nd ref="1610632993"/>
    <nd ref="1610632945"/>
    <nd ref="1610633021"/>
    <nd ref="1610633039"/>
    <nd ref="1610633057"/>
    <nd ref="1610694220"/>
    <nd ref="1610633110"/>
    <tag k="amenity" v="pub"/>
    <tag k="building" v="yes"/>
    <tag k="fhrs:id" v="1291212"/>
    <tag k="name" v="The George"/>
    <tag k="source" v="visual survey;bing"/>
  </way>
  <way id="147941498" version="6" timestamp="2013-12-02T18:15:12Z" changeset="19237944" uid="9065" user="brianboru">
    <nd ref="1610633999"/>
    <nd ref="1546098455"/>
    <nd ref="1611099017"/>
    <nd ref="1610634175"/>
    <nd ref="1546098459"/>
    <nd ref="1546098462"/>
    <nd ref="1546098167"/>
    <nd ref="1616868046"/>
    <nd ref="1616837543"/>
    <nd ref="1546098724"/>
    <nd ref="1546098031"/>
    <nd ref="1546097408"/>
    <nd ref="1546098476"/>
    <nd ref="1546097462"/>
    <nd ref="1546097479"/>
    <nd ref="1546097476"/>
    <nd ref="1546098424"/>
    <nd ref="2561753351"/>
    <nd ref="2561753352"/>
    <nd ref="1546098140"/>
    <tag k="highway" v="unclassified"/>
    <tag k="name" v="Castle Hill Lane"/>
    <tag k="source" v="bing"/>
    <tag k="source:name" v="OS_Locator"/>
  </way>
  <way id="147941531" version="1" timestamp="2012-01-29T15:39:20Z" changeset="10531268" uid="9065" user="brianboru">
    <nd ref="1610634551"/>
    <nd ref="1610634536"/>
    <nd ref="1610634532"/>
    <tag k="highway" v="unclassified"/>
    <tag k="oneway" v="yes"/>
    <tag k="source" v="bing"/>
  </way>
  <way id="147941533" version="1" timestamp="2012-01-29T15:39:21Z" changeset="10531268" uid="9065" user="brianboru">
    <nd ref="1546098505"/>
    <nd ref="1610634542"/>
    <nd ref="1610634551"/>
    <tag k="highway" v="unclassified"/>
    <tag k="oneway" v="yes"/>
  </way>
  <way id="147952125" version="3" timestamp="2024-12-27T15:12:12Z" changeset="160680517" uid="21226027" user="DorneyLake123">
    <nd ref="1610694256"/>
    <nd ref="1610694251"/>
    <nd ref="1610694234"/>
    <nd ref="1610694240"/>
    <nd ref="1610694256"/>
    <tag k="building" v="yes"/>
    <tag k="fhrs:id" v="503418"/>
    <tag k="name" v="La Tradition"/>
    <tag k="shop" v="bakery"/>
    <tag k="source" v="visual survey;bing"/>
  </way>
  <way id="147952132" version="2" timestamp="2017-01-25T10:52:04Z" changeset="45471180" uid="5188709" user="Willd17">
    <nd ref="1610694297"/>
    <nd ref="1610694291"/>
    <nd ref="1610694295"/>
    <tag k="highway" v="residential"/>
    <tag k="maxspeed" v="30 mph"/>
    <tag k="name" v="Mint Row"/>
    <tag k="source" v="visual survey;bing"/>
  </way>
  <way id="147952157" version="2" timestamp="2012-02-26T18:58:08Z" changeset="10801863" uid="555600" user="Scroggsie">
    <nd ref="1610694251"/>
    <nd ref="1610694246"/>
    <nd ref="1610694229"/>
    <nd ref="1610694234"/>
    <nd ref="1610694251"/>
    <tag k="building" v="yes"/>
    <tag k="name" v="Baldwin Newsagents"/>
    <tag k="shop" v="newsagent"/>
    <tag k="source" v="visual survey;bing"/>
  </way>
  <way id="147952189" version="2" timestamp="2012-03-28T22:27:34Z" changeset="11131916" uid="607399" user="ehm1806">
    <nd ref="1610694223"/>
    <nd ref="1610694220"/>
    <nd ref="1610633057"/>
    <nd ref="1610694201"/>
    <nd ref="1610694202"/>
    <nd ref="1610694214"/>
    <nd ref="1610694215"/>
    <nd ref="1610694223"/>
    <tag k="building" v="yes"/>
    <tag k="name" v="Brailes Village Shop"/>
    <tag k="shop" v="convenience"/>
    <tag k="source" v="visual survey;bing"/>
  </way>
  <way id="147952601" version="6" timestamp="2019-09-06T12:07:52Z" changeset="74172521" uid="10252561" user="scchevel">
    <nd ref="13797709"/>
    <nd ref="6776948486"/>
    <nd ref="1610698101"/>
    <nd ref="25289932"/>
    <nd ref="279128208"/>
    <nd ref="1540780151"/>
    <nd ref="1750769729"/>
    <nd ref="13797706"/>
    <nd ref="1750813033"/>
    <nd ref="25289931"/>
    <nd ref="1750813032"/>
    <nd ref="1540780161"/>
    <nd ref="1750799176"/>
    <nd ref="25289930"/>
    <nd ref="25289929"/>
    <nd ref="753175840"/>
    <nd ref="13797681"/>
    <nd ref="1750799178"/>
    <nd ref="25289928"/>
    <nd ref="1750799182"/>
    <nd ref="25289927"/>
    <nd ref="1750799180"/>
    <nd ref="13797682"/>
    <nd ref="25289926"/>
    <nd ref="25289925"/>
    <nd ref="25289924"/>
    <nd ref="1750799183"/>
    <nd ref="25289923"/>
    <nd ref="1750799184"/>
    <nd ref="13797705"/>
    <nd ref="25289922"/>
    <nd ref="1270296104"/>
    <nd ref="13797361"/>
    <tag k="highway" v="secondary"/>
    <tag k="maxspeed" v="50 mph"/>
    <tag k="name" v="Holloway Hill"/>
    <tag k="ref" v="B4035"/>
    <tag k="source" v="survey"/>
    <tag k="source:maxspeed" v="survey"/>
    <tag k="source:name" v="OS_Locator"/>
  </way>
  <way id="147952602" version="2" timestamp="2012-03-16T17:10:44Z" changeset="11000341" uid="9065" user="brianboru">
    <nd ref="25289969"/>
    <nd ref="25289968"/>
    <nd ref="13797384"/>
    <nd ref="25289967"/>
    <nd ref="25289966"/>
    <nd ref="25289965"/>
    <nd ref="13797360"/>
    <tag k="highway" v="secondary"/>
    <tag k="maxspeed" v="30 mph"/>
    <tag k="name" v="Fant Hill"/>
    <tag k="ref" v="B4035"/>
    <tag k="source" v="survey"/>
    <tag k="source:maxspeed" v="survey"/>
    <tag k="source:name" v="OS_Locator"/>
  </way>
  <way id="148176638" version="5" timestamp="2023-03-21T22:57:19Z" changeset="133959271" uid="493595" user="Yorvik Prestigitator">
    <nd ref="1612806031"/>
    <nd ref="1612806098"/>
    <nd ref="1612806075"/>
    <nd ref="1612806052"/>
    <nd ref="1612806060"/>
    <nd ref="1612806094"/>
    <nd ref="1612806101"/>
    <nd ref="1612806081"/>
    <nd ref="1612806069"/>
    <nd ref="1612806058"/>
    <nd ref="1612806038"/>
    <nd ref="1612806065"/>
    <nd ref="1612806077"/>
    <nd ref="1612806031"/>
    <tag k="amenity" v="place_of_worship"/>
    <tag k="building" v="church"/>
    <tag k="denomination" v="anglican"/>
    <tag k="name" v="St Peter and St Paul"/>
    <tag k="religion" v="christian"/>
    <tag k="wikidata" v="Q26275369"/>
  </way>
  <way id="148603252" version="4" timestamp="2019-07-10T14:08:09Z" changeset="72097098" uid="9065" user="brianboru">
    <nd ref="1616837276"/>
    <nd ref="1616837270"/>
    <nd ref="1616837223"/>
    <nd ref="1616837211"/>
    <nd ref="1616837202"/>
    <nd ref="1616837212"/>
    <nd ref="1616837247"/>
    <nd ref="1616837245"/>
    <nd ref="1616837276"/>
    <tag k="amenity" v="place_of_worship"/>
    <tag k="building" v="yes"/>
    <tag k="denomination" v="catholic"/>
    <tag k="heritage" v="2"/>
    <tag k="heritage:operator" v="Historic England"/>
    <tag k="listed_status" v="Grade II*"/>
    <tag k="name" v="SS Peter &amp; Paul"/>
    <tag k="religion" v="christian"/>
    <tag k="source" v="visual survey;bing"/>
  </way>
  <way id="148607899" version="3" timestamp="2013-12-01T11:25:13Z" changeset="19208093" uid="9065" user="brianboru">
    <nd ref="1616877546"/>
    <nd ref="1616877548"/>
    <nd ref="1616877547"/>
    <nd ref="1616877549"/>
    <nd ref="1616877545"/>
    <nd ref="1616877544"/>
    <nd ref="1647926748"/>
    <nd ref="1616877546"/>
    <tag k="building" v="yes"/>
    <tag k="name" v="Brailes Institute 1886"/>
    <tag k="source" v="bing"/>
  </way>
  <way id="151952105" version="2" timestamp="2017-01-25T10:41:34Z" changeset="45470849" uid="5188709" user="Willd17">
    <nd ref="1647926773"/>
    <nd ref="1647926772"/>
    <nd ref="1647926770"/>
    <nd ref="1647926771"/>
    <nd ref="1647926765"/>
    <nd ref="1647926766"/>
    <nd ref="1647926773"/>
    <tag k="building" v="yes"/>
    <tag k="name" v="Brailes Sports Pavilion."/>
  </way>
  <way id="152022212" version="3" timestamp="2013-06-16T15:05:05Z" changeset="16577165" uid="49031" user="craigloftus">
    <nd ref="1648544388"/>
    <nd ref="1648544436"/>
    <nd ref="1648544468"/>
    <nd ref="1648544488"/>
    <nd ref="1648544505"/>
    <nd ref="1705640503"/>
    <nd ref="1648544494"/>
    <nd ref="1648544473"/>
    <nd ref="1705640500"/>
    <nd ref="1648544448"/>
    <nd ref="1648544454"/>
    <nd ref="1648544461"/>
    <tag k="highway" v="residential"/>
    <tag k="name" v="New Park Cottages"/>
    <tag k="source" v="bing"/>
    <tag k="source:name" v="OS_Locator"/>
  </way>
  <way id="152022220" version="10" timestamp="2025-07-09T10:23:51Z" changeset="168688240" uid="9088405" user="TheUKHighStreet">
    <nd ref="1648544706"/>
    <nd ref="1648544684"/>
    <nd ref="1648544688"/>
    <nd ref="1648544670"/>
    <nd ref="2559650049"/>
    <nd ref="1648544689"/>
    <nd ref="1648544691"/>
    <nd ref="1648544693"/>
    <nd ref="1648544701"/>
    <nd ref="1648544705"/>
    <nd ref="1648544725"/>
    <nd ref="1648544706"/>
    <tag k="addr:city" v="Lower Brailes"/>
    <tag k="addr:postcode" v="OX15 5HX"/>
    <tag k="addr:street" v="High Street"/>
    <tag k="building" v="yes"/>
    <tag k="name" v="The Forge Garage"/>
    <tag k="phone" v="+44 1608 685247"/>
    <tag k="shop" v="car_repair"/>
    <tag k="source" v="bing"/>
    <tag k="website" v="https://www.theforgegarage.co.uk/"/>
  </way>
  <way id="152022238" version="3" timestamp="2022-07-03T20:28:16Z" changeset="123164261" uid="242345" user="confusedbuffalo">
    <nd ref="1648544411"/>
    <nd ref="1648544445"/>
    <nd ref="1648544471"/>
    <nd ref="1648544463"/>
    <nd ref="1648544483"/>
    <nd ref="1648544512"/>
    <nd ref="1648544524"/>
    <nd ref="1648544511"/>
    <nd ref="1648544507"/>
    <nd ref="1648544499"/>
    <nd ref="1648544476"/>
    <nd ref="1648544419"/>
    <nd ref="1648544411"/>
    <tag k="building" v="industrial"/>
    <tag k="name" v="The Forge Blacksmiths"/>
  </way>
  <way id="152093323" version="1" timestamp="2012-02-26T18:58:06Z" changeset="10801863" uid="555600" user="Scroggsie">
    <nd ref="1610694246"/>
    <nd ref="1649204834"/>
    <nd ref="1649204828"/>
    <nd ref="1610694229"/>
    <nd ref="1610694246"/>
    <tag k="building" v="yes"/>
    <tag k="name" v="Frank Barwick"/>
    <tag k="shop" v="butcher"/>
    <tag k="source" v="visual survey;bing"/>
  </way>
  <way id="152093328" version="1" timestamp="2012-02-26T18:58:07Z" changeset="10801863" uid="555600" user="Scroggsie">
    <nd ref="1649204720"/>
    <nd ref="1649204716"/>
    <nd ref="1649204717"/>
    <nd ref="1649204711"/>
    <nd ref="1649204718"/>
    <nd ref="1649204733"/>
    <nd ref="1649204796"/>
    <nd ref="1649204728"/>
    <nd ref="1649204739"/>
    <nd ref="1649204723"/>
    <nd ref="1649204748"/>
    <nd ref="1649204803"/>
    <nd ref="1649204799"/>
    <nd ref="1649204808"/>
    <nd ref="1649204720"/>
    <tag k="building" v="farm"/>
    <tag k="name" v="New House Farm"/>
    <tag k="source" v="OS_OpenData_StreetView"/>
  </way>
  <way id="155304255" version="3" timestamp="2019-04-08T15:14:47Z" changeset="69011214" uid="9065" user="brianboru">
    <nd ref="1677045701"/>
    <nd ref="1677045703"/>
    <nd ref="6391256269"/>
    <nd ref="1677045704"/>
    <nd ref="1677045706"/>
    <tag k="highway" v="residential"/>
    <tag k="name" v="Six Bells Lane"/>
    <tag k="source" v="OS_OpenData_StreetView"/>
    <tag k="source:name" v="OS_Locator"/>
  </way>
  <way id="155304256" version="1" timestamp="2012-03-16T17:10:40Z" changeset="11000341" uid="9065" user="brianboru">
    <nd ref="1677045690"/>
    <nd ref="1677045693"/>
    <nd ref="1677045695"/>
    <nd ref="1677045696"/>
    <tag k="highway" v="residential"/>
    <tag k="name" v="Hill Lane"/>
    <tag k="source" v="OS_OpenData_StreetView"/>
  </way>
  <way id="155304257" version="2" timestamp="2020-09-14T07:07:58Z" changeset="90847328" uid="10455623" user="koderav">
    <nd ref="1610072335"/>
    <nd ref="1540780255"/>
    <nd ref="1540780254"/>
    <nd ref="1540780170"/>
    <nd ref="7904172498"/>
    <nd ref="1540780231"/>
    <nd ref="1540780243"/>
    <nd ref="1540780263"/>
    <nd ref="1540780265"/>
    <nd ref="1540780182"/>
    <nd ref="1540780126"/>
    <nd ref="1540780264"/>
    <nd ref="1540780189"/>
    <tag k="highway" v="unclassified"/>
    <tag k="name" v="Tommy's Turn Lane"/>
    <tag k="source" v="bing"/>
    <tag k="source:name" v="OS_Locator"/>
  </way>
  <way id="155304584" version="5" timestamp="2013-12-01T11:25:13Z" changeset="19208093" uid="9065" user="brianboru">
    <nd ref="1540780260"/>
    <nd ref="466113907"/>
    <nd ref="25289947"/>
    <nd ref="1540780120"/>
    <nd ref="1750819927"/>
    <nd ref="25289946"/>
    <nd ref="1750819912"/>
    <nd ref="25289944"/>
    <nd ref="1750819930"/>
    <nd ref="1750819939"/>
    <nd ref="13797719"/>
    <nd ref="25289943"/>
    <nd ref="458390777"/>
    <nd ref="25289942"/>
    <nd ref="13797720"/>
    <nd ref="25289941"/>
    <nd ref="1616837243"/>
    <nd ref="25289940"/>
    <nd ref="13797707"/>
    <nd ref="25289939"/>
    <nd ref="25289938"/>
    <nd ref="452074479"/>
    <nd ref="1611098898"/>
    <nd ref="25289937"/>
    <nd ref="439177260"/>
    <nd ref="439177265"/>
    <nd ref="13797711"/>
    <nd ref="2559650054"/>
    <nd ref="25289936"/>
    <nd ref="452074484"/>
    <nd ref="1750813048"/>
    <nd ref="1750813047"/>
    <nd ref="25289935"/>
    <nd ref="1645683036"/>
    <nd ref="13797708"/>
    <nd ref="1647876317"/>
    <nd ref="452666977"/>
    <nd ref="452666985"/>
    <nd ref="452666993"/>
    <nd ref="279128280"/>
    <tag k="highway" v="secondary"/>
    <tag k="maxspeed" v="30 mph"/>
    <tag k="name" v="High Street"/>
    <tag k="ref" v="B4035"/>
    <tag k="source" v="survey"/>
    <tag k="source:maxspeed" v="survey"/>
    <tag k="source:name" v="OS_Locator"/>
  </way>
  <way id="155304588" version="2" timestamp="2019-09-06T12:07:52Z" changeset="74172521" uid="10252561" user="scchevel">
    <nd ref="279128280"/>
    <nd ref="25289934"/>
    <nd ref="13797710"/>
    <nd ref="1610698102"/>
    <nd ref="6776935677"/>
    <nd ref="25289933"/>
    <nd ref="13797709"/>
    <tag k="highway" v="secondary"/>
    <tag k="maxspeed" v="30 mph"/>
    <tag k="name" v="Holloway Hill"/>
    <tag k="ref" v="B4035"/>
    <tag k="source" v="survey"/>
    <tag k="source:maxspeed" v="survey"/>
    <tag k="source:name" v="OS_Locator"/>
  </way>
  <way id="157323393" version="4" timestamp="2021-11-09T13:26:26Z" changeset="113565843" uid="9065" user="brianboru">
    <nd ref="1695299853"/>
    <nd ref="1695299840"/>
    <nd ref="1695299839"/>
    <nd ref="1695299834"/>
    <nd ref="1695299841"/>
    <nd ref="1695299835"/>
    <nd ref="1695299836"/>
    <nd ref="1695299838"/>
    <nd ref="9238068196"/>
    <nd ref="1695299853"/>
    <tag k="amenity" v="pub"/>
    <tag k="building" v="yes"/>
    <tag k="name" v="The Gate Inn"/>
    <tag k="wikidata" v="Q26275364"/>
  </way>
  <way id="163370816" version="2" timestamp="2015-07-12T11:55:23Z" changeset="32579737" uid="411244" user="RobJN">
    <nd ref="1650514124"/>
    <nd ref="3647276126"/>
    <tag k="highway" v="unclassified"/>
    <tag k="name" v="Butchers Lane"/>
  </way>
  <way id="163371463" version="1" timestamp="2012-05-13T09:01:54Z" changeset="11583629" uid="9065" user="brianboru">
    <nd ref="1750799126"/>
    <nd ref="1750799125"/>
    <nd ref="1750799120"/>
    <nd ref="1750799122"/>
    <nd ref="1750799116"/>
    <nd ref="1750799118"/>
    <nd ref="1750799126"/>
    <tag k="building" v="residential"/>
    <tag k="name" v="Hasty Leys Farm"/>
    <tag k="source" v="visual survey;bing"/>
  </way>
  <way id="193627510" version="6" timestamp="2018-08-27T11:45:40Z" changeset="62037246" uid="8476275" user="mrfa">
    <nd ref="1586342235"/>
    <nd ref="1705640476"/>
    <nd ref="279128446"/>
    <nd ref="1648544388"/>
    <nd ref="279128447"/>
    <nd ref="1645683037"/>
    <nd ref="5860855596"/>
    <nd ref="279128449"/>
    <nd ref="5860855600"/>
    <nd ref="279128450"/>
    <tag k="highway" v="unclassified"/>
    <tag k="maxspeed" v="30 mph"/>
    <tag k="name" v="Saltway Lane"/>
    <tag k="source" v="survey"/>
    <tag k="source:name" v="OS_Locator"/>
  </way>
  <way id="193627514" version="1" timestamp="2012-11-30T06:43:37Z" changeset="14095178" uid="4951" user="PeterEastern">
    <nd ref="452666987"/>
    <nd ref="452666988"/>
    <nd ref="452666989"/>
    <nd ref="1610632599"/>
    <nd ref="452666990"/>
    <nd ref="452666991"/>
    <tag k="highway" v="unclassified"/>
    <tag k="name" v="Cow Lane"/>
    <tag k="source" v="GPS"/>
  </way>
  <way id="245781027" version="1" timestamp="2013-11-12T11:05:36Z" changeset="18852780" uid="9065" user="brianboru">
    <nd ref="2529073320"/>
    <nd ref="2529073316"/>
    <tag k="highway" v="residential"/>
    <tag k="name" v="Orchard Close"/>
    <tag k="source" v="bing"/>
  </way>
  <way id="249345176" version="3" timestamp="2025-10-08T12:35:26Z" changeset="173002587" uid="18869198" user="TB-E">
    <nd ref="279128450"/>
    <nd ref="279128452"/>
    <nd ref="2559635769"/>
    <nd ref="279128453"/>
    <nd ref="2518788648"/>
    <nd ref="279128454"/>
    <nd ref="279128455"/>
    <nd ref="2518788662"/>
    <nd ref="279128456"/>
    <nd ref="279128457"/>
    <nd ref="2518788675"/>
    <nd ref="279128458"/>
    <nd ref="279128459"/>
    <nd ref="279128460"/>
    <nd ref="279128461"/>
    <nd ref="279128462"/>
    <nd ref="279128463"/>
    <nd ref="279128464"/>
    <nd ref="279128465"/>
    <nd ref="2521123641"/>
    <nd ref="279128466"/>
    <nd ref="2521123648"/>
    <nd ref="2521123652"/>
    <nd ref="279128467"/>
    <nd ref="279128469"/>
    <nd ref="13202620738"/>
    <nd ref="2521123679"/>
    <nd ref="279128470"/>
    <nd ref="279128471"/>
    <nd ref="279128472"/>
    <nd ref="279128473"/>
    <nd ref="279128474"/>
    <nd ref="279128475"/>
    <nd ref="6564257366"/>
    <nd ref="279128476"/>
    <nd ref="279128477"/>
    <nd ref="1612779297"/>
    <nd ref="1612779292"/>
    <nd ref="1612779289"/>
    <nd ref="1546098829"/>
    <tag k="highway" v="unclassified"/>
    <tag k="name" v="Saltway Lane"/>
    <tag k="source" v="NPE;survey"/>
    <tag k="source:name" v="OS_Locator"/>
  </way>
  <way id="249361390" version="1" timestamp="2013-12-01T13:10:33Z" changeset="19209931" uid="9065" user="brianboru">
    <nd ref="2559770950"/>
    <nd ref="2559770952"/>
    <nd ref="2559770947"/>
    <nd ref="2559770944"/>
    <nd ref="2559770950"/>
    <tag k="building" v="derelict"/>
    <tag k="name" v="Hill Barn"/>
    <tag k="source" v="visual survey;bing"/>
  </way>
  <way id="283531134" version="3" timestamp="2019-06-16T07:38:22Z" changeset="71294638" uid="8369523" user="unnsyeda">
    <nd ref="1540780214"/>
    <nd ref="1540780242"/>
    <nd ref="1540780248"/>
    <nd ref="1540780252"/>
    <nd ref="1540780259"/>
    <nd ref="1540780124"/>
    <nd ref="1540780153"/>
    <nd ref="1540780165"/>
    <nd ref="1540780189"/>
    <nd ref="1540780193"/>
    <nd ref="1540780198"/>
    <nd ref="1540780218"/>
    <nd ref="1540780215"/>
    <nd ref="1540780123"/>
    <nd ref="775653964"/>
    <nd ref="1540780247"/>
    <nd ref="6534696664"/>
    <nd ref="1540780180"/>
    <nd ref="1540780139"/>
    <nd ref="1540780115"/>
    <nd ref="1540780114"/>
    <nd ref="1540780117"/>
    <nd ref="1540780141"/>
    <nd ref="1540780134"/>
    <nd ref="1540780145"/>
    <nd ref="1540780147"/>
    <nd ref="1540780164"/>
    <nd ref="1540780186"/>
    <nd ref="1540780113"/>
    <nd ref="6550723073"/>
    <nd ref="1540780121"/>
    <nd ref="1540780135"/>
    <nd ref="775653794"/>
    <nd ref="1540780149"/>
    <nd ref="1540780235"/>
    <nd ref="1540780244"/>
    <nd ref="1540780240"/>
    <nd ref="1540780249"/>
    <nd ref="1540780257"/>
    <nd ref="1540780253"/>
    <nd ref="1540780122"/>
    <nd ref="1649151081"/>
    <nd ref="2252202717"/>
    <nd ref="1540780125"/>
    <nd ref="1540780163"/>
    <nd ref="1649151077"/>
    <nd ref="1540780155"/>
    <nd ref="1540780187"/>
    <nd ref="1540780184"/>
    <tag k="highway" v="unclassified"/>
    <tag k="name" v="Sutton Lane"/>
  </way>
  <way id="360127313" version="1" timestamp="2015-07-12T11:55:18Z" changeset="32579737" uid="411244" user="RobJN">
    <nd ref="3647276173"/>
    <nd ref="1616837500"/>
    <nd ref="3647276176"/>
    <nd ref="3647276178"/>
    <nd ref="3647276180"/>
    <nd ref="1616837502"/>
    <tag k="highway" v="residential"/>
    <tag k="name" v="Gilletts Lane"/>
    <tag k="source" v="visual survey;bing"/>
    <tag k="surface" v="gravel"/>
  </way>
  <way id="360127314" version="1" timestamp="2015-07-12T11:55:18Z" changeset="32579737" uid="411244" user="RobJN">
    <nd ref="1616837502"/>
    <nd ref="3647276181"/>
    <nd ref="3647276182"/>
    <nd ref="1616837503"/>
    <nd ref="3647276179"/>
    <nd ref="3647276177"/>
    <nd ref="1616837499"/>
    <nd ref="3647276174"/>
    <nd ref="1616837496"/>
    <tag k="highway" v="residential"/>
    <tag k="name" v="Gilletts Lane"/>
    <tag k="source" v="visual survey;bing"/>
    <tag k="surface" v="asphalt"/>
  </way>
  <way id="360127316" version="1" timestamp="2015-07-12T11:55:18Z" changeset="32579737" uid="411244" user="RobJN">
    <nd ref="458395745"/>
    <nd ref="3647275987"/>
    <nd ref="458395751"/>
    <nd ref="3647275985"/>
    <nd ref="3647275984"/>
    <nd ref="458395754"/>
    <nd ref="3647275986"/>
    <nd ref="3647275988"/>
    <nd ref="1540780228"/>
    <tag k="highway" v="residential"/>
    <tag k="name" v="Jeffs Close"/>
    <tag k="source" v="GPS"/>
  </way>
  <way id="468705384" version="2" timestamp="2021-09-13T06:01:38Z" changeset="111123458" uid="11558580" user="jaabhil">
    <nd ref="4631840943"/>
    <nd ref="4631840944"/>
    <nd ref="9085510155"/>
    <nd ref="4631840945"/>
    <nd ref="4631840946"/>
    <nd ref="4631840947"/>
    <tag k="highway" v="residential"/>
    <tag k="maxspeed" v="30 mph"/>
    <tag k="name" v="Millers Way"/>
  </way>
  <way id="902358836" version="1" timestamp="2021-01-31T18:09:11Z" changeset="98460657" uid="369590" user="Jim Killock">
    <nd ref="8381362882"/>
    <nd ref="8381362883"/>
    <nd ref="8381362884"/>
    <nd ref="8381362885"/>
    <nd ref="8381362886"/>
    <nd ref="8381362887"/>
    <nd ref="8381362888"/>
    <nd ref="8381362889"/>
    <nd ref="8381362890"/>
    <nd ref="8381362891"/>
    <nd ref="8381362882"/>
    <tag k="building" v="farm"/>
    <tag k="name" v="Lower Chelmscote Farmhouse"/>
    <tag k="wikidata" v="Q26275347"/>
  </way>
  <way id="946882494" version="1" timestamp="2021-05-25T14:25:40Z" changeset="105298405" uid="30587" user="IknowJoseph">
    <nd ref="8765005145"/>
    <nd ref="8765005146"/>
    <nd ref="8765005147"/>
    <nd ref="8765005148"/>
    <nd ref="8765005145"/>
    <tag k="building" v="yes"/>
    <tag k="name" v="Hill Barn"/>
  </way>
  <way id="982396466" version="2" timestamp="2023-10-10T13:24:37Z" changeset="142393752" uid="9026132" user="PulisakZ">
    <nd ref="9085510155"/>
    <nd ref="11252905982"/>
    <nd ref="11252905981"/>
    <nd ref="9085510156"/>
    <nd ref="11252905980"/>
    <nd ref="11252905983"/>
    <nd ref="11252905984"/>
    <nd ref="9085510157"/>
    <nd ref="9085510158"/>
    <nd ref="11252905985"/>
    <nd ref="11252905986"/>
    <nd ref="9085510159"/>
    <nd ref="9085510160"/>
    <nd ref="9085510173"/>
    <nd ref="9085510161"/>
    <nd ref="9085510162"/>
    <tag k="highway" v="residential"/>
    <tag k="name" v="Warmington Road"/>
  </way>
  <way id="1000583434" version="1" timestamp="2021-11-08T17:04:09Z" changeset="113530723" uid="9065" user="brianboru">
    <nd ref="25289951"/>
    <nd ref="1610694289"/>
    <nd ref="1610633438"/>
    <nd ref="9235954016"/>
    <nd ref="1540780202"/>
    <nd ref="1540780207"/>
    <nd ref="1540780233"/>
    <nd ref="1611098889"/>
    <tag k="highway" v="unclassified"/>
    <tag k="name" v="Henbrook Lane"/>
    <tag k="source" v="bing"/>
    <tag k="source:name" v="OS_Locator"/>
  </way>
  <way id="1214544658" version="1" timestamp="2023-10-10T13:24:37Z" changeset="142393752" uid="9026132" user="PulisakZ">
    <nd ref="9085510170"/>
    <nd ref="9085510172"/>
    <nd ref="9085510173"/>
    <tag k="highway" v="residential"/>
    <tag k="name" v="Warmington Road"/>
  </way>
  <way id="1214544659" version="1" timestamp="2023-10-10T13:24:37Z" changeset="142393752" uid="9026132" user="PulisakZ">
    <nd ref="9085510166"/>
    <nd ref="9085510167"/>
    <nd ref="9085510168"/>
    <nd ref="9085510169"/>
    <nd ref="9085510170"/>
    <nd ref="9085510171"/>
    <tag k="highway" v="residential"/>
    <tag k="name" v="Gilkes Road"/>
  </way>
  <way id="1253944550" version="1" timestamp="2024-02-23T12:45:10Z" changeset="147810557" uid="84263" user="Robert Whittaker">
    <nd ref="452666977"/>
    <nd ref="452666978"/>
    <nd ref="2347751341"/>
    <nd ref="452666979"/>
    <nd ref="452666980"/>
    <nd ref="2347751346"/>
    <tag k="designation" v="public_footpath"/>
    <tag k="foot" v="designated"/>
    <tag k="highway" v="unclassified"/>
    <tag k="name" v="Rectory Lane"/>
    <tag k="prow_ref" v="SS49a"/>
    <tag k="source" v="GPS"/>
    <tag k="source:designation" v="warwickshire_county_council_prow_gis_data"/>
    <tag k="source:prow_ref" v="warwickshire_county_council_prow_gis_data"/>
  </way>

</osm>
