<?xml version="1.0" encoding="UTF-8"?>
<osm version="0.6" generator="Overpass API 0.7.62.8 e802775f">
<note>The data included in this document is from www.openstreetmap.org. The data is made available under ODbL.</note>
<meta osm_base="2025-10-23T17:17:14Z" areas="2025-10-23T12:46:58Z"/>

  <node id="323237" lat="52.0322377" lon="-1.6171267" version="8" timestamp="2011-11-14T12:23:33Z" changeset="9824152" uid="243152" user="ChinnorBoy"/>
  <node id="278706867" lat="52.0319856" lon="-1.6170887" version="8" timestamp="2011-11-14T12:23:33Z" changeset="9824152" uid="243152" user="ChinnorBoy"/>
  <node id="1231596029" lat="52.0422391" lon="-1.6214375" version="3" timestamp="2011-11-20T12:02:21Z" changeset="9882792" uid="51046" user="clive_4332"/>
  <node id="1439653517" lat="52.0339591" lon="-1.5918469" version="2" timestamp="2013-11-13T16:44:14Z" changeset="18877604" uid="9065" user="brianboru"/>
  <node id="1540780119" lat="52.0340685" lon="-1.5852920" version="2" timestamp="2013-11-13T17:12:58Z" changeset="18878008" uid="9065" user="brianboru"/>
  <node id="1550251805" lat="52.0375601" lon="-1.6118850" version="3" timestamp="2018-11-19T09:49:32Z" changeset="64648155" uid="9065" user="brianboru"/>
  <way id="4746025" version="6" timestamp="2020-07-01T23:56:37Z" changeset="87421229" uid="115894" user="DaveF">
    <nd ref="1540780119"/>
    <nd ref="2530981594"/>
    <nd ref="30247039"/>
    <nd ref="2530981598"/>
    <nd ref="30247040"/>
    <nd ref="2530981608"/>
    <nd ref="30247041"/>
    <nd ref="2530981609"/>
    <nd ref="30247042"/>
    <nd ref="30247043"/>
    <nd ref="30247044"/>
    <nd ref="1687402789"/>
    <nd ref="30247045"/>
    <nd ref="1687402803"/>
    <nd ref="1602293422"/>
    <nd ref="1602293421"/>
    <nd ref="1602293426"/>
    <nd ref="1602293428"/>
    <nd ref="1602293429"/>
    <nd ref="1602293431"/>
    <nd ref="1602293432"/>
    <nd ref="1602293433"/>
    <nd ref="1602293435"/>
    <nd ref="1602293436"/>
    <nd ref="1602293438"/>
    <nd ref="1602293439"/>
    <nd ref="1602293441"/>
    <nd ref="1602293442"/>
    <nd ref="1602293444"/>
    <nd ref="1602293445"/>
    <nd ref="1602293446"/>
    <nd ref="1602293447"/>
    <nd ref="1602293448"/>
    <nd ref="1602293450"/>
    <nd ref="1602293451"/>
    <nd ref="1602293452"/>
    <nd ref="1602293454"/>
    <nd ref="1602293455"/>
    <nd ref="1602293457"/>
    <nd ref="1602293458"/>
    <nd ref="1602293459"/>
    <nd ref="1602293461"/>
    <nd ref="1602293462"/>
    <nd ref="1602293467"/>
    <nd ref="1602293468"/>
    <nd ref="1602293470"/>
    <nd ref="1602293471"/>
    <nd ref="1602293473"/>
    <nd ref="1602293474"/>
    <nd ref="1602293475"/>
    <nd ref="1602293476"/>
    <nd ref="1602293477"/>
    <nd ref="1439653533"/>
    <tag k="highway" v="unclassified"/>
    <tag k="source" v="bing"/>
  </way>
  <way id="25568862" version="17" timestamp="2021-02-06T21:18:36Z" changeset="98829539" uid="493595" user="Yorvik Prestigitator">
    <nd ref="278706867"/>
    <nd ref="6072825824"/>
    <nd ref="2396959076"/>
    <nd ref="278706868"/>
    <nd ref="278706869"/>
    <nd ref="278706870"/>
    <nd ref="514471154"/>
    <nd ref="2528035265"/>
    <nd ref="514471161"/>
    <nd ref="2528035250"/>
    <nd ref="514471164"/>
    <nd ref="278706871"/>
    <nd ref="7927482032"/>
    <nd ref="7927482035"/>
    <nd ref="514471171"/>
    <nd ref="2528035226"/>
    <nd ref="278706872"/>
    <nd ref="514471191"/>
    <nd ref="278706873"/>
    <nd ref="514471215"/>
    <nd ref="514471226"/>
    <nd ref="514471240"/>
    <nd ref="278706874"/>
    <nd ref="278706875"/>
    <nd ref="514471288"/>
    <nd ref="2528035065"/>
    <nd ref="2532269538"/>
    <nd ref="278706876"/>
    <nd ref="278706877"/>
    <nd ref="2528035000"/>
    <nd ref="278706878"/>
    <nd ref="278706879"/>
    <nd ref="278706880"/>
    <nd ref="800664294"/>
    <nd ref="278706882"/>
    <nd ref="8400745890"/>
    <nd ref="278706883"/>
    <nd ref="3405339432"/>
    <nd ref="3405339443"/>
    <nd ref="278706884"/>
    <nd ref="3405339442"/>
    <nd ref="278706885"/>
    <nd ref="3405339436"/>
    <tag k="highway" v="tertiary"/>
    <tag k="maxspeed" v="60 mph"/>
    <tag k="maxspeed:type" v="GB:nsl_single"/>
    <tag k="source" v="survey"/>
  </way>
  <way id="32976545" version="7" timestamp="2015-03-18T14:04:17Z" changeset="29569840" uid="84263" user="Robert Whittaker">
    <nd ref="323237"/>
    <nd ref="1502792481"/>
    <nd ref="371419206"/>
    <nd ref="371419207"/>
    <nd ref="2500859226"/>
    <nd ref="371419208"/>
    <nd ref="2500859229"/>
    <nd ref="2500859231"/>
    <nd ref="371419210"/>
    <nd ref="2500859234"/>
    <nd ref="514471818"/>
    <nd ref="2500859237"/>
    <nd ref="371419211"/>
    <nd ref="371419212"/>
    <nd ref="514471873"/>
    <nd ref="1550251861"/>
    <nd ref="1550251805"/>
    <tag k="highway" v="unclassified"/>
    <tag k="source" v="NPE + personal knowledge"/>
  </way>
  <way id="32976559" version="8" timestamp="2025-01-02T12:11:21Z" changeset="160904232" uid="5229644" user="Nathan_A_RF">
    <nd ref="323237"/>
    <nd ref="278706867"/>
    <tag k="highway" v="primary"/>
    <tag k="lanes" v="2"/>
    <tag k="maxspeed" v="50 mph"/>
    <tag k="maxspeed:type" v="sign"/>
    <tag k="ref" v="A3400"/>
    <tag k="surface" v="asphalt"/>
  </way>
  <way id="130795094" version="5" timestamp="2013-11-13T17:12:56Z" changeset="18878008" uid="9065" user="brianboru">
    <nd ref="1439653517"/>
    <nd ref="1592862646"/>
    <nd ref="1592862804"/>
    <nd ref="2396959081"/>
    <nd ref="1592862832"/>
    <nd ref="2530981586"/>
    <nd ref="2530981590"/>
    <nd ref="2530981589"/>
    <nd ref="1540780119"/>
    <tag k="highway" v="unclassified"/>
  </way>
  <way id="130795095" version="2" timestamp="2012-01-16T13:31:36Z" changeset="10408324" uid="165" user="Richard">
    <nd ref="1592862789"/>
    <nd ref="1439653517"/>
    <tag k="highway" v="unclassified"/>
  </way>
  <way id="141626973" version="5" timestamp="2020-01-07T15:10:58Z" changeset="79298771" uid="115894" user="DaveF">
    <nd ref="1550251805"/>
    <nd ref="6072826131"/>
    <nd ref="6892209379"/>
    <nd ref="1550251673"/>
    <nd ref="1550251833"/>
    <nd ref="1550251920"/>
    <nd ref="1550251915"/>
    <nd ref="1550251835"/>
    <nd ref="1550251784"/>
    <nd ref="1550251793"/>
    <nd ref="1550251837"/>
    <nd ref="1550251713"/>
    <nd ref="1550251772"/>
    <nd ref="1550251806"/>
    <nd ref="1550251788"/>
    <nd ref="1550251735"/>
    <nd ref="1550251783"/>
    <nd ref="1550251665"/>
    <nd ref="1550251918"/>
    <nd ref="1550251682"/>
    <nd ref="1550251883"/>
    <nd ref="1550251802"/>
    <nd ref="1550251700"/>
    <nd ref="1550251664"/>
    <nd ref="1550251796"/>
    <nd ref="1550251808"/>
    <nd ref="1550251651"/>
    <nd ref="1550251757"/>
    <nd ref="1550251803"/>
    <nd ref="1550251826"/>
    <nd ref="1550251631"/>
    <nd ref="1550251777"/>
    <nd ref="1550251663"/>
    <tag k="highway" v="unclassified"/>
  </way>
  <way id="141693588" version="5" timestamp="2025-01-02T12:11:21Z" changeset="160904232" uid="5229644" user="Nathan_A_RF">
    <nd ref="1550995880"/>
    <nd ref="1550995805"/>
    <nd ref="1502778790"/>
    <nd ref="323233"/>
    <nd ref="1502778789"/>
    <nd ref="1502778792"/>
    <nd ref="323234"/>
    <nd ref="1502778791"/>
    <nd ref="1502791980"/>
    <nd ref="323236"/>
    <nd ref="1502791979"/>
    <nd ref="514471661"/>
    <nd ref="1502791981"/>
    <nd ref="1502791982"/>
    <nd ref="514471669"/>
    <nd ref="1502792480"/>
    <nd ref="323237"/>
    <tag k="highway" v="primary"/>
    <tag k="lanes" v="2"/>
    <tag k="maxspeed" v="50 mph"/>
    <tag k="maxspeed:type" v="sign"/>
    <tag k="ref" v="A3400"/>
    <tag k="surface" v="asphalt"/>
  </way>
  <way id="145970408" version="6" timestamp="2018-11-19T09:49:33Z" changeset="64648155" uid="9065" user="brianboru">
    <nd ref="1550995880"/>
    <nd ref="6072825825"/>
    <nd ref="1611768600"/>
    <nd ref="274494213"/>
    <nd ref="1592862823"/>
    <nd ref="1611768596"/>
    <nd ref="1592862761"/>
    <tag k="highway" v="unclassified"/>
    <tag k="name" v="Main Street"/>
    <tag k="source" v="Bing"/>
  </way>
  <way id="145973100" version="7" timestamp="2025-01-02T12:11:21Z" changeset="160904232" uid="5229644" user="Nathan_A_RF">
    <nd ref="1231596029"/>
    <nd ref="1509639774"/>
    <nd ref="1611762326"/>
    <nd ref="323230"/>
    <nd ref="13797328"/>
    <nd ref="274494232"/>
    <nd ref="323231"/>
    <nd ref="1502778787"/>
    <nd ref="274494244"/>
    <nd ref="274494243"/>
    <nd ref="1502778788"/>
    <nd ref="1550995880"/>
    <tag k="highway" v="primary"/>
    <tag k="lanes" v="2"/>
    <tag k="maxspeed" v="50 mph"/>
    <tag k="maxspeed:type" v="sign"/>
    <tag k="ref" v="A3400"/>
    <tag k="sidewalk" v="left"/>
    <tag k="surface" v="asphalt"/>
  </way>
  <way id="145973104" version="9" timestamp="2025-01-02T12:11:21Z" changeset="160904232" uid="5229644" user="Nathan_A_RF">
    <nd ref="1231596029"/>
    <nd ref="1592869693"/>
    <tag k="bridge" v="yes"/>
    <tag k="cycleway:both" v="no"/>
    <tag k="highway" v="primary"/>
    <tag k="lanes" v="2"/>
    <tag k="layer" v="1"/>
    <tag k="maxspeed" v="50 mph"/>
    <tag k="maxspeed:type" v="sign"/>
    <tag k="maxweight:signed" v="no"/>
    <tag k="ref" v="A3400"/>
    <tag k="shoulder" v="no"/>
    <tag k="sidewalk" v="right"/>
    <tag k="sidewalk:right:surface" v="asphalt"/>
    <tag k="surface" v="asphalt"/>
  </way>
  <way id="148001306" version="2" timestamp="2018-11-19T09:49:33Z" changeset="64648155" uid="9065" user="brianboru">
    <nd ref="1592862824"/>
    <nd ref="1611098776"/>
    <nd ref="1611098780"/>
    <nd ref="6072825935"/>
    <nd ref="1611098778"/>
    <nd ref="1611098774"/>
    <nd ref="1611098769"/>
    <tag k="highway" v="residential"/>
    <tag k="name" v="The Lane"/>
  </way>
  <way id="148065440" version="3" timestamp="2019-07-08T10:09:37Z" changeset="72005978" uid="9065" user="brianboru">
    <nd ref="1611768561"/>
    <nd ref="1611768622"/>
    <nd ref="1611768592"/>
    <nd ref="1611768576"/>
    <nd ref="1611768640"/>
    <nd ref="6007430559"/>
    <nd ref="1611768595"/>
    <nd ref="1611768561"/>
    <tag k="building" v="yes"/>
    <tag k="heritage" v="2"/>
    <tag k="heritage:operator" v="Historic England"/>
    <tag k="listed_status" v="Grade II*"/>
    <tag k="name" v="Manor House"/>
  </way>
  <way id="148065448" version="5" timestamp="2020-10-05T21:13:28Z" changeset="92007731" uid="364" user="Edward">
    <nd ref="1611768564"/>
    <nd ref="1611768591"/>
    <nd ref="1611768534"/>
    <nd ref="1611768619"/>
    <nd ref="1611768577"/>
    <nd ref="1611768634"/>
    <nd ref="1611768630"/>
    <nd ref="1611768551"/>
    <nd ref="1611768629"/>
    <nd ref="1611768646"/>
    <nd ref="1611768581"/>
    <nd ref="1611768601"/>
    <nd ref="1611768564"/>
    <tag k="amenity" v="place_of_worship"/>
    <tag k="building" v="church"/>
    <tag k="denomination" v="anglican"/>
    <tag k="name" v="Saint Barnabas and Saint Nicholas"/>
    <tag k="religion" v="christian"/>
    <tag k="wikidata" v="Q26275101"/>
  </way>
  <way id="148066843" version="1" timestamp="2012-01-30T13:33:47Z" changeset="10539323" uid="64" user="lsces">
    <nd ref="1611779536"/>
    <nd ref="1611779501"/>
    <nd ref="1611779534"/>
    <nd ref="1611779476"/>
    <nd ref="1592862819"/>
    <tag k="highway" v="residential"/>
  </way>
  <way id="148066846" version="1" timestamp="2012-01-30T13:33:47Z" changeset="10539323" uid="64" user="lsces">
    <nd ref="1611779485"/>
    <nd ref="1611779520"/>
    <tag k="highway" v="residential"/>
  </way>
  <way id="148066848" version="1" timestamp="2012-01-30T13:33:48Z" changeset="10539323" uid="64" user="lsces">
    <nd ref="1611779552"/>
    <nd ref="1611779535"/>
    <nd ref="1611779498"/>
    <nd ref="1611779527"/>
    <nd ref="1592862662"/>
    <tag k="highway" v="residential"/>
  </way>
  <way id="149109441" version="2" timestamp="2013-08-27T17:35:31Z" changeset="17541022" uid="782788" user="GordonFS">
    <nd ref="1550251805"/>
    <nd ref="1611779543"/>
    <tag k="highway" v="unclassified"/>
    <tag k="maxspeed" v="30 mph"/>
    <tag k="source" v="Bing"/>
  </way>
  <way id="235350634" version="2" timestamp="2013-11-13T16:44:08Z" changeset="18877604" uid="9065" user="brianboru">
    <nd ref="1611779543"/>
    <nd ref="1592862691"/>
    <nd ref="1592862786"/>
    <nd ref="1592862650"/>
    <nd ref="1592862848"/>
    <nd ref="1592862774"/>
    <nd ref="1592862888"/>
    <nd ref="1592862879"/>
    <nd ref="1592862748"/>
    <nd ref="1592862792"/>
    <nd ref="1592862694"/>
    <nd ref="1592862777"/>
    <nd ref="1592862807"/>
    <nd ref="1592862835"/>
    <nd ref="1592862703"/>
    <nd ref="1592862665"/>
    <nd ref="2530960399"/>
    <nd ref="2530960415"/>
    <nd ref="2530960423"/>
    <nd ref="1592862789"/>
    <tag k="highway" v="unclassified"/>
    <tag k="source" v="Bing"/>
  </way>
  <way id="235350637" version="4" timestamp="2020-02-04T07:51:42Z" changeset="80517726" uid="10455640" user="madnikhi">
    <nd ref="1592862761"/>
    <nd ref="6072825905"/>
    <nd ref="1592862855"/>
    <nd ref="4770129151"/>
    <nd ref="1592862824"/>
    <nd ref="1592862753"/>
    <nd ref="1611779520"/>
    <nd ref="1592862662"/>
    <nd ref="1592862819"/>
    <nd ref="7183611151"/>
    <nd ref="1611779555"/>
    <nd ref="1611779556"/>
    <nd ref="1550251805"/>
    <tag k="highway" v="unclassified"/>
    <tag k="maxspeed" v="30 mph"/>
    <tag k="name" v="Main Street"/>
    <tag k="source" v="Bing"/>
  </way>

</osm>
