<?xml version="1.0" encoding="UTF-8"?>
<osm version="0.6" generator="Overpass API 0.7.62.8 e802775f">
<note>The data included in this document is from www.openstreetmap.org. The data is made available under ODbL.</note>
<meta osm_base="2025-10-23T17:36:51Z" areas="2025-10-23T14:54:58Z"/>

  <node id="15830933" lat="52.2688781" lon="-1.4720213" version="4" timestamp="2023-02-25T20:42:48Z" changeset="133021460" uid="5589" user="user_5589"/>
  <node id="27191522" lat="52.2896342" lon="-1.4715317" version="4" timestamp="2020-12-16T21:52:39Z" changeset="95965062" uid="5589" user="user_5589"/>
  <node id="262832475" lat="52.2870493" lon="-1.4517696" version="4" timestamp="2023-08-15T19:32:50Z" changeset="139931598" uid="705850" user="Cebderby"/>
  <node id="271926253" lat="52.2638875" lon="-1.4191480" version="2" timestamp="2009-10-06T03:23:08Z" changeset="2756738" uid="22445" user="PhilH"/>
  <node id="382608746" lat="52.2816782" lon="-1.4868977" version="2" timestamp="2013-10-16T17:36:19Z" changeset="18390390" uid="69984" user="richardwest"/>
  <node id="2421585030" lat="52.2920820" lon="-1.4761618" version="2" timestamp="2013-08-17T10:10:07Z" changeset="17381944" uid="9065" user="brianboru"/>
  <node id="9908353146" lat="52.2922583" lon="-1.4519727" version="1" timestamp="2022-07-24T22:13:32Z" changeset="124025905" uid="13540511" user="TX310"/>
  <way id="8003580" version="30" timestamp="2021-09-27T17:38:52Z" changeset="111780223" uid="5589" user="user_5589">
    <nd ref="27191519"/>
    <nd ref="2310451747"/>
    <nd ref="2310451751"/>
    <nd ref="2310451752"/>
    <nd ref="2310451756"/>
    <nd ref="2310451758"/>
    <nd ref="2310451759"/>
    <nd ref="2310451763"/>
    <nd ref="2310451775"/>
    <nd ref="2310451784"/>
    <nd ref="2310451794"/>
    <nd ref="2310451798"/>
    <nd ref="2310451799"/>
    <nd ref="2310451800"/>
    <nd ref="2310451801"/>
    <nd ref="27191520"/>
    <nd ref="2310451802"/>
    <nd ref="2310451803"/>
    <nd ref="2310451804"/>
    <nd ref="2310451808"/>
    <nd ref="2310451811"/>
    <nd ref="2310451813"/>
    <nd ref="2310451817"/>
    <nd ref="2310451822"/>
    <nd ref="27191521"/>
    <nd ref="2310451824"/>
    <nd ref="2310451828"/>
    <nd ref="2310451832"/>
    <tag k="highway" v="tertiary"/>
    <tag k="maintenance" v="gritting"/>
    <tag k="maxspeed" v="50 mph"/>
    <tag k="name" v="Welsh Road"/>
    <tag k="operator" v="Warwickshire County Council"/>
    <tag k="surface" v="asphalt"/>
  </way>
  <way id="24730387" version="19" timestamp="2024-11-18T21:13:39Z" changeset="159301064" uid="11496552" user="PhilBike24">
    <nd ref="27191522"/>
    <nd ref="2310451836"/>
    <nd ref="2310451842"/>
    <nd ref="2310451856"/>
    <nd ref="2310451857"/>
    <nd ref="8235780488"/>
    <nd ref="8408719909"/>
    <nd ref="8235780485"/>
    <nd ref="8235780487"/>
    <nd ref="8235780486"/>
    <nd ref="268787542"/>
    <nd ref="7309120164"/>
    <nd ref="8235780502"/>
    <nd ref="1371322393"/>
    <nd ref="268787543"/>
    <nd ref="8235780501"/>
    <nd ref="8235780500"/>
    <nd ref="268787544"/>
    <nd ref="8235780489"/>
    <nd ref="2428450838"/>
    <nd ref="8235780490"/>
    <nd ref="8235780491"/>
    <nd ref="702948420"/>
    <nd ref="268787545"/>
    <nd ref="6495949117"/>
    <nd ref="268787546"/>
    <nd ref="12352305808"/>
    <nd ref="8235780492"/>
    <nd ref="702948422"/>
    <nd ref="8235780493"/>
    <nd ref="268787547"/>
    <nd ref="268787548"/>
    <nd ref="8235780494"/>
    <nd ref="6178824606"/>
    <nd ref="702948425"/>
    <nd ref="12352305812"/>
    <nd ref="2428450872"/>
    <nd ref="8235780495"/>
    <nd ref="702948426"/>
    <nd ref="702948427"/>
    <nd ref="702948428"/>
    <nd ref="2428450883"/>
    <nd ref="702948429"/>
    <nd ref="12352305811"/>
    <nd ref="268787549"/>
    <nd ref="8235780499"/>
    <nd ref="8235780496"/>
    <nd ref="268787550"/>
    <nd ref="8235780497"/>
    <nd ref="268787551"/>
    <nd ref="8235780498"/>
    <nd ref="702948813"/>
    <nd ref="268787552"/>
    <nd ref="702948815"/>
    <nd ref="268787609"/>
    <nd ref="268787610"/>
    <nd ref="702948816"/>
    <nd ref="702948817"/>
    <nd ref="268787612"/>
    <nd ref="268787613"/>
    <nd ref="268787614"/>
    <nd ref="2428188807"/>
    <nd ref="702948818"/>
    <nd ref="2428188820"/>
    <nd ref="702949899"/>
    <nd ref="268787616"/>
    <tag k="highway" v="unclassified"/>
    <tag k="lanes" v="1"/>
    <tag k="name" v="Hunningham Road"/>
    <tag k="source" v="survey"/>
    <tag k="surface" v="paved"/>
  </way>
  <way id="25201241" version="20" timestamp="2025-10-17T21:07:12Z" changeset="173428647" uid="11496552" user="PhilBike24">
    <nd ref="2310451779"/>
    <nd ref="2310451782"/>
    <nd ref="262832471"/>
    <nd ref="9315899491"/>
    <tag k="access" v="no"/>
    <tag k="highway" v="tertiary"/>
    <tag k="highway_authority_ref" v="C91"/>
    <tag k="maintenance" v="gritting"/>
    <tag k="name" v="Long Itchington Road"/>
    <tag k="operator" v="Warwickshire County Council"/>
  </way>
  <way id="25558191" version="8" timestamp="2020-12-16T21:52:39Z" changeset="95965062" uid="5589" user="user_5589">
    <nd ref="268787541"/>
    <nd ref="278572156"/>
    <nd ref="2310451834"/>
    <nd ref="2310451831"/>
    <nd ref="2310451826"/>
    <nd ref="278572157"/>
    <nd ref="278572158"/>
    <nd ref="2310451805"/>
    <nd ref="3891561628"/>
    <nd ref="3891561636"/>
    <nd ref="278572159"/>
    <nd ref="2310451797"/>
    <nd ref="8235780484"/>
    <nd ref="2310451796"/>
    <nd ref="278572161"/>
    <tag k="highway" v="tertiary"/>
    <tag k="name" v="School Hill"/>
    <tag k="source" v="bing"/>
    <tag k="source:name" v="OS_Locator"/>
  </way>
  <way id="25558197" version="9" timestamp="2021-02-24T12:01:40Z" changeset="99902813" uid="10170582" user="priymose">
    <nd ref="278572161"/>
    <nd ref="278572162"/>
    <nd ref="8235777964"/>
    <nd ref="702944073"/>
    <nd ref="8454031218"/>
    <nd ref="6539025871"/>
    <nd ref="278572163"/>
    <nd ref="2421609014"/>
    <tag k="highway" v="tertiary"/>
    <tag k="name" v="Village Street"/>
  </way>
  <way id="25558200" version="8" timestamp="2020-12-16T21:40:54Z" changeset="95964778" uid="5589" user="user_5589">
    <nd ref="2421609014"/>
    <nd ref="3891510454"/>
    <nd ref="6461317034"/>
    <nd ref="3891510453"/>
    <nd ref="6461317033"/>
    <nd ref="278572166"/>
    <nd ref="702944041"/>
    <nd ref="702944043"/>
    <nd ref="2421608901"/>
    <nd ref="702944044"/>
    <nd ref="702944045"/>
    <nd ref="702944046"/>
    <nd ref="8235771484"/>
    <nd ref="2418967268"/>
    <nd ref="278572153"/>
    <tag k="highway" v="tertiary"/>
  </way>
  <way id="33534859" version="5" timestamp="2025-08-17T19:15:24Z" changeset="170583360" uid="13247722" user="TheCanMan">
    <nd ref="278578319"/>
    <nd ref="382608733"/>
    <tag k="bridge" v="yes"/>
    <tag k="bridge_ref" v="30"/>
    <tag k="highway" v="tertiary"/>
    <tag k="layer" v="1"/>
    <tag k="maxspeed" v="50 mph"/>
    <tag k="name" v="Welsh Road"/>
  </way>
  <way id="33534863" version="9" timestamp="2025-01-08T17:42:51Z" changeset="161142627" uid="5229644" user="Nathan_A_RF">
    <nd ref="21131904"/>
    <nd ref="21131905"/>
    <tag k="bridge" v="yes"/>
    <tag k="bridge_ref" v="32"/>
    <tag k="cycleway:both" v="no"/>
    <tag k="highway" v="secondary"/>
    <tag k="layer" v="1"/>
    <tag k="maxspeed" v="60 mph"/>
    <tag k="maxspeed:type" v="GB:nsl_single"/>
    <tag k="maxweight:signed" v="no"/>
    <tag k="name" v="Fosse Way"/>
    <tag k="ref" v="B4455"/>
    <tag k="source:ref" v="OS-OpenData_StreetView"/>
    <tag k="surface" v="asphalt"/>
  </way>
  <way id="33534864" version="20" timestamp="2025-01-08T17:42:51Z" changeset="161142627" uid="5229644" user="Nathan_A_RF">
    <nd ref="21131905"/>
    <nd ref="6782019765"/>
    <nd ref="2306722071"/>
    <tag k="cycleway:both" v="no"/>
    <tag k="highway" v="secondary"/>
    <tag k="maxspeed" v="60 mph"/>
    <tag k="maxspeed:type" v="GB:nsl_single"/>
    <tag k="name" v="Fosse Way"/>
    <tag k="ref" v="B4455"/>
    <tag k="surface" v="asphalt"/>
  </way>
  <way id="33534867" version="11" timestamp="2021-09-27T17:38:35Z" changeset="111780223" uid="5589" user="user_5589">
    <nd ref="382608746"/>
    <nd ref="382608751"/>
    <tag k="bridge" v="yes"/>
    <tag k="bridge:name" v="Butt Bridge"/>
    <tag k="bridge:ref" v="34"/>
    <tag k="highway" v="tertiary"/>
    <tag k="highway_authority_ref" v="C91"/>
    <tag k="layer" v="1"/>
    <tag k="maintenance" v="gritting"/>
    <tag k="name" v="Offchurch Lane"/>
    <tag k="operator" v="Warwickshire County Council"/>
    <tag k="surface" v="asphalt"/>
  </way>
  <way id="33534868" version="20" timestamp="2024-01-07T18:15:23Z" changeset="146001278" uid="384887" user="robw">
    <nd ref="278572153"/>
    <nd ref="8235771483"/>
    <nd ref="2418967272"/>
    <nd ref="8816465328"/>
    <nd ref="8235771482"/>
    <nd ref="27191516"/>
    <nd ref="8235771481"/>
    <nd ref="8235771480"/>
    <nd ref="702943998"/>
    <nd ref="8235771479"/>
    <nd ref="27191517"/>
    <tag k="highway" v="tertiary"/>
    <tag k="highway_authority_ref" v="C91"/>
    <tag k="maintenance" v="gritting"/>
    <tag k="name" v="Long Itchington Road"/>
    <tag k="oneway" v="no"/>
    <tag k="operator" v="Warwickshire County Council"/>
    <tag k="surface" v="asphalt"/>
  </way>
  <way id="42057811" version="11" timestamp="2025-08-17T19:15:24Z" changeset="170583360" uid="13247722" user="TheCanMan">
    <nd ref="271926253"/>
    <nd ref="278578351"/>
    <nd ref="4362600432"/>
    <nd ref="278578348"/>
    <nd ref="278578346"/>
    <nd ref="2276752969"/>
    <nd ref="2276752975"/>
    <nd ref="278578344"/>
    <nd ref="2276752977"/>
    <nd ref="2276752983"/>
    <nd ref="1384388076"/>
    <nd ref="278578342"/>
    <nd ref="2475033136"/>
    <nd ref="278578338"/>
    <nd ref="2276753019"/>
    <nd ref="1384388112"/>
    <nd ref="2276753024"/>
    <nd ref="2276753026"/>
    <nd ref="278578336"/>
    <nd ref="2276753022"/>
    <nd ref="2276753005"/>
    <nd ref="278578334"/>
    <nd ref="2276752999"/>
    <nd ref="2276752997"/>
    <nd ref="8524713345"/>
    <nd ref="2276752995"/>
    <nd ref="278578332"/>
    <nd ref="278578330"/>
    <nd ref="2276753009"/>
    <nd ref="2276753010"/>
    <nd ref="2276753013"/>
    <nd ref="278578328"/>
    <nd ref="2276753028"/>
    <nd ref="278578326"/>
    <nd ref="278578323"/>
    <nd ref="2310451570"/>
    <nd ref="2310451571"/>
    <nd ref="2276753047"/>
    <nd ref="278578321"/>
    <nd ref="2310451573"/>
    <nd ref="2310451574"/>
    <nd ref="2276753048"/>
    <nd ref="382608733"/>
    <tag k="highway" v="tertiary"/>
    <tag k="maxspeed" v="50 mph"/>
    <tag k="name" v="Welsh Road"/>
    <tag k="sidewalk" v="no"/>
  </way>
  <way id="55999898" version="7" timestamp="2020-12-16T22:01:55Z" changeset="95965338" uid="5589" user="user_5589">
    <nd ref="278572161"/>
    <nd ref="8235777963"/>
    <nd ref="2310451795"/>
    <nd ref="2310451793"/>
    <nd ref="702944512"/>
    <nd ref="2310451787"/>
    <nd ref="8235771486"/>
    <nd ref="702944513"/>
    <nd ref="2310451776"/>
    <nd ref="2310451774"/>
    <nd ref="2310451771"/>
    <nd ref="702944514"/>
    <nd ref="702944515"/>
    <nd ref="2310451764"/>
    <nd ref="2310451760"/>
    <nd ref="2310451755"/>
    <nd ref="2310451749"/>
    <tag k="highway" v="unclassified"/>
    <tag k="name" v="Village Street"/>
    <tag k="source" v="bing"/>
    <tag k="source:name" v="OS_Locator"/>
  </way>
  <way id="184505471" version="4" timestamp="2018-08-03T01:08:58Z" changeset="61313292" uid="115894" user="DaveF">
    <nd ref="528798022"/>
    <nd ref="274773193"/>
    <tag k="highway" v="tertiary"/>
    <tag k="highway_authority_ref" v="C91"/>
    <tag k="maintenance" v="gritting"/>
    <tag k="name" v="Offchurch Lane"/>
    <tag k="oneway" v="no"/>
    <tag k="operator" v="Warwickshire County Council"/>
  </way>
  <way id="222068831" version="1" timestamp="2013-05-18T22:52:05Z" changeset="16186878" uid="411244" user="RobJN">
    <nd ref="2310451856"/>
    <nd ref="2310451851"/>
    <nd ref="2310451845"/>
    <nd ref="2310451843"/>
    <nd ref="2310451841"/>
    <nd ref="2310451840"/>
    <nd ref="2310451838"/>
    <nd ref="2310451837"/>
    <tag k="highway" v="unclassified"/>
    <tag k="lanes" v="1"/>
    <tag k="name" v="Hunningham Road"/>
    <tag k="source" v="survey"/>
    <tag k="surface" v="paved"/>
  </way>
  <way id="233835124" version="4" timestamp="2021-09-27T17:39:03Z" changeset="111780223" uid="5589" user="user_5589">
    <nd ref="2421585030"/>
    <nd ref="27191532"/>
    <tag k="bridge" v="yes"/>
    <tag k="highway" v="tertiary"/>
    <tag k="layer" v="1"/>
    <tag k="maintenance" v="gritting"/>
    <tag k="name" v="Welsh Road"/>
    <tag k="operator" v="Warwickshire County Council"/>
    <tag k="surface" v="asphalt"/>
  </way>
  <way id="234578288" version="6" timestamp="2023-12-01T09:06:34Z" changeset="144654010" uid="504708" user="HillWithSmallFields">
    <nd ref="2428188638"/>
    <nd ref="2428188642"/>
    <nd ref="2428188643"/>
    <nd ref="2428188644"/>
    <nd ref="2428188640"/>
    <nd ref="2428188641"/>
    <nd ref="2428188635"/>
    <nd ref="2428188633"/>
    <nd ref="2428188638"/>
    <tag k="addr:postcode" v="CV33 9AW"/>
    <tag k="amenity" v="place_of_worship"/>
    <tag k="building" v="church"/>
    <tag k="denomination" v="anglican"/>
    <tag k="heritage" v="2"/>
    <tag k="heritage:operator" v="Historic England"/>
    <tag k="listed_status" v="Grade II*"/>
    <tag k="name" v="St Gregory"/>
    <tag k="ref:dove" v="11555"/>
    <tag k="religion" v="christian"/>
    <tag k="source" v="bing"/>
    <tag k="wikidata" v="Q17552070"/>
  </way>
  <way id="242373450" version="1" timestamp="2013-10-16T16:11:22Z" changeset="18388933" uid="69984" user="richardwest">
    <nd ref="2498575255"/>
    <nd ref="2498575226"/>
    <nd ref="2498575198"/>
    <nd ref="2498575240"/>
    <nd ref="2498575255"/>
    <tag k="building" v="yes"/>
    <tag k="name" v="Canal &amp; River Trust Services"/>
  </way>
  <way id="305779550" version="3" timestamp="2024-01-07T18:15:23Z" changeset="146001278" uid="384887" user="robw">
    <nd ref="27191519"/>
    <nd ref="2310451737"/>
    <nd ref="528798022"/>
    <tag k="highway" v="tertiary"/>
    <tag k="highway_authority_ref" v="C91"/>
    <tag k="maintenance" v="gritting"/>
    <tag k="name" v="Long Itchington Road"/>
    <tag k="oneway" v="no"/>
    <tag k="operator" v="Warwickshire County Council"/>
  </way>
  <way id="354885973" version="6" timestamp="2025-03-01T00:12:27Z" changeset="163072978" uid="563773" user="mrpacmanmap">
    <nd ref="27191517"/>
    <nd ref="10274384194"/>
    <nd ref="2310451712"/>
    <nd ref="2310451714"/>
    <nd ref="2310451713"/>
    <nd ref="2310451711"/>
    <nd ref="2310451710"/>
    <nd ref="2310451709"/>
    <nd ref="2310451715"/>
    <nd ref="2310451716"/>
    <nd ref="2310451717"/>
    <nd ref="2310451719"/>
    <nd ref="2310451721"/>
    <nd ref="27191518"/>
    <nd ref="2310451724"/>
    <nd ref="2310451726"/>
    <nd ref="2310451730"/>
    <nd ref="2310451732"/>
    <nd ref="2310451733"/>
    <nd ref="2310451734"/>
    <nd ref="2310451735"/>
    <nd ref="2310451736"/>
    <nd ref="27191519"/>
    <tag k="highway" v="tertiary"/>
    <tag k="highway_authority_ref" v="C91"/>
    <tag k="maintenance" v="gritting"/>
    <tag k="name" v="Long Itchington Road"/>
    <tag k="oneway" v="no"/>
    <tag k="operator" v="Warwickshire County Council"/>
    <tag k="surface" v="asphalt"/>
  </way>
  <way id="354885977" version="3" timestamp="2025-03-01T00:12:27Z" changeset="163072978" uid="563773" user="mrpacmanmap">
    <nd ref="2310451848"/>
    <nd ref="27191525"/>
    <nd ref="2310451854"/>
    <nd ref="2310451855"/>
    <nd ref="1367135002"/>
    <nd ref="2310451852"/>
    <nd ref="2310451849"/>
    <nd ref="2310451846"/>
    <nd ref="27191526"/>
    <nd ref="2310451847"/>
    <nd ref="2310451850"/>
    <nd ref="2310451853"/>
    <nd ref="268787541"/>
    <nd ref="278574198"/>
    <nd ref="2310451858"/>
    <nd ref="27191529"/>
    <nd ref="1367135026"/>
    <tag k="highway" v="tertiary"/>
    <tag k="maintenance" v="gritting"/>
    <tag k="maxspeed" v="30 mph"/>
    <tag k="name" v="Welsh Road"/>
    <tag k="operator" v="Warwickshire County Council"/>
  </way>
  <way id="354885984" version="5" timestamp="2023-11-29T11:49:28Z" changeset="144584806" uid="384887" user="robw">
    <nd ref="1367135026"/>
    <nd ref="2310451859"/>
    <nd ref="703810988"/>
    <nd ref="703810995"/>
    <nd ref="5586450369"/>
    <nd ref="27191531"/>
    <tag k="highway" v="tertiary"/>
    <tag k="maintenance" v="gritting"/>
    <tag k="maxspeed" v="30 mph"/>
    <tag k="name" v="Welsh Road"/>
    <tag k="operator" v="Warwickshire County Council"/>
    <tag k="surface" v="asphalt"/>
  </way>
  <way id="354885991" version="4" timestamp="2025-03-01T00:12:27Z" changeset="163072978" uid="563773" user="mrpacmanmap">
    <nd ref="27191517"/>
    <nd ref="2310451718"/>
    <nd ref="8235771478"/>
    <nd ref="2310451722"/>
    <nd ref="2310451725"/>
    <nd ref="2310451729"/>
    <nd ref="702944518"/>
    <nd ref="2310451749"/>
    <tag k="highway" v="unclassified"/>
    <tag k="name" v="Village Street"/>
    <tag k="source" v="bing"/>
    <tag k="source:name" v="OS_Locator"/>
  </way>
  <way id="354886005" version="9" timestamp="2025-01-08T17:42:51Z" changeset="161142627" uid="5229644" user="Nathan_A_RF">
    <nd ref="2306722071"/>
    <nd ref="2434867804"/>
    <nd ref="2310451612"/>
    <nd ref="5804776320"/>
    <nd ref="15830934"/>
    <nd ref="2310451620"/>
    <nd ref="2310451622"/>
    <nd ref="2310451625"/>
    <nd ref="2310451632"/>
    <nd ref="2310451634"/>
    <nd ref="2310451638"/>
    <nd ref="21131906"/>
    <nd ref="1488474397"/>
    <tag k="cycleway:both" v="no"/>
    <tag k="highway" v="secondary"/>
    <tag k="lanes" v="2"/>
    <tag k="maxspeed" v="60 mph"/>
    <tag k="maxspeed:type" v="GB:nsl_single"/>
    <tag k="name" v="Fosse Way"/>
    <tag k="ref" v="B4455"/>
    <tag k="shoulder" v="no"/>
    <tag k="source:ref" v="OS-OpenData_StreetView"/>
    <tag k="surface" v="asphalt"/>
  </way>
  <way id="385820554" version="2" timestamp="2020-10-25T12:39:46Z" changeset="93015004" uid="11834369" user="RuberyRunner">
    <nd ref="3891510452"/>
    <nd ref="3891510455"/>
    <nd ref="3891510456"/>
    <tag k="access" v="private"/>
    <tag k="highway" v="residential"/>
    <tag k="name" v="Park Gates"/>
    <tag k="surface" v="asphalt"/>
  </way>
  <way id="385820555" version="5" timestamp="2021-10-09T08:57:32Z" changeset="112292629" uid="242345" user="confusedbuffalo">
    <nd ref="3891523960"/>
    <nd ref="3891523961"/>
    <nd ref="3891523962"/>
    <nd ref="3891523963"/>
    <nd ref="3891523964"/>
    <nd ref="3891523965"/>
    <nd ref="3891523966"/>
    <nd ref="3891523967"/>
    <nd ref="3891523968"/>
    <nd ref="3891523969"/>
    <nd ref="3891523970"/>
    <nd ref="3891523971"/>
    <nd ref="3891523972"/>
    <nd ref="3891523973"/>
    <nd ref="3891523960"/>
    <tag k="addr:city" v="Offchurch"/>
    <tag k="addr:housename" v="Offa House"/>
    <tag k="addr:postcode" v="CV33 9AW"/>
    <tag k="addr:street" v="Village Street"/>
    <tag k="building" v="residential"/>
    <tag k="building:use" v="retreat"/>
    <tag k="heritage" v="2"/>
    <tag k="heritage:operator" v="Historic England"/>
    <tag k="listed_status" v="Grade II"/>
    <tag k="name" v="Offa House"/>
  </way>
  <way id="385820922" version="6" timestamp="2021-10-24T20:29:29Z" changeset="112920874" uid="242345" user="confusedbuffalo">
    <nd ref="3891529134"/>
    <nd ref="6495497879"/>
    <nd ref="3891529135"/>
    <nd ref="3891529136"/>
    <nd ref="3891529137"/>
    <nd ref="3891558891"/>
    <nd ref="3891529138"/>
    <nd ref="3891529139"/>
    <nd ref="3891529140"/>
    <nd ref="3891529141"/>
    <nd ref="8018424875"/>
    <nd ref="3891529142"/>
    <nd ref="3891529143"/>
    <nd ref="3891529144"/>
    <nd ref="3891529134"/>
    <tag k="addr:city" v="Offchurch"/>
    <tag k="addr:housename" v="Offchurch Village Hall"/>
    <tag k="addr:postcode" v="CV33 9AL"/>
    <tag k="addr:street" v="School Hill"/>
    <tag k="amenity" v="community_centre"/>
    <tag k="building" v="public"/>
    <tag k="community_centre" v="village_hall"/>
    <tag k="name" v="Offchurch Village Hall"/>
  </way>
  <way id="385822946" version="7" timestamp="2023-10-15T22:57:27Z" changeset="142638160" uid="9451067" user="b-jazz-bot">
    <nd ref="3891551833"/>
    <nd ref="3891551834"/>
    <nd ref="3891551849"/>
    <nd ref="3891551835"/>
    <nd ref="3891551836"/>
    <nd ref="3891551837"/>
    <nd ref="3891551838"/>
    <nd ref="3891551839"/>
    <nd ref="3891551840"/>
    <nd ref="3891551841"/>
    <nd ref="3891551842"/>
    <nd ref="3891551848"/>
    <nd ref="6461317013"/>
    <nd ref="3891551833"/>
    <tag k="addr:city" v="Offchurch"/>
    <tag k="addr:housename" v="The Stag"/>
    <tag k="addr:postcode" v="CV33 9AQ"/>
    <tag k="addr:street" v="Welsh Road"/>
    <tag k="amenity" v="pub"/>
    <tag k="building" v="leisure"/>
    <tag k="fhrs:id" v="242106"/>
    <tag k="heritage" v="2"/>
    <tag k="heritage:operator" v="Historic England"/>
    <tag k="listed_status" v="Grade II"/>
    <tag k="name" v="The Stag at Offchurch"/>
    <tag k="outdoor_seating" v="yes"/>
    <tag k="website" v="https://www.thestagatoffchurch.com/"/>
    <tag k="wikidata" v="Q26665490"/>
  </way>
  <way id="519287093" version="9" timestamp="2025-01-08T17:42:51Z" changeset="161142627" uid="5229644" user="Nathan_A_RF">
    <nd ref="15830933"/>
    <nd ref="2310451566"/>
    <nd ref="2310451567"/>
    <nd ref="2310451568"/>
    <nd ref="21131815"/>
    <nd ref="2310451569"/>
    <nd ref="2310451572"/>
    <nd ref="5063852914"/>
    <nd ref="12484850301"/>
    <nd ref="2310451575"/>
    <nd ref="5063852918"/>
    <nd ref="2276754640"/>
    <nd ref="21131903"/>
    <nd ref="2310451583"/>
    <nd ref="2310451593"/>
    <nd ref="2310451596"/>
    <nd ref="7127996068"/>
    <nd ref="470690254"/>
    <nd ref="21131904"/>
    <tag k="cycleway:both" v="no"/>
    <tag k="highway" v="secondary"/>
    <tag k="lanes" v="2"/>
    <tag k="maxspeed" v="60 mph"/>
    <tag k="maxspeed:type" v="GB:nsl_single"/>
    <tag k="name" v="Fosse Way"/>
    <tag k="ref" v="B4455"/>
    <tag k="shoulder" v="no"/>
    <tag k="sidewalk" v="no"/>
    <tag k="source:ref" v="OS-OpenData_StreetView"/>
    <tag k="surface" v="asphalt"/>
  </way>
  <way id="841743683" version="12" timestamp="2025-08-17T19:15:24Z" changeset="170583360" uid="13247722" user="TheCanMan">
    <nd ref="7853359834"/>
    <nd ref="11116732287"/>
    <nd ref="9517237383"/>
    <nd ref="11116732288"/>
    <nd ref="11116732289"/>
    <nd ref="9334280482"/>
    <tag k="highway" v="tertiary"/>
    <tag k="maxspeed" v="50 mph"/>
    <tag k="name" v="Welsh Road"/>
  </way>
  <way id="841743685" version="15" timestamp="2025-08-18T20:22:46Z" changeset="170639110" uid="13247722" user="TheCanMan">
    <nd ref="11116744112"/>
    <nd ref="11116732285"/>
    <nd ref="11116732284"/>
    <nd ref="11116744110"/>
    <nd ref="11116637000"/>
    <tag k="highway" v="tertiary"/>
    <tag k="maxspeed" v="60 mph"/>
    <tag k="name" v="Stonebridge Lane"/>
  </way>
  <way id="841743686" version="17" timestamp="2025-10-14T17:42:53Z" changeset="173287667" uid="22947126" user="SingleTrackRoad">
    <nd ref="13233178452"/>
    <nd ref="7853359811"/>
    <nd ref="7853359803"/>
    <nd ref="7853359797"/>
    <nd ref="9156033640"/>
    <nd ref="7853359791"/>
    <nd ref="7853359848"/>
    <nd ref="7853359841"/>
    <nd ref="7853359836"/>
    <nd ref="7853359829"/>
    <nd ref="7853359822"/>
    <nd ref="7853359802"/>
    <nd ref="7853359816"/>
    <nd ref="11116732274"/>
    <nd ref="7853359808"/>
    <nd ref="7853359800"/>
    <nd ref="7853359795"/>
    <nd ref="7853359788"/>
    <nd ref="7853359833"/>
    <nd ref="11116732282"/>
    <nd ref="11116732281"/>
    <nd ref="7853359826"/>
    <tag k="highway" v="secondary"/>
    <tag k="junction" v="roundabout"/>
    <tag k="lit" v="yes"/>
    <tag k="maxspeed" v="60 mph"/>
    <tag k="maxspeed:type" v="GB:nsl_single"/>
    <tag k="oneway" v="yes"/>
    <tag k="surface" v="asphalt"/>
  </way>
  <way id="841743689" version="14" timestamp="2025-01-08T17:42:51Z" changeset="161142627" uid="5229644" user="Nathan_A_RF">
    <nd ref="9156033644"/>
    <nd ref="11116732277"/>
    <nd ref="9156033645"/>
    <nd ref="11116732275"/>
    <nd ref="11116732276"/>
    <nd ref="9315899489"/>
    <tag k="cycleway:both" v="no"/>
    <tag k="highway" v="secondary"/>
    <tag k="lanes" v="2"/>
    <tag k="maxspeed" v="60 mph"/>
    <tag k="maxspeed:type" v="GB:nsl_single"/>
    <tag k="name" v="Fosse Way"/>
    <tag k="ref" v="B4455"/>
    <tag k="surface" v="asphalt"/>
  </way>
  <way id="841743691" version="14" timestamp="2025-01-08T17:42:51Z" changeset="161142627" uid="5229644" user="Nathan_A_RF">
    <nd ref="1488474397"/>
    <nd ref="11116726087"/>
    <nd ref="11116726088"/>
    <nd ref="11116726089"/>
    <nd ref="7853359828"/>
    <nd ref="11116732207"/>
    <tag k="cycleway:both" v="no"/>
    <tag k="highway" v="secondary"/>
    <tag k="lanes" v="2"/>
    <tag k="maxspeed" v="60 mph"/>
    <tag k="maxspeed:type" v="GB:nsl_single"/>
    <tag k="name" v="Fosse Way"/>
    <tag k="ref" v="B4455"/>
    <tag k="surface" v="asphalt"/>
  </way>
  <way id="841743692" version="14" timestamp="2025-01-08T17:42:51Z" changeset="161142627" uid="5229644" user="Nathan_A_RF">
    <nd ref="7853359834"/>
    <nd ref="7853359827"/>
    <nd ref="7853359821"/>
    <nd ref="7853359815"/>
    <nd ref="7853359807"/>
    <nd ref="11116732206"/>
    <nd ref="7853359813"/>
    <nd ref="7853359794"/>
    <nd ref="7853359851"/>
    <nd ref="7853359844"/>
    <nd ref="7853359839"/>
    <nd ref="7853359832"/>
    <nd ref="7853359825"/>
    <nd ref="7853359819"/>
    <nd ref="7853359812"/>
    <nd ref="7853359804"/>
    <nd ref="7853359798"/>
    <nd ref="7853359823"/>
    <nd ref="7853359792"/>
    <nd ref="539132210"/>
    <nd ref="11116732209"/>
    <nd ref="7853359842"/>
    <nd ref="7853359837"/>
    <nd ref="7853359834"/>
    <tag k="highway" v="secondary"/>
    <tag k="junction" v="roundabout"/>
    <tag k="lane_markings" v="no"/>
    <tag k="lanes" v="2"/>
    <tag k="lit" v="yes"/>
    <tag k="maxspeed" v="60 mph"/>
    <tag k="maxspeed:type" v="GB:nsl_single"/>
    <tag k="oneway" v="yes"/>
    <tag k="surface" v="asphalt"/>
  </way>
  <way id="841743693" version="11" timestamp="2025-10-14T17:42:53Z" changeset="173287667" uid="22947126" user="SingleTrackRoad">
    <nd ref="7853359798"/>
    <nd ref="7853941754"/>
    <tag k="cycleway:both" v="no"/>
    <tag k="highway" v="secondary"/>
    <tag k="lanes" v="2"/>
    <tag k="name" v="Fosse Way"/>
    <tag k="oneway" v="no"/>
    <tag k="ref" v="B4455"/>
  </way>
  <way id="863516968" version="1" timestamp="2020-10-25T12:39:46Z" changeset="93015004" uid="11834369" user="RuberyRunner">
    <nd ref="3891510456"/>
    <nd ref="3891523957"/>
    <nd ref="3891510453"/>
    <tag k="highway" v="residential"/>
    <tag k="name" v="Park Gates"/>
    <tag k="surface" v="asphalt"/>
  </way>
  <way id="990944278" version="9" timestamp="2025-01-08T17:42:51Z" changeset="161142627" uid="5229644" user="Nathan_A_RF">
    <nd ref="9156033644"/>
    <nd ref="11116732278"/>
    <nd ref="9156033643"/>
    <nd ref="7853359814"/>
    <tag k="highway" v="secondary"/>
    <tag k="lit" v="yes"/>
    <tag k="maxspeed" v="60 mph"/>
    <tag k="maxspeed:type" v="GB:nsl_single"/>
    <tag k="name" v="Fosse Way"/>
    <tag k="oneway" v="yes"/>
    <tag k="ref" v="B4455"/>
    <tag k="source" v="maxar"/>
    <tag k="surface" v="asphalt"/>
  </way>
  <way id="990944279" version="10" timestamp="2025-01-08T17:42:51Z" changeset="161142627" uid="5229644" user="Nathan_A_RF">
    <nd ref="7853359833"/>
    <nd ref="11116732280"/>
    <nd ref="11116732279"/>
    <nd ref="9156033644"/>
    <tag k="highway" v="secondary"/>
    <tag k="lanes" v="1"/>
    <tag k="lit" v="yes"/>
    <tag k="maxspeed" v="60 mph"/>
    <tag k="maxspeed:type" v="GB:nsl_single"/>
    <tag k="name" v="Fosse Way"/>
    <tag k="oneway" v="yes"/>
    <tag k="ref" v="B4455"/>
    <tag k="surface" v="asphalt"/>
  </way>
  <way id="1009669627" version="7" timestamp="2025-01-08T17:42:51Z" changeset="161142627" uid="5229644" user="Nathan_A_RF">
    <nd ref="9908353146"/>
    <nd ref="21131968"/>
    <nd ref="6554452093"/>
    <nd ref="21131969"/>
    <nd ref="2428454218"/>
    <nd ref="21131970"/>
    <nd ref="2428454220"/>
    <nd ref="7425949144"/>
    <nd ref="21131971"/>
    <nd ref="21131972"/>
    <nd ref="2428454224"/>
    <nd ref="21131973"/>
    <nd ref="21131974"/>
    <nd ref="21131975"/>
    <nd ref="21131976"/>
    <nd ref="15830938"/>
    <nd ref="5893574907"/>
    <nd ref="849972337"/>
    <nd ref="281782585"/>
    <tag k="cycleway:both" v="no"/>
    <tag k="highway" v="secondary"/>
    <tag k="lanes" v="2"/>
    <tag k="maxspeed" v="60 mph"/>
    <tag k="maxspeed:type" v="GB:nsl_single"/>
    <tag k="name" v="Fosse Way"/>
    <tag k="ref" v="B4455"/>
    <tag k="sidewalk" v="no"/>
    <tag k="surface" v="asphalt"/>
  </way>
  <way id="1009669628" version="4" timestamp="2025-10-17T21:07:12Z" changeset="173428647" uid="11496552" user="PhilBike24">
    <nd ref="7853941754"/>
    <nd ref="13239790142"/>
    <nd ref="7853941753"/>
    <tag k="bridge" v="yes"/>
    <tag k="cycleway:both" v="no"/>
    <tag k="highway" v="secondary"/>
    <tag k="lanes" v="2"/>
    <tag k="layer" v="1"/>
    <tag k="name" v="Fosse Way"/>
    <tag k="oneway" v="no"/>
    <tag k="ref" v="B4455"/>
  </way>
  <way id="1009669629" version="4" timestamp="2025-08-18T20:22:46Z" changeset="170639110" uid="13247722" user="TheCanMan">
    <nd ref="262832475"/>
    <nd ref="262832476"/>
    <nd ref="262832477"/>
    <nd ref="262832478"/>
    <nd ref="262832479"/>
    <nd ref="2321327950"/>
    <nd ref="2321327951"/>
    <nd ref="702946475"/>
    <nd ref="2321327949"/>
    <nd ref="2321327948"/>
    <nd ref="2321327947"/>
    <nd ref="262832480"/>
    <nd ref="262832481"/>
    <nd ref="262832482"/>
    <nd ref="2321327942"/>
    <nd ref="2321327940"/>
    <nd ref="702946495"/>
    <nd ref="2321327938"/>
    <nd ref="2321327939"/>
    <nd ref="262832483"/>
    <nd ref="2321327944"/>
    <nd ref="702946497"/>
    <nd ref="274780794"/>
    <tag k="bicycle" v="yes"/>
    <tag k="highway" v="tertiary"/>
    <tag k="maxspeed" v="60 mph"/>
    <tag k="name" v="Stonebridge Lane"/>
  </way>
  <way id="1009669631" version="5" timestamp="2025-10-14T17:42:53Z" changeset="173287667" uid="22947126" user="SingleTrackRoad">
    <nd ref="7853941753"/>
    <nd ref="9346798882"/>
    <nd ref="13233178449"/>
    <tag k="cycleway:both" v="no"/>
    <tag k="highway" v="secondary"/>
    <tag k="lanes" v="2"/>
    <tag k="name" v="Fosse Way"/>
    <tag k="oneway" v="no"/>
    <tag k="ref" v="B4455"/>
  </way>
  <way id="1011702755" version="5" timestamp="2025-08-17T19:15:24Z" changeset="170583360" uid="13247722" user="TheCanMan">
    <nd ref="9334280482"/>
    <nd ref="2310451669"/>
    <nd ref="2310451666"/>
    <nd ref="2310451665"/>
    <nd ref="2310451663"/>
    <nd ref="2310451662"/>
    <nd ref="278578295"/>
    <nd ref="2310451660"/>
    <nd ref="278578296"/>
    <nd ref="2310451659"/>
    <nd ref="2310451657"/>
    <nd ref="2310451655"/>
    <nd ref="2310451654"/>
    <nd ref="2310451653"/>
    <nd ref="2310451652"/>
    <nd ref="2310451651"/>
    <nd ref="278578297"/>
    <nd ref="2310451650"/>
    <nd ref="2310451648"/>
    <nd ref="2310451647"/>
    <nd ref="2310451646"/>
    <nd ref="2310451645"/>
    <nd ref="278578298"/>
    <nd ref="2310451644"/>
    <nd ref="2310451643"/>
    <nd ref="2310451642"/>
    <nd ref="2310451641"/>
    <nd ref="2310451640"/>
    <nd ref="2310451639"/>
    <nd ref="278578299"/>
    <nd ref="2310451637"/>
    <nd ref="278578300"/>
    <nd ref="2310451636"/>
    <nd ref="2310451635"/>
    <nd ref="2310451633"/>
    <nd ref="2310451631"/>
    <nd ref="2310451630"/>
    <nd ref="2310451629"/>
    <nd ref="2310451628"/>
    <nd ref="2310451627"/>
    <nd ref="2310451626"/>
    <nd ref="2310451624"/>
    <nd ref="278578302"/>
    <nd ref="2310451623"/>
    <nd ref="278578304"/>
    <nd ref="2310451621"/>
    <nd ref="2310451619"/>
    <nd ref="278578306"/>
    <nd ref="12616733779"/>
    <nd ref="12616733778"/>
    <nd ref="12352296600"/>
    <nd ref="12616733777"/>
    <nd ref="12616733776"/>
    <nd ref="12352305801"/>
    <nd ref="12616733775"/>
    <nd ref="12616733774"/>
    <nd ref="12352305805"/>
    <nd ref="12352305802"/>
    <nd ref="8524713350"/>
    <nd ref="12616733773"/>
    <nd ref="12352305803"/>
    <nd ref="2310451611"/>
    <nd ref="2310451608"/>
    <nd ref="2310451607"/>
    <nd ref="2310451606"/>
    <nd ref="2310451605"/>
    <nd ref="2310451604"/>
    <nd ref="278578308"/>
    <nd ref="2310451603"/>
    <nd ref="2310451602"/>
    <nd ref="2310451600"/>
    <nd ref="280272441"/>
    <nd ref="2310451599"/>
    <nd ref="2310451598"/>
    <nd ref="2310451597"/>
    <nd ref="278578311"/>
    <nd ref="2310451595"/>
    <nd ref="2310451594"/>
    <nd ref="1629837881"/>
    <nd ref="2310451592"/>
    <nd ref="2310451591"/>
    <nd ref="2310451590"/>
    <nd ref="278578313"/>
    <nd ref="2310451589"/>
    <nd ref="2310451588"/>
    <nd ref="2310451587"/>
    <nd ref="2310451586"/>
    <nd ref="2310451585"/>
    <nd ref="278578315"/>
    <nd ref="1629837841"/>
    <nd ref="2310451584"/>
    <nd ref="2310451582"/>
    <nd ref="278578317"/>
    <nd ref="2310451581"/>
    <nd ref="2310451580"/>
    <nd ref="1629837827"/>
    <nd ref="2674554528"/>
    <nd ref="1629837811"/>
    <nd ref="2310451579"/>
    <nd ref="2310451578"/>
    <nd ref="2310451577"/>
    <nd ref="2310451576"/>
    <nd ref="278578319"/>
    <tag k="check_date" v="2025-02-24"/>
    <tag k="highway" v="tertiary"/>
    <tag k="maintenance" v="gritting"/>
    <tag k="maxspeed" v="50 mph"/>
    <tag k="name" v="Welsh Road"/>
    <tag k="operator" v="Warwickshire County Council"/>
  </way>
  <way id="1013106868" version="3" timestamp="2022-06-25T15:26:39Z" changeset="122841170" uid="411244" user="RobJN">
    <nd ref="274773193"/>
    <nd ref="2310451731"/>
    <nd ref="2310451727"/>
    <nd ref="278578374"/>
    <nd ref="9846487622"/>
    <nd ref="2310451720"/>
    <nd ref="278578376"/>
    <nd ref="2310451707"/>
    <nd ref="702945997"/>
    <nd ref="2310451705"/>
    <nd ref="2310451704"/>
    <nd ref="2310451702"/>
    <nd ref="278578378"/>
    <nd ref="702945998"/>
    <nd ref="2310451700"/>
    <nd ref="2310451699"/>
    <nd ref="2310451698"/>
    <nd ref="2310451697"/>
    <nd ref="2310451696"/>
    <nd ref="278578381"/>
    <nd ref="2310451694"/>
    <nd ref="702946036"/>
    <nd ref="2310451693"/>
    <nd ref="7853359806"/>
    <nd ref="7853359847"/>
    <nd ref="7853359839"/>
    <tag k="highway" v="tertiary"/>
    <tag k="maintenance" v="gritting"/>
    <tag k="name" v="Welsh Road"/>
    <tag k="operator" v="Warwickshire County Council"/>
  </way>
  <way id="1032966726" version="2" timestamp="2024-01-07T18:15:23Z" changeset="146001278" uid="384887" user="robw">
    <nd ref="274773193"/>
    <nd ref="2310451738"/>
    <nd ref="7308328771"/>
    <nd ref="274773190"/>
    <nd ref="2310451741"/>
    <nd ref="2310451740"/>
    <nd ref="2310451739"/>
    <nd ref="2310451742"/>
    <nd ref="2310451743"/>
    <nd ref="262832468"/>
    <nd ref="6538973194"/>
    <nd ref="2310451746"/>
    <nd ref="262832469"/>
    <nd ref="2310451744"/>
    <nd ref="2310451745"/>
    <nd ref="2310451748"/>
    <nd ref="2310451750"/>
    <nd ref="2310451753"/>
    <nd ref="2310451757"/>
    <nd ref="2310451762"/>
    <nd ref="8863249373"/>
    <nd ref="2310451765"/>
    <nd ref="2310451769"/>
    <tag k="bicycle" v="yes"/>
    <tag k="highway" v="tertiary"/>
    <tag k="highway_authority_ref" v="C91"/>
    <tag k="maintenance" v="gritting"/>
    <tag k="name" v="Long Itchington Road"/>
    <tag k="operator" v="Warwickshire County Council"/>
  </way>
  <way id="1073351963" version="1" timestamp="2022-06-25T15:26:39Z" changeset="122841170" uid="411244" user="RobJN">
    <nd ref="9846487622"/>
    <nd ref="9846487621"/>
    <tag k="highway" v="unclassified"/>
  </way>
  <way id="1081018649" version="5" timestamp="2025-01-08T17:42:51Z" changeset="161142627" uid="5229644" user="Nathan_A_RF">
    <nd ref="9315899489"/>
    <nd ref="5893574908"/>
    <nd ref="8376029591"/>
    <nd ref="9908353147"/>
    <nd ref="9908353146"/>
    <tag k="cycleway:both" v="no"/>
    <tag k="highway" v="secondary"/>
    <tag k="lanes" v="2"/>
    <tag k="maxspeed" v="60 mph"/>
    <tag k="maxspeed:type" v="GB:nsl_single"/>
    <tag k="name" v="Fosse Way"/>
    <tag k="ref" v="B4455"/>
    <tag k="surface" v="asphalt"/>
  </way>
  <way id="1198336420" version="5" timestamp="2025-01-08T17:42:51Z" changeset="161142627" uid="5229644" user="Nathan_A_RF">
    <nd ref="11116732207"/>
    <nd ref="7853359813"/>
    <tag k="cycleway:left" v="no"/>
    <tag k="highway" v="secondary"/>
    <tag k="lanes" v="2"/>
    <tag k="lit" v="yes"/>
    <tag k="maxspeed" v="60 mph"/>
    <tag k="maxspeed:type" v="GB:nsl_single"/>
    <tag k="name" v="Fosse Way"/>
    <tag k="oneway" v="yes"/>
    <tag k="ref" v="B4455"/>
    <tag k="surface" v="asphalt"/>
  </way>
  <way id="1198336421" version="5" timestamp="2025-01-08T17:42:51Z" changeset="161142627" uid="5229644" user="Nathan_A_RF">
    <nd ref="7853359815"/>
    <nd ref="11116732207"/>
    <tag k="cycleway:left" v="no"/>
    <tag k="highway" v="secondary"/>
    <tag k="lanes" v="1"/>
    <tag k="lit" v="yes"/>
    <tag k="maxspeed" v="60 mph"/>
    <tag k="maxspeed:type" v="GB:nsl_single"/>
    <tag k="name" v="Fosse Way"/>
    <tag k="oneway" v="yes"/>
    <tag k="ref" v="B4455"/>
    <tag k="surface" v="asphalt"/>
  </way>
  <way id="1198337355" version="4" timestamp="2025-08-18T20:22:46Z" changeset="170639110" uid="13247722" user="TheCanMan">
    <nd ref="11116637000"/>
    <nd ref="11116732283"/>
    <nd ref="11116636999"/>
    <tag k="highway" v="tertiary"/>
    <tag k="lit" v="yes"/>
    <tag k="maxspeed" v="60 mph"/>
    <tag k="name" v="Stonebridge Lane"/>
    <tag k="oneway" v="yes"/>
    <tag k="surface" v="asphalt"/>
  </way>
  <way id="1198337356" version="4" timestamp="2025-08-18T20:22:46Z" changeset="170639110" uid="13247722" user="TheCanMan">
    <nd ref="11116636998"/>
    <nd ref="11116636997"/>
    <nd ref="11116637000"/>
    <tag k="highway" v="tertiary"/>
    <tag k="lit" v="yes"/>
    <tag k="maxspeed" v="60 mph"/>
    <tag k="name" v="Stonebridge Lane"/>
    <tag k="oneway" v="yes"/>
    <tag k="surface" v="asphalt"/>
  </way>
  <way id="1227562814" version="1" timestamp="2023-11-29T11:49:28Z" changeset="144584806" uid="384887" user="robw">
    <nd ref="27191531"/>
    <nd ref="2421585030"/>
    <tag k="flood_prone" v="yes"/>
    <tag k="highway" v="tertiary"/>
    <tag k="maintenance" v="gritting"/>
    <tag k="maxspeed" v="30 mph"/>
    <tag k="name" v="Welsh Road"/>
    <tag k="operator" v="Warwickshire County Council"/>
    <tag k="surface" v="asphalt"/>
  </way>
  <way id="1237834941" version="1" timestamp="2024-01-07T18:15:23Z" changeset="146001278" uid="384887" user="robw">
    <nd ref="382608751"/>
    <nd ref="2498653783"/>
    <nd ref="2498653794"/>
    <nd ref="27191510"/>
    <nd ref="702943994"/>
    <nd ref="27191512"/>
    <nd ref="6909021864"/>
    <nd ref="2418967251"/>
    <nd ref="702943995"/>
    <nd ref="2421608869"/>
    <nd ref="702943996"/>
    <nd ref="2418967254"/>
    <nd ref="702943997"/>
    <nd ref="27191513"/>
    <nd ref="2418967261"/>
    <nd ref="27191514"/>
    <nd ref="2418967263"/>
    <nd ref="27191515"/>
    <nd ref="2418967265"/>
    <nd ref="278572153"/>
    <tag k="highway" v="tertiary"/>
    <tag k="highway_authority_ref" v="C91"/>
    <tag k="maintenance" v="gritting"/>
    <tag k="name" v="Offchurch Lane"/>
    <tag k="oneway" v="no"/>
    <tag k="operator" v="Warwickshire County Council"/>
    <tag k="surface" v="asphalt"/>
  </way>
  <way id="1363694467" version="1" timestamp="2025-03-01T00:12:27Z" changeset="163072978" uid="563773" user="mrpacmanmap">
    <nd ref="2310451832"/>
    <nd ref="27191522"/>
    <nd ref="2310451833"/>
    <nd ref="2310451835"/>
    <nd ref="2310451837"/>
    <nd ref="2310451839"/>
    <nd ref="2310451844"/>
    <nd ref="2310451848"/>
    <tag k="highway" v="tertiary"/>
    <tag k="maintenance" v="gritting"/>
    <tag k="maxspeed" v="30 mph"/>
    <tag k="name" v="Welsh Road"/>
    <tag k="operator" v="Warwickshire County Council"/>
  </way>
  <way id="1382147699" version="3" timestamp="2025-04-30T08:31:50Z" changeset="165623796" uid="5589" user="user_5589">
    <nd ref="12796313303"/>
    <nd ref="12796313304"/>
    <nd ref="12796313305"/>
    <nd ref="12796313306"/>
    <nd ref="12796313303"/>
    <tag k="building" v="yes"/>
    <tag k="name" v="Offchurch Lane"/>
    <tag k="power" v="substation"/>
    <tag k="ref" v="930142"/>
    <tag k="substation" v="minor_distribution"/>
    <tag k="voltage" v="11000"/>
  </way>
  <way id="1421711609" version="2" timestamp="2025-08-18T20:22:46Z" changeset="170639110" uid="13247722" user="TheCanMan">
    <nd ref="262832475"/>
    <nd ref="11117482584"/>
    <nd ref="11116732286"/>
    <nd ref="11116744112"/>
    <tag k="highway" v="tertiary"/>
    <tag k="maxspeed" v="60 mph"/>
    <tag k="name" v="Stonebridge Lane"/>
  </way>
  <way id="1442190264" version="1" timestamp="2025-10-14T17:42:53Z" changeset="173287667" uid="22947126" user="SingleTrackRoad">
    <nd ref="13233178449"/>
    <nd ref="13233178450"/>
    <nd ref="13233178453"/>
    <tag k="cycleway:left" v="no"/>
    <tag k="highway" v="secondary"/>
    <tag k="lanes" v="1"/>
    <tag k="name" v="Fosse Way"/>
    <tag k="oneway" v="yes"/>
    <tag k="ref" v="B4455"/>
  </way>
  <way id="1442190265" version="1" timestamp="2025-10-14T17:42:53Z" changeset="173287667" uid="22947126" user="SingleTrackRoad">
    <nd ref="13233178453"/>
    <nd ref="13233178451"/>
    <nd ref="13233178452"/>
    <tag k="cycleway:left" v="no"/>
    <tag k="highway" v="secondary"/>
    <tag k="lanes" v="1"/>
    <tag k="name" v="Fosse Way"/>
    <tag k="oneway" v="yes"/>
    <tag k="ref" v="B4455"/>
  </way>
  <way id="1442190266" version="1" timestamp="2025-10-14T17:42:53Z" changeset="173287667" uid="22947126" user="SingleTrackRoad">
    <nd ref="7853359826"/>
    <nd ref="7853359820"/>
    <nd ref="7853359814"/>
    <nd ref="7853359805"/>
    <nd ref="7853359799"/>
    <nd ref="11116636998"/>
    <nd ref="7853359793"/>
    <nd ref="7853359850"/>
    <nd ref="7853359843"/>
    <nd ref="7853359838"/>
    <nd ref="11116636999"/>
    <tag k="highway" v="secondary"/>
    <tag k="junction" v="roundabout"/>
    <tag k="lit" v="yes"/>
    <tag k="maxspeed" v="60 mph"/>
    <tag k="maxspeed:type" v="GB:nsl_single"/>
    <tag k="oneway" v="yes"/>
    <tag k="surface" v="asphalt"/>
  </way>
  <way id="1442190267" version="1" timestamp="2025-10-14T17:42:53Z" changeset="173287667" uid="22947126" user="SingleTrackRoad">
    <nd ref="7853359846"/>
    <nd ref="7853359818"/>
    <nd ref="13233178452"/>
    <tag k="highway" v="secondary"/>
    <tag k="junction" v="roundabout"/>
    <tag k="lit" v="yes"/>
    <tag k="maxspeed" v="60 mph"/>
    <tag k="maxspeed:type" v="GB:nsl_single"/>
    <tag k="oneway" v="yes"/>
    <tag k="surface" v="asphalt"/>
  </way>
  <way id="1442190268" version="1" timestamp="2025-10-14T17:42:53Z" changeset="173287667" uid="22947126" user="SingleTrackRoad">
    <nd ref="7853359801"/>
    <nd ref="7853359789"/>
    <nd ref="11116726085"/>
    <tag k="highway" v="secondary"/>
    <tag k="junction" v="roundabout"/>
    <tag k="lit" v="yes"/>
    <tag k="maxspeed" v="60 mph"/>
    <tag k="maxspeed:type" v="GB:nsl_single"/>
    <tag k="oneway" v="yes"/>
    <tag k="surface" v="asphalt"/>
  </way>
  <way id="1442190269" version="1" timestamp="2025-10-14T17:42:53Z" changeset="173287667" uid="22947126" user="SingleTrackRoad">
    <nd ref="11116726085"/>
    <nd ref="13233178455"/>
    <nd ref="13233178456"/>
    <nd ref="13233178454"/>
    <nd ref="13233178449"/>
    <tag k="cycleway:left" v="no"/>
    <tag k="highway" v="secondary"/>
    <tag k="lanes" v="1"/>
    <tag k="name" v="Fosse Way"/>
    <tag k="oneway" v="yes"/>
    <tag k="ref" v="B4455"/>
  </way>
  <way id="1442190270" version="1" timestamp="2025-10-14T17:42:53Z" changeset="173287667" uid="22947126" user="SingleTrackRoad">
    <nd ref="11116726085"/>
    <nd ref="7853359846"/>
    <tag k="highway" v="secondary"/>
    <tag k="junction" v="roundabout"/>
    <tag k="lit" v="yes"/>
    <tag k="maxspeed" v="60 mph"/>
    <tag k="maxspeed:type" v="GB:nsl_single"/>
    <tag k="oneway" v="yes"/>
    <tag k="surface" v="asphalt"/>
  </way>
  <way id="1442190271" version="1" timestamp="2025-10-14T17:42:53Z" changeset="173287667" uid="22947126" user="SingleTrackRoad">
    <nd ref="7853359824"/>
    <nd ref="7853359817"/>
    <nd ref="7853359809"/>
    <nd ref="11116732220"/>
    <nd ref="7853359801"/>
    <tag k="highway" v="secondary"/>
    <tag k="junction" v="roundabout"/>
    <tag k="lit" v="yes"/>
    <tag k="maxspeed" v="60 mph"/>
    <tag k="maxspeed:type" v="GB:nsl_single"/>
    <tag k="oneway" v="yes"/>
    <tag k="surface" v="asphalt"/>
  </way>
  <way id="1442190272" version="1" timestamp="2025-10-14T17:42:53Z" changeset="173287667" uid="22947126" user="SingleTrackRoad">
    <nd ref="11116636999"/>
    <nd ref="7853359830"/>
    <nd ref="7853359824"/>
    <tag k="highway" v="secondary"/>
    <tag k="junction" v="roundabout"/>
    <tag k="lit" v="yes"/>
    <tag k="maxspeed" v="60 mph"/>
    <tag k="maxspeed:type" v="GB:nsl_single"/>
    <tag k="oneway" v="yes"/>
    <tag k="surface" v="asphalt"/>
  </way>
  <way id="1442909693" version="1" timestamp="2025-10-17T21:07:12Z" changeset="173428647" uid="11496552" user="PhilBike24">
    <nd ref="2310451769"/>
    <nd ref="262832470"/>
    <nd ref="2310451779"/>
    <tag k="highway" v="tertiary"/>
    <tag k="highway_authority_ref" v="C91"/>
    <tag k="maintenance" v="gritting"/>
    <tag k="name" v="Long Itchington Road"/>
    <tag k="operator" v="Warwickshire County Council"/>
  </way>

</osm>
