<?xml version="1.0" encoding="UTF-8"?>
<osm version="0.6" generator="Overpass API 0.7.62.8 e802775f">
<note>The data included in this document is from www.openstreetmap.org. The data is made available under ODbL.</note>
<meta osm_base="2025-10-23T17:46:02Z" areas="2025-10-23T12:46:58Z"/>

  <node id="21132639" lat="52.2510340" lon="-1.2451587" version="4" timestamp="2012-12-02T11:29:28Z" changeset="14122915" uid="705850" user="Cebderby"/>
  <node id="256267883" lat="52.2993785" lon="-1.3311514" version="6" timestamp="2013-10-29T13:07:31Z" changeset="18601212" uid="9065" user="brianboru"/>
  <node id="279534280" lat="52.2920338" lon="-1.2619997" version="3" timestamp="2013-10-19T06:56:41Z" changeset="18429608" uid="9065" user="brianboru"/>
  <node id="280156550" lat="52.2757065" lon="-1.2708400" version="2" timestamp="2011-11-07T23:25:06Z" changeset="9769916" uid="185805" user="Jon Iles"/>
  <node id="331283254" lat="52.2982900" lon="-1.2832189" version="3" timestamp="2013-10-20T12:37:39Z" changeset="18450484" uid="9065" user="brianboru"/>
  <way id="23654006" version="27" timestamp="2025-04-26T13:49:02Z" changeset="165466767" uid="119838" user="n1dom">
    <nd ref="256267883"/>
    <nd ref="256267884"/>
    <nd ref="256267885"/>
    <nd ref="1488925002"/>
    <nd ref="2503503011"/>
    <nd ref="256267886"/>
    <nd ref="2503503005"/>
    <nd ref="256267887"/>
    <nd ref="1488925041"/>
    <nd ref="256267888"/>
    <nd ref="1490296810"/>
    <nd ref="256267889"/>
    <nd ref="2498696280"/>
    <nd ref="8835892987"/>
    <nd ref="256267890"/>
    <nd ref="8835892986"/>
    <nd ref="256267891"/>
    <nd ref="1490296827"/>
    <nd ref="256267892"/>
    <nd ref="1490296874"/>
    <nd ref="1490296901"/>
    <nd ref="1490296807"/>
    <nd ref="256267893"/>
    <nd ref="1490296878"/>
    <nd ref="256267894"/>
    <nd ref="1490296832"/>
    <nd ref="2502773126"/>
    <nd ref="1490296885"/>
    <nd ref="256267895"/>
    <nd ref="1490296939"/>
    <nd ref="1490296862"/>
    <nd ref="1490296896"/>
    <nd ref="256267896"/>
    <nd ref="256267897"/>
    <nd ref="256267898"/>
    <nd ref="1490296800"/>
    <nd ref="1490296917"/>
    <nd ref="8239412638"/>
    <nd ref="1490296879"/>
    <nd ref="256267899"/>
    <nd ref="1491221889"/>
    <nd ref="1257698376"/>
    <nd ref="256267900"/>
    <nd ref="256267901"/>
    <nd ref="3163605096"/>
    <nd ref="256267902"/>
    <nd ref="1491261347"/>
    <nd ref="2498740328"/>
    <nd ref="1491261349"/>
    <nd ref="256267903"/>
    <nd ref="256267904"/>
    <nd ref="256267905"/>
    <nd ref="1257698335"/>
    <nd ref="256267906"/>
    <nd ref="1494781728"/>
    <nd ref="1495300282"/>
    <nd ref="256267907"/>
    <nd ref="8237132310"/>
    <nd ref="256267908"/>
    <nd ref="8237132305"/>
    <nd ref="1494781722"/>
    <nd ref="256267909"/>
    <nd ref="1494781718"/>
    <nd ref="256267911"/>
    <nd ref="283476097"/>
    <nd ref="1494781726"/>
    <nd ref="283476098"/>
    <nd ref="1494781721"/>
    <nd ref="283473731"/>
    <nd ref="256267912"/>
    <nd ref="1494781719"/>
    <nd ref="283476099"/>
    <nd ref="256267913"/>
    <nd ref="256267914"/>
    <nd ref="1494778483"/>
    <nd ref="1494778496"/>
    <nd ref="256267915"/>
    <nd ref="1494778448"/>
    <nd ref="1494778500"/>
    <nd ref="256267916"/>
    <nd ref="256267917"/>
    <nd ref="1494778481"/>
    <nd ref="256267918"/>
    <nd ref="280154961"/>
    <tag k="highway" v="unclassified"/>
    <tag k="name" v="Flecknoe Road"/>
    <tag k="source" v="survey"/>
    <tag k="surface" v="asphalt"/>
  </way>
  <way id="23654011" version="16" timestamp="2014-03-31T09:21:47Z" changeset="21415791" uid="9065" user="brianboru">
    <nd ref="280156550"/>
    <nd ref="1494753535"/>
    <nd ref="1494753510"/>
    <nd ref="280156311"/>
    <nd ref="256267919"/>
    <nd ref="1494753549"/>
    <nd ref="256267937"/>
    <nd ref="1494753494"/>
    <nd ref="1494753559"/>
    <nd ref="1494753492"/>
    <nd ref="256267938"/>
    <nd ref="256267939"/>
    <nd ref="1494753540"/>
    <nd ref="256267940"/>
    <nd ref="1494753547"/>
    <nd ref="1494735770"/>
    <nd ref="1494739239"/>
    <nd ref="256267941"/>
    <nd ref="390208922"/>
    <nd ref="390208924"/>
    <nd ref="2499088133"/>
    <nd ref="256267942"/>
    <nd ref="2499088128"/>
    <nd ref="1494735768"/>
    <nd ref="390208920"/>
    <nd ref="256267943"/>
    <nd ref="1494735754"/>
    <nd ref="1494735780"/>
    <nd ref="256267944"/>
    <nd ref="1494735763"/>
    <nd ref="1257699919"/>
    <nd ref="1494189659"/>
    <nd ref="256267945"/>
    <nd ref="2444615186"/>
    <nd ref="2755750723"/>
    <nd ref="2755750704"/>
    <nd ref="2755750698"/>
    <nd ref="2755750694"/>
    <tag k="highway" v="tertiary"/>
    <tag k="source" v="survey"/>
  </way>
  <way id="25624188" version="17" timestamp="2020-06-03T17:14:06Z" changeset="86147016" uid="10219376" user="harinikh">
    <nd ref="280154961"/>
    <nd ref="280154962"/>
    <nd ref="280154963"/>
    <nd ref="280154964"/>
    <nd ref="280154965"/>
    <nd ref="280154966"/>
    <nd ref="280154967"/>
    <nd ref="6539435731"/>
    <nd ref="280154968"/>
    <nd ref="280154969"/>
    <nd ref="283476025"/>
    <nd ref="280154970"/>
    <nd ref="280154971"/>
    <nd ref="280154972"/>
    <nd ref="2498740325"/>
    <nd ref="2498740326"/>
    <nd ref="280154973"/>
    <nd ref="280154974"/>
    <nd ref="280154975"/>
    <nd ref="2498740331"/>
    <nd ref="280154976"/>
    <nd ref="280154977"/>
    <nd ref="1673273610"/>
    <nd ref="280154978"/>
    <nd ref="280154979"/>
    <nd ref="280154980"/>
    <nd ref="1578862523"/>
    <nd ref="280154981"/>
    <nd ref="280154982"/>
    <nd ref="280154984"/>
    <nd ref="280154986"/>
    <nd ref="280154988"/>
    <nd ref="280154990"/>
    <nd ref="280154992"/>
    <nd ref="7590017720"/>
    <nd ref="280154994"/>
    <nd ref="390208918"/>
    <nd ref="280154996"/>
    <nd ref="280154998"/>
    <nd ref="280155000"/>
    <nd ref="279534277"/>
    <tag k="highway" v="tertiary"/>
  </way>
  <way id="25696440" version="7" timestamp="2021-10-07T09:48:56Z" changeset="112207604" uid="34867" user="SammyTheSnake">
    <nd ref="280156621"/>
    <nd ref="280156620"/>
    <tag k="bridge" v="yes"/>
    <tag k="highway" v="tertiary"/>
    <tag k="layer" v="1"/>
    <tag k="maxweight:signed" v="no"/>
    <tag k="source" v="survey"/>
  </way>
  <way id="25696441" version="2" timestamp="2011-11-07T23:25:06Z" changeset="9769916" uid="185805" user="Jon Iles">
    <nd ref="280156621"/>
    <nd ref="256267919"/>
    <tag k="highway" v="tertiary_link"/>
  </way>
  <way id="33525333" version="10" timestamp="2020-09-24T07:29:15Z" changeset="91413836" uid="11736081" user="ssnjan">
    <nd ref="331283254"/>
    <nd ref="1495307762"/>
    <nd ref="2502773430"/>
    <nd ref="331283255"/>
    <nd ref="2502773421"/>
    <nd ref="2502773406"/>
    <nd ref="331283257"/>
    <nd ref="6010863849"/>
    <nd ref="2354783720"/>
    <nd ref="7936723308"/>
    <nd ref="331283261"/>
    <nd ref="3355510092"/>
    <nd ref="762516374"/>
    <nd ref="2652022776"/>
    <nd ref="762516364"/>
    <nd ref="2502773325"/>
    <nd ref="2502773319"/>
    <nd ref="331283265"/>
    <nd ref="2502773308"/>
    <nd ref="2502773301"/>
    <nd ref="762516540"/>
    <nd ref="762516542"/>
    <nd ref="762516376"/>
    <nd ref="331283266"/>
    <nd ref="331283268"/>
    <nd ref="1578865538"/>
    <nd ref="331284510"/>
    <nd ref="1578865522"/>
    <nd ref="1578865528"/>
    <nd ref="331284513"/>
    <tag k="highway" v="tertiary"/>
    <tag k="name" v="Sawbridge Road"/>
  </way>
  <way id="33525334" version="4" timestamp="2020-10-06T06:21:10Z" changeset="92022212" uid="11734032" user="daitv">
    <nd ref="331284513"/>
    <nd ref="1578865537"/>
    <nd ref="1578865521"/>
    <nd ref="1578865532"/>
    <nd ref="1578865536"/>
    <nd ref="7979793312"/>
    <nd ref="331284514"/>
    <nd ref="1578865519"/>
    <nd ref="1578865530"/>
    <nd ref="331284517"/>
    <nd ref="1578865520"/>
    <nd ref="331284520"/>
    <nd ref="1578865534"/>
    <nd ref="331284522"/>
    <nd ref="279534277"/>
    <tag k="highway" v="tertiary"/>
    <tag k="name" v="Grandborough Fields Road"/>
  </way>
  <way id="42088643" version="10" timestamp="2021-01-08T04:22:36Z" changeset="97140178" uid="322039" user="MacLondon">
    <nd ref="2756026734"/>
    <nd ref="2756026736"/>
    <tag k="bicycle" v="yes"/>
    <tag k="bridge" v="yes"/>
    <tag k="bridge:name" v="Flecknoe Road Bridge"/>
    <tag k="bridge:ref" v="102"/>
    <tag k="foot" v="yes"/>
    <tag k="highway" v="tertiary"/>
    <tag k="horse" v="yes"/>
    <tag k="lanes" v="1"/>
    <tag k="layer" v="1"/>
    <tag k="maxspeed" v="20 mph"/>
    <tag k="motor_vehicle" v="yes"/>
    <tag k="oneway" v="no"/>
    <tag k="surface" v="asphalt"/>
    <tag k="tracktype" v="grade1"/>
  </way>
  <way id="49857222" version="19" timestamp="2025-02-11T02:52:21Z" changeset="162374226" uid="493595" user="Yorvik Prestigitator">
    <nd ref="21132639"/>
    <nd ref="2045938847"/>
    <nd ref="633484742"/>
    <nd ref="2755778914"/>
    <nd ref="633484743"/>
    <nd ref="6865749178"/>
    <nd ref="2755778915"/>
    <nd ref="8386152895"/>
    <nd ref="1578862524"/>
    <nd ref="2755778916"/>
    <nd ref="6865760391"/>
    <nd ref="633484744"/>
    <nd ref="1578862521"/>
    <nd ref="2755778918"/>
    <nd ref="1578862518"/>
    <nd ref="2478881530"/>
    <nd ref="1578862508"/>
    <nd ref="1578862515"/>
    <nd ref="2478909703"/>
    <nd ref="633484745"/>
    <nd ref="1578862536"/>
    <nd ref="761375384"/>
    <nd ref="1578862519"/>
    <nd ref="761375387"/>
    <nd ref="1578862514"/>
    <nd ref="1578862516"/>
    <nd ref="2755778920"/>
    <nd ref="633484746"/>
    <nd ref="633484747"/>
    <nd ref="1578862527"/>
    <nd ref="2478898546"/>
    <nd ref="1578862532"/>
    <nd ref="8266023146"/>
    <nd ref="633484748"/>
    <nd ref="2478898562"/>
    <nd ref="2755778924"/>
    <nd ref="633484749"/>
    <nd ref="2478898577"/>
    <nd ref="2755778976"/>
    <nd ref="633484750"/>
    <nd ref="2321326323"/>
    <nd ref="2321326320"/>
    <nd ref="2321326322"/>
    <nd ref="633484751"/>
    <nd ref="2755778982"/>
    <nd ref="633484752"/>
    <nd ref="761375405"/>
    <nd ref="633484753"/>
    <nd ref="761375411"/>
    <nd ref="2755722904"/>
    <nd ref="2321326325"/>
    <nd ref="2321326324"/>
    <nd ref="2321326321"/>
    <nd ref="761375206"/>
    <nd ref="2755722932"/>
    <nd ref="12577397571"/>
    <nd ref="2755722934"/>
    <nd ref="633484754"/>
    <nd ref="2755722948"/>
    <nd ref="1578862534"/>
    <nd ref="2755722954"/>
    <nd ref="633484755"/>
    <nd ref="1578862529"/>
    <nd ref="2755722967"/>
    <nd ref="633484756"/>
    <nd ref="1578862533"/>
    <nd ref="1578862520"/>
    <nd ref="633484757"/>
    <nd ref="2755722984"/>
    <nd ref="2755722985"/>
    <nd ref="2755722986"/>
    <nd ref="1494753550"/>
    <nd ref="1494753521"/>
    <nd ref="1494753501"/>
    <nd ref="633484758"/>
    <nd ref="1494753564"/>
    <nd ref="633484759"/>
    <nd ref="2756021594"/>
    <nd ref="2756021596"/>
    <nd ref="2756021616"/>
    <nd ref="2756021622"/>
    <nd ref="2756026724"/>
    <nd ref="2756026734"/>
    <tag k="highway" v="tertiary"/>
    <tag k="maxweight" v="7.5"/>
  </way>
  <way id="60821464" version="6" timestamp="2021-07-16T03:32:44Z" changeset="108081087" uid="10455633" user="tnayini">
    <nd ref="633484748"/>
    <nd ref="761375090"/>
    <nd ref="761375094"/>
    <nd ref="761375097"/>
    <nd ref="761375102"/>
    <nd ref="2478898579"/>
    <nd ref="8925279699"/>
    <nd ref="761375105"/>
    <nd ref="761375107"/>
    <nd ref="2478898592"/>
    <nd ref="761375109"/>
    <nd ref="2478898596"/>
    <nd ref="2478898599"/>
    <nd ref="2478898601"/>
    <nd ref="761375112"/>
    <nd ref="2478898611"/>
    <nd ref="2478898623"/>
    <nd ref="761375114"/>
    <nd ref="761375116"/>
    <nd ref="1578862541"/>
    <nd ref="761375119"/>
    <nd ref="2478898644"/>
    <nd ref="2478898648"/>
    <nd ref="761375121"/>
    <nd ref="761375123"/>
    <nd ref="8925279690"/>
    <nd ref="1578862509"/>
    <nd ref="761375124"/>
    <nd ref="1578862544"/>
    <nd ref="2755722928"/>
    <nd ref="761375125"/>
    <nd ref="761375126"/>
    <nd ref="1578862525"/>
    <nd ref="761375127"/>
    <nd ref="8522048309"/>
    <nd ref="1578862539"/>
    <nd ref="2478898659"/>
    <nd ref="761375128"/>
    <nd ref="761375129"/>
    <nd ref="2755722908"/>
    <nd ref="761375130"/>
    <nd ref="761375131"/>
    <nd ref="2755722917"/>
    <nd ref="761375132"/>
    <nd ref="2755722931"/>
    <nd ref="761375135"/>
    <nd ref="761375138"/>
    <nd ref="761375145"/>
    <nd ref="2755722956"/>
    <nd ref="633484755"/>
    <tag k="highway" v="residential"/>
  </way>
  <way id="60821465" version="3" timestamp="2025-02-11T02:52:21Z" changeset="162374226" uid="493595" user="Yorvik Prestigitator">
    <nd ref="633484754"/>
    <nd ref="761375174"/>
    <nd ref="2321327616"/>
    <nd ref="761375177"/>
    <nd ref="2321327618"/>
    <nd ref="12577397574"/>
    <nd ref="761375179"/>
    <nd ref="2321327617"/>
    <nd ref="761375180"/>
    <nd ref="761375181"/>
    <nd ref="761375182"/>
    <nd ref="2321327614"/>
    <nd ref="2321327615"/>
    <tag k="highway" v="residential"/>
    <tag k="name" v="Vicarage Road"/>
    <tag k="source" v="OS Openview Streetview"/>
  </way>
  <way id="60821473" version="2" timestamp="2014-03-31T08:49:11Z" changeset="21415272" uid="9065" user="brianboru">
    <nd ref="761375190"/>
    <nd ref="2755722891"/>
    <nd ref="761375192"/>
    <nd ref="2755722900"/>
    <nd ref="761375195"/>
    <nd ref="761375197"/>
    <nd ref="761375200"/>
    <nd ref="761375203"/>
    <nd ref="761375206"/>
    <tag k="highway" v="residential"/>
    <tag k="name" v="Bush Hill Lane"/>
    <tag k="source" v="OS Openview Streetview"/>
  </way>
  <way id="60821502" version="6" timestamp="2021-03-15T19:25:48Z" changeset="101071637" uid="5049" user="gistutor">
    <nd ref="761375217"/>
    <nd ref="761375220"/>
    <nd ref="761375222"/>
    <nd ref="761375225"/>
    <nd ref="761375228"/>
    <nd ref="761375229"/>
    <nd ref="761375230"/>
    <nd ref="761375231"/>
    <nd ref="761375232"/>
    <nd ref="8521987566"/>
    <nd ref="2478898695"/>
    <nd ref="8522048310"/>
    <nd ref="761375233"/>
    <nd ref="761375235"/>
    <nd ref="1443453194"/>
    <tag k="highway" v="unclassified"/>
  </way>
  <way id="60821518" version="5" timestamp="2013-12-21T17:10:36Z" changeset="19569588" uid="9065" user="brianboru">
    <nd ref="761375125"/>
    <nd ref="1578862531"/>
    <nd ref="761375300"/>
    <nd ref="761375301"/>
    <nd ref="2478898679"/>
    <nd ref="761375302"/>
    <nd ref="761375303"/>
    <nd ref="761375304"/>
    <nd ref="761375306"/>
    <nd ref="761375309"/>
    <nd ref="761375313"/>
    <nd ref="761375317"/>
    <nd ref="2589353744"/>
    <nd ref="761375320"/>
    <nd ref="761375323"/>
    <nd ref="761375329"/>
    <nd ref="761375230"/>
    <tag k="highway" v="unclassified"/>
  </way>
  <way id="123025416" version="2" timestamp="2021-10-07T09:49:01Z" changeset="112206500" uid="34867" user="SammyTheSnake">
    <nd ref="280154961"/>
    <nd ref="280156620"/>
    <tag k="highway" v="tertiary"/>
    <tag k="name" v="Flecknoe Road"/>
    <tag k="source" v="survey"/>
    <tag k="surface" v="asphalt"/>
  </way>
  <way id="125611626" version="2" timestamp="2014-03-31T10:00:56Z" changeset="21416344" uid="9065" user="brianboru">
    <nd ref="1394770410"/>
    <nd ref="2755778991"/>
    <nd ref="1394770408"/>
    <nd ref="2755778984"/>
    <nd ref="1394770409"/>
    <nd ref="633484750"/>
    <tag k="highway" v="residential"/>
    <tag k="name" v="Hunters Moon"/>
    <tag k="source" v="OS_OpenData_StreetView"/>
    <tag k="source:name" v="OS_OpenData_Locator"/>
  </way>
  <way id="136231830" version="6" timestamp="2019-09-17T09:19:34Z" changeset="74566892" uid="9641456" user="rababdul">
    <nd ref="2756026736"/>
    <nd ref="2756026737"/>
    <nd ref="2756026739"/>
    <nd ref="2756058459"/>
    <nd ref="1494753504"/>
    <nd ref="1494768489"/>
    <nd ref="1494753544"/>
    <nd ref="1494768520"/>
    <nd ref="1494753525"/>
    <nd ref="1494753506"/>
    <nd ref="1494753514"/>
    <nd ref="633484764"/>
    <nd ref="280156550"/>
    <tag k="highway" v="tertiary"/>
  </way>
  <way id="144342930" version="2" timestamp="2013-10-01T12:15:00Z" changeset="18126231" uid="9065" user="brianboru">
    <nd ref="761375235"/>
    <nd ref="1578862512"/>
    <nd ref="761375238"/>
    <tag k="highway" v="unclassified"/>
  </way>
  <way id="144342931" version="2" timestamp="2012-12-04T18:54:51Z" changeset="14155196" uid="82820" user="Mark_S">
    <nd ref="1578862531"/>
    <nd ref="1578862544"/>
    <tag k="highway" v="residential"/>
  </way>
  <way id="240125919" version="3" timestamp="2020-12-24T02:46:39Z" changeset="96353442" uid="10170573" user="achsaw">
    <nd ref="1443453194"/>
    <nd ref="2478898694"/>
    <nd ref="761375238"/>
    <nd ref="761375241"/>
    <nd ref="761375245"/>
    <nd ref="8256228990"/>
    <nd ref="1578862517"/>
    <nd ref="761375251"/>
    <nd ref="761375255"/>
    <nd ref="1578862538"/>
    <nd ref="761375256"/>
    <nd ref="1578862526"/>
    <nd ref="761375257"/>
    <nd ref="761375261"/>
    <nd ref="761375264"/>
    <nd ref="761375267"/>
    <nd ref="761375271"/>
    <nd ref="761375274"/>
    <nd ref="761375276"/>
    <nd ref="1578862528"/>
    <nd ref="761375277"/>
    <nd ref="761375279"/>
    <nd ref="1578862542"/>
    <nd ref="633484757"/>
    <tag k="highway" v="unclassified"/>
  </way>
  <way id="252931474" version="5" timestamp="2025-07-19T22:35:26Z" changeset="169173190" uid="8857" user="philipcullen">
    <nd ref="2589422618"/>
    <nd ref="2589422622"/>
    <nd ref="2589422619"/>
    <nd ref="2589422621"/>
    <nd ref="2589422613"/>
    <nd ref="2589422612"/>
    <nd ref="2589422609"/>
    <nd ref="2589422608"/>
    <nd ref="2589422618"/>
    <tag k="building" v="church"/>
    <tag k="denomination" v="anglican"/>
    <tag k="disused:amenity" v="place_of_worship"/>
    <tag k="heritage" v="2"/>
    <tag k="heritage:operator" v="Historic England"/>
    <tag k="listed_status" v="Grade II*"/>
    <tag k="name" v="Church of St Peter, Wolfhampcote"/>
    <tag k="ref:GB:uprn" v="10010522551"/>
    <tag k="religion" v="christian"/>
    <tag k="source" v="bing"/>
    <tag k="wikidata" v="Q7595306"/>
    <tag k="wikipedia" v="en:St Peter's Church, Wolfhampcote"/>
  </way>
  <way id="270550969" version="1" timestamp="2014-03-31T08:49:06Z" changeset="21415272" uid="9065" user="brianboru">
    <nd ref="2755722923"/>
    <nd ref="2755722924"/>
    <nd ref="2755722919"/>
    <nd ref="2755722920"/>
    <nd ref="2755722911"/>
    <nd ref="2755722909"/>
    <nd ref="2755722923"/>
    <tag k="amenity" v="pub"/>
    <tag k="building" v="yes"/>
    <tag k="name" v="The Olive Bush"/>
  </way>
  <way id="270577860" version="2" timestamp="2025-07-19T22:42:05Z" changeset="169173190" uid="8857" user="philipcullen">
    <nd ref="2755990426"/>
    <nd ref="2755990425"/>
    <nd ref="2755990421"/>
    <nd ref="2755990420"/>
    <nd ref="2755990414"/>
    <nd ref="2755990416"/>
    <nd ref="2755990413"/>
    <nd ref="2755990415"/>
    <nd ref="2755990418"/>
    <nd ref="2755990419"/>
    <nd ref="2755990424"/>
    <nd ref="2755990422"/>
    <nd ref="2755990426"/>
    <tag k="building" v="residential"/>
    <tag k="name" v="The Old Vicarage"/>
    <tag k="ref:GB:uprn" v="100071503001"/>
    <tag k="source" v="Warwickshire Aerial Imagery OGLv2"/>
  </way>
  <way id="270579895" version="4" timestamp="2025-02-11T02:52:21Z" changeset="162374226" uid="493595" user="Yorvik Prestigitator">
    <nd ref="2756021268"/>
    <nd ref="2756021279"/>
    <nd ref="10238245934"/>
    <nd ref="2756021215"/>
    <nd ref="2756021212"/>
    <nd ref="2756021228"/>
    <nd ref="2756021221"/>
    <nd ref="2756021268"/>
    <tag k="amenity" v="community_centre"/>
    <tag k="building" v="public"/>
    <tag k="community_centre" v="village_hall"/>
    <tag k="name" v="Flecknoe Village Hall"/>
    <tag k="source" v="Warwickshire Aerial Imagery OGLv2;survey"/>
  </way>
  <way id="270579900" version="4" timestamp="2025-07-19T22:42:05Z" changeset="169173190" uid="8857" user="philipcullen">
    <nd ref="2756021165"/>
    <nd ref="2756021162"/>
    <nd ref="2756021140"/>
    <nd ref="2756021142"/>
    <nd ref="2756021148"/>
    <nd ref="2756021152"/>
    <nd ref="2756021157"/>
    <nd ref="2756021159"/>
    <nd ref="2756021165"/>
    <tag k="amenity" v="place_of_worship"/>
    <tag k="building" v="church"/>
    <tag k="denomination" v="anglican"/>
    <tag k="name" v="St Mark"/>
    <tag k="ref:GB:uprn" v="10010513428"/>
    <tag k="religion" v="christian"/>
    <tag k="source" v="Warwickshire Aerial Imagery OGLv2"/>
    <tag k="wikidata" v="Q105094296"/>
  </way>
  <way id="374918546" version="2" timestamp="2017-04-22T13:50:44Z" changeset="48033763" uid="322785" user="BCNorwich">
    <nd ref="3783024764"/>
    <nd ref="762516412"/>
    <nd ref="762516413"/>
    <nd ref="4809785052"/>
    <nd ref="762516414"/>
    <nd ref="762516416"/>
    <nd ref="390208918"/>
    <tag k="highway" v="residential"/>
  </way>
  <way id="374919306" version="3" timestamp="2021-03-15T19:25:48Z" changeset="101071637" uid="5049" user="gistutor">
    <nd ref="2840952200"/>
    <nd ref="1443452996"/>
    <nd ref="1443453331"/>
    <nd ref="1443453162"/>
    <nd ref="1443453000"/>
    <nd ref="1443453192"/>
    <nd ref="1443453165"/>
    <nd ref="2589422604"/>
    <nd ref="1443453170"/>
    <nd ref="1443453200"/>
    <nd ref="1628132491"/>
    <nd ref="1804160914"/>
    <nd ref="2589422617"/>
    <nd ref="1443453182"/>
    <nd ref="1443453335"/>
    <nd ref="2589422592"/>
    <nd ref="1443453334"/>
    <nd ref="1443453193"/>
    <nd ref="1443453187"/>
    <nd ref="1443453233"/>
    <nd ref="1443452980"/>
    <nd ref="1443453342"/>
    <nd ref="1443453241"/>
    <nd ref="1443452979"/>
    <nd ref="1443453372"/>
    <nd ref="1443453361"/>
    <nd ref="2491966839"/>
    <nd ref="2491966827"/>
    <nd ref="1443453116"/>
    <nd ref="1443453365"/>
    <nd ref="1443453141"/>
    <nd ref="1443453055"/>
    <nd ref="1443453057"/>
    <nd ref="8522059419"/>
    <nd ref="1443453363"/>
    <nd ref="1443453157"/>
    <nd ref="1443453273"/>
    <nd ref="1443453351"/>
    <nd ref="1443453048"/>
    <nd ref="1443453032"/>
    <nd ref="1443453349"/>
    <nd ref="1443452998"/>
    <nd ref="1443452993"/>
    <nd ref="7545042945"/>
    <nd ref="1443453045"/>
    <nd ref="1443453053"/>
    <nd ref="1443453052"/>
    <nd ref="1443453047"/>
    <nd ref="1443453163"/>
    <nd ref="1443453155"/>
    <nd ref="761375320"/>
    <tag k="highway" v="unclassified"/>
  </way>
  <way id="1169733146" version="1" timestamp="2023-05-07T21:06:48Z" changeset="135827363" uid="13001300" user="simonc11">
    <nd ref="279534277"/>
    <nd ref="279534278"/>
    <nd ref="2500752748"/>
    <nd ref="2500755661"/>
    <nd ref="279534279"/>
    <nd ref="279534280"/>
    <tag k="highway" v="tertiary"/>
    <tag k="name" v="Moor Lane"/>
    <tag k="surface" v="asphalt"/>
  </way>
  <way id="1169733147" version="1" timestamp="2023-05-07T21:06:48Z" changeset="135827363" uid="13001300" user="simonc11">
    <nd ref="279534280"/>
    <nd ref="2501370582"/>
    <tag k="bridge" v="yes"/>
    <tag k="highway" v="tertiary"/>
    <tag k="layer" v="1"/>
    <tag k="name" v="Moor Lane"/>
    <tag k="surface" v="asphalt"/>
  </way>

</osm>
