<?xml version="1.0" encoding="UTF-8"?>
<osm version="0.6" generator="Overpass API 0.7.62.8 e802775f">
<note>The data included in this document is from www.openstreetmap.org. The data is made available under ODbL.</note>
<meta osm_base="2025-10-23T17:45:02Z" areas="2025-10-23T12:46:58Z"/>

  <node id="21294343" lat="52.2053683" lon="-1.8750943" version="4" timestamp="2025-01-02T23:55:20Z" changeset="160930172" uid="5229644" user="Nathan_A_RF"/>
  <node id="249496322" lat="52.1795524" lon="-1.8218379" version="5" timestamp="2021-03-19T19:08:10Z" changeset="101348310" uid="9065" user="brianboru"/>
  <node id="354560198" lat="52.1839704" lon="-1.8402804" version="2" timestamp="2013-09-12T12:39:36Z" changeset="17798852" uid="9065" user="brianboru"/>
  <node id="400881012" lat="52.1883102" lon="-1.8658167" version="3" timestamp="2013-09-12T12:39:36Z" changeset="17798852" uid="9065" user="brianboru"/>
  <node id="523052975" lat="52.1795094" lon="-1.8617658" version="4" timestamp="2021-03-21T15:35:07Z" changeset="101444889" uid="9065" user="brianboru"/>
  <node id="597262134" lat="52.1910965" lon="-1.8762022" version="4" timestamp="2013-05-14T12:31:36Z" changeset="16124855" uid="84263" user="Robert Whittaker"/>
  <node id="597262135" lat="52.1888708" lon="-1.8740099" version="3" timestamp="2011-08-17T16:50:29Z" changeset="9049621" uid="9065" user="brianboru"/>
  <node id="597262137" lat="52.1917498" lon="-1.8763595" version="4" timestamp="2023-08-24T19:32:41Z" changeset="140339507" uid="165" user="Richard"/>
  <node id="597262556" lat="52.1884614" lon="-1.8770101" version="3" timestamp="2011-08-17T16:50:29Z" changeset="9049621" uid="9065" user="brianboru"/>
  <node id="597262558" lat="52.1885161" lon="-1.8763334" version="2" timestamp="2011-02-06T20:25:39Z" changeset="7209245" uid="9065" user="brianboru"/>
  <node id="2303731393" lat="52.1612777" lon="-1.8821410" version="1" timestamp="2013-05-14T12:31:31Z" changeset="16124855" uid="84263" user="Robert Whittaker"/>
  <node id="2323161358" lat="52.1779249" lon="-1.8595475" version="2" timestamp="2013-09-13T16:35:33Z" changeset="17820522" uid="9065" user="brianboru"/>
  <way id="4017533" version="14" timestamp="2025-01-02T23:55:20Z" changeset="160930172" uid="5229644" user="Nathan_A_RF">
    <nd ref="21294343"/>
    <nd ref="12469938013"/>
    <nd ref="21294337"/>
    <nd ref="12469938014"/>
    <nd ref="21294335"/>
    <nd ref="21294332"/>
    <nd ref="21294331"/>
    <nd ref="21294329"/>
    <nd ref="1449079369"/>
    <nd ref="21294327"/>
    <nd ref="21294325"/>
    <nd ref="21294323"/>
    <nd ref="21294321"/>
    <nd ref="21294319"/>
    <nd ref="21294317"/>
    <nd ref="21294313"/>
    <tag k="highway" v="trunk"/>
    <tag k="lanes" v="2"/>
    <tag k="maxspeed" v="70 mph"/>
    <tag k="national_highways:area" v="9"/>
    <tag k="oneway" v="yes"/>
    <tag k="operator" v="National Highways"/>
    <tag k="operator:wikidata" v="Q5760006"/>
    <tag k="ref" v="A46"/>
    <tag k="restriction" v="no_stopping"/>
    <tag k="shoulder" v="both"/>
    <tag k="source" v="survey"/>
    <tag k="source:maxspeed" v="survey"/>
    <tag k="surface" v="asphalt"/>
  </way>
  <way id="23109957" version="17" timestamp="2025-01-12T20:44:44Z" changeset="161287141" uid="1782504" user="corgicity">
    <nd ref="249496322"/>
    <nd ref="2578659654"/>
    <nd ref="2578659660"/>
    <nd ref="2578659681"/>
    <nd ref="767435374"/>
    <nd ref="249496341"/>
    <nd ref="8066313770"/>
    <nd ref="12272788084"/>
    <nd ref="249496342"/>
    <nd ref="12272788083"/>
    <nd ref="2457005926"/>
    <nd ref="2457005927"/>
    <nd ref="8086854000"/>
    <nd ref="2323161410"/>
    <nd ref="249496343"/>
    <nd ref="7523086881"/>
    <nd ref="6776661839"/>
    <nd ref="767435375"/>
    <nd ref="2323161436"/>
    <nd ref="767435376"/>
    <nd ref="2323161437"/>
    <nd ref="249496344"/>
    <nd ref="2455477149"/>
    <nd ref="2323161442"/>
    <nd ref="298529679"/>
    <nd ref="2455477158"/>
    <nd ref="298529680"/>
    <nd ref="7987832680"/>
    <nd ref="7987832665"/>
    <nd ref="298529681"/>
    <nd ref="12496812862"/>
    <nd ref="298529682"/>
    <nd ref="2323161450"/>
    <nd ref="354560198"/>
    <tag k="highway" v="unclassified"/>
    <tag k="name" v="Wixford Road"/>
    <tag k="source" v="npe; NPE"/>
    <tag k="source:name" v="OS_OpenData_Locator"/>
  </way>
  <way id="25650197" version="18" timestamp="2020-10-01T10:43:41Z" changeset="91820660" uid="10221594" user="afurquan">
    <nd ref="400881012"/>
    <nd ref="2455477400"/>
    <nd ref="2455477403"/>
    <nd ref="2455477406"/>
    <nd ref="2441829368"/>
    <nd ref="2455477419"/>
    <nd ref="400881013"/>
    <nd ref="2455477421"/>
    <nd ref="2441829369"/>
    <nd ref="2441829370"/>
    <nd ref="400881014"/>
    <nd ref="2441829371"/>
    <nd ref="2441829372"/>
    <nd ref="400881015"/>
    <nd ref="2441829374"/>
    <nd ref="2677247063"/>
    <nd ref="400881016"/>
    <nd ref="2441829376"/>
    <nd ref="2441829378"/>
    <nd ref="2441829380"/>
    <nd ref="2441829382"/>
    <nd ref="400881017"/>
    <nd ref="2441829384"/>
    <nd ref="279616038"/>
    <nd ref="559156821"/>
    <nd ref="6533332526"/>
    <nd ref="559156819"/>
    <nd ref="7962784507"/>
    <nd ref="559156818"/>
    <nd ref="2441829387"/>
    <nd ref="279616195"/>
    <nd ref="559156826"/>
    <nd ref="400881018"/>
    <nd ref="4019456242"/>
    <nd ref="559156817"/>
    <nd ref="2441829405"/>
    <nd ref="279616194"/>
    <nd ref="279616040"/>
    <nd ref="2441829429"/>
    <nd ref="2441829435"/>
    <nd ref="2441829442"/>
    <nd ref="400881019"/>
    <nd ref="2441829478"/>
    <nd ref="2441829497"/>
    <nd ref="279616084"/>
    <nd ref="2441829521"/>
    <nd ref="2441829519"/>
    <nd ref="618870078"/>
    <nd ref="279616018"/>
    <tag k="highway" v="unclassified"/>
    <tag k="source" v="survey"/>
  </way>
  <way id="39763776" version="4" timestamp="2019-08-20T10:36:19Z" changeset="73532258" uid="9634896" user="dvvuyyur">
    <nd ref="476675667"/>
    <nd ref="476675668"/>
    <nd ref="2455477478"/>
    <nd ref="1139698505"/>
    <nd ref="1139698492"/>
    <nd ref="1139698514"/>
    <nd ref="1139698502"/>
    <nd ref="6726329244"/>
    <nd ref="1139698485"/>
    <nd ref="1139698512"/>
    <nd ref="1139698498"/>
    <nd ref="1139698517"/>
    <nd ref="1139698501"/>
    <tag k="highway" v="unclassified"/>
    <tag k="source" v="survey"/>
  </way>
  <way id="46717646" version="18" timestamp="2023-12-30T14:26:19Z" changeset="145699260" uid="5589" user="user_5589">
    <nd ref="597262134"/>
    <nd ref="1139698494"/>
    <nd ref="21294311"/>
    <nd ref="21294309"/>
    <nd ref="21294307"/>
    <nd ref="21294304"/>
    <nd ref="21294303"/>
    <nd ref="21294301"/>
    <nd ref="21294299"/>
    <nd ref="21294297"/>
    <nd ref="21294294"/>
    <nd ref="21294293"/>
    <nd ref="21294290"/>
    <nd ref="21294289"/>
    <nd ref="21294287"/>
    <nd ref="21294285"/>
    <nd ref="21294283"/>
    <nd ref="2360979648"/>
    <nd ref="21294281"/>
    <nd ref="21294278"/>
    <nd ref="2303731456"/>
    <nd ref="21294277"/>
    <nd ref="2303731450"/>
    <nd ref="21294274"/>
    <nd ref="2303731448"/>
    <nd ref="10172383963"/>
    <nd ref="21294272"/>
    <nd ref="10172383964"/>
    <nd ref="21294273"/>
    <nd ref="10172383965"/>
    <nd ref="1525086289"/>
    <tag k="highway" v="trunk"/>
    <tag k="lanes" v="2"/>
    <tag k="maxheight" v="default"/>
    <tag k="maxspeed" v="70 mph"/>
    <tag k="national_highways:area" v="9"/>
    <tag k="oneway" v="yes"/>
    <tag k="operator" v="National Highways"/>
    <tag k="operator:wikidata" v="Q5760006"/>
    <tag k="ref" v="A46"/>
    <tag k="restriction" v="no_stopping"/>
    <tag k="shoulder" v="both"/>
    <tag k="sidewalk" v="no"/>
    <tag k="source" v="survey"/>
    <tag k="source:maxspeed" v="survey"/>
    <tag k="surface" v="asphalt"/>
  </way>
  <way id="46717650" version="15" timestamp="2025-01-02T23:55:20Z" changeset="160930172" uid="5229644" user="Nathan_A_RF">
    <nd ref="597262137"/>
    <nd ref="21294316"/>
    <nd ref="1139698500"/>
    <nd ref="21294318"/>
    <nd ref="21294320"/>
    <nd ref="21294322"/>
    <nd ref="21294324"/>
    <nd ref="21294326"/>
    <nd ref="21294328"/>
    <nd ref="21294330"/>
    <nd ref="21294333"/>
    <nd ref="21294334"/>
    <nd ref="2439422235"/>
    <nd ref="12469938015"/>
    <tag k="highway" v="trunk"/>
    <tag k="lanes" v="2"/>
    <tag k="maxspeed" v="70 mph"/>
    <tag k="national_highways:area" v="9"/>
    <tag k="oneway" v="yes"/>
    <tag k="operator" v="National Highways"/>
    <tag k="operator:wikidata" v="Q5760006"/>
    <tag k="ref" v="A46"/>
    <tag k="restriction" v="no_stopping"/>
    <tag k="shoulder" v="both"/>
    <tag k="sidewalk" v="no"/>
    <tag k="source" v="survey"/>
    <tag k="source:maxspeed" v="survey"/>
    <tag k="surface" v="asphalt"/>
  </way>
  <way id="46717651" version="4" timestamp="2017-05-03T07:18:14Z" changeset="48354795" uid="1778799" user="SomeoneElse_Revert">
    <nd ref="597262136"/>
    <nd ref="597262135"/>
    <tag k="bridge" v="yes"/>
    <tag k="highway" v="tertiary"/>
    <tag k="maxspeed" v="30 mph"/>
    <tag k="source:maxspeed" v="survey"/>
  </way>
  <way id="46717652" version="8" timestamp="2025-01-03T00:37:42Z" changeset="160930925" uid="5229644" user="Nathan_A_RF">
    <nd ref="597262135"/>
    <nd ref="6892560816"/>
    <nd ref="1493340170"/>
    <nd ref="1402484692"/>
    <nd ref="301523570"/>
    <nd ref="301523569"/>
    <tag k="highway" v="tertiary"/>
    <tag k="maxspeed" v="30 mph"/>
    <tag k="source" v="survey"/>
    <tag k="source:maxspeed" v="survey"/>
  </way>
  <way id="46717653" version="17" timestamp="2023-12-30T14:26:35Z" changeset="145699260" uid="5589" user="user_5589">
    <nd ref="21294313"/>
    <nd ref="2303731572"/>
    <nd ref="597262134"/>
    <tag k="bridge" v="yes"/>
    <tag k="highway" v="trunk"/>
    <tag k="lanes" v="2"/>
    <tag k="layer" v="1"/>
    <tag k="maxspeed" v="70 mph"/>
    <tag k="maxweight:signed" v="no"/>
    <tag k="national_highways:area" v="9"/>
    <tag k="oneway" v="yes"/>
    <tag k="operator" v="National Highways"/>
    <tag k="operator:wikidata" v="Q5760006"/>
    <tag k="ref" v="A46"/>
    <tag k="restriction" v="no_stopping"/>
    <tag k="shoulder" v="both"/>
    <tag k="sidewalk" v="no"/>
    <tag k="source" v="survey"/>
    <tag k="source:maxspeed" v="survey"/>
    <tag k="surface" v="asphalt"/>
  </way>
  <way id="46717654" version="18" timestamp="2023-12-30T14:26:37Z" changeset="145699260" uid="5589" user="user_5589">
    <nd ref="597262133"/>
    <nd ref="2303731573"/>
    <nd ref="597262137"/>
    <tag k="bridge" v="yes"/>
    <tag k="highway" v="trunk"/>
    <tag k="lanes" v="2"/>
    <tag k="layer" v="1"/>
    <tag k="maxspeed" v="70 mph"/>
    <tag k="maxweight:signed" v="no"/>
    <tag k="national_highways:area" v="9"/>
    <tag k="oneway" v="yes"/>
    <tag k="operator" v="National Highways"/>
    <tag k="operator:wikidata" v="Q5760006"/>
    <tag k="ref" v="A46"/>
    <tag k="restriction" v="no_stopping"/>
    <tag k="shoulder" v="no"/>
    <tag k="sidewalk" v="no"/>
    <tag k="source" v="survey"/>
    <tag k="source:maxspeed" v="survey"/>
    <tag k="surface" v="asphalt"/>
  </way>
  <way id="46717711" version="3" timestamp="2025-01-03T00:37:42Z" changeset="160930925" uid="5229644" user="Nathan_A_RF">
    <nd ref="597262558"/>
    <nd ref="597262556"/>
    <tag k="bridge" v="yes"/>
    <tag k="highway" v="tertiary"/>
    <tag k="layer" v="1"/>
    <tag k="maxspeed" v="60 mph"/>
    <tag k="maxspeed:type" v="GB:nsl_single"/>
    <tag k="source" v="survey"/>
    <tag k="source:maxspeed" v="survey"/>
  </way>
  <way id="98515775" version="4" timestamp="2020-10-05T21:13:03Z" changeset="92007731" uid="364" user="Edward">
    <nd ref="1139698497"/>
    <nd ref="1139698483"/>
    <nd ref="1139698509"/>
    <nd ref="1139698495"/>
    <nd ref="1139698513"/>
    <nd ref="1139698499"/>
    <nd ref="1139698482"/>
    <nd ref="1139698507"/>
    <nd ref="1139698497"/>
    <tag k="amenity" v="place_of_worship"/>
    <tag k="building" v="church"/>
    <tag k="denomination" v="anglican"/>
    <tag k="heritage" v="2"/>
    <tag k="heritage:operator" v="Historic England"/>
    <tag k="listed_status" v="Grade II*"/>
    <tag k="name" v="St Milburga"/>
    <tag k="religion" v="christian"/>
    <tag k="source" v="visual survey;bing"/>
    <tag k="wikidata" v="Q17551618"/>
  </way>
  <way id="126531329" version="2" timestamp="2025-05-30T20:26:22Z" changeset="166989462" uid="384887" user="robw">
    <nd ref="1402484730"/>
    <nd ref="1402484734"/>
    <nd ref="1402484727"/>
    <nd ref="1402484728"/>
    <nd ref="1402484713"/>
    <nd ref="1402484715"/>
    <nd ref="1402484711"/>
    <nd ref="1402484710"/>
    <nd ref="1402484708"/>
    <nd ref="1402484707"/>
    <nd ref="1402484706"/>
    <nd ref="1402484700"/>
    <nd ref="1402484723"/>
    <nd ref="1402484726"/>
    <nd ref="1402484730"/>
    <tag k="amenity" v="pub"/>
    <tag k="building" v="yes"/>
    <tag k="name" v="The Fish"/>
    <tag k="source" v="visual survey;bing"/>
    <tag k="website" v="https://thefishwixford.co.uk/"/>
  </way>
  <way id="126531337" version="6" timestamp="2021-03-21T15:35:07Z" changeset="101444889" uid="9065" user="brianboru">
    <nd ref="1542123511"/>
    <nd ref="1542123642"/>
    <nd ref="1542123534"/>
    <nd ref="1542123550"/>
    <nd ref="1139698501"/>
    <nd ref="7414325798"/>
    <nd ref="1542123704"/>
    <nd ref="2439483107"/>
    <nd ref="1542123370"/>
    <nd ref="2439483114"/>
    <nd ref="1493333014"/>
    <nd ref="2439483115"/>
    <nd ref="1542123568"/>
    <nd ref="1542123504"/>
    <nd ref="1542123646"/>
    <nd ref="8544493345"/>
    <nd ref="497182050"/>
    <nd ref="597262136"/>
    <tag k="highway" v="tertiary"/>
    <tag k="maxspeed" v="30 mph"/>
    <tag k="source:maxspeed" v="survey"/>
  </way>
  <way id="138145694" version="13" timestamp="2023-12-30T14:26:23Z" changeset="145699260" uid="5589" user="user_5589">
    <nd ref="2303731393"/>
    <nd ref="21294275"/>
    <nd ref="2303731452"/>
    <nd ref="21294276"/>
    <nd ref="2303731454"/>
    <nd ref="21294279"/>
    <nd ref="21294280"/>
    <nd ref="2360979647"/>
    <nd ref="21294282"/>
    <nd ref="21294284"/>
    <nd ref="21294286"/>
    <nd ref="21294288"/>
    <nd ref="21294291"/>
    <nd ref="21294292"/>
    <nd ref="21294295"/>
    <nd ref="21294296"/>
    <nd ref="21294298"/>
    <nd ref="21294300"/>
    <nd ref="21294302"/>
    <nd ref="21294305"/>
    <nd ref="21294306"/>
    <nd ref="21294308"/>
    <nd ref="21294310"/>
    <nd ref="1139698516"/>
    <nd ref="1139698508"/>
    <nd ref="597262133"/>
    <tag k="highway" v="trunk"/>
    <tag k="lanes" v="2"/>
    <tag k="maxheight" v="default"/>
    <tag k="maxspeed" v="70 mph"/>
    <tag k="national_highways:area" v="9"/>
    <tag k="oneway" v="yes"/>
    <tag k="operator" v="National Highways"/>
    <tag k="operator:wikidata" v="Q5760006"/>
    <tag k="ref" v="A46"/>
    <tag k="restriction" v="no_stopping"/>
    <tag k="shoulder" v="both"/>
    <tag k="sidewalk" v="no"/>
    <tag k="source" v="survey"/>
    <tag k="source:maxspeed" v="survey"/>
    <tag k="surface" v="asphalt"/>
  </way>
  <way id="140836807" version="6" timestamp="2025-01-03T00:37:42Z" changeset="160930925" uid="5229644" user="Nathan_A_RF">
    <nd ref="597262556"/>
    <nd ref="1542123570"/>
    <nd ref="1542123444"/>
    <nd ref="1542123638"/>
    <nd ref="1542123677"/>
    <nd ref="1402484690"/>
    <nd ref="1542123385"/>
    <nd ref="1402484749"/>
    <nd ref="1542123500"/>
    <nd ref="1542123412"/>
    <nd ref="9654514667"/>
    <nd ref="1542123464"/>
    <nd ref="1542123688"/>
    <nd ref="1542123581"/>
    <nd ref="1542123629"/>
    <nd ref="1542123450"/>
    <nd ref="1402484763"/>
    <nd ref="2360954352"/>
    <nd ref="2288132436"/>
    <nd ref="1542123606"/>
    <tag k="highway" v="tertiary"/>
    <tag k="maxspeed" v="60 mph"/>
    <tag k="maxspeed:type" v="GB:nsl_single"/>
    <tag k="source" v="survey"/>
    <tag k="source:maxspeed" v="survey"/>
  </way>
  <way id="140836810" version="6" timestamp="2021-03-21T15:35:07Z" changeset="101444889" uid="9065" user="brianboru">
    <nd ref="523052975"/>
    <nd ref="8544493667"/>
    <nd ref="2323161383"/>
    <nd ref="1542123461"/>
    <nd ref="2426962424"/>
    <nd ref="1542123710"/>
    <nd ref="1542123668"/>
    <nd ref="2323161427"/>
    <nd ref="1542123680"/>
    <nd ref="1402484656"/>
    <nd ref="1542123714"/>
    <nd ref="2455477174"/>
    <nd ref="1542123460"/>
    <nd ref="1542123686"/>
    <nd ref="1542123578"/>
    <nd ref="1542123515"/>
    <nd ref="1542123684"/>
    <nd ref="1542123625"/>
    <tag k="highway" v="tertiary"/>
  </way>
  <way id="191434833" version="7" timestamp="2025-01-12T20:44:44Z" changeset="161287141" uid="1782504" user="corgicity">
    <nd ref="354560198"/>
    <nd ref="298529684"/>
    <nd ref="298529685"/>
    <nd ref="12496812863"/>
    <nd ref="298529686"/>
    <nd ref="2455477222"/>
    <nd ref="298529687"/>
    <nd ref="2455477237"/>
    <nd ref="2455477247"/>
    <nd ref="298529689"/>
    <nd ref="2455477257"/>
    <nd ref="298529690"/>
    <nd ref="298529691"/>
    <nd ref="2455477270"/>
    <nd ref="2627326600"/>
    <nd ref="298529692"/>
    <nd ref="298529693"/>
    <nd ref="298529694"/>
    <nd ref="2455312813"/>
    <nd ref="298529696"/>
    <nd ref="298529697"/>
    <nd ref="298529698"/>
    <nd ref="298529699"/>
    <nd ref="298529700"/>
    <nd ref="298529701"/>
    <nd ref="1402484664"/>
    <nd ref="8544493572"/>
    <nd ref="298529702"/>
    <nd ref="298529704"/>
    <nd ref="298529705"/>
    <nd ref="8874742750"/>
    <nd ref="298529706"/>
    <nd ref="2455477387"/>
    <nd ref="400881012"/>
    <nd ref="1542123511"/>
    <tag k="highway" v="unclassified"/>
    <tag k="source" v="NPE"/>
  </way>
  <way id="237668890" version="1" timestamp="2013-09-12T12:39:27Z" changeset="17798852" uid="9065" user="brianboru">
    <nd ref="2455477372"/>
    <nd ref="2455477386"/>
    <nd ref="2455477362"/>
    <nd ref="2455477359"/>
    <nd ref="2455477355"/>
    <nd ref="2455477358"/>
    <nd ref="2455477356"/>
    <nd ref="2455477370"/>
    <nd ref="2455477372"/>
    <tag k="amenity" v="pub"/>
    <tag k="building" v="pub"/>
    <tag k="name" v="Three Horseshoes"/>
  </way>
  <way id="237668895" version="1" timestamp="2013-09-12T12:39:27Z" changeset="17798852" uid="9065" user="brianboru">
    <nd ref="2455477387"/>
    <nd ref="2455477394"/>
    <nd ref="2455477403"/>
    <tag k="highway" v="unclassified"/>
    <tag k="source" v="bing"/>
  </way>
  <way id="237838188" version="5" timestamp="2021-06-10T09:20:01Z" changeset="106143901" uid="10219386" user="bathines">
    <nd ref="2323161358"/>
    <nd ref="2457005857"/>
    <nd ref="6895012910"/>
    <nd ref="354560182"/>
    <nd ref="8820403477"/>
    <nd ref="2457005867"/>
    <nd ref="2457005868"/>
    <nd ref="354560184"/>
    <nd ref="5860354916"/>
    <nd ref="2457005879"/>
    <nd ref="2457005882"/>
    <nd ref="354560185"/>
    <nd ref="354560186"/>
    <nd ref="354560188"/>
    <nd ref="354560189"/>
    <nd ref="2323161399"/>
    <nd ref="7805323381"/>
    <nd ref="1585066137"/>
    <nd ref="354560191"/>
    <nd ref="2323161415"/>
    <nd ref="2457005936"/>
    <nd ref="354560193"/>
    <nd ref="354560195"/>
    <nd ref="2455477150"/>
    <nd ref="354560197"/>
    <nd ref="354560198"/>
    <tag k="highway" v="unclassified"/>
    <tag k="name" v="George's Elm Lane"/>
    <tag k="source" v="survey"/>
  </way>
  <way id="488648877" version="2" timestamp="2021-03-21T15:35:07Z" changeset="101444889" uid="9065" user="brianboru">
    <nd ref="523052975"/>
    <nd ref="298848522"/>
    <nd ref="2323161374"/>
    <nd ref="298848526"/>
    <nd ref="2427278103"/>
    <nd ref="2323161358"/>
    <nd ref="8544478292"/>
    <nd ref="298848530"/>
    <nd ref="2443837268"/>
    <tag k="highway" v="tertiary"/>
    <tag k="name" v="Waterloo Road"/>
    <tag k="source" v="survey"/>
  </way>
  <way id="488648878" version="2" timestamp="2020-11-11T07:21:57Z" changeset="93905484" uid="11735880" user="namanees">
    <nd ref="1542123625"/>
    <nd ref="8106108961"/>
    <nd ref="1542123585"/>
    <nd ref="1542123687"/>
    <nd ref="1542123716"/>
    <nd ref="1542123699"/>
    <nd ref="1542123511"/>
    <tag k="highway" v="tertiary"/>
    <tag k="maxspeed" v="30 mph"/>
  </way>

</osm>
