<?xml version="1.0" encoding="UTF-8"?>
<osm version="0.6" generator="Overpass API 0.7.62.8 e802775f">
<note>The data included in this document is from www.openstreetmap.org. The data is made available under ODbL.</note>
<meta osm_base="2025-10-23T17:24:30Z" areas="2025-10-23T12:46:58Z"/>

  <node id="295883168" lat="52.3444382" lon="-1.3379701" version="6" timestamp="2020-04-29T10:35:04Z" changeset="84330716" uid="705850" user="Cebderby"/>
  <node id="295883192" lat="52.3625682" lon="-1.3610938" version="5" timestamp="2013-10-10T15:34:54Z" changeset="18283159" uid="9065" user="brianboru"/>
  <node id="295883197" lat="52.3621991" lon="-1.3420591" version="4" timestamp="2010-06-18T18:09:45Z" changeset="5018060" uid="112997" user="sobbomapper"/>
  <node id="307824924" lat="52.3894573" lon="-1.3422982" version="3" timestamp="2015-11-25T10:30:56Z" changeset="35567818" uid="154484" user="PeterP"/>
  <node id="6338490700" lat="52.3758243" lon="-1.3021977" version="1" timestamp="2019-03-14T20:31:11Z" changeset="68151152" uid="9065" user="brianboru"/>
  <node id="13109326074" lat="52.3820148" lon="-1.3445761" version="1" timestamp="2025-08-30T22:20:18Z" changeset="171247650" uid="13247722" user="TheCanMan"/>
  <way id="26994436" version="10" timestamp="2013-10-10T15:34:54Z" changeset="18283159" uid="9065" user="brianboru">
    <nd ref="775768857"/>
    <nd ref="331272527"/>
    <nd ref="295883209"/>
    <nd ref="1384970442"/>
    <nd ref="331272526"/>
    <nd ref="331272524"/>
    <tag k="highway" v="unclassified"/>
    <tag k="name" v="Coronation Road"/>
  </way>
  <way id="30076113" version="6" timestamp="2025-08-16T10:46:32Z" changeset="170517108" uid="5589" user="user_5589">
    <nd ref="307824948"/>
    <nd ref="6138090955"/>
    <nd ref="307824959"/>
    <tag k="highway" v="unclassified"/>
    <tag k="name" v="School Street"/>
    <tag k="oneway" v="yes"/>
    <tag k="surface" v="asphalt"/>
  </way>
  <way id="31436229" version="7" timestamp="2018-12-14T20:53:40Z" changeset="65485315" uid="9065" user="brianboru">
    <nd ref="775768891"/>
    <nd ref="775768278"/>
    <nd ref="307824939"/>
    <nd ref="307824942"/>
    <nd ref="307824956"/>
    <nd ref="775768267"/>
    <nd ref="307824944"/>
    <nd ref="775768262"/>
    <nd ref="331272523"/>
    <nd ref="6138091040"/>
    <nd ref="307824952"/>
    <tag k="highway" v="unclassified"/>
    <tag k="name" v="School Street"/>
  </way>
  <way id="32681694" version="8" timestamp="2016-07-14T19:19:11Z" changeset="40748076" uid="608760" user="gregrs">
    <nd ref="295883192"/>
    <nd ref="775767542"/>
    <nd ref="775767544"/>
    <nd ref="775767546"/>
    <nd ref="2491281879"/>
    <nd ref="295883195"/>
    <nd ref="2491281880"/>
    <nd ref="775767503"/>
    <nd ref="775767505"/>
    <nd ref="2495039534"/>
    <nd ref="775767506"/>
    <nd ref="775767508"/>
    <nd ref="775767510"/>
    <nd ref="775767511"/>
    <nd ref="775767512"/>
    <nd ref="775767513"/>
    <nd ref="775767520"/>
    <nd ref="2491281878"/>
    <nd ref="2491281877"/>
    <nd ref="2491281876"/>
    <nd ref="295883196"/>
    <nd ref="295883197"/>
    <tag k="highway" v="unclassified"/>
    <tag k="name" v="Ling Lane"/>
    <tag k="source" v="OS OpenData StreetView"/>
  </way>
  <way id="62187836" version="7" timestamp="2021-06-08T16:09:00Z" changeset="106046146" uid="10455645" user="viplavm">
    <nd ref="775766587"/>
    <nd ref="6723380284"/>
    <nd ref="295883208"/>
    <nd ref="6723380280"/>
    <nd ref="8403934434"/>
    <nd ref="775766588"/>
    <nd ref="7563037441"/>
    <nd ref="775766589"/>
    <nd ref="8815038988"/>
    <nd ref="599541388"/>
    <nd ref="2481098525"/>
    <nd ref="13783684"/>
    <tag k="highway" v="unclassified"/>
    <tag k="name" v="Limestone Hall Lane"/>
    <tag k="source" v="OS OpenData StreetView"/>
  </way>
  <way id="62187837" version="2" timestamp="2013-10-03T09:20:58Z" changeset="18157657" uid="9065" user="brianboru">
    <nd ref="295883207"/>
    <nd ref="775766587"/>
    <tag k="bridge" v="yes"/>
    <tag k="highway" v="unclassified"/>
    <tag k="layer" v="1"/>
    <tag k="name" v="Limestone Hall Lane"/>
    <tag k="source" v="OS OpenData StreetView"/>
  </way>
  <way id="62187981" version="4" timestamp="2017-05-06T15:32:39Z" changeset="48455156" uid="346039" user="fitzsimons">
    <nd ref="775768262"/>
    <nd ref="4838713963"/>
    <nd ref="775768263"/>
    <nd ref="775768264"/>
    <nd ref="2485413300"/>
    <nd ref="775768265"/>
    <nd ref="775768266"/>
    <tag k="highway" v="residential"/>
    <tag k="name" v="Green Lane"/>
    <tag k="source" v="OS OpenData StreetView"/>
  </way>
  <way id="62187982" version="3" timestamp="2017-05-06T15:32:39Z" changeset="48455156" uid="346039" user="fitzsimons">
    <nd ref="775768267"/>
    <nd ref="2342230921"/>
    <nd ref="4838713962"/>
    <nd ref="775768263"/>
    <tag k="highway" v="residential"/>
  </way>
  <way id="62187983" version="2" timestamp="2010-08-31T12:06:50Z" changeset="5644853" uid="44659" user="Phil Shipley">
    <nd ref="307824942"/>
    <nd ref="775768268"/>
    <tag k="highway" v="residential"/>
    <tag k="name" v="Holly Grove"/>
  </way>
  <way id="62187984" version="4" timestamp="2019-09-12T15:54:09Z" changeset="74399753" uid="9065" user="brianboru">
    <nd ref="775768269"/>
    <nd ref="6790785305"/>
    <nd ref="6790785306"/>
    <nd ref="775768270"/>
    <nd ref="775768271"/>
    <nd ref="6790785307"/>
    <nd ref="775768272"/>
    <nd ref="775768273"/>
    <tag k="highway" v="residential"/>
    <tag k="name" v="Fitzalan Close"/>
  </way>
  <way id="62187985" version="2" timestamp="2010-06-18T18:12:15Z" changeset="5018060" uid="112997" user="sobbomapper">
    <nd ref="775768274"/>
    <nd ref="775768275"/>
    <nd ref="775768276"/>
    <nd ref="307824931"/>
    <tag k="highway" v="residential"/>
    <tag k="name" v="Dalton Close"/>
    <tag k="source" v="OS OpenData StreetView"/>
  </way>
  <way id="62187986" version="1" timestamp="2010-06-18T18:04:08Z" changeset="5018060" uid="112997" user="sobbomapper">
    <nd ref="775767874"/>
    <nd ref="331272523"/>
    <tag k="highway" v="residential"/>
  </way>
  <way id="62188002" version="3" timestamp="2021-06-15T06:14:59Z" changeset="106374025" uid="10305811" user="kumrnls">
    <nd ref="295883195"/>
    <nd ref="775767548"/>
    <nd ref="8834371156"/>
    <nd ref="1384970523"/>
    <tag k="highway" v="unclassified"/>
    <tag k="name" v="Limestone Hall Lane"/>
    <tag k="source" v="OS OpenData StreetView"/>
  </way>
  <way id="62188148" version="5" timestamp="2019-09-12T15:54:09Z" changeset="74399753" uid="9065" user="brianboru">
    <nd ref="775768896"/>
    <nd ref="2485413347"/>
    <nd ref="6483759642"/>
    <nd ref="2485413345"/>
    <nd ref="775768898"/>
    <nd ref="2485413342"/>
    <nd ref="6790733036"/>
    <nd ref="775768891"/>
    <tag k="highway" v="residential"/>
    <tag k="name" v="Smithy Lane"/>
  </way>
  <way id="75399888" version="2" timestamp="2018-12-14T20:53:40Z" changeset="65485315" uid="9065" user="brianboru">
    <nd ref="890354723"/>
    <nd ref="6138090871"/>
    <nd ref="890354724"/>
    <nd ref="307824956"/>
    <tag k="highway" v="residential"/>
    <tag k="name" v="Townsend Close"/>
  </way>
  <way id="76035875" version="12" timestamp="2025-08-30T22:20:18Z" changeset="171247650" uid="13247722" user="TheCanMan">
    <nd ref="13109326074"/>
    <nd ref="13783684"/>
    <nd ref="6881659742"/>
    <nd ref="13783685"/>
    <nd ref="13783682"/>
    <nd ref="13783681"/>
    <nd ref="13783680"/>
    <nd ref="2481111932"/>
    <nd ref="13783679"/>
    <nd ref="8985333808"/>
    <nd ref="8985333798"/>
    <nd ref="8985333797"/>
    <nd ref="13783678"/>
    <nd ref="8985333809"/>
    <nd ref="13783677"/>
    <nd ref="13783676"/>
    <nd ref="13783675"/>
    <nd ref="10276830957"/>
    <nd ref="13783672"/>
    <nd ref="13783673"/>
    <nd ref="1360405862"/>
    <nd ref="2481096297"/>
    <nd ref="13783670"/>
    <nd ref="13783671"/>
    <nd ref="13783669"/>
    <nd ref="13783668"/>
    <nd ref="13783667"/>
    <nd ref="13783666"/>
    <nd ref="1353879095"/>
    <nd ref="13783660"/>
    <nd ref="13783665"/>
    <nd ref="2481096313"/>
    <nd ref="13783664"/>
    <nd ref="25880335"/>
    <nd ref="13783663"/>
    <nd ref="13783662"/>
    <nd ref="13783661"/>
    <nd ref="25880334"/>
    <nd ref="25880333"/>
    <nd ref="25880332"/>
    <nd ref="13783659"/>
    <tag k="highway" v="primary"/>
    <tag k="lanes" v="2"/>
    <tag k="lanes:backward" v="1"/>
    <tag k="lanes:forward" v="1"/>
    <tag k="maxspeed" v="60 mph"/>
    <tag k="name" v="Coventry Road"/>
    <tag k="ref" v="A428"/>
    <tag k="surface" v="asphalt"/>
  </way>
  <way id="76035876" version="9" timestamp="2025-08-16T10:47:00Z" changeset="170517108" uid="5589" user="user_5589">
    <nd ref="1686153760"/>
    <nd ref="13783690"/>
    <nd ref="1602464354"/>
    <nd ref="6612842563"/>
    <nd ref="13783693"/>
    <nd ref="13783696"/>
    <nd ref="6906197823"/>
    <nd ref="13783695"/>
    <nd ref="13783689"/>
    <nd ref="307824959"/>
    <nd ref="13783688"/>
    <nd ref="2485413273"/>
    <tag k="highway" v="primary"/>
    <tag k="maxspeed" v="40 mph"/>
    <tag k="maxspeed:type" v="sign"/>
    <tag k="name" v="Rugby Road"/>
    <tag k="ref" v="A428"/>
    <tag k="surface" v="asphalt"/>
  </way>
  <way id="123241621" version="8" timestamp="2021-06-08T16:17:29Z" changeset="106046524" uid="10455645" user="viplavm">
    <nd ref="307824952"/>
    <nd ref="2485413285"/>
    <nd ref="775767874"/>
    <nd ref="2485413288"/>
    <nd ref="6138090852"/>
    <nd ref="607974841"/>
    <nd ref="4838713965"/>
    <nd ref="6138090853"/>
    <nd ref="6138090851"/>
    <nd ref="607974840"/>
    <nd ref="607974839"/>
    <nd ref="775767873"/>
    <nd ref="1602832749"/>
    <nd ref="775767872"/>
    <nd ref="8815041210"/>
    <nd ref="8815096821"/>
    <nd ref="775767871"/>
    <tag k="highway" v="residential"/>
    <tag k="name" v="Church Road"/>
    <tag k="source" v="OS OpenData StreetView+gps"/>
  </way>
  <way id="124420359" version="3" timestamp="2013-10-13T14:42:12Z" changeset="18333676" uid="9065" user="brianboru">
    <nd ref="1384970541"/>
    <nd ref="775767551"/>
    <nd ref="1384970440"/>
    <nd ref="1384970452"/>
    <nd ref="295883202"/>
    <nd ref="2495039611"/>
    <nd ref="2495039615"/>
    <nd ref="775767552"/>
    <nd ref="2495039621"/>
    <nd ref="775767553"/>
    <nd ref="2495039629"/>
    <nd ref="1384970479"/>
    <nd ref="295883203"/>
    <nd ref="1384970448"/>
    <nd ref="295883204"/>
    <nd ref="1384970480"/>
    <nd ref="2495039679"/>
    <nd ref="2491276656"/>
    <nd ref="1384970435"/>
    <nd ref="295883206"/>
    <nd ref="1384970462"/>
    <nd ref="1384970443"/>
    <nd ref="775766576"/>
    <nd ref="775766578"/>
    <nd ref="775766579"/>
    <nd ref="1384970509"/>
    <nd ref="295883207"/>
    <tag k="highway" v="unclassified"/>
    <tag k="name" v="Limestone Hall Lane"/>
    <tag k="source" v="OS OpenData StreetView"/>
  </way>
  <way id="124420362" version="1" timestamp="2011-08-03T18:00:46Z" changeset="8912569" uid="154484" user="PeterP">
    <nd ref="1384970523"/>
    <nd ref="295883201"/>
    <nd ref="1384970541"/>
    <tag k="highway" v="unclassified"/>
    <tag k="name" v="Limestone Hall Lane"/>
    <tag k="source" v="OS OpenData StreetView"/>
  </way>
  <way id="124420363" version="6" timestamp="2020-03-05T06:59:05Z" changeset="81808210" uid="10455643" user="kotamadh">
    <nd ref="295883210"/>
    <nd ref="775768859"/>
    <nd ref="331272529"/>
    <nd ref="2495039698"/>
    <nd ref="2495039696"/>
    <nd ref="2495039693"/>
    <nd ref="775768860"/>
    <nd ref="2495039666"/>
    <nd ref="331272530"/>
    <nd ref="2495039652"/>
    <nd ref="295883211"/>
    <nd ref="2495039647"/>
    <nd ref="775768861"/>
    <nd ref="331272532"/>
    <nd ref="331272533"/>
    <nd ref="2496076359"/>
    <nd ref="775768807"/>
    <nd ref="2496076353"/>
    <nd ref="295883212"/>
    <nd ref="2496076338"/>
    <nd ref="2496076334"/>
    <nd ref="775768808"/>
    <nd ref="2496076330"/>
    <nd ref="775768809"/>
    <nd ref="331272535"/>
    <nd ref="331272536"/>
    <nd ref="2496076269"/>
    <nd ref="775768810"/>
    <nd ref="2496076246"/>
    <nd ref="295883213"/>
    <nd ref="4838792344"/>
    <nd ref="775768811"/>
    <nd ref="2496076217"/>
    <nd ref="2496076206"/>
    <nd ref="331272537"/>
    <nd ref="775768862"/>
    <nd ref="2496076172"/>
    <nd ref="295883214"/>
    <nd ref="2496076138"/>
    <nd ref="775768863"/>
    <nd ref="775768812"/>
    <nd ref="7265588529"/>
    <nd ref="775768864"/>
    <nd ref="295883215"/>
    <nd ref="775768865"/>
    <nd ref="775768866"/>
    <nd ref="775768867"/>
    <nd ref="295883197"/>
    <tag k="highway" v="unclassified"/>
    <tag k="name" v="Coronation Road"/>
  </way>
  <way id="124424945" version="4" timestamp="2014-09-25T19:16:37Z" changeset="25671757" uid="24119" user="Mauls">
    <nd ref="775768858"/>
    <nd ref="775768857"/>
    <tag k="bridge" v="yes"/>
    <tag k="highway" v="unclassified"/>
    <tag k="layer" v="1"/>
    <tag k="name" v="Coronation Road"/>
  </way>
  <way id="124424946" version="3" timestamp="2013-10-10T15:34:53Z" changeset="18283159" uid="9065" user="brianboru">
    <nd ref="295883210"/>
    <nd ref="1384970546"/>
    <nd ref="775768858"/>
    <tag k="highway" v="unclassified"/>
    <tag k="name" v="Coronation Road"/>
  </way>
  <way id="148310036" version="21" timestamp="2021-07-30T09:45:00Z" changeset="108879597" uid="10170582" user="priymose">
    <nd ref="295883168"/>
    <nd ref="1614176348"/>
    <nd ref="1614176349"/>
    <nd ref="331275364"/>
    <nd ref="1614176350"/>
    <nd ref="6817585359"/>
    <nd ref="1614176351"/>
    <nd ref="1614176352"/>
    <nd ref="1614176353"/>
    <nd ref="1614176354"/>
    <nd ref="1614176355"/>
    <nd ref="1614176356"/>
    <nd ref="7151183724"/>
    <nd ref="295883170"/>
    <nd ref="7151183725"/>
    <nd ref="7151183726"/>
    <nd ref="1614176357"/>
    <nd ref="1614176358"/>
    <nd ref="1614176359"/>
    <nd ref="1614176360"/>
    <nd ref="2612522865"/>
    <nd ref="1614176361"/>
    <nd ref="1614176362"/>
    <nd ref="2497198636"/>
    <nd ref="1614176363"/>
    <nd ref="1614176364"/>
    <nd ref="778633532"/>
    <nd ref="1614176365"/>
    <nd ref="778633346"/>
    <nd ref="1614176366"/>
    <nd ref="6527988341"/>
    <nd ref="1614176367"/>
    <nd ref="7690882242"/>
    <nd ref="1614176368"/>
    <nd ref="6694956830"/>
    <nd ref="6550665248"/>
    <nd ref="1614176369"/>
    <nd ref="1614176370"/>
    <nd ref="1614176371"/>
    <nd ref="2497214333"/>
    <nd ref="6881539173"/>
    <nd ref="1614176372"/>
    <nd ref="1614176373"/>
    <nd ref="8950989555"/>
    <nd ref="295883200"/>
    <nd ref="1614176374"/>
    <nd ref="1614176375"/>
    <nd ref="1614176376"/>
    <nd ref="1614176377"/>
    <nd ref="1614176378"/>
    <nd ref="1614176379"/>
    <nd ref="8256949004"/>
    <nd ref="1614176380"/>
    <nd ref="2496076281"/>
    <nd ref="1614176381"/>
    <nd ref="2496076286"/>
    <nd ref="1614176382"/>
    <nd ref="6890229659"/>
    <nd ref="8962715550"/>
    <nd ref="1614176383"/>
    <nd ref="2496076343"/>
    <nd ref="1581103308"/>
    <nd ref="1614176384"/>
    <nd ref="2496076374"/>
    <nd ref="1614176385"/>
    <nd ref="1614176386"/>
    <nd ref="1614176387"/>
    <nd ref="8025717702"/>
    <nd ref="1614176388"/>
    <nd ref="1614176389"/>
    <nd ref="1614176390"/>
    <nd ref="1068489592"/>
    <nd ref="1614176391"/>
    <nd ref="1614176392"/>
    <nd ref="1614176393"/>
    <nd ref="2496076436"/>
    <nd ref="1614176394"/>
    <nd ref="7926867189"/>
    <nd ref="350519300"/>
    <tag k="highway" v="tertiary"/>
    <tag k="lanes" v="1"/>
    <tag k="name" v="Lawford Heath Lane"/>
    <tag k="source" v="OS_OpenData_StreetView"/>
  </way>
  <way id="240367464" version="4" timestamp="2023-11-30T20:41:20Z" changeset="144639610" uid="504708" user="HillWithSmallFields">
    <nd ref="2481111920"/>
    <nd ref="2481111921"/>
    <nd ref="2481111924"/>
    <nd ref="2481111925"/>
    <nd ref="2481111923"/>
    <nd ref="2481111927"/>
    <nd ref="2481111922"/>
    <nd ref="2481111926"/>
    <nd ref="2481111918"/>
    <nd ref="2481111917"/>
    <nd ref="2481111914"/>
    <nd ref="2481111909"/>
    <nd ref="2481111912"/>
    <nd ref="2481111911"/>
    <nd ref="2481111915"/>
    <nd ref="2481111916"/>
    <nd ref="2481111920"/>
    <tag k="amenity" v="place_of_worship"/>
    <tag k="building" v="church"/>
    <tag k="denomination" v="anglican"/>
    <tag k="name" v="St Peter"/>
    <tag k="ref:dove" v="14823"/>
    <tag k="religion" v="christian"/>
    <tag k="source" v="bing"/>
    <tag k="website" v="http://www.wolston.org/stpeterschurchlawford.htm"/>
    <tag k="wikidata" v="Q26286460"/>
  </way>
  <way id="240853337" version="4" timestamp="2025-08-30T22:20:18Z" changeset="171247650" uid="13247722" user="TheCanMan">
    <nd ref="2485413273"/>
    <nd ref="331272524"/>
    <tag k="highway" v="primary"/>
    <tag k="lanes" v="2"/>
    <tag k="lanes:backward" v="1"/>
    <tag k="lanes:forward" v="1"/>
    <tag k="maxspeed" v="40 mph"/>
    <tag k="name" v="Rugby Road"/>
    <tag k="ref" v="A428"/>
    <tag k="surface" v="asphalt"/>
  </way>
  <way id="240853338" version="2" timestamp="2018-12-14T20:53:41Z" changeset="65485315" uid="9065" user="brianboru">
    <nd ref="2485413273"/>
    <nd ref="2485413274"/>
    <nd ref="6138090956"/>
    <nd ref="307824948"/>
    <nd ref="307824952"/>
    <tag k="highway" v="unclassified"/>
    <tag k="name" v="School Street"/>
  </way>
  <way id="242205385" version="2" timestamp="2013-10-15T12:08:08Z" changeset="18367432" uid="9065" user="brianboru">
    <nd ref="2497198709"/>
    <nd ref="2497198697"/>
    <nd ref="2497198693"/>
    <nd ref="2497198700"/>
    <nd ref="2497198704"/>
    <nd ref="2497198706"/>
    <nd ref="2497198709"/>
    <tag k="building" v="industrial"/>
    <tag k="name" v="Gas Management Plant"/>
    <tag k="source" v="bing"/>
  </way>
  <way id="382646305" version="3" timestamp="2017-04-29T16:32:45Z" changeset="48258464" uid="1778799" user="SomeoneElse_Revert">
    <nd ref="307824924"/>
    <nd ref="3858635391"/>
    <tag k="bridge" v="yes"/>
    <tag k="highway" v="unclassified"/>
    <tag k="name" v="Kings Newnham Road"/>
    <tag k="source" v="survey+gps"/>
  </way>
  <way id="382646306" version="3" timestamp="2019-09-12T15:54:10Z" changeset="74399753" uid="9065" user="brianboru">
    <nd ref="3858635391"/>
    <nd ref="3858635393"/>
    <nd ref="331272521"/>
    <nd ref="1602474245"/>
    <nd ref="307824926"/>
    <nd ref="4838784761"/>
    <nd ref="307824929"/>
    <nd ref="307824931"/>
    <nd ref="775768273"/>
    <nd ref="307824934"/>
    <nd ref="6790733035"/>
    <nd ref="775768891"/>
    <tag k="highway" v="unclassified"/>
    <tag k="name" v="Kings Newnham Road"/>
    <tag k="source" v="survey+gps"/>
  </way>
  <way id="431076329" version="2" timestamp="2017-05-16T20:30:20Z" changeset="48745104" uid="3877019" user="piligab">
    <nd ref="295883197"/>
    <nd ref="775767526"/>
    <nd ref="295883198"/>
    <nd ref="775767529"/>
    <nd ref="1068489559"/>
    <nd ref="295883199"/>
    <nd ref="295883200"/>
    <tag k="highway" v="unclassified"/>
    <tag k="maxweight" v="7.5"/>
    <tag k="maxweight:conditional" v="none @ destination"/>
    <tag k="name" v="Ling Lane"/>
    <tag k="source" v="OS OpenData StreetView"/>
  </way>
  <way id="482683334" version="2" timestamp="2025-08-16T10:47:10Z" changeset="170517108" uid="5589" user="user_5589">
    <nd ref="13783697"/>
    <nd ref="305112"/>
    <tag k="highway" v="primary"/>
    <tag k="maxheight" v="3.8"/>
    <tag k="name" v="Coventry Road"/>
    <tag k="ref" v="A428"/>
    <tag k="surface" v="asphalt"/>
  </way>
  <way id="482683335" version="2" timestamp="2025-08-16T10:47:13Z" changeset="170517108" uid="5589" user="user_5589">
    <nd ref="305112"/>
    <nd ref="1686153760"/>
    <tag k="highway" v="primary"/>
    <tag k="maxheight" v="3.8"/>
    <tag k="name" v="Rugby Road"/>
    <tag k="ref" v="A428"/>
    <tag k="surface" v="asphalt"/>
  </way>
  <way id="491790273" version="2" timestamp="2019-09-12T15:54:10Z" changeset="74399753" uid="9065" user="brianboru">
    <nd ref="4838784761"/>
    <nd ref="4838784764"/>
    <nd ref="4838784762"/>
    <nd ref="6790784236"/>
    <tag k="highway" v="residential"/>
    <tag k="name" v="King's Newnham View"/>
    <tag k="source" v="GPS survey"/>
  </way>
  <way id="655094711" version="1" timestamp="2018-12-14T20:53:37Z" changeset="65485315" uid="9065" user="brianboru">
    <nd ref="6138091039"/>
    <nd ref="6138091038"/>
    <nd ref="6138091037"/>
    <nd ref="6138091036"/>
    <nd ref="6138091035"/>
    <nd ref="6138091034"/>
    <nd ref="6138091033"/>
    <nd ref="6138091032"/>
    <nd ref="6138091031"/>
    <nd ref="6138091030"/>
    <nd ref="6138091039"/>
    <tag k="amenity" v="pub"/>
    <tag k="building" v="yes"/>
    <tag k="name" v="The Old Smithy"/>
    <tag k="source" v="Warwicks CC Aerial Imagery 2013"/>
  </way>
  <way id="655974159" version="2" timestamp="2021-03-29T22:42:35Z" changeset="101943113" uid="493595" user="Yorvik Prestigitator">
    <nd ref="6145391169"/>
    <nd ref="6145391168"/>
    <nd ref="6145391167"/>
    <nd ref="6145391166"/>
    <nd ref="6145391165"/>
    <nd ref="6145391164"/>
    <nd ref="6145391163"/>
    <nd ref="6145391162"/>
    <nd ref="6145391169"/>
    <tag k="amenity" v="community_centre"/>
    <tag k="building" v="public"/>
    <tag k="community_centre" v="village_hall"/>
    <tag k="name" v="Church Lawford Village Hall"/>
    <tag k="source" v="Warwicks CC Aerial Imagery 2013"/>
  </way>
  <way id="691028305" version="2" timestamp="2019-09-12T15:54:10Z" changeset="74399753" uid="9065" user="brianboru">
    <nd ref="6483759642"/>
    <nd ref="6483759643"/>
    <nd ref="6790734783"/>
    <nd ref="6483759644"/>
    <nd ref="6483759645"/>
    <tag k="highway" v="residential"/>
  </way>
  <way id="724077760" version="1" timestamp="2019-09-12T15:54:09Z" changeset="74399753" uid="9065" user="brianboru">
    <nd ref="6790785305"/>
    <nd ref="6790789360"/>
    <tag k="highway" v="residential"/>
    <tag k="name" v="Fitzalan Close"/>
    <tag k="source" v="Warwicks CC Aerial Imagery 2013"/>
  </way>
  <way id="724077768" version="1" timestamp="2019-09-12T15:54:09Z" changeset="74399753" uid="9065" user="brianboru">
    <nd ref="775768275"/>
    <nd ref="6790785346"/>
    <tag k="highway" v="residential"/>
    <tag k="name" v="Dalton Close"/>
    <tag k="source" v="Warwicks CC Aerial Imagery 2013"/>
  </way>
  <way id="724077781" version="1" timestamp="2019-09-12T15:54:09Z" changeset="74399753" uid="9065" user="brianboru">
    <nd ref="4838784764"/>
    <nd ref="4838784765"/>
    <tag k="highway" v="residential"/>
    <tag k="name" v="King's Newnham View"/>
    <tag k="source" v="GPS survey"/>
  </way>
  <way id="724077782" version="1" timestamp="2019-09-12T15:54:09Z" changeset="74399753" uid="9065" user="brianboru">
    <nd ref="4838784762"/>
    <nd ref="4838784763"/>
    <tag k="highway" v="residential"/>
    <tag k="name" v="King's Newnham View"/>
  </way>
  <way id="865743842" version="4" timestamp="2025-08-16T10:49:05Z" changeset="170517240" uid="5589" user="user_5589">
    <nd ref="6338490700"/>
    <nd ref="2496080559"/>
    <nd ref="13783741"/>
    <nd ref="2496080560"/>
    <nd ref="13783740"/>
    <nd ref="13783734"/>
    <nd ref="13783739"/>
    <nd ref="13783735"/>
    <nd ref="13783738"/>
    <nd ref="13783737"/>
    <nd ref="13783736"/>
    <nd ref="13783731"/>
    <nd ref="13783732"/>
    <nd ref="6994709302"/>
    <nd ref="13783729"/>
    <nd ref="350519300"/>
    <nd ref="13783728"/>
    <nd ref="6338490153"/>
    <nd ref="13783727"/>
    <nd ref="6994709338"/>
    <nd ref="6338490152"/>
    <nd ref="6338490151"/>
    <nd ref="13783720"/>
    <nd ref="13783726"/>
    <nd ref="13783724"/>
    <nd ref="13783721"/>
    <nd ref="13783723"/>
    <nd ref="2481096065"/>
    <nd ref="13783722"/>
    <nd ref="13783716"/>
    <nd ref="13783718"/>
    <nd ref="13783719"/>
    <nd ref="13783715"/>
    <nd ref="13783714"/>
    <nd ref="2496076539"/>
    <nd ref="1068489469"/>
    <nd ref="10278152023"/>
    <nd ref="13783709"/>
    <nd ref="13783707"/>
    <nd ref="13783700"/>
    <nd ref="13783702"/>
    <nd ref="13783701"/>
    <nd ref="13783697"/>
    <tag k="highway" v="primary"/>
    <tag k="lanes" v="2"/>
    <tag k="lanes:backward" v="1"/>
    <tag k="lanes:forward" v="1"/>
    <tag k="name" v="Coventry Road"/>
    <tag k="ref" v="A428"/>
    <tag k="surface" v="asphalt"/>
  </way>
  <way id="1426111895" version="1" timestamp="2025-08-30T22:20:18Z" changeset="171247650" uid="13247722" user="TheCanMan">
    <nd ref="331272524"/>
    <nd ref="8110145759"/>
    <nd ref="13783687"/>
    <nd ref="13109326074"/>
    <tag k="highway" v="primary"/>
    <tag k="lanes" v="2"/>
    <tag k="lanes:backward" v="1"/>
    <tag k="lanes:forward" v="1"/>
    <tag k="maxspeed" v="40 mph"/>
    <tag k="name" v="Coventry Road"/>
    <tag k="ref" v="A428"/>
    <tag k="surface" v="asphalt"/>
  </way>

</osm>
