<?xml version="1.0" encoding="UTF-8"?>
<osm version="0.6" generator="Overpass API 0.7.62.8 e802775f">
<note>The data included in this document is from www.openstreetmap.org. The data is made available under ODbL.</note>
<meta osm_base="2025-10-23T17:32:45Z" areas="2025-10-23T12:46:58Z"/>

  <node id="21132313" lat="52.3023025" lon="-1.3980587" version="3" timestamp="2013-10-22T14:12:30Z" changeset="18486923" uid="9065" user="brianboru"/>
  <node id="262832475" lat="52.2870493" lon="-1.4517696" version="4" timestamp="2023-08-15T19:32:50Z" changeset="139931598" uid="705850" user="Cebderby"/>
  <node id="271926253" lat="52.2638875" lon="-1.4191480" version="2" timestamp="2009-10-06T03:23:08Z" changeset="2756738" uid="22445" user="PhilH"/>
  <node id="274767273" lat="52.3104251" lon="-1.3687892" version="8" timestamp="2022-10-10T12:15:03Z" changeset="127300083" uid="17372103" user="morganthomas757"/>
  <node id="274771317" lat="52.2788890" lon="-1.3763120" version="3" timestamp="2013-10-16T10:32:47Z" changeset="18383624" uid="69984" user="richardwest"/>
  <node id="274780784" lat="52.2937079" lon="-1.4255603" version="2" timestamp="2013-08-28T07:53:10Z" changeset="17549702" uid="9065" user="brianboru"/>
  <node id="281470154" lat="52.2931273" lon="-1.3647312" version="2" timestamp="2013-10-28T11:36:06Z" changeset="18582690" uid="9065" user="brianboru"/>
  <node id="1604772128" lat="52.2616315" lon="-1.3898374" version="3" timestamp="2024-09-29T22:59:21Z" changeset="157273477" uid="230654" user="C2L"/>
  <node id="1834099526" lat="52.2512602" lon="-1.4124834" version="2" timestamp="2012-07-31T08:10:16Z" changeset="12557960" uid="441436" user="Ben1979"/>
  <node id="2285966224" lat="52.2506988" lon="-1.4112555" version="1" timestamp="2013-04-29T18:34:03Z" changeset="15912054" uid="9065" user="brianboru"/>
  <node id="8267354067" lat="52.2576234" lon="-1.3994949" version="1" timestamp="2020-12-28T16:37:23Z" changeset="96548997" uid="9090299" user="AdamLWilliams"/>
  <way id="25013483" version="15" timestamp="2025-08-17T19:15:24Z" changeset="170583360" uid="13247722" user="TheCanMan">
    <nd ref="271926253"/>
    <nd ref="271926254"/>
    <nd ref="271926255"/>
    <nd ref="2475032985"/>
    <nd ref="271926256"/>
    <nd ref="2435150297"/>
    <nd ref="2435150291"/>
    <nd ref="2435150285"/>
    <nd ref="2435150280"/>
    <nd ref="271926257"/>
    <nd ref="2020530121"/>
    <nd ref="2275727332"/>
    <nd ref="271926258"/>
    <nd ref="2275727323"/>
    <nd ref="2275727319"/>
    <nd ref="2275727309"/>
    <nd ref="2275727300"/>
    <nd ref="271926259"/>
    <nd ref="2275727298"/>
    <nd ref="2275727295"/>
    <nd ref="2275727294"/>
    <nd ref="2273001620"/>
    <nd ref="2275727289"/>
    <nd ref="2273001606"/>
    <nd ref="2275727275"/>
    <nd ref="2273001600"/>
    <nd ref="2273001585"/>
    <nd ref="2273001573"/>
    <nd ref="271926260"/>
    <nd ref="2273001520"/>
    <nd ref="2273001518"/>
    <nd ref="2273001515"/>
    <nd ref="2273001511"/>
    <nd ref="2273001500"/>
    <nd ref="2273001482"/>
    <nd ref="2273001476"/>
    <nd ref="8266107937"/>
    <nd ref="271926261"/>
    <nd ref="8266107942"/>
    <nd ref="271926262"/>
    <nd ref="2272066397"/>
    <nd ref="271927019"/>
    <tag k="highway" v="unclassified"/>
    <tag k="maxspeed" v="40 mph"/>
  </way>
  <way id="25013736" version="28" timestamp="2024-11-02T10:15:02Z" changeset="158651490" uid="21081459" user="Flynn_">
    <nd ref="8267354067"/>
    <nd ref="271928632"/>
    <nd ref="271928633"/>
    <nd ref="2435282640"/>
    <nd ref="271928634"/>
    <nd ref="2435282646"/>
    <nd ref="1306014688"/>
    <nd ref="1306014687"/>
    <nd ref="2435282652"/>
    <nd ref="271928635"/>
    <nd ref="271928636"/>
    <nd ref="2435282660"/>
    <nd ref="8256065499"/>
    <nd ref="2435282661"/>
    <nd ref="6581268622"/>
    <nd ref="2435282663"/>
    <nd ref="271928637"/>
    <nd ref="2435150171"/>
    <nd ref="2435282664"/>
    <nd ref="271928638"/>
    <nd ref="271928639"/>
    <nd ref="2275938087"/>
    <nd ref="2275938089"/>
    <nd ref="271928640"/>
    <nd ref="2275938093"/>
    <nd ref="2275938104"/>
    <nd ref="2275938110"/>
    <nd ref="2275938123"/>
    <nd ref="2275938127"/>
    <nd ref="2275938133"/>
    <nd ref="2275938142"/>
    <nd ref="2275938157"/>
    <nd ref="271928641"/>
    <nd ref="2275938198"/>
    <nd ref="2275938239"/>
    <nd ref="2275938251"/>
    <nd ref="2275938257"/>
    <nd ref="271928642"/>
    <nd ref="1845029781"/>
    <nd ref="2275871523"/>
    <nd ref="2275871526"/>
    <nd ref="2275871527"/>
    <nd ref="2275871531"/>
    <nd ref="2275871533"/>
    <nd ref="2275871535"/>
    <nd ref="271928643"/>
    <nd ref="271928644"/>
    <nd ref="2435282698"/>
    <nd ref="271928645"/>
    <nd ref="2435282715"/>
    <nd ref="2475032992"/>
    <nd ref="2479163261"/>
    <nd ref="2475032999"/>
    <nd ref="271928646"/>
    <nd ref="271926253"/>
    <tag k="highway" v="tertiary"/>
    <tag k="maxspeed" v="50 mph"/>
    <tag k="name" v="Welsh Road West"/>
    <tag k="sidewalk" v="no"/>
  </way>
  <way id="25201138" version="6" timestamp="2011-09-03T17:18:53Z" changeset="9202156" uid="154484" user="PeterP">
    <nd ref="274771317"/>
    <nd ref="255673227"/>
    <tag k="highway" v="tertiary"/>
    <tag k="name" v="Stockton Road"/>
  </way>
  <way id="25201238" version="10" timestamp="2025-08-18T20:27:56Z" changeset="170639268" uid="13247722" user="TheCanMan">
    <nd ref="274771343"/>
    <nd ref="2321327814"/>
    <nd ref="1384405096"/>
    <nd ref="1384405095"/>
    <nd ref="262832543"/>
    <nd ref="2321327816"/>
    <nd ref="2321327817"/>
    <nd ref="262832544"/>
    <nd ref="2321327821"/>
    <nd ref="2321327823"/>
    <nd ref="2321327825"/>
    <nd ref="2321327826"/>
    <nd ref="2321327828"/>
    <nd ref="262832545"/>
    <nd ref="2321327832"/>
    <nd ref="1374619335"/>
    <tag k="highway" v="unclassified"/>
    <tag k="maxspeed" v="60 mph"/>
    <tag k="name" v="Stonebridge Lane"/>
  </way>
  <way id="25201602" version="14" timestamp="2024-09-29T22:59:21Z" changeset="157273477" uid="230654" user="C2L">
    <nd ref="274767273"/>
    <nd ref="6957924330"/>
    <nd ref="6957951167"/>
    <nd ref="274780728"/>
    <nd ref="899513607"/>
    <nd ref="8069694902"/>
    <nd ref="6957951163"/>
    <nd ref="274780734"/>
    <nd ref="8069694901"/>
    <nd ref="274780736"/>
    <nd ref="2511413799"/>
    <nd ref="2511413795"/>
    <nd ref="2329805974"/>
    <nd ref="274780738"/>
    <nd ref="2511413781"/>
    <nd ref="2511413778"/>
    <nd ref="274780741"/>
    <nd ref="2512731382"/>
    <nd ref="274780742"/>
    <nd ref="2512731378"/>
    <nd ref="274780745"/>
    <nd ref="2512735764"/>
    <nd ref="274780747"/>
    <nd ref="6902661813"/>
    <nd ref="274780749"/>
    <nd ref="2511413718"/>
    <nd ref="274780751"/>
    <nd ref="2329805822"/>
    <nd ref="274780754"/>
    <nd ref="274780756"/>
    <nd ref="2511413706"/>
    <nd ref="274780758"/>
    <nd ref="2511413710"/>
    <nd ref="2511413709"/>
    <nd ref="274780760"/>
    <nd ref="2512735143"/>
    <nd ref="12209901691"/>
    <nd ref="12209901690"/>
    <nd ref="12209901692"/>
    <nd ref="274780762"/>
    <tag k="highway" v="unclassified"/>
    <tag k="source" v="survey"/>
  </way>
  <way id="25201603" version="8" timestamp="2025-08-18T20:27:56Z" changeset="170639268" uid="13247722" user="TheCanMan">
    <nd ref="12209901693"/>
    <nd ref="12209901694"/>
    <nd ref="12209901695"/>
    <nd ref="12209901696"/>
    <nd ref="12209901697"/>
    <nd ref="12209901698"/>
    <nd ref="274780764"/>
    <nd ref="274780766"/>
    <nd ref="2505001791"/>
    <nd ref="2505001790"/>
    <nd ref="2505001786"/>
    <nd ref="274780768"/>
    <nd ref="2505001751"/>
    <nd ref="10275967651"/>
    <nd ref="274780769"/>
    <nd ref="2505001739"/>
    <nd ref="274780770"/>
    <nd ref="2505001726"/>
    <nd ref="10275967632"/>
    <nd ref="274780771"/>
    <nd ref="2505001715"/>
    <nd ref="4743616905"/>
    <nd ref="274780773"/>
    <nd ref="274780774"/>
    <nd ref="274780776"/>
    <tag k="cycleway:both" v="no"/>
    <tag k="highway" v="unclassified"/>
    <tag k="maxspeed" v="60 mph"/>
    <tag k="name" v="Shakers Lane"/>
    <tag k="source" v="survey"/>
    <tag k="surface" v="asphalt"/>
  </way>
  <way id="25201604" version="11" timestamp="2025-08-18T20:22:46Z" changeset="170639110" uid="13247722" user="TheCanMan">
    <nd ref="274780776"/>
    <nd ref="2479172776"/>
    <nd ref="2505001688"/>
    <nd ref="274780779"/>
    <nd ref="2479172781"/>
    <nd ref="2479172780"/>
    <nd ref="274780781"/>
    <nd ref="10275184732"/>
    <nd ref="2505001679"/>
    <nd ref="10275184730"/>
    <nd ref="10275184731"/>
    <nd ref="274780783"/>
    <nd ref="2434895400"/>
    <nd ref="274780784"/>
    <nd ref="2434895398"/>
    <nd ref="2434895397"/>
    <nd ref="2434895396"/>
    <nd ref="4075772016"/>
    <nd ref="274780785"/>
    <tag k="highway" v="tertiary"/>
    <tag k="maxspeed" v="60 mph"/>
    <tag k="source" v="survey"/>
  </way>
  <way id="25558749" version="14" timestamp="2025-08-17T19:15:24Z" changeset="170583360" uid="13247722" user="TheCanMan">
    <nd ref="271926253"/>
    <nd ref="278579399"/>
    <nd ref="278579400"/>
    <nd ref="1845029805"/>
    <tag k="highway" v="unclassified"/>
    <tag k="maxspeed" v="50 mph"/>
    <tag k="ref" v="¿C97?"/>
  </way>
  <way id="25558765" version="9" timestamp="2025-08-18T20:22:46Z" changeset="170639110" uid="13247722" user="TheCanMan">
    <nd ref="278579825"/>
    <nd ref="2321327872"/>
    <nd ref="4743616888"/>
    <nd ref="1468692682"/>
    <tag k="highway" v="unclassified"/>
    <tag k="maxspeed" v="30 mph"/>
    <tag k="name" v="Short Lane"/>
  </way>
  <way id="25558856" version="7" timestamp="2025-08-18T20:22:46Z" changeset="170639110" uid="13247722" user="TheCanMan">
    <nd ref="274780784"/>
    <nd ref="278581138"/>
    <nd ref="278581139"/>
    <nd ref="278581140"/>
    <nd ref="278581141"/>
    <nd ref="2479790630"/>
    <nd ref="2479790649"/>
    <nd ref="2479790651"/>
    <nd ref="278581142"/>
    <nd ref="2479790653"/>
    <nd ref="278581143"/>
    <nd ref="2479790657"/>
    <nd ref="2479790660"/>
    <nd ref="278581144"/>
    <nd ref="2479790662"/>
    <nd ref="2479790665"/>
    <nd ref="278581145"/>
    <nd ref="278581147"/>
    <nd ref="2479790682"/>
    <nd ref="2479790696"/>
    <nd ref="2479790702"/>
    <nd ref="278581148"/>
    <nd ref="278581149"/>
    <nd ref="2510208648"/>
    <nd ref="9041007340"/>
    <nd ref="278581150"/>
    <nd ref="2320179997"/>
    <nd ref="278581151"/>
    <nd ref="278580795"/>
    <tag k="highway" v="tertiary"/>
    <tag k="maxspeed" v="60 mph"/>
  </way>
  <way id="25805020" version="13" timestamp="2024-09-29T22:59:21Z" changeset="157273477" uid="230654" user="C2L">
    <nd ref="281470154"/>
    <nd ref="10270292315"/>
    <nd ref="2511413658"/>
    <nd ref="281470654"/>
    <nd ref="281470655"/>
    <nd ref="281470656"/>
    <nd ref="281470657"/>
    <nd ref="2511379940"/>
    <nd ref="2511379938"/>
    <nd ref="2511379939"/>
    <nd ref="281470658"/>
    <nd ref="281470659"/>
    <nd ref="2511379945"/>
    <nd ref="2511379944"/>
    <nd ref="281470660"/>
    <nd ref="2511379932"/>
    <nd ref="281470661"/>
    <nd ref="2511379925"/>
    <nd ref="6774668355"/>
    <nd ref="281470662"/>
    <nd ref="2511379903"/>
    <nd ref="281470663"/>
    <nd ref="281470664"/>
    <nd ref="2511379885"/>
    <nd ref="281470665"/>
    <nd ref="281470666"/>
    <nd ref="8070067265"/>
    <nd ref="281470667"/>
    <nd ref="8070067283"/>
    <nd ref="281470668"/>
    <nd ref="2511379826"/>
    <nd ref="281470669"/>
    <nd ref="281470670"/>
    <nd ref="281470671"/>
    <nd ref="6504097388"/>
    <nd ref="281470672"/>
    <nd ref="281470673"/>
    <nd ref="12209934830"/>
    <nd ref="12209934831"/>
    <nd ref="5896883953"/>
    <nd ref="12209934832"/>
    <nd ref="5896883952"/>
    <tag k="highway" v="unclassified"/>
    <tag k="name" v="Collingham Lane"/>
  </way>
  <way id="25833762" version="6" timestamp="2020-12-18T06:03:23Z" changeset="96044195" uid="10170582" user="priymose">
    <nd ref="281782457"/>
    <nd ref="281782565"/>
    <nd ref="7694760858"/>
    <nd ref="8239433724"/>
    <nd ref="2479790518"/>
    <nd ref="7203611799"/>
    <nd ref="281782566"/>
    <tag k="cycleway" v="track"/>
    <tag k="foot" v="yes"/>
    <tag k="highway" v="unclassified"/>
    <tag k="name" v="Ridgeway Lane"/>
  </way>
  <way id="26478023" version="10" timestamp="2025-08-18T20:22:46Z" changeset="170639110" uid="13247722" user="TheCanMan">
    <nd ref="262832686"/>
    <nd ref="6350045509"/>
    <nd ref="4694418982"/>
    <nd ref="4694418972"/>
    <nd ref="887158573"/>
    <nd ref="4692807308"/>
    <nd ref="290183869"/>
    <nd ref="6503939226"/>
    <nd ref="887158597"/>
    <nd ref="2940213996"/>
    <nd ref="1808277942"/>
    <nd ref="278580066"/>
    <tag k="highway" v="tertiary"/>
    <tag k="maxspeed" v="30 mph"/>
    <tag k="name" v="Leamington Road"/>
  </way>
  <way id="26478035" version="7" timestamp="2024-08-16T23:08:54Z" changeset="155347442" uid="5589" user="user_5589">
    <nd ref="290183788"/>
    <nd ref="2265747385"/>
    <nd ref="290183787"/>
    <tag k="cycleway:both" v="no"/>
    <tag k="highway" v="tertiary"/>
    <tag k="maxspeed" v="30 mph"/>
    <tag k="name" v="The Green"/>
    <tag k="surface" v="asphalt"/>
  </way>
  <way id="33419722" version="7" timestamp="2025-08-18T20:22:46Z" changeset="170639110" uid="13247722" user="TheCanMan">
    <nd ref="274780785"/>
    <nd ref="6544369198"/>
    <nd ref="7837006642"/>
    <nd ref="7837006640"/>
    <nd ref="2479776164"/>
    <nd ref="274780787"/>
    <nd ref="2479776153"/>
    <nd ref="2479776146"/>
    <nd ref="274780788"/>
    <nd ref="8411207818"/>
    <nd ref="2479776138"/>
    <nd ref="274780790"/>
    <nd ref="281782457"/>
    <nd ref="274780791"/>
    <nd ref="2479790495"/>
    <nd ref="274780793"/>
    <nd ref="274780794"/>
    <tag k="highway" v="tertiary"/>
    <tag k="maxspeed" v="60 mph"/>
    <tag k="name" v="Snowford Hill"/>
    <tag k="source" v="survey"/>
  </way>
  <way id="33534855" version="12" timestamp="2024-09-29T22:59:21Z" changeset="157273477" uid="230654" user="C2L">
    <nd ref="21132284"/>
    <nd ref="12209934836"/>
    <nd ref="382608726"/>
    <tag k="bridge" v="yes"/>
    <tag k="bridge:name" v="Cuttle Bridge"/>
    <tag k="bridge:ref" v="25"/>
    <tag k="highway" v="trunk"/>
    <tag k="lanes" v="2"/>
    <tag k="layer" v="1"/>
    <tag k="maxspeed" v="40 mph"/>
    <tag k="maxweight:signed" v="no"/>
    <tag k="name" v="Oxford Road"/>
    <tag k="oneway" v="no"/>
    <tag k="ref" v="A423"/>
    <tag k="shoulder" v="no"/>
  </way>
  <way id="33534856" version="21" timestamp="2024-09-29T22:59:21Z" changeset="157273477" uid="230654" user="C2L">
    <nd ref="382608726"/>
    <nd ref="471232118"/>
    <nd ref="1293388492"/>
    <nd ref="1293388464"/>
    <nd ref="12209934835"/>
    <nd ref="1293388489"/>
    <nd ref="21132286"/>
    <nd ref="2265747256"/>
    <nd ref="21132287"/>
    <nd ref="1808277139"/>
    <nd ref="12209934834"/>
    <nd ref="21132290"/>
    <nd ref="1808277588"/>
    <nd ref="12209934833"/>
    <nd ref="1808277602"/>
    <nd ref="1808277630"/>
    <nd ref="12209934826"/>
    <nd ref="21132292"/>
    <nd ref="1808277682"/>
    <nd ref="12209934825"/>
    <nd ref="12209934824"/>
    <nd ref="21132294"/>
    <nd ref="6777204802"/>
    <nd ref="887158711"/>
    <nd ref="12209934823"/>
    <nd ref="21132275"/>
    <nd ref="12209934822"/>
    <nd ref="4692864793"/>
    <nd ref="21132295"/>
    <nd ref="2265747359"/>
    <nd ref="21132296"/>
    <tag k="highway" v="trunk"/>
    <tag k="lanes" v="2"/>
    <tag k="maxspeed" v="30 mph"/>
    <tag k="name" v="Southam Road"/>
    <tag k="oneway" v="no"/>
    <tag k="ref" v="A423"/>
  </way>
  <way id="33534857" version="7" timestamp="2025-08-18T20:32:28Z" changeset="170639388" uid="13247722" user="TheCanMan">
    <nd ref="278579413"/>
    <nd ref="278579414"/>
    <tag k="bridge" v="yes"/>
    <tag k="bridge_ref" v="27"/>
    <tag k="highway" v="unclassified"/>
    <tag k="highway_authority_ref" v="C97"/>
    <tag k="layer" v="1"/>
    <tag k="maxspeed" v="50 mph"/>
  </way>
  <way id="33534858" version="11" timestamp="2025-08-18T20:32:28Z" changeset="170639388" uid="13247722" user="TheCanMan">
    <nd ref="278579414"/>
    <nd ref="2674518188"/>
    <nd ref="278579415"/>
    <nd ref="2475059897"/>
    <nd ref="4743621740"/>
    <nd ref="278579416"/>
    <nd ref="2475092762"/>
    <nd ref="12455976036"/>
    <nd ref="1306014684"/>
    <tag k="highway" v="unclassified"/>
    <tag k="highway_authority_ref" v="C97"/>
    <tag k="maxspeed" v="50 mph"/>
    <tag k="name" v="Bascote Road"/>
  </way>
  <way id="42057811" version="11" timestamp="2025-08-17T19:15:24Z" changeset="170583360" uid="13247722" user="TheCanMan">
    <nd ref="271926253"/>
    <nd ref="278578351"/>
    <nd ref="4362600432"/>
    <nd ref="278578348"/>
    <nd ref="278578346"/>
    <nd ref="2276752969"/>
    <nd ref="2276752975"/>
    <nd ref="278578344"/>
    <nd ref="2276752977"/>
    <nd ref="2276752983"/>
    <nd ref="1384388076"/>
    <nd ref="278578342"/>
    <nd ref="2475033136"/>
    <nd ref="278578338"/>
    <nd ref="2276753019"/>
    <nd ref="1384388112"/>
    <nd ref="2276753024"/>
    <nd ref="2276753026"/>
    <nd ref="278578336"/>
    <nd ref="2276753022"/>
    <nd ref="2276753005"/>
    <nd ref="278578334"/>
    <nd ref="2276752999"/>
    <nd ref="2276752997"/>
    <nd ref="8524713345"/>
    <nd ref="2276752995"/>
    <nd ref="278578332"/>
    <nd ref="278578330"/>
    <nd ref="2276753009"/>
    <nd ref="2276753010"/>
    <nd ref="2276753013"/>
    <nd ref="278578328"/>
    <nd ref="2276753028"/>
    <nd ref="278578326"/>
    <nd ref="278578323"/>
    <nd ref="2310451570"/>
    <nd ref="2310451571"/>
    <nd ref="2276753047"/>
    <nd ref="278578321"/>
    <nd ref="2310451573"/>
    <nd ref="2310451574"/>
    <nd ref="2276753048"/>
    <nd ref="382608733"/>
    <tag k="highway" v="tertiary"/>
    <tag k="maxspeed" v="50 mph"/>
    <tag k="name" v="Welsh Road"/>
    <tag k="sidewalk" v="no"/>
  </way>
  <way id="42354644" version="3" timestamp="2019-03-21T20:00:56Z" changeset="68386475" uid="9065" user="brianboru">
    <nd ref="528818656"/>
    <nd ref="528818657"/>
    <nd ref="6352939352"/>
    <nd ref="6352939353"/>
    <nd ref="528818658"/>
    <nd ref="528818659"/>
    <nd ref="6352939355"/>
    <nd ref="528818660"/>
    <nd ref="528818662"/>
    <nd ref="6352939354"/>
    <nd ref="528818663"/>
    <nd ref="6352939356"/>
    <nd ref="528818664"/>
    <nd ref="528818665"/>
    <nd ref="528818657"/>
    <tag k="highway" v="residential"/>
    <tag k="name" v="Wulfstan Drive"/>
    <tag k="surface" v="paved"/>
  </way>
  <way id="42354645" version="4" timestamp="2019-03-21T20:00:56Z" changeset="68386475" uid="9065" user="brianboru">
    <nd ref="528818667"/>
    <nd ref="528818668"/>
    <nd ref="528818669"/>
    <nd ref="528818670"/>
    <nd ref="528818671"/>
    <nd ref="528818672"/>
    <nd ref="6352939403"/>
    <nd ref="6352939404"/>
    <nd ref="6352939400"/>
    <nd ref="528818673"/>
    <nd ref="528818674"/>
    <nd ref="6350044037"/>
    <nd ref="528818675"/>
    <nd ref="528818681"/>
    <nd ref="528818676"/>
    <nd ref="528818677"/>
    <nd ref="528818678"/>
    <nd ref="528818679"/>
    <nd ref="528818680"/>
    <tag k="highway" v="residential"/>
    <tag k="name" v="Leigh Crescent"/>
    <tag k="surface" v="paved"/>
  </way>
  <way id="42354646" version="2" timestamp="2009-10-11T13:38:16Z" changeset="2813859" uid="175311" user="beekeg">
    <nd ref="528818681"/>
    <nd ref="528818682"/>
    <nd ref="528818683"/>
    <nd ref="528818684"/>
    <nd ref="528818685"/>
    <nd ref="528818686"/>
    <nd ref="528818687"/>
    <tag k="highway" v="residential"/>
    <tag k="name" v="Leigh Crescent"/>
    <tag k="surface" v="paved"/>
  </way>
  <way id="42354647" version="4" timestamp="2019-03-21T20:00:56Z" changeset="68386475" uid="9065" user="brianboru">
    <nd ref="528818669"/>
    <nd ref="6350044038"/>
    <nd ref="6352939435"/>
    <nd ref="528818688"/>
    <tag k="highway" v="residential"/>
    <tag k="name" v="Sitwell Avenue"/>
    <tag k="surface" v="paved"/>
  </way>
  <way id="51695651" version="6" timestamp="2025-08-18T20:22:46Z" changeset="170639110" uid="13247722" user="TheCanMan">
    <nd ref="262832686"/>
    <nd ref="290183787"/>
    <tag k="cycleway:both" v="no"/>
    <tag k="highway" v="tertiary"/>
    <tag k="maxspeed" v="30 mph"/>
    <tag k="name" v="The Green"/>
    <tag k="surface" v="asphalt"/>
  </way>
  <way id="51695652" version="7" timestamp="2025-08-18T20:22:46Z" changeset="170639110" uid="13247722" user="TheCanMan">
    <nd ref="13078663780"/>
    <nd ref="1808277956"/>
    <nd ref="1808277961"/>
    <nd ref="1808277973"/>
    <nd ref="278580068"/>
    <nd ref="2479172721"/>
    <nd ref="278580069"/>
    <nd ref="2479172730"/>
    <nd ref="278580070"/>
    <nd ref="2479172737"/>
    <nd ref="2479172744"/>
    <nd ref="2479172750"/>
    <nd ref="278580072"/>
    <nd ref="2479172753"/>
    <nd ref="2479172754"/>
    <nd ref="278580073"/>
    <nd ref="2479172760"/>
    <nd ref="278580074"/>
    <nd ref="2479172766"/>
    <nd ref="2479172767"/>
    <nd ref="2479172770"/>
    <nd ref="274780776"/>
    <tag k="highway" v="tertiary"/>
    <tag k="maxspeed" v="60 mph"/>
  </way>
  <way id="75127100" version="17" timestamp="2025-08-17T18:42:18Z" changeset="170581986" uid="13247722" user="TheCanMan">
    <nd ref="1834099526"/>
    <nd ref="21132183"/>
    <nd ref="2435282031"/>
    <nd ref="21132182"/>
    <nd ref="21132181"/>
    <nd ref="11176400347"/>
    <nd ref="10819687723"/>
    <nd ref="10819687721"/>
    <nd ref="10819687720"/>
    <nd ref="8131978200"/>
    <nd ref="10819687719"/>
    <nd ref="10819687718"/>
    <nd ref="10819687717"/>
    <nd ref="10819687716"/>
    <nd ref="2435282364"/>
    <nd ref="10819687715"/>
    <nd ref="10819687714"/>
    <nd ref="10819687713"/>
    <nd ref="21132171"/>
    <nd ref="21132170"/>
    <tag k="cycleway:both" v="no"/>
    <tag k="highway" v="primary"/>
    <tag k="lanes" v="2"/>
    <tag k="maxspeed" v="30 mph"/>
    <tag k="maxspeed:type" v="sign"/>
    <tag k="name" v="Southam Road"/>
    <tag k="postal_code" v="CV33"/>
    <tag k="ref" v="A425"/>
    <tag k="sidewalk" v="no"/>
    <tag k="source" v="survey"/>
    <tag k="surface" v="asphalt"/>
  </way>
  <way id="75178213" version="1" timestamp="2010-08-29T23:48:15Z" changeset="5631987" uid="44659" user="Phil Shipley">
    <nd ref="887158385"/>
    <nd ref="887158386"/>
    <nd ref="887158391"/>
    <nd ref="887158394"/>
    <nd ref="21132281"/>
    <tag k="highway" v="residential"/>
    <tag k="name" v="The Model Village"/>
  </way>
  <way id="75178218" version="2" timestamp="2019-03-21T20:22:46Z" changeset="68387025" uid="9065" user="brianboru">
    <nd ref="887158386"/>
    <nd ref="887158414"/>
    <tag k="highway" v="residential"/>
    <tag k="name" v="The Model Village"/>
  </way>
  <way id="75178234" version="2" timestamp="2019-05-27T13:37:52Z" changeset="70662352" uid="9065" user="brianboru">
    <nd ref="887158469"/>
    <nd ref="6503993403"/>
    <nd ref="887158474"/>
    <tag k="highway" v="residential"/>
    <tag k="name" v="Sabin Close"/>
  </way>
  <way id="75178235" version="2" timestamp="2017-03-19T18:18:08Z" changeset="46989708" uid="3894992" user="oliver_oliver2000">
    <nd ref="887158484"/>
    <nd ref="887158487"/>
    <nd ref="4743616872"/>
    <nd ref="262832676"/>
    <tag k="highway" v="residential"/>
    <tag k="name" v="Orchard Way"/>
  </way>
  <way id="75178239" version="3" timestamp="2019-05-27T13:37:52Z" changeset="70662352" uid="9065" user="brianboru">
    <nd ref="887158496"/>
    <nd ref="887158484"/>
    <nd ref="887158500"/>
    <tag k="highway" v="residential"/>
    <tag k="name" v="Orchard Way"/>
  </way>
  <way id="75178241" version="2" timestamp="2019-05-27T14:13:13Z" changeset="70663486" uid="9065" user="brianboru">
    <nd ref="887158508"/>
    <nd ref="887158509"/>
    <nd ref="6504097886"/>
    <nd ref="887158512"/>
    <tag k="highway" v="residential"/>
    <tag k="name" v="Dale Close"/>
  </way>
  <way id="75178246" version="3" timestamp="2019-05-27T14:13:13Z" changeset="70663486" uid="9065" user="brianboru">
    <nd ref="887158509"/>
    <nd ref="6504097889"/>
    <nd ref="887158525"/>
    <nd ref="6504097887"/>
    <nd ref="6504097888"/>
    <nd ref="4973894246"/>
    <nd ref="6504097796"/>
    <nd ref="887158527"/>
    <nd ref="6504097795"/>
    <nd ref="887158530"/>
    <tag k="highway" v="residential"/>
    <tag k="name" v="Dale Close"/>
  </way>
  <way id="75178257" version="2" timestamp="2019-05-27T13:18:09Z" changeset="70661690" uid="9065" user="brianboru">
    <nd ref="887158560"/>
    <nd ref="6503939438"/>
    <nd ref="887158563"/>
    <nd ref="6503939439"/>
    <nd ref="887158565"/>
    <nd ref="887158573"/>
    <tag k="highway" v="residential"/>
    <tag k="name" v="Chaters Orchard"/>
  </way>
  <way id="75178259" version="3" timestamp="2019-05-27T13:18:09Z" changeset="70661690" uid="9065" user="brianboru">
    <nd ref="887158583"/>
    <nd ref="6503939224"/>
    <nd ref="887158586"/>
    <nd ref="6503939232"/>
    <nd ref="6503939231"/>
    <nd ref="2505001637"/>
    <nd ref="6503939228"/>
    <nd ref="290183869"/>
    <tag k="highway" v="residential"/>
    <tag k="name" v="Russell Close"/>
  </way>
  <way id="75178263" version="6" timestamp="2024-01-27T21:20:14Z" changeset="146759025" uid="20640449" user="Nathaniel Taulbut">
    <nd ref="2940214267"/>
    <nd ref="2940214268"/>
    <nd ref="887158589"/>
    <nd ref="2940214270"/>
    <nd ref="4973894247"/>
    <nd ref="887158591"/>
    <nd ref="887158597"/>
    <tag k="highway" v="residential"/>
    <tag k="lane_markings" v="no"/>
    <tag k="name" v="Galanos"/>
    <tag k="surface" v="asphalt"/>
  </way>
  <way id="75178267" version="4" timestamp="2019-05-27T13:24:29Z" changeset="70661916" uid="9065" user="brianboru">
    <nd ref="887158605"/>
    <nd ref="2940213993"/>
    <nd ref="2940213994"/>
    <nd ref="6503957276"/>
    <nd ref="887158611"/>
    <nd ref="4973894242"/>
    <nd ref="6503957277"/>
    <nd ref="887158622"/>
    <nd ref="887158624"/>
    <nd ref="4973894243"/>
    <nd ref="6503957280"/>
    <nd ref="4973894244"/>
    <nd ref="6503957279"/>
    <nd ref="887158628"/>
    <nd ref="6503957278"/>
    <nd ref="887158633"/>
    <tag k="highway" v="residential"/>
    <tag k="name" v="Odingsel Drive"/>
  </way>
  <way id="75178269" version="2" timestamp="2019-05-27T13:24:29Z" changeset="70661916" uid="9065" user="brianboru">
    <nd ref="887158624"/>
    <nd ref="6503957281"/>
    <nd ref="887158469"/>
    <nd ref="887158644"/>
    <tag k="highway" v="residential"/>
    <tag k="name" v="Sabin Close"/>
  </way>
  <way id="75178275" version="5" timestamp="2020-09-23T09:36:39Z" changeset="91354954" uid="11734051" user="shamitab">
    <nd ref="887158377"/>
    <nd ref="4692864790"/>
    <nd ref="887158676"/>
    <nd ref="2265747356"/>
    <nd ref="887158677"/>
    <nd ref="6350044921"/>
    <nd ref="7933992375"/>
    <nd ref="6350044920"/>
    <nd ref="887158679"/>
    <tag k="highway" v="residential"/>
    <tag k="name" v="Beechcroft"/>
  </way>
  <way id="75178281" version="1" timestamp="2010-08-29T23:48:23Z" changeset="5631987" uid="44659" user="Phil Shipley">
    <nd ref="887158685"/>
    <nd ref="887158686"/>
    <nd ref="887158677"/>
    <tag k="highway" v="residential"/>
    <tag k="name" v="Beechcroft"/>
  </way>
  <way id="75178283" version="6" timestamp="2020-09-23T09:36:39Z" changeset="91354954" uid="11734051" user="shamitab">
    <nd ref="887158696"/>
    <nd ref="6350083791"/>
    <nd ref="1374619326"/>
    <nd ref="7933992370"/>
    <nd ref="887158697"/>
    <tag k="highway" v="residential"/>
    <tag k="name" v="Thorn Way"/>
  </way>
  <way id="75178288" version="7" timestamp="2022-03-24T10:20:47Z" changeset="118857449" uid="34867" user="SammyTheSnake">
    <nd ref="887158707"/>
    <nd ref="1808277658"/>
    <nd ref="1808277666"/>
    <nd ref="1808277673"/>
    <nd ref="7933992380"/>
    <nd ref="1808277677"/>
    <nd ref="887158708"/>
    <nd ref="887158710"/>
    <nd ref="5896876683"/>
    <nd ref="2265747318"/>
    <nd ref="887158711"/>
    <tag k="highway" v="residential"/>
    <tag k="name" v="Leather Street"/>
    <tag k="sidewalk" v="both"/>
    <tag k="surface" v="asphalt"/>
  </way>
  <way id="75178292" version="3" timestamp="2018-09-10T17:42:43Z" changeset="62462238" uid="9065" user="brianboru">
    <nd ref="5896876684"/>
    <nd ref="887158722"/>
    <nd ref="1808277632"/>
    <nd ref="887158728"/>
    <nd ref="887158729"/>
    <nd ref="887158708"/>
    <tag k="highway" v="residential"/>
    <tag k="name" v="Shepherd Close"/>
  </way>
  <way id="75178302" version="8" timestamp="2024-09-29T22:59:21Z" changeset="157273477" uid="230654" user="C2L">
    <nd ref="21132313"/>
    <nd ref="2505001822"/>
    <nd ref="12209901687"/>
    <nd ref="12209901686"/>
    <nd ref="2505001824"/>
    <nd ref="12209901685"/>
    <nd ref="21132266"/>
    <nd ref="12209901684"/>
    <nd ref="2505001826"/>
    <nd ref="12209901683"/>
    <nd ref="2505001827"/>
    <nd ref="12209901682"/>
    <nd ref="2505001830"/>
    <nd ref="12209901681"/>
    <nd ref="21132315"/>
    <nd ref="12209901680"/>
    <nd ref="21132316"/>
    <nd ref="2505001833"/>
    <nd ref="2505001834"/>
    <nd ref="12209901679"/>
    <nd ref="21132319"/>
    <tag k="highway" v="trunk"/>
    <tag k="lanes" v="2"/>
    <tag k="maxspeed" v="50 mph"/>
    <tag k="name" v="Oxford Road"/>
    <tag k="oneway" v="no"/>
    <tag k="ref" v="A423"/>
    <tag k="shoulder" v="no"/>
  </way>
  <way id="75178310" version="7" timestamp="2024-08-16T23:09:37Z" changeset="155347442" uid="5589" user="user_5589">
    <nd ref="290183788"/>
    <nd ref="6470755381"/>
    <tag k="highway" v="trunk"/>
    <tag k="lanes" v="2"/>
    <tag k="maxspeed" v="30 mph"/>
    <tag k="name" v="Marton Road"/>
    <tag k="oneway" v="no"/>
    <tag k="ref" v="A423"/>
  </way>
  <way id="75178315" version="8" timestamp="2024-08-16T23:09:30Z" changeset="155347442" uid="5589" user="user_5589">
    <nd ref="21132296"/>
    <nd ref="4694418968"/>
    <nd ref="4694418978"/>
    <nd ref="7025386899"/>
    <nd ref="290183788"/>
    <tag k="highway" v="trunk"/>
    <tag k="lanes" v="2"/>
    <tag k="lit" v="yes"/>
    <tag k="maxspeed" v="30 mph"/>
    <tag k="name" v="The Green"/>
    <tag k="oneway" v="no"/>
    <tag k="ref" v="A423"/>
  </way>
  <way id="75178318" version="3" timestamp="2019-03-20T16:13:22Z" changeset="68342035" uid="9065" user="brianboru">
    <nd ref="887158824"/>
    <nd ref="6350045349"/>
    <nd ref="2265747405"/>
    <nd ref="2265747401"/>
    <nd ref="6350045531"/>
    <nd ref="6350045530"/>
    <nd ref="887158825"/>
    <nd ref="6350045510"/>
    <nd ref="262832686"/>
    <tag k="highway" v="residential"/>
    <tag k="name" v="Green End"/>
  </way>
  <way id="75178321" version="3" timestamp="2019-12-02T08:16:45Z" changeset="77805714" uid="3894992" user="oliver_oliver2000">
    <nd ref="887158829"/>
    <nd ref="4692864792"/>
    <nd ref="7025386920"/>
    <nd ref="887158831"/>
    <tag k="highway" v="unclassified"/>
    <tag k="name" v="Village Hall Yard"/>
  </way>
  <way id="115651934" version="4" timestamp="2025-08-18T20:32:28Z" changeset="170639388" uid="13247722" user="TheCanMan">
    <nd ref="1306014684"/>
    <nd ref="1306014685"/>
    <tag k="bridge" v="yes"/>
    <tag k="highway" v="unclassified"/>
    <tag k="highway_authority_ref" v="C97"/>
    <tag k="layer" v="1"/>
    <tag k="maxspeed" v="50 mph"/>
    <tag k="name" v="Bascote Road"/>
  </way>
  <way id="115651936" version="6" timestamp="2025-08-18T20:32:28Z" changeset="170639388" uid="13247722" user="TheCanMan">
    <nd ref="1306014685"/>
    <nd ref="278579417"/>
    <nd ref="278579419"/>
    <nd ref="2475092864"/>
    <nd ref="278579421"/>
    <nd ref="1374619368"/>
    <tag k="highway" v="unclassified"/>
    <tag k="highway_authority_ref" v="C97"/>
    <tag k="maxspeed" v="50 mph"/>
    <tag k="name" v="Bascote Road"/>
  </way>
  <way id="123190491" version="10" timestamp="2025-08-18T20:27:56Z" changeset="170639268" uid="13247722" user="TheCanMan">
    <nd ref="262832522"/>
    <nd ref="2321327899"/>
    <nd ref="2321327897"/>
    <nd ref="262832523"/>
    <nd ref="262832524"/>
    <nd ref="262832525"/>
    <nd ref="2321327889"/>
    <nd ref="2321327888"/>
    <nd ref="2321327887"/>
    <nd ref="262832526"/>
    <nd ref="2321327886"/>
    <nd ref="262832527"/>
    <nd ref="2321327885"/>
    <nd ref="262832528"/>
    <nd ref="2321327884"/>
    <nd ref="2321327883"/>
    <nd ref="2321327882"/>
    <nd ref="262832529"/>
    <nd ref="2479776084"/>
    <nd ref="2321327881"/>
    <nd ref="2321327880"/>
    <nd ref="2321327879"/>
    <nd ref="262832530"/>
    <nd ref="2321327874"/>
    <nd ref="2321327873"/>
    <nd ref="2321327871"/>
    <nd ref="262832531"/>
    <nd ref="2321327868"/>
    <nd ref="2321327867"/>
    <nd ref="262832532"/>
    <nd ref="2321327866"/>
    <nd ref="2321327865"/>
    <nd ref="2321327864"/>
    <nd ref="262832533"/>
    <nd ref="2321327863"/>
    <nd ref="2321327862"/>
    <nd ref="2321327861"/>
    <nd ref="262832534"/>
    <nd ref="2321327860"/>
    <nd ref="2321327859"/>
    <nd ref="2321327858"/>
    <nd ref="262832535"/>
    <nd ref="2321327857"/>
    <nd ref="2321327856"/>
    <nd ref="1384378076"/>
    <nd ref="2321327855"/>
    <nd ref="2321327853"/>
    <nd ref="262832536"/>
    <nd ref="2321327852"/>
    <nd ref="2321327850"/>
    <nd ref="2321327849"/>
    <nd ref="2321327848"/>
    <nd ref="262832537"/>
    <nd ref="2321327847"/>
    <nd ref="2321327846"/>
    <nd ref="262832538"/>
    <nd ref="262832539"/>
    <nd ref="2321327844"/>
    <nd ref="2321327843"/>
    <nd ref="2321327840"/>
    <nd ref="2321327839"/>
    <nd ref="2321327838"/>
    <nd ref="2321327837"/>
    <nd ref="262832540"/>
    <nd ref="2321327836"/>
    <nd ref="2321327835"/>
    <nd ref="2321327834"/>
    <nd ref="2321327833"/>
    <nd ref="2321327830"/>
    <nd ref="262832541"/>
    <nd ref="2321327822"/>
    <nd ref="2321327819"/>
    <nd ref="262832542"/>
    <nd ref="2321327815"/>
    <nd ref="274771343"/>
    <tag k="bicycle" v="yes"/>
    <tag k="highway" v="unclassified"/>
    <tag k="maxspeed" v="60 mph"/>
    <tag k="name" v="Stonebridge Lane"/>
  </way>
  <way id="123190496" version="7" timestamp="2025-08-18T20:27:56Z" changeset="170639268" uid="13247722" user="TheCanMan">
    <nd ref="262832494"/>
    <nd ref="2321327908"/>
    <nd ref="2321327906"/>
    <nd ref="262832495"/>
    <nd ref="2321327901"/>
    <nd ref="262832496"/>
    <nd ref="2321327903"/>
    <nd ref="262832498"/>
    <nd ref="262832503"/>
    <nd ref="262832508"/>
    <nd ref="2321327910"/>
    <nd ref="2321327912"/>
    <nd ref="262832517"/>
    <nd ref="2321327914"/>
    <nd ref="2321327913"/>
    <nd ref="2321327911"/>
    <nd ref="262832520"/>
    <nd ref="2321327909"/>
    <nd ref="262832521"/>
    <nd ref="262832522"/>
    <tag k="bicycle" v="yes"/>
    <tag k="highway" v="unclassified"/>
    <tag k="maxspeed" v="60 mph"/>
    <tag k="name" v="Stonebridge Lane"/>
  </way>
  <way id="123191052" version="2" timestamp="2013-05-26T22:54:09Z" changeset="16302566" uid="411244" user="RobJN">
    <nd ref="1374619335"/>
    <nd ref="262832546"/>
    <tag k="highway" v="unclassified"/>
    <tag k="name" v="Stonebridge Lane"/>
  </way>
  <way id="123191053" version="6" timestamp="2025-08-18T20:22:46Z" changeset="170639110" uid="13247722" user="TheCanMan">
    <nd ref="522280713"/>
    <nd ref="262832681"/>
    <nd ref="4743616871"/>
    <nd ref="262832682"/>
    <nd ref="6527824290"/>
    <nd ref="262832683"/>
    <nd ref="4692807313"/>
    <nd ref="262832684"/>
    <nd ref="6350044930"/>
    <nd ref="887158373"/>
    <tag k="highway" v="tertiary"/>
    <tag k="maxspeed" v="30 mph"/>
    <tag k="name" v="Church Road"/>
  </way>
  <way id="123191054" version="5" timestamp="2025-08-18T20:22:46Z" changeset="170639110" uid="13247722" user="TheCanMan">
    <nd ref="887158373"/>
    <nd ref="262832685"/>
    <nd ref="4692807317"/>
    <nd ref="4694418964"/>
    <nd ref="12456000425"/>
    <nd ref="4694418976"/>
    <nd ref="887158377"/>
    <nd ref="290183787"/>
    <tag k="highway" v="tertiary"/>
    <tag k="maxspeed" v="30 mph"/>
    <tag k="name" v="Church Road"/>
  </way>
  <way id="123191055" version="5" timestamp="2025-08-18T20:32:28Z" changeset="170639388" uid="13247722" user="TheCanMan">
    <nd ref="1374619368"/>
    <nd ref="887158872"/>
    <nd ref="2475092990"/>
    <tag k="highway" v="unclassified"/>
    <tag k="highway_authority_ref" v="C97"/>
    <tag k="maxspeed" v="50 mph"/>
    <tag k="name" v="Bascote Road"/>
  </way>
  <way id="128793173" version="14" timestamp="2023-05-06T13:56:15Z" changeset="135778329" uid="13001300" user="simonc11">
    <nd ref="10873421016"/>
    <nd ref="6174367050"/>
    <nd ref="255673230"/>
    <nd ref="7896334072"/>
    <tag k="highway" v="tertiary"/>
    <tag k="name" v="Stockton Road"/>
  </way>
  <way id="128793176" version="4" timestamp="2019-03-20T16:13:22Z" changeset="68342035" uid="9065" user="brianboru">
    <nd ref="887158699"/>
    <nd ref="4694418981"/>
    <nd ref="4694418986"/>
    <nd ref="4694418975"/>
    <nd ref="4694418965"/>
    <nd ref="6350044925"/>
    <nd ref="887158701"/>
    <nd ref="887158703"/>
    <nd ref="4694418973"/>
    <nd ref="2265747326"/>
    <nd ref="6350044929"/>
    <nd ref="887158373"/>
    <tag k="highway" v="residential"/>
    <tag k="name" v="Thorn Way"/>
  </way>
  <way id="128795598" version="3" timestamp="2020-09-23T09:36:39Z" changeset="91354954" uid="11734051" user="shamitab">
    <nd ref="887158697"/>
    <nd ref="7933992366"/>
    <nd ref="6350083790"/>
    <nd ref="6350083788"/>
    <nd ref="887158699"/>
    <tag k="highway" v="residential"/>
    <tag k="name" v="Thorn Way"/>
  </way>
  <way id="130005833" version="6" timestamp="2025-08-18T20:27:56Z" changeset="170639268" uid="13247722" user="TheCanMan">
    <nd ref="274780794"/>
    <nd ref="2321327946"/>
    <nd ref="262832486"/>
    <nd ref="2321327943"/>
    <nd ref="262832487"/>
    <nd ref="262832488"/>
    <nd ref="2321327934"/>
    <nd ref="2321327933"/>
    <nd ref="262832489"/>
    <nd ref="2321327930"/>
    <nd ref="2321327928"/>
    <nd ref="2321327926"/>
    <nd ref="2321327924"/>
    <nd ref="262832490"/>
    <nd ref="2321327923"/>
    <nd ref="2321327921"/>
    <nd ref="8814693309"/>
    <nd ref="2321327920"/>
    <nd ref="262832491"/>
    <nd ref="2321327918"/>
    <nd ref="262832492"/>
    <nd ref="2321327916"/>
    <nd ref="262832493"/>
    <nd ref="262832494"/>
    <tag k="bicycle" v="yes"/>
    <tag k="highway" v="unclassified"/>
    <tag k="maxspeed" v="60 mph"/>
    <tag k="name" v="Stonebridge Lane"/>
  </way>
  <way id="139388294" version="7" timestamp="2025-08-18T20:22:46Z" changeset="170639110" uid="13247722" user="TheCanMan">
    <nd ref="290183787"/>
    <nd ref="2265747369"/>
    <nd ref="887158831"/>
    <nd ref="5896883712"/>
    <nd ref="2265747367"/>
    <nd ref="21132296"/>
    <tag k="cycleway:both" v="no"/>
    <tag k="highway" v="tertiary"/>
    <tag k="lanes" v="2"/>
    <tag k="maxspeed" v="30 mph"/>
    <tag k="name" v="The Green"/>
    <tag k="surface" v="asphalt"/>
  </way>
  <way id="147250330" version="19" timestamp="2025-01-08T16:53:08Z" changeset="161140994" uid="5229644" user="Nathan_A_RF">
    <nd ref="1604772128"/>
    <nd ref="10779327868"/>
    <nd ref="4577931247"/>
    <nd ref="1604772131"/>
    <nd ref="12209934855"/>
    <nd ref="6757130701"/>
    <nd ref="6405926934"/>
    <nd ref="1604772139"/>
    <nd ref="12209934854"/>
    <nd ref="6880599317"/>
    <nd ref="1604772144"/>
    <nd ref="12209934853"/>
    <nd ref="12209934852"/>
    <nd ref="1604772150"/>
    <nd ref="12209934851"/>
    <nd ref="12209934850"/>
    <nd ref="1604772155"/>
    <nd ref="12209934849"/>
    <nd ref="12209934848"/>
    <nd ref="2479163290"/>
    <nd ref="1604772160"/>
    <nd ref="2479163297"/>
    <nd ref="12209934847"/>
    <nd ref="1604772168"/>
    <nd ref="12209934846"/>
    <nd ref="2479163331"/>
    <nd ref="12209934845"/>
    <nd ref="1604772170"/>
    <nd ref="1604772173"/>
    <nd ref="1604772176"/>
    <nd ref="12209934844"/>
    <nd ref="6683415259"/>
    <nd ref="1604772179"/>
    <nd ref="1604772184"/>
    <nd ref="21132280"/>
    <nd ref="12209934843"/>
    <nd ref="21132264"/>
    <nd ref="12209934842"/>
    <nd ref="5497534028"/>
    <nd ref="12209934841"/>
    <nd ref="12209934840"/>
    <nd ref="12209934839"/>
    <nd ref="5497534047"/>
    <nd ref="5497534027"/>
    <nd ref="6352971081"/>
    <nd ref="12209934838"/>
    <nd ref="21132281"/>
    <nd ref="1619091707"/>
    <tag k="highway" v="trunk"/>
    <tag k="lanes" v="2"/>
    <tag k="lit" v="no"/>
    <tag k="maxspeed" v="50 mph"/>
    <tag k="maxspeed:type" v="sign"/>
    <tag k="name" v="Southam Road"/>
    <tag k="ref" v="A423"/>
    <tag k="shoulder" v="no"/>
    <tag k="sidewalk" v="right"/>
    <tag k="sidewalk:right:surface" v="asphalt"/>
  </way>
  <way id="147478930" version="3" timestamp="2019-03-06T13:19:17Z" changeset="67843729" uid="9451067" user="b-jazz-bot">
    <nd ref="1606952237"/>
    <nd ref="1606952222"/>
    <nd ref="1606952225"/>
    <nd ref="1606952239"/>
    <nd ref="1606952237"/>
    <tag k="addr:city" v="Long Itchington"/>
    <tag k="addr:postcode" v="CV47 9QL"/>
    <tag k="addr:street" v="Southam Road"/>
    <tag k="building" v="yes"/>
    <tag k="craft" v="boatbuilder"/>
    <tag k="name" v="Cole Craft"/>
    <tag k="source" v="Bing"/>
    <tag k="website" v="https://www.colecraftboats.co.uk/"/>
  </way>
  <way id="148847357" version="7" timestamp="2023-09-01T09:15:38Z" changeset="140669593" uid="165" user="Richard">
    <nd ref="1619091707"/>
    <nd ref="1619091732"/>
    <tag k="bridge" v="yes"/>
    <tag k="highway" v="trunk"/>
    <tag k="lanes" v="2"/>
    <tag k="layer" v="1"/>
    <tag k="maxspeed" v="50 mph"/>
    <tag k="maxweight:signed" v="no"/>
    <tag k="name" v="Southam Road"/>
    <tag k="ref" v="A423"/>
    <tag k="shoulder" v="no"/>
  </way>
  <way id="148847369" version="3" timestamp="2022-03-08T10:29:45Z" changeset="118229495" uid="34867" user="SammyTheSnake">
    <nd ref="1619091732"/>
    <nd ref="1619091636"/>
    <nd ref="2265737232"/>
    <nd ref="2265737236"/>
    <tag k="highway" v="trunk"/>
    <tag k="lanes" v="2"/>
    <tag k="maxspeed" v="50 mph"/>
    <tag k="name" v="Southam Road"/>
    <tag k="ref" v="A423"/>
    <tag k="shoulder" v="no"/>
  </way>
  <way id="169250290" version="3" timestamp="2025-07-12T23:58:56Z" changeset="168855231" uid="8857" user="philipcullen">
    <nd ref="1804160505"/>
    <nd ref="1804160507"/>
    <nd ref="1804160503"/>
    <nd ref="1804160501"/>
    <nd ref="1804160505"/>
    <tag k="addr:city" v="Long Itchington"/>
    <tag k="addr:postcode" v="CV47 9QZ"/>
    <tag k="addr:street" v="Southam Road"/>
    <tag k="amenity" v="pub"/>
    <tag k="building" v="yes"/>
    <tag k="fhrs:id" v="502849"/>
    <tag k="name" v="The Cuttle Inn"/>
    <tag k="ref:GB:uprn" v="100071243692"/>
    <tag k="source" v="survey"/>
    <tag k="website" v="http://www.thecuttleinn.co.uk"/>
  </way>
  <way id="169250291" version="3" timestamp="2025-07-12T23:58:56Z" changeset="168855231" uid="8857" user="philipcullen">
    <nd ref="1804160646"/>
    <nd ref="1804160653"/>
    <nd ref="1804160655"/>
    <nd ref="1804160648"/>
    <nd ref="1804160646"/>
    <tag k="addr:city" v="Long Itchington"/>
    <tag k="addr:postcode" v="CV47 9QZ"/>
    <tag k="addr:street" v="Southam Road"/>
    <tag k="amenity" v="pub"/>
    <tag k="building" v="yes"/>
    <tag k="fhrs:id" v="650302"/>
    <tag k="name" v="Two Boats Inn"/>
    <tag k="ref:GB:uprn" v="100071243696"/>
    <tag k="source" v="survey"/>
  </way>
  <way id="175639168" version="3" timestamp="2025-08-18T20:22:46Z" changeset="170639110" uid="13247722" user="TheCanMan">
    <nd ref="1468692682"/>
    <nd ref="8663230240"/>
    <nd ref="887158633"/>
    <nd ref="887158508"/>
    <nd ref="278580066"/>
    <tag k="highway" v="unclassified"/>
    <tag k="maxspeed" v="30 mph"/>
    <tag k="name" v="Short Lane"/>
  </way>
  <way id="175639169" version="8" timestamp="2025-08-18T20:22:46Z" changeset="170639110" uid="13247722" user="TheCanMan">
    <nd ref="278579825"/>
    <nd ref="6503993398"/>
    <nd ref="2321327870"/>
    <nd ref="2321327869"/>
    <nd ref="262832674"/>
    <nd ref="6503993401"/>
    <nd ref="262832676"/>
    <nd ref="6350043746"/>
    <nd ref="6503993400"/>
    <nd ref="262832677"/>
    <nd ref="6350043739"/>
    <nd ref="262832678"/>
    <nd ref="262832679"/>
    <nd ref="4744925370"/>
    <nd ref="262832680"/>
    <nd ref="6503939203"/>
    <nd ref="2475093085"/>
    <nd ref="522280713"/>
    <tag k="highway" v="tertiary"/>
    <tag k="maxspeed" v="30 mph"/>
    <tag k="name" v="Church Road"/>
  </way>
  <way id="217296173" version="7" timestamp="2024-09-29T22:59:21Z" changeset="157273477" uid="230654" user="C2L">
    <nd ref="2265737236"/>
    <nd ref="6751829417"/>
    <nd ref="2265737242"/>
    <nd ref="6751829407"/>
    <nd ref="2265747245"/>
    <nd ref="887158432"/>
    <nd ref="21132283"/>
    <nd ref="12209934837"/>
    <nd ref="21132284"/>
    <tag k="highway" v="trunk"/>
    <tag k="lanes" v="2"/>
    <tag k="maxspeed" v="40 mph"/>
    <tag k="name" v="Southam Road"/>
    <tag k="ref" v="A423"/>
    <tag k="shoulder" v="no"/>
  </way>
  <way id="217297312" version="4" timestamp="2021-11-02T09:16:54Z" changeset="113273070" uid="34867" user="SammyTheSnake">
    <nd ref="2265747273"/>
    <nd ref="1808277652"/>
    <nd ref="21132292"/>
    <tag k="cycleway:both" v="no"/>
    <tag k="highway" v="tertiary"/>
    <tag k="lane_markings" v="no"/>
    <tag k="name" v="Stockton Road"/>
    <tag k="surface" v="asphalt"/>
  </way>
  <way id="217297314" version="3" timestamp="2025-07-12T23:58:56Z" changeset="168855231" uid="8857" user="philipcullen">
    <nd ref="2265747243"/>
    <nd ref="2265747244"/>
    <nd ref="2265747242"/>
    <nd ref="2265747241"/>
    <nd ref="2265747243"/>
    <tag k="addr:city" v="Long Itchington"/>
    <tag k="addr:postcode" v="CV47 9QZ"/>
    <tag k="addr:street" v="Southam Road"/>
    <tag k="amenity" v="cafe"/>
    <tag k="building" v="yes"/>
    <tag k="fhrs:id" v="503570"/>
    <tag k="name" v="The Long Itch Diner"/>
    <tag k="ref:GB:uprn" v="100071502964"/>
    <tag k="source" v="visual survey;bing"/>
  </way>
  <way id="217297527" version="13" timestamp="2025-08-17T19:21:58Z" changeset="170583618" uid="13247722" user="TheCanMan">
    <nd ref="5896883710"/>
    <nd ref="8069728707"/>
    <nd ref="5896883265"/>
    <nd ref="12209934821"/>
    <nd ref="6504122720"/>
    <nd ref="21132298"/>
    <nd ref="12209934819"/>
    <nd ref="8070067343"/>
    <nd ref="6215075800"/>
    <nd ref="2511413577"/>
    <nd ref="12209934818"/>
    <nd ref="12209934817"/>
    <nd ref="2511413600"/>
    <nd ref="21132302"/>
    <nd ref="5896883266"/>
    <nd ref="12209934816"/>
    <nd ref="2511413607"/>
    <nd ref="5896883264"/>
    <nd ref="6892606717"/>
    <nd ref="21132303"/>
    <nd ref="8069694701"/>
    <nd ref="12209934815"/>
    <nd ref="887158786"/>
    <nd ref="12209934814"/>
    <nd ref="2511413642"/>
    <nd ref="12209934813"/>
    <nd ref="21132305"/>
    <nd ref="12209934812"/>
    <nd ref="12209934811"/>
    <nd ref="12209934810"/>
    <nd ref="5896882364"/>
    <nd ref="21132273"/>
    <tag k="highway" v="trunk"/>
    <tag k="lanes" v="2"/>
    <tag k="maxspeed" v="30 mph"/>
    <tag k="name" v="Marton Road"/>
    <tag k="oneway" v="no"/>
    <tag k="ref" v="A423"/>
    <tag k="shoulder" v="no"/>
  </way>
  <way id="217297530" version="10" timestamp="2024-09-29T22:59:21Z" changeset="157273477" uid="230654" user="C2L">
    <nd ref="21132273"/>
    <nd ref="6567087517"/>
    <nd ref="8256566504"/>
    <nd ref="5896882363"/>
    <nd ref="3033799042"/>
    <nd ref="12209934809"/>
    <nd ref="3033799041"/>
    <nd ref="8100780655"/>
    <nd ref="12209934808"/>
    <nd ref="21132308"/>
    <nd ref="12209934807"/>
    <nd ref="12209934806"/>
    <nd ref="12209934805"/>
    <nd ref="12209934803"/>
    <nd ref="12209934804"/>
    <nd ref="21132309"/>
    <nd ref="12209934802"/>
    <nd ref="12209934801"/>
    <nd ref="887158795"/>
    <nd ref="12209901699"/>
    <nd ref="887158798"/>
    <nd ref="12209901700"/>
    <nd ref="274780762"/>
    <nd ref="12209901693"/>
    <nd ref="2505001805"/>
    <nd ref="12209901689"/>
    <nd ref="21132311"/>
    <nd ref="21132312"/>
    <nd ref="12209901688"/>
    <nd ref="21132313"/>
    <tag k="highway" v="trunk"/>
    <tag k="lanes" v="2"/>
    <tag k="maxspeed" v="50 mph"/>
    <tag k="name" v="Marton Road"/>
    <tag k="oneway" v="no"/>
    <tag k="ref" v="A423"/>
    <tag k="shoulder" v="no"/>
  </way>
  <way id="218604218" version="7" timestamp="2025-08-17T19:15:24Z" changeset="170583360" uid="13247722" user="TheCanMan">
    <nd ref="2278398612"/>
    <nd ref="2278398620"/>
    <nd ref="2278398629"/>
    <nd ref="2278398607"/>
    <nd ref="2278398648"/>
    <nd ref="2278398616"/>
    <nd ref="2475033163"/>
    <nd ref="2475033172"/>
    <nd ref="2278398633"/>
    <nd ref="2278398637"/>
    <nd ref="2475033201"/>
    <nd ref="2475033211"/>
    <nd ref="2278398632"/>
    <nd ref="2278398641"/>
    <nd ref="2475033276"/>
    <nd ref="2278398610"/>
    <nd ref="2475033295"/>
    <nd ref="2278398643"/>
    <nd ref="2475033297"/>
    <nd ref="2278398618"/>
    <nd ref="2278398622"/>
    <nd ref="2278398605"/>
    <nd ref="2278398635"/>
    <nd ref="2278398650"/>
    <nd ref="2278398642"/>
    <nd ref="2475033267"/>
    <nd ref="1384388101"/>
    <tag k="foot" v="yes"/>
    <tag k="highway" v="unclassified"/>
    <tag k="highway_authority_ref" v="D2336"/>
    <tag k="maxspeed" v="60 mph"/>
    <tag k="name" v="Pudding Bag Lane"/>
    <tag k="sidewalk" v="no"/>
    <tag k="source" v="GPS"/>
    <tag k="source:name" v="OS_OpenData_StreetView"/>
    <tag k="surface" v="paved"/>
  </way>
  <way id="219437174" version="7" timestamp="2025-08-17T19:15:24Z" changeset="170583360" uid="13247722" user="TheCanMan">
    <nd ref="2285966224"/>
    <nd ref="21132184"/>
    <tag k="bridge" v="yes"/>
    <tag k="cycleway:both" v="no"/>
    <tag k="highway" v="primary"/>
    <tag k="lanes" v="2"/>
    <tag k="layer" v="1"/>
    <tag k="maxspeed" v="30 mph"/>
    <tag k="maxweight:signed" v="no"/>
    <tag k="name" v="Leamington Road"/>
    <tag k="postal_code" v="CV33"/>
    <tag k="ref" v="A425"/>
    <tag k="source" v="survey"/>
    <tag k="surface" v="asphalt"/>
  </way>
  <way id="223211832" version="5" timestamp="2025-08-18T20:27:56Z" changeset="170639268" uid="13247722" user="TheCanMan">
    <nd ref="2321327845"/>
    <nd ref="262832547"/>
    <nd ref="2321327851"/>
    <nd ref="2321327854"/>
    <nd ref="262832548"/>
    <nd ref="262832549"/>
    <nd ref="13078651823"/>
    <tag k="highway" v="unclassified"/>
    <tag k="maxspeed" v="60 mph"/>
    <tag k="name" v="Stonebridge Lane"/>
  </way>
  <way id="223211833" version="2" timestamp="2025-08-18T20:27:56Z" changeset="170639268" uid="13247722" user="TheCanMan">
    <nd ref="262832546"/>
    <nd ref="2321327845"/>
    <tag k="bridge" v="yes"/>
    <tag k="highway" v="unclassified"/>
    <tag k="layer" v="1"/>
    <tag k="maxspeed" v="60 mph"/>
    <tag k="name" v="Stonebridge Lane"/>
  </way>
  <way id="239732185" version="4" timestamp="2025-08-18T20:32:28Z" changeset="170639388" uid="13247722" user="TheCanMan">
    <nd ref="2475092990"/>
    <nd ref="2475093046"/>
    <tag k="bridge" v="yes"/>
    <tag k="highway" v="unclassified"/>
    <tag k="highway_authority_ref" v="C97"/>
    <tag k="layer" v="1"/>
    <tag k="maxspeed" v="50 mph"/>
    <tag k="name" v="Bascote Road"/>
  </way>
  <way id="239732186" version="4" timestamp="2025-08-18T20:32:28Z" changeset="170639388" uid="13247722" user="TheCanMan">
    <nd ref="278579422"/>
    <nd ref="522280713"/>
    <tag k="highway" v="unclassified"/>
    <tag k="highway_authority_ref" v="C97"/>
    <tag k="maxspeed" v="30 mph"/>
    <tag k="name" v="Bascote Road"/>
  </way>
  <way id="243771647" version="11" timestamp="2024-09-29T22:59:21Z" changeset="157273477" uid="230654" user="C2L">
    <nd ref="281470121"/>
    <nd ref="12209934827"/>
    <nd ref="1808277616"/>
    <nd ref="1808277612"/>
    <nd ref="1808277602"/>
    <tag k="cycleway:both" v="no"/>
    <tag k="highway" v="tertiary"/>
    <tag k="lanes" v="2"/>
    <tag k="lit" v="yes"/>
    <tag k="maxspeed" v="30 mph"/>
    <tag k="name" v="Collingham Lane"/>
    <tag k="shoulder" v="no"/>
    <tag k="sidewalk" v="no"/>
    <tag k="surface" v="asphalt"/>
  </way>
  <way id="283661075" version="7" timestamp="2025-08-18T20:32:28Z" changeset="170639388" uid="13247722" user="TheCanMan">
    <nd ref="2875030023"/>
    <nd ref="278579410"/>
    <nd ref="4362600421"/>
    <nd ref="12141748310"/>
    <nd ref="278579411"/>
    <nd ref="8836200024"/>
    <nd ref="2475033361"/>
    <nd ref="2475033377"/>
    <nd ref="2498333632"/>
    <nd ref="278579413"/>
    <tag k="highway" v="unclassified"/>
    <tag k="highway_authority_ref" v="C97"/>
    <tag k="maxspeed" v="50 mph"/>
  </way>
  <way id="283661077" version="7" timestamp="2020-05-28T05:28:19Z" changeset="85865099" uid="10255276" user="contrai1">
    <nd ref="1845029805"/>
    <nd ref="278579401"/>
    <nd ref="278579402"/>
    <nd ref="2278398612"/>
    <nd ref="278579403"/>
    <nd ref="2475033107"/>
    <nd ref="6352971922"/>
    <nd ref="6352971920"/>
    <nd ref="278579405"/>
    <nd ref="2475033151"/>
    <nd ref="278579406"/>
    <nd ref="7564834837"/>
    <nd ref="4362600424"/>
    <nd ref="1845040489"/>
    <nd ref="6776649422"/>
    <nd ref="278579407"/>
    <nd ref="1845039676"/>
    <nd ref="278579409"/>
    <nd ref="2875030023"/>
    <tag k="highway" v="unclassified"/>
    <tag k="highway_authority_ref" v="C97"/>
    <tag k="maxspeed" v="30 mph"/>
  </way>
  <way id="290490683" version="2" timestamp="2019-08-17T21:20:36Z" changeset="73452010" uid="705850" user="Cebderby">
    <nd ref="2940213465"/>
    <nd ref="2940213466"/>
    <nd ref="6719966868"/>
    <nd ref="6719966878"/>
    <nd ref="6719966884"/>
    <tag k="highway" v="residential"/>
    <tag k="name" v="Adams Close"/>
    <tag k="source" v="OS Locator"/>
  </way>
  <way id="290490684" version="1" timestamp="2014-06-30T08:47:12Z" changeset="23320418" uid="9065" user="brianboru">
    <nd ref="2940213469"/>
    <nd ref="2940213467"/>
    <nd ref="2940213465"/>
    <nd ref="2940213464"/>
    <nd ref="2940213463"/>
    <tag k="highway" v="residential"/>
    <tag k="name" v="Adams Close"/>
    <tag k="source" v="OS Locator"/>
  </way>
  <way id="290490715" version="3" timestamp="2017-07-16T17:02:55Z" changeset="50330548" uid="705850" user="Cebderby">
    <nd ref="2940213993"/>
    <nd ref="2940213995"/>
    <tag k="highway" v="residential"/>
    <tag k="name" v="Odingsel Drive"/>
    <tag k="source" v="Warwicks CC Aerial Imagery 2013"/>
  </way>
  <way id="290490952" version="1" timestamp="2014-06-30T08:50:02Z" changeset="23320507" uid="9065" user="brianboru">
    <nd ref="2940214269"/>
    <nd ref="2940214268"/>
    <tag k="highway" v="residential"/>
    <tag k="name" v="Galanos"/>
  </way>
  <way id="290490953" version="2" timestamp="2017-07-16T17:02:55Z" changeset="50330548" uid="705850" user="Cebderby">
    <nd ref="887158611"/>
    <nd ref="2940214271"/>
    <nd ref="2940214272"/>
    <tag k="highway" v="residential"/>
    <tag k="name" v="Odingsel Drive"/>
    <tag k="not:name" v="Odingsell Drive"/>
    <tag k="source" v="Bing"/>
  </way>
  <way id="472676456" version="4" timestamp="2025-07-12T23:58:56Z" changeset="168855231" uid="8857" user="philipcullen">
    <nd ref="4668688332"/>
    <nd ref="4668688333"/>
    <nd ref="4668688334"/>
    <nd ref="4668688335"/>
    <nd ref="4668688336"/>
    <nd ref="4668688337"/>
    <nd ref="4668688338"/>
    <nd ref="4668688339"/>
    <nd ref="4668688340"/>
    <nd ref="4668688341"/>
    <nd ref="4668688332"/>
    <tag k="amenity" v="place_of_worship"/>
    <tag k="building" v="church"/>
    <tag k="denomination" v="anglican"/>
    <tag k="heritage" v="2"/>
    <tag k="heritage:operator" v="Historic England"/>
    <tag k="listed_status" v="Grade II*"/>
    <tag k="name" v="Holy Trinity"/>
    <tag k="ref:GB:uprn" v="10023589755"/>
    <tag k="religion" v="christian"/>
    <tag k="source" v="Warwicks CC Aerial Imagery 2013"/>
    <tag k="wikidata" v="Q17551267"/>
  </way>
  <way id="475519366" version="5" timestamp="2023-09-07T21:05:12Z" changeset="140958486" uid="6816132" user="CjMalone">
    <nd ref="4692567546"/>
    <nd ref="4692567547"/>
    <nd ref="4692567548"/>
    <nd ref="4692567549"/>
    <nd ref="4692567546"/>
    <tag k="addr:city" v="Long Itchington"/>
    <tag k="addr:postcode" v="CV47 9PN"/>
    <tag k="addr:street" v="Church Road"/>
    <tag k="brand" v="Co-op Food"/>
    <tag k="brand:wikidata" v="Q3277439"/>
    <tag k="brand:wikipedia" v="en:Co-op Food"/>
    <tag k="building" v="yes"/>
    <tag k="building:levels" v="2"/>
    <tag k="fhrs:id" v="502882"/>
    <tag k="name" v="Co-op Food"/>
    <tag k="opening_hours" v="Mo-Su 07:00-22:00"/>
    <tag k="operator" v="Heart of England Co-operative Society"/>
    <tag k="operator:wikidata" v="Q5692254"/>
    <tag k="phone" v="+441926 812411"/>
    <tag k="shop" v="supermarket"/>
    <tag k="source" v="survey"/>
  </way>
  <way id="475548897" version="4" timestamp="2021-09-27T08:18:49Z" changeset="111755161" uid="34867" user="SammyTheSnake">
    <nd ref="887158432"/>
    <nd ref="4692864486"/>
    <nd ref="4692864487"/>
    <tag k="cycleway:both" v="no"/>
    <tag k="fixme" v="lane continues NE. Survey needed."/>
    <tag k="highway" v="unclassified"/>
    <tag k="lane_markings" v="no"/>
    <tag k="name" v="Nightingale Lane"/>
    <tag k="surface" v="asphalt"/>
  </way>
  <way id="475550068" version="2" timestamp="2024-06-30T23:18:22Z" changeset="153388730" uid="9451067" user="b-jazz-bot">
    <nd ref="4692880423"/>
    <nd ref="4692880424"/>
    <nd ref="4692880425"/>
    <nd ref="4692880426"/>
    <nd ref="4692880427"/>
    <nd ref="4692880428"/>
    <nd ref="4692880429"/>
    <nd ref="4692880430"/>
    <nd ref="4692880431"/>
    <nd ref="4692880432"/>
    <nd ref="4692880423"/>
    <tag k="addr:city" v="Bascote Heath"/>
    <tag k="addr:postcode" v="CV47 2DN"/>
    <tag k="amenity" v="pub"/>
    <tag k="building" v="yes"/>
    <tag k="fhrs:id" v="502792"/>
    <tag k="name" v="Fox &amp; Hen"/>
    <tag k="source" v="survey"/>
    <tag k="website" v="https://www.foxandhen.co.uk/"/>
  </way>
  <way id="475717614" version="2" timestamp="2019-03-20T16:13:24Z" changeset="68342035" uid="9065" user="brianboru">
    <nd ref="4694418979"/>
    <nd ref="6350044932"/>
    <nd ref="4694418971"/>
    <nd ref="4694418980"/>
    <nd ref="4694418967"/>
    <nd ref="4694418974"/>
    <nd ref="4694418966"/>
    <nd ref="4694418962"/>
    <nd ref="4694418964"/>
    <tag k="highway" v="residential"/>
  </way>
  <way id="475717615" version="4" timestamp="2025-08-18T20:22:46Z" changeset="170639110" uid="13247722" user="TheCanMan">
    <nd ref="4694418976"/>
    <nd ref="4694418984"/>
    <nd ref="4694418963"/>
    <nd ref="262832686"/>
    <tag k="cycleway:both" v="no"/>
    <tag k="highway" v="tertiary"/>
    <tag k="maxspeed" v="30 mph"/>
    <tag k="name" v="Church Road"/>
    <tag k="surface" v="asphalt"/>
  </way>
  <way id="481425472" version="5" timestamp="2025-07-12T23:58:56Z" changeset="168855231" uid="8857" user="philipcullen">
    <nd ref="4743616858"/>
    <nd ref="4743616859"/>
    <nd ref="4743616860"/>
    <nd ref="4743616861"/>
    <nd ref="4743616862"/>
    <nd ref="4743616863"/>
    <nd ref="4743616864"/>
    <nd ref="4743616865"/>
    <nd ref="4743616858"/>
    <tag k="addr:city" v="Long Itchington"/>
    <tag k="addr:postcode" v="CV47 9PW"/>
    <tag k="addr:street" v="Church Road"/>
    <tag k="amenity" v="pub"/>
    <tag k="building" v="yes"/>
    <tag k="fhrs:id" v="1294894"/>
    <tag k="name" v="The Green Man"/>
    <tag k="ref:GB:uprn" v="100071243213;10095665123"/>
    <tag k="website" v="https://www.greenmanlongitchington.co.uk/"/>
  </way>
  <way id="481425477" version="3" timestamp="2025-07-12T23:58:56Z" changeset="168855231" uid="8857" user="philipcullen">
    <nd ref="4743616879"/>
    <nd ref="4743616880"/>
    <nd ref="4743616881"/>
    <nd ref="4743616882"/>
    <nd ref="4743616883"/>
    <nd ref="4743616884"/>
    <nd ref="4743616879"/>
    <tag k="building" v="chapel"/>
    <tag k="name" v="Long Itchington Congregational Church"/>
    <tag k="ref:GB:uprn" v="10023382187"/>
  </way>
  <way id="496339803" version="6" timestamp="2021-04-07T11:34:59Z" changeset="102478937" uid="12637824" user="MrMapperBanbury">
    <nd ref="6174367054"/>
    <nd ref="4883771479"/>
    <nd ref="4880444335"/>
    <nd ref="4883771480"/>
    <nd ref="4880444336"/>
    <nd ref="4880612963"/>
    <nd ref="6174367055"/>
    <nd ref="8602442911"/>
    <nd ref="4880444337"/>
    <nd ref="8602442904"/>
    <nd ref="8602442900"/>
    <nd ref="4880444338"/>
    <tag k="highway" v="residential"/>
    <tag k="name" v="Meadow Drive"/>
    <tag k="source" v="GPS survey"/>
  </way>
  <way id="496339804" version="4" timestamp="2021-04-07T11:34:59Z" changeset="102478937" uid="12637824" user="MrMapperBanbury">
    <nd ref="4880444339"/>
    <nd ref="8602442913"/>
    <nd ref="4880626880"/>
    <nd ref="4880444336"/>
    <tag k="highway" v="residential"/>
    <tag k="name" v="Cuckoo Close"/>
    <tag k="oneway" v="no"/>
    <tag k="source" v="GPS survey"/>
  </way>
  <way id="496339805" version="3" timestamp="2021-04-07T11:34:59Z" changeset="102478937" uid="12637824" user="MrMapperBanbury">
    <nd ref="4880444340"/>
    <nd ref="6504097294"/>
    <nd ref="8602442880"/>
    <nd ref="6504097296"/>
    <nd ref="8602442879"/>
    <nd ref="6504097295"/>
    <nd ref="4880444337"/>
    <tag k="highway" v="residential"/>
    <tag k="name" v="Barley Way"/>
    <tag k="source" v="GPS survey"/>
  </way>
  <way id="496339806" version="1" timestamp="2017-05-27T17:28:28Z" changeset="49029666" uid="346039" user="fitzsimons">
    <nd ref="4880444341"/>
    <nd ref="4880444340"/>
    <tag k="highway" v="residential"/>
    <tag k="name" v="Spinney Fields"/>
    <tag k="source" v="GPS survey"/>
  </way>
  <way id="496706222" version="3" timestamp="2020-12-19T12:47:09Z" changeset="96107097" uid="346039" user="fitzsimons">
    <nd ref="4880444340"/>
    <nd ref="4883771481"/>
    <nd ref="4883771482"/>
    <nd ref="6174367048"/>
    <nd ref="6174367049"/>
    <tag k="highway" v="residential"/>
    <tag k="name" v="Barley Way"/>
  </way>
  <way id="624458416" version="5" timestamp="2025-07-12T23:58:56Z" changeset="168855231" uid="8857" user="philipcullen">
    <nd ref="5896883707"/>
    <nd ref="5896883706"/>
    <nd ref="5896883705"/>
    <nd ref="5896883704"/>
    <nd ref="5896883703"/>
    <nd ref="5896883702"/>
    <nd ref="5896883707"/>
    <tag k="addr:housenumber" v="Tollgate Cottage"/>
    <tag k="addr:street" v="Tollgate Cottage"/>
    <tag k="building" v="residential"/>
    <tag k="building:levels" v="2"/>
    <tag k="ref:GB:uprn" v="100071243512"/>
    <tag k="roof:levels" v="0"/>
    <tag k="source" v="Warwicks CC Aerial Imagery 2013"/>
  </way>
  <way id="624458418" version="4" timestamp="2024-08-16T23:09:45Z" changeset="155347442" uid="5589" user="user_5589">
    <nd ref="2265747414"/>
    <nd ref="10554972792"/>
    <nd ref="5896883710"/>
    <tag k="highway" v="trunk"/>
    <tag k="lanes" v="2"/>
    <tag k="lit" v="yes"/>
    <tag k="maxspeed" v="30 mph"/>
    <tag k="name" v="Marton Road"/>
    <tag k="oneway" v="no"/>
    <tag k="ref" v="A423"/>
  </way>
  <way id="624458423" version="5" timestamp="2025-07-12T23:58:56Z" changeset="168855231" uid="8857" user="philipcullen">
    <nd ref="5896883745"/>
    <nd ref="5896883744"/>
    <nd ref="5896883743"/>
    <nd ref="5896883742"/>
    <nd ref="5896883741"/>
    <nd ref="5896883740"/>
    <nd ref="5896883739"/>
    <nd ref="5896883738"/>
    <nd ref="5896883737"/>
    <nd ref="5896883736"/>
    <nd ref="7025386927"/>
    <nd ref="5896883735"/>
    <nd ref="5896883734"/>
    <nd ref="5896883745"/>
    <tag k="addr:city" v="Long Itchington"/>
    <tag k="addr:postcode" v="CV47 9QJ"/>
    <tag k="addr:street" v="The Green"/>
    <tag k="amenity" v="pub"/>
    <tag k="building" v="pub"/>
    <tag k="fhrs:id" v="503403"/>
    <tag k="name" v="The Duck on the Pond"/>
    <tag k="ref:GB:uprn" v="100071243810"/>
    <tag k="source" v="survey"/>
    <tag k="website" v="https://duckpub.co.uk/"/>
  </way>
  <way id="624458430" version="1" timestamp="2018-09-10T17:42:39Z" changeset="62462238" uid="9065" user="brianboru">
    <nd ref="887158719"/>
    <nd ref="887158722"/>
    <tag k="highway" v="residential"/>
    <tag k="name" v="Shepherd Close"/>
  </way>
  <way id="624458451" version="4" timestamp="2025-07-12T23:58:56Z" changeset="168855231" uid="8857" user="philipcullen">
    <nd ref="5896884126"/>
    <nd ref="5896884125"/>
    <nd ref="5896884124"/>
    <nd ref="5896884123"/>
    <nd ref="5896884122"/>
    <nd ref="5896884121"/>
    <nd ref="5896884120"/>
    <nd ref="5896884119"/>
    <nd ref="5896884126"/>
    <tag k="addr:housenumber" v="1"/>
    <tag k="addr:street" v="Southam Road"/>
    <tag k="building" v="residential"/>
    <tag k="ref:GB:uprn" v="100070211755"/>
    <tag k="source" v="Warwicks CC Aerial Imagery 2013"/>
  </way>
  <way id="659467753" version="2" timestamp="2020-12-19T12:47:09Z" changeset="96107097" uid="346039" user="fitzsimons">
    <nd ref="4883771481"/>
    <nd ref="6174367052"/>
    <nd ref="6174367053"/>
    <nd ref="6174367054"/>
    <tag k="highway" v="residential"/>
    <tag k="name" v="Stone Furlong"/>
  </way>
  <way id="678189585" version="3" timestamp="2025-07-12T23:58:56Z" changeset="168855231" uid="8857" user="philipcullen">
    <nd ref="6350043755"/>
    <nd ref="6350043754"/>
    <nd ref="6350043753"/>
    <nd ref="6350043752"/>
    <nd ref="6350043751"/>
    <nd ref="6350043750"/>
    <nd ref="6350043749"/>
    <nd ref="6350043748"/>
    <nd ref="6350043755"/>
    <tag k="building" v="residential"/>
    <tag k="name" v="The Old School House"/>
    <tag k="ref:GB:uprn" v="10023586275"/>
    <tag k="source" v="Warwicks CC Aerial Imagery 2013"/>
  </way>
  <way id="678189593" version="2" timestamp="2025-07-12T23:58:56Z" changeset="168855231" uid="8857" user="philipcullen">
    <nd ref="6350044594"/>
    <nd ref="6350044590"/>
    <nd ref="6350044589"/>
    <nd ref="6350044588"/>
    <nd ref="6350044587"/>
    <nd ref="6350044586"/>
    <nd ref="6350044591"/>
    <nd ref="6350044594"/>
    <tag k="addr:city" v="Long Itchington"/>
    <tag k="addr:postcode" v="CV47 9PE"/>
    <tag k="addr:street" v="Church Road"/>
    <tag k="amenity" v="pub"/>
    <tag k="building" v="yes"/>
    <tag k="name" v="The Harvester"/>
    <tag k="ref:GB:uprn" v="10023586274"/>
    <tag k="source" v="survey"/>
    <tag k="website" v="http://www.theharvesterinn.co.uk"/>
  </way>
  <way id="678189654" version="1" timestamp="2019-03-20T16:13:18Z" changeset="68342035" uid="9065" user="brianboru">
    <nd ref="6350044920"/>
    <nd ref="6350044919"/>
    <tag k="highway" v="residential"/>
    <tag k="name" v="Beechcroft"/>
    <tag k="source" v="Warwicks CC Aerial Imagery 2013"/>
  </way>
  <way id="678189655" version="1" timestamp="2019-03-20T16:13:18Z" changeset="68342035" uid="9065" user="brianboru">
    <nd ref="6350044932"/>
    <nd ref="6350044931"/>
    <tag k="highway" v="residential"/>
    <tag k="source" v="bing"/>
  </way>
  <way id="678189670" version="1" timestamp="2019-03-20T16:13:19Z" changeset="68342035" uid="9065" user="brianboru">
    <nd ref="6350045349"/>
    <nd ref="6350045348"/>
    <tag k="highway" v="residential"/>
    <tag k="name" v="Green End"/>
    <tag k="source" v="Warwicks CC Aerial Imagery 2013"/>
  </way>
  <way id="678189682" version="3" timestamp="2025-07-12T23:58:56Z" changeset="168855231" uid="8857" user="philipcullen">
    <nd ref="6350045520"/>
    <nd ref="6350045519"/>
    <nd ref="6350045518"/>
    <nd ref="6350045517"/>
    <nd ref="6350045516"/>
    <nd ref="6350045515"/>
    <nd ref="6350045514"/>
    <nd ref="6350045513"/>
    <nd ref="6350045512"/>
    <nd ref="6350045511"/>
    <nd ref="6350045520"/>
    <tag k="addr:postcode" v="CV47 9PH"/>
    <tag k="addr:street" v="The Green"/>
    <tag k="amenity" v="pub"/>
    <tag k="building" v="yes"/>
    <tag k="fhrs:id" v="1029137"/>
    <tag k="name" v="The Buck and Bell"/>
    <tag k="ref:GB:uprn" v="100071243797"/>
    <tag k="source" v="survey"/>
  </way>
  <way id="678484244" version="1" timestamp="2019-03-21T20:22:40Z" changeset="68387025" uid="9065" user="brianboru">
    <nd ref="6352971354"/>
    <nd ref="887158414"/>
    <nd ref="6352971355"/>
    <tag k="highway" v="residential"/>
    <tag k="name" v="The Model Village"/>
  </way>
  <way id="692752802" version="2" timestamp="2021-04-07T11:34:59Z" changeset="102478937" uid="12637824" user="MrMapperBanbury">
    <nd ref="6503812525"/>
    <nd ref="6503812514"/>
    <tag k="highway" v="residential"/>
    <tag k="source" v="Maxar Imagery"/>
  </way>
  <way id="692752804" version="2" timestamp="2020-12-19T12:47:09Z" changeset="96107097" uid="346039" user="fitzsimons">
    <nd ref="6503812517"/>
    <nd ref="6503812518"/>
    <nd ref="6503812516"/>
    <tag k="highway" v="residential"/>
    <tag k="name" v="Gorse Corner"/>
    <tag k="source" v="Maxar Imagery"/>
  </way>
  <way id="692752806" version="2" timestamp="2020-12-19T12:47:09Z" changeset="96107097" uid="346039" user="fitzsimons">
    <nd ref="6503812528"/>
    <nd ref="6503812519"/>
    <nd ref="6503812518"/>
    <tag k="highway" v="residential"/>
    <tag k="name" v="Gorse Corner"/>
    <tag k="source" v="Maxar Imagery"/>
  </way>
  <way id="692752808" version="4" timestamp="2021-04-07T11:34:59Z" changeset="102478937" uid="12637824" user="MrMapperBanbury">
    <nd ref="6503812522"/>
    <nd ref="6504097157"/>
    <nd ref="6503812521"/>
    <nd ref="8242635802"/>
    <tag k="highway" v="residential"/>
    <tag k="name" v="Badger Lane"/>
    <tag k="source" v="Maxar Imagery"/>
  </way>
  <way id="692764955" version="1" timestamp="2019-05-27T13:18:03Z" changeset="70661690" uid="9065" user="brianboru">
    <nd ref="6503939225"/>
    <nd ref="6503939224"/>
    <tag k="highway" v="residential"/>
    <tag k="name" v="Russell Close"/>
    <tag k="source" v="Warwicks CC Aerial Imagery 2013"/>
  </way>
  <way id="692764982" version="1" timestamp="2019-05-27T13:18:04Z" changeset="70661690" uid="9065" user="brianboru">
    <nd ref="6503939438"/>
    <nd ref="6503939437"/>
    <tag k="highway" v="residential"/>
    <tag k="name" v="Chaters Orchard"/>
    <tag k="source" v="Warwicks CC Aerial Imagery 2013"/>
  </way>
  <way id="692782130" version="1" timestamp="2019-05-27T14:13:02Z" changeset="70663486" uid="9065" user="brianboru">
    <nd ref="6504097156"/>
    <nd ref="4880444339"/>
    <nd ref="6504097155"/>
    <tag k="highway" v="residential"/>
    <tag k="name" v="Cuckoo Close"/>
    <tag k="source" v="Maxar Imagery"/>
  </way>
  <way id="692782146" version="1" timestamp="2019-05-27T14:13:03Z" changeset="70663486" uid="9065" user="brianboru">
    <nd ref="6504097310"/>
    <nd ref="4880444341"/>
    <nd ref="6504097309"/>
    <tag k="highway" v="residential"/>
    <tag k="name" v="Spinney Fields"/>
    <tag k="source" v="Maxar Imagery"/>
  </way>
  <way id="692784645" version="2" timestamp="2020-10-31T20:54:11Z" changeset="93351969" uid="411244" user="RobJN">
    <nd ref="6504122723"/>
    <nd ref="6504122724"/>
    <nd ref="6504122722"/>
    <tag k="highway" v="residential"/>
    <tag k="name" v="Bishop Drive"/>
    <tag k="sidewalk" v="both"/>
    <tag k="source" v="bing"/>
  </way>
  <way id="692784646" version="3" timestamp="2020-10-31T20:54:11Z" changeset="93351969" uid="411244" user="RobJN">
    <nd ref="6504122719"/>
    <nd ref="8069751312"/>
    <nd ref="8069751311"/>
    <nd ref="8069751310"/>
    <nd ref="6504122731"/>
    <nd ref="6504122730"/>
    <nd ref="8069751309"/>
    <nd ref="6504122729"/>
    <nd ref="6504122728"/>
    <nd ref="6504122727"/>
    <nd ref="6504122721"/>
    <nd ref="8069751308"/>
    <nd ref="6504122726"/>
    <nd ref="8069751307"/>
    <nd ref="6504122725"/>
    <nd ref="6504122724"/>
    <tag k="highway" v="residential"/>
    <tag k="name" v="Bishop Drive"/>
    <tag k="sidewalk" v="both"/>
    <tag k="source" v="bing"/>
  </way>
  <way id="697998713" version="4" timestamp="2024-08-16T23:09:52Z" changeset="155347442" uid="5589" user="user_5589">
    <nd ref="6470755381"/>
    <nd ref="2265747414"/>
    <tag k="highway" v="trunk"/>
    <tag k="lanes" v="2"/>
    <tag k="lit" v="yes"/>
    <tag k="maxspeed" v="30 mph"/>
    <tag k="name" v="Marton Road"/>
    <tag k="oneway" v="no"/>
    <tag k="ref" v="A423"/>
    <tag k="sidewalk" v="right"/>
  </way>
  <way id="714921273" version="4" timestamp="2020-12-19T13:27:36Z" changeset="96108400" uid="346039" user="fitzsimons">
    <nd ref="6719966861"/>
    <nd ref="6719966879"/>
    <nd ref="6719980789"/>
    <nd ref="6719966858"/>
    <tag k="highway" v="residential"/>
    <tag k="name" v="The Locks"/>
    <tag k="ref:GB:usrn" v="38303916"/>
  </way>
  <way id="714921274" version="5" timestamp="2022-03-07T21:52:43Z" changeset="118214169" uid="705850" user="Cebderby">
    <nd ref="6719980785"/>
    <nd ref="6719966857"/>
    <nd ref="6719966854"/>
    <nd ref="6719966852"/>
    <nd ref="6719966881"/>
    <nd ref="6719966880"/>
    <nd ref="6719980787"/>
    <nd ref="6719980786"/>
    <nd ref="6719966882"/>
    <nd ref="6719966855"/>
    <nd ref="6719966872"/>
    <nd ref="6719966876"/>
    <nd ref="6719980788"/>
    <nd ref="6719966858"/>
    <nd ref="6719966874"/>
    <nd ref="7896334074"/>
    <nd ref="9561316877"/>
    <nd ref="6719966864"/>
    <tag k="highway" v="residential"/>
    <tag k="lanes" v="2"/>
    <tag k="maxspeed" v="10 mph"/>
    <tag k="name" v="Keepers Meadow"/>
    <tag k="oneway" v="no"/>
    <tag k="ref:GB:usrn" v="38303914"/>
    <tag k="surface" v="paved"/>
  </way>
  <way id="714921276" version="2" timestamp="2020-12-19T13:27:36Z" changeset="96108400" uid="346039" user="fitzsimons">
    <nd ref="6719966875"/>
    <nd ref="6719980785"/>
    <nd ref="6719966851"/>
    <tag k="highway" v="residential"/>
    <tag k="source" v="Maxar-Premium"/>
  </way>
  <way id="714921277" version="2" timestamp="2020-09-11T09:24:48Z" changeset="90748593" uid="9065" user="brianboru">
    <nd ref="6719966871"/>
    <nd ref="6719966861"/>
    <nd ref="6719966856"/>
    <tag k="highway" v="residential"/>
    <tag k="source" v="bing"/>
  </way>
  <way id="714921278" version="4" timestamp="2020-12-19T13:27:36Z" changeset="96108400" uid="346039" user="fitzsimons">
    <nd ref="6719966876"/>
    <nd ref="6719966866"/>
    <nd ref="6719966867"/>
    <nd ref="6719966859"/>
    <tag k="highway" v="residential"/>
    <tag k="name" v="Nelson Way"/>
    <tag k="ref:GB:usrn" v="38303915"/>
  </way>
  <way id="714921279" version="3" timestamp="2020-12-17T21:18:18Z" changeset="96028325" uid="6816132" user="CjMalone">
    <nd ref="6719966865"/>
    <nd ref="6719966859"/>
    <nd ref="6719966883"/>
    <tag k="highway" v="residential"/>
    <tag k="ref:GB:usrn" v="38303915"/>
  </way>
  <way id="846359171" version="3" timestamp="2022-03-07T21:52:43Z" changeset="118214169" uid="705850" user="Cebderby">
    <nd ref="7896334074"/>
    <nd ref="9561316889"/>
    <nd ref="7896334073"/>
    <nd ref="9561316890"/>
    <nd ref="7896334072"/>
    <tag k="highway" v="residential"/>
    <tag k="name" v="Keepers Meadow"/>
    <tag k="source" v="bing"/>
  </way>
  <way id="865753666" version="3" timestamp="2024-09-29T22:59:21Z" changeset="157273477" uid="230654" user="C2L">
    <nd ref="6504122720"/>
    <nd ref="12209934820"/>
    <nd ref="6504122707"/>
    <nd ref="8069751314"/>
    <nd ref="8069751313"/>
    <nd ref="6504122719"/>
    <nd ref="8069728734"/>
    <nd ref="8069728733"/>
    <tag k="highway" v="residential"/>
    <tag k="name" v="Cox Crescent"/>
    <tag k="sidewalk" v="both"/>
    <tag k="source" v="bing"/>
    <tag k="surface" v="asphalt"/>
  </way>
  <way id="865982352" version="4" timestamp="2024-09-29T22:59:21Z" changeset="157273477" uid="230654" user="C2L">
    <nd ref="7896334072"/>
    <nd ref="6719966864"/>
    <nd ref="4880444338"/>
    <nd ref="8243846986"/>
    <nd ref="7301324139"/>
    <nd ref="8243846987"/>
    <nd ref="255673232"/>
    <nd ref="2940213468"/>
    <nd ref="2940213469"/>
    <nd ref="528818666"/>
    <nd ref="7301324129"/>
    <nd ref="528818667"/>
    <nd ref="528818656"/>
    <nd ref="5896883559"/>
    <nd ref="255673234"/>
    <nd ref="5896883951"/>
    <nd ref="5896883952"/>
    <nd ref="12209934829"/>
    <nd ref="12209934828"/>
    <nd ref="281470121"/>
    <nd ref="2265747273"/>
    <tag k="highway" v="tertiary"/>
    <tag k="name" v="Stockton Road"/>
    <tag k="surface" v="asphalt"/>
  </way>
  <way id="886438952" version="1" timestamp="2020-12-19T12:47:09Z" changeset="96107097" uid="346039" user="fitzsimons">
    <nd ref="8242635796"/>
    <nd ref="8242635797"/>
    <nd ref="8242635798"/>
    <nd ref="8242635799"/>
    <tag k="highway" v="residential"/>
    <tag k="name" v="Water Furrows"/>
  </way>
  <way id="886438953" version="1" timestamp="2020-12-19T12:47:09Z" changeset="96107097" uid="346039" user="fitzsimons">
    <nd ref="8242635800"/>
    <nd ref="8242635799"/>
    <nd ref="8242635801"/>
    <tag k="highway" v="residential"/>
    <tag k="name" v="Water Furrows"/>
  </way>
  <way id="886438954" version="2" timestamp="2021-04-07T11:34:59Z" changeset="102478937" uid="12637824" user="MrMapperBanbury">
    <nd ref="6174367050"/>
    <nd ref="8602442890"/>
    <nd ref="8602442892"/>
    <nd ref="6174367051"/>
    <nd ref="6174367049"/>
    <nd ref="6504122673"/>
    <nd ref="8242635796"/>
    <nd ref="6503812530"/>
    <nd ref="6503812529"/>
    <nd ref="6503812528"/>
    <tag k="highway" v="residential"/>
    <tag k="name" v="Water Furrows"/>
    <tag k="source" v="Maxar Imagery"/>
  </way>
  <way id="886438955" version="3" timestamp="2021-04-07T11:34:59Z" changeset="102478937" uid="12637824" user="MrMapperBanbury">
    <nd ref="6503812528"/>
    <nd ref="7896378118"/>
    <nd ref="6503812527"/>
    <nd ref="6503812522"/>
    <nd ref="6503812526"/>
    <nd ref="8039001964"/>
    <nd ref="6503812525"/>
    <nd ref="6503812524"/>
    <nd ref="6503812523"/>
    <tag k="highway" v="residential"/>
    <tag k="name" v="Badger Lane"/>
    <tag k="source" v="Maxar Imagery"/>
  </way>
  <way id="927148501" version="1" timestamp="2021-04-07T11:34:59Z" changeset="102478937" uid="12637824" user="MrMapperBanbury">
    <nd ref="8602442881"/>
    <nd ref="6503812520"/>
    <nd ref="6174367048"/>
    <tag k="highway" v="residential"/>
    <tag k="name" v="Badger Lane"/>
    <tag k="source" v="Maxar Imagery"/>
  </way>
  <way id="943517379" version="8" timestamp="2025-08-17T18:46:51Z" changeset="170582200" uid="13247722" user="TheCanMan">
    <nd ref="21132184"/>
    <nd ref="1845029810"/>
    <nd ref="1834099526"/>
    <tag k="cycleway:both" v="no"/>
    <tag k="highway" v="primary"/>
    <tag k="lanes" v="2"/>
    <tag k="maxspeed" v="30 mph"/>
    <tag k="maxspeed:type" v="sign"/>
    <tag k="name" v="Southam Road"/>
    <tag k="postal_code" v="CV33"/>
    <tag k="ref" v="A425"/>
    <tag k="sidewalk" v="no"/>
    <tag k="source" v="survey"/>
    <tag k="surface" v="asphalt"/>
  </way>
  <way id="1009669629" version="4" timestamp="2025-08-18T20:22:46Z" changeset="170639110" uid="13247722" user="TheCanMan">
    <nd ref="262832475"/>
    <nd ref="262832476"/>
    <nd ref="262832477"/>
    <nd ref="262832478"/>
    <nd ref="262832479"/>
    <nd ref="2321327950"/>
    <nd ref="2321327951"/>
    <nd ref="702946475"/>
    <nd ref="2321327949"/>
    <nd ref="2321327948"/>
    <nd ref="2321327947"/>
    <nd ref="262832480"/>
    <nd ref="262832481"/>
    <nd ref="262832482"/>
    <nd ref="2321327942"/>
    <nd ref="2321327940"/>
    <nd ref="702946495"/>
    <nd ref="2321327938"/>
    <nd ref="2321327939"/>
    <nd ref="262832483"/>
    <nd ref="2321327944"/>
    <nd ref="702946497"/>
    <nd ref="274780794"/>
    <tag k="bicycle" v="yes"/>
    <tag k="highway" v="tertiary"/>
    <tag k="maxspeed" v="60 mph"/>
    <tag k="name" v="Stonebridge Lane"/>
  </way>
  <way id="1066545905" version="1" timestamp="2022-06-03T19:56:06Z" changeset="121913402" uid="9065" user="brianboru">
    <nd ref="9793602723"/>
    <nd ref="9793602722"/>
    <nd ref="9793602721"/>
    <nd ref="9793602720"/>
    <nd ref="9793602723"/>
    <tag k="building" v="yes"/>
    <tag k="name" v="Southam Local RMU 11kV"/>
    <tag k="power" v="substation"/>
    <tag k="ref" v="933193"/>
    <tag k="source" v="wpd_opendata"/>
  </way>
  <way id="1163399733" version="3" timestamp="2024-11-02T10:16:39Z" changeset="158651538" uid="21081459" user="Flynn_">
    <nd ref="2435282179"/>
    <nd ref="21132178"/>
    <nd ref="21132177"/>
    <nd ref="21132176"/>
    <nd ref="2435282221"/>
    <nd ref="21132175"/>
    <nd ref="11176392305"/>
    <nd ref="21132171"/>
    <tag k="highway" v="unclassified"/>
    <tag k="maxspeed" v="50 mph"/>
    <tag k="name" v="Southam Road"/>
    <tag k="old_ref" v="A425"/>
    <tag k="postal_code" v="CV33"/>
    <tag k="sidewalk" v="no"/>
    <tag k="source" v="survey"/>
  </way>
  <way id="1169322318" version="1" timestamp="2023-05-06T13:56:15Z" changeset="135778329" uid="13001300" user="simonc11">
    <nd ref="255673227"/>
    <nd ref="528818655"/>
    <nd ref="255673228"/>
    <nd ref="2511397541"/>
    <nd ref="528818654"/>
    <nd ref="2334539185"/>
    <nd ref="2511397544"/>
    <nd ref="255673229"/>
    <nd ref="10873421016"/>
    <tag k="highway" v="tertiary"/>
    <tag k="name" v="Stockton Road"/>
  </way>
  <way id="1206095040" version="1" timestamp="2023-09-08T10:40:25Z" changeset="140981103" uid="10974821" user="Marting77">
    <nd ref="11176400440"/>
    <nd ref="11176400441"/>
    <nd ref="11176400442"/>
    <nd ref="11176400443"/>
    <nd ref="11176400440"/>
    <tag k="building" v="yes"/>
    <tag k="name" v="HS2 Construction Office"/>
    <tag k="office" v="yes"/>
  </way>
  <way id="1423105262" version="1" timestamp="2025-08-18T20:22:46Z" changeset="170639110" uid="13247722" user="TheCanMan">
    <nd ref="278580066"/>
    <nd ref="667175574"/>
    <nd ref="4743616894"/>
    <nd ref="1808277945"/>
    <nd ref="4743616889"/>
    <nd ref="278580067"/>
    <nd ref="13078663780"/>
    <tag k="highway" v="tertiary"/>
    <tag k="maxspeed" v="30 mph"/>
  </way>
  <way id="1423106218" version="1" timestamp="2025-08-18T20:27:56Z" changeset="170639268" uid="13247722" user="TheCanMan">
    <nd ref="13078651823"/>
    <nd ref="2321327876"/>
    <nd ref="262832550"/>
    <nd ref="262832551"/>
    <nd ref="2321327878"/>
    <nd ref="262832672"/>
    <nd ref="2321327877"/>
    <nd ref="2321327875"/>
    <nd ref="262832673"/>
    <nd ref="6503993399"/>
    <nd ref="278579825"/>
    <tag k="highway" v="unclassified"/>
    <tag k="maxspeed" v="30 mph"/>
    <tag k="name" v="Stonebridge Lane"/>
  </way>
  <way id="1423106648" version="1" timestamp="2025-08-18T20:32:28Z" changeset="170639388" uid="13247722" user="TheCanMan">
    <nd ref="2475093046"/>
    <nd ref="278579422"/>
    <tag k="highway" v="unclassified"/>
    <tag k="highway_authority_ref" v="C97"/>
    <tag k="maxspeed" v="50 mph"/>
    <tag k="name" v="Bascote Road"/>
  </way>
  <way id="1427073449" version="1" timestamp="2025-09-04T10:44:59Z" changeset="171446012" uid="384887" user="robw">
    <nd ref="13119101238"/>
    <nd ref="13119101239"/>
    <nd ref="13119101240"/>
    <nd ref="13119101247"/>
    <nd ref="13119101241"/>
    <nd ref="13119101238"/>
    <tag k="amenity" v="cafe"/>
    <tag k="building" v="yes"/>
    <tag k="name" v="Majic Barn Cafe"/>
    <tag k="website" v="https://www.facebook.com/profile.php?id=61573752759317"/>
  </way>

</osm>
