<?xml version="1.0" encoding="UTF-8"?>
<osm version="0.6" generator="Overpass API 0.7.62.8 e802775f">
<note>The data included in this document is from www.openstreetmap.org. The data is made available under ODbL.</note>
<meta osm_base="2025-10-23T17:24:30Z" areas="2025-10-23T14:54:58Z"/>

  <node id="59998125" lat="52.1742225" lon="-1.5562702" version="4" timestamp="2024-11-29T22:36:16Z" changeset="159758879" uid="5229644" user="Nathan_A_RF"/>
  <node id="250854395" lat="52.1700050" lon="-1.5433368" version="3" timestamp="2019-10-17T14:21:45Z" changeset="75845268" uid="9065" user="brianboru"/>
  <node id="250854399" lat="52.1665846" lon="-1.5329883" version="2" timestamp="2013-03-20T11:08:19Z" changeset="15430145" uid="108511" user="Troon"/>
  <node id="256265045" lat="52.1996881" lon="-1.5049043" version="7" timestamp="2020-06-29T11:37:04Z" changeset="87292046" uid="9065" user="brianboru"/>
  <node id="256266451" lat="52.2003777" lon="-1.5328449" version="3" timestamp="2020-06-29T14:44:39Z" changeset="87300221" uid="9065" user="brianboru"/>
  <node id="277897540" lat="52.1833311" lon="-1.5359850" version="2" timestamp="2013-05-10T09:25:51Z" changeset="16061195" uid="9065" user="brianboru"/>
  <node id="289696208" lat="52.1895843" lon="-1.5422771" version="3" timestamp="2022-02-10T14:07:07Z" changeset="117247886" uid="9065" user="brianboru"/>
  <node id="412605635" lat="52.1619083" lon="-1.5548738" version="3" timestamp="2020-10-22T15:17:52Z" changeset="92905241" uid="9065" user="brianboru"/>
  <node id="1247944671" lat="52.1738359" lon="-1.5260779" version="1" timestamp="2011-04-17T06:57:26Z" changeset="7884302" uid="22445" user="PhilH"/>
  <node id="2147904088" lat="52.1742128" lon="-1.5561851" version="3" timestamp="2024-11-29T22:36:16Z" changeset="159758879" uid="5229644" user="Nathan_A_RF"/>
  <node id="2203152440" lat="52.1707966" lon="-1.5466875" version="3" timestamp="2013-03-20T11:08:20Z" changeset="15430145" uid="108511" user="Troon"/>
  <node id="2264388724" lat="52.1747707" lon="-1.5558838" version="1" timestamp="2013-04-12T11:42:09Z" changeset="15700167" uid="108511" user="Troon"/>
  <node id="2957076044" lat="52.1783119" lon="-1.5071036" version="1" timestamp="2014-07-10T11:30:38Z" changeset="24061975" uid="2141698" user="happymappy91"/>
  <node id="2957079687" lat="52.1720010" lon="-1.5181850" version="1" timestamp="2014-07-10T11:38:28Z" changeset="24062107" uid="2141698" user="happymappy91"/>
  <node id="6597337228" lat="52.1761133" lon="-1.5055458" version="4" timestamp="2024-11-13T23:46:48Z" changeset="159111109" uid="22056116" user="Puckle"/>
  <node id="6597359193" lat="52.1811146" lon="-1.5044295" version="2" timestamp="2020-11-10T13:14:42Z" changeset="93864542" uid="10252543" user="srikmar"/>
  <node id="10698975631" lat="52.1771857" lon="-1.4997500" version="3" timestamp="2025-02-10T11:39:37Z" changeset="162346806" uid="14323616" user="Nick42UK"/>
  <node id="13188741864" lat="52.1746259" lon="-1.5090984" version="1" timestamp="2025-10-02T13:09:38Z" changeset="172748542" uid="14323616" user="Nick42UK"/>
  <way id="7710554" version="36" timestamp="2024-11-29T22:36:16Z" changeset="159758879" uid="5229644" user="Nathan_A_RF">
    <nd ref="256266451"/>
    <nd ref="2297991180"/>
    <nd ref="15830538"/>
    <nd ref="56060732"/>
    <nd ref="2297991164"/>
    <nd ref="56060733"/>
    <nd ref="2656011052"/>
    <nd ref="2297991157"/>
    <nd ref="56060735"/>
    <nd ref="7666687575"/>
    <nd ref="7666687576"/>
    <nd ref="2341931318"/>
    <nd ref="2297991138"/>
    <nd ref="56060738"/>
    <nd ref="7666775293"/>
    <nd ref="2297991135"/>
    <nd ref="56060740"/>
    <nd ref="7666775294"/>
    <nd ref="2297991123"/>
    <nd ref="2297991111"/>
    <nd ref="56060741"/>
    <nd ref="2297991104"/>
    <nd ref="2297991097"/>
    <nd ref="15830537"/>
    <nd ref="2297991087"/>
    <nd ref="2656011022"/>
    <nd ref="2297991083"/>
    <nd ref="7725893445"/>
    <nd ref="8574964469"/>
    <nd ref="56060742"/>
    <nd ref="2435560393"/>
    <nd ref="8954330989"/>
    <nd ref="10301968328"/>
    <nd ref="1550725960"/>
    <nd ref="289696208"/>
    <nd ref="2619849066"/>
    <nd ref="2297991075"/>
    <nd ref="56060743"/>
    <nd ref="2435560320"/>
    <nd ref="15830535"/>
    <nd ref="2435560292"/>
    <nd ref="2280619584"/>
    <nd ref="2280619561"/>
    <nd ref="2435560257"/>
    <nd ref="56060747"/>
    <nd ref="2280625662"/>
    <nd ref="2280619510"/>
    <nd ref="2280622683"/>
    <nd ref="2280625659"/>
    <nd ref="2480973303"/>
    <nd ref="15830533"/>
    <nd ref="2264388724"/>
    <tag k="cycleway:both" v="no"/>
    <tag k="highway" v="secondary"/>
    <tag k="lanes" v="2"/>
    <tag k="lit" v="no"/>
    <tag k="maxspeed" v="60 mph"/>
    <tag k="maxspeed:type" v="GB:nsl_single"/>
    <tag k="name" v="Fosse Way"/>
    <tag k="ref" v="B4455"/>
    <tag k="shoulder" v="no"/>
    <tag k="sidewalk" v="no"/>
    <tag k="surface" v="asphalt"/>
  </way>
  <way id="7710782" version="13" timestamp="2024-11-29T22:36:16Z" changeset="159758879" uid="5229644" user="Nathan_A_RF">
    <nd ref="59998125"/>
    <nd ref="12385336761"/>
    <nd ref="2147904092"/>
    <nd ref="12385336755"/>
    <nd ref="2147904091"/>
    <nd ref="2147904090"/>
    <nd ref="2147904086"/>
    <nd ref="56062586"/>
    <nd ref="12385336756"/>
    <nd ref="2147904085"/>
    <nd ref="2147904087"/>
    <nd ref="56060748"/>
    <nd ref="12385336757"/>
    <nd ref="2147904083"/>
    <nd ref="2147904096"/>
    <nd ref="2147904084"/>
    <nd ref="56062591"/>
    <nd ref="12385336758"/>
    <nd ref="12385336759"/>
    <nd ref="2147904089"/>
    <nd ref="12385336760"/>
    <nd ref="2147904088"/>
    <nd ref="59998125"/>
    <tag k="cycleway:both" v="no"/>
    <tag k="highway" v="secondary"/>
    <tag k="junction" v="roundabout"/>
    <tag k="lanes" v="2"/>
    <tag k="lit" v="yes"/>
    <tag k="maxspeed" v="60 mph"/>
    <tag k="maxspeed:type" v="GB:nsl_single"/>
    <tag k="name" v="Bowshot Roundabout"/>
    <tag k="oneway" v="yes"/>
    <tag k="shoulder" v="no"/>
    <tag k="sidewalk" v="no"/>
    <tag k="surface" v="asphalt"/>
  </way>
  <way id="25502722" version="22" timestamp="2025-02-19T22:54:59Z" changeset="162719832" uid="493595" user="Yorvik Prestigitator">
    <nd ref="256265045"/>
    <nd ref="6597374910"/>
    <nd ref="277896622"/>
    <nd ref="277896623"/>
    <nd ref="12602091365"/>
    <nd ref="277896624"/>
    <nd ref="12602091360"/>
    <nd ref="2025957161"/>
    <nd ref="2025957167"/>
    <nd ref="7666577179"/>
    <nd ref="277896625"/>
    <nd ref="7666635412"/>
    <nd ref="2025957171"/>
    <nd ref="277896626"/>
    <nd ref="1550725956"/>
    <nd ref="7136073605"/>
    <nd ref="277896627"/>
    <nd ref="7136073593"/>
    <nd ref="6485431057"/>
    <nd ref="277896628"/>
    <nd ref="2323268870"/>
    <nd ref="277896629"/>
    <nd ref="277896630"/>
    <nd ref="2341931267"/>
    <nd ref="2341931259"/>
    <nd ref="277896631"/>
    <nd ref="2341931242"/>
    <nd ref="277896632"/>
    <nd ref="277896633"/>
    <nd ref="2298043502"/>
    <nd ref="277896634"/>
    <nd ref="2298043499"/>
    <nd ref="277896635"/>
    <nd ref="1550725968"/>
    <nd ref="277896636"/>
    <nd ref="1550725959"/>
    <nd ref="1550725958"/>
    <nd ref="277896637"/>
    <nd ref="2465709332"/>
    <nd ref="277896638"/>
    <nd ref="277896639"/>
    <nd ref="2341882381"/>
    <nd ref="277896640"/>
    <nd ref="277896641"/>
    <nd ref="1248057568"/>
    <nd ref="2341931052"/>
    <nd ref="277896642"/>
    <nd ref="277896643"/>
    <nd ref="2298014086"/>
    <nd ref="1248057560"/>
    <nd ref="277896644"/>
    <nd ref="2298013949"/>
    <nd ref="277896645"/>
    <nd ref="277896646"/>
    <nd ref="2298013895"/>
    <nd ref="2298013883"/>
    <nd ref="2298013877"/>
    <nd ref="277896647"/>
    <nd ref="277896648"/>
    <nd ref="2298013861"/>
    <nd ref="277896649"/>
    <nd ref="277897540"/>
    <tag k="highway" v="tertiary"/>
    <tag k="name" v="Wellesbourne Road"/>
  </way>
  <way id="25502791" version="17" timestamp="2024-02-07T03:26:56Z" changeset="147158804" uid="563773" user="mrpacmanmap">
    <nd ref="1247944671"/>
    <nd ref="277897551"/>
    <nd ref="277897552"/>
    <nd ref="277897553"/>
    <nd ref="6888296603"/>
    <nd ref="2554335359"/>
    <nd ref="2341882021"/>
    <nd ref="2341882015"/>
    <nd ref="277897554"/>
    <nd ref="277897555"/>
    <nd ref="2341882001"/>
    <nd ref="277897556"/>
    <nd ref="277897557"/>
    <nd ref="2341881992"/>
    <nd ref="277897558"/>
    <nd ref="277897559"/>
    <nd ref="277897560"/>
    <nd ref="277897561"/>
    <nd ref="2341881976"/>
    <nd ref="2341881972"/>
    <nd ref="277897562"/>
    <nd ref="9495662329"/>
    <nd ref="277897563"/>
    <nd ref="9495662313"/>
    <nd ref="2341881946"/>
    <nd ref="277897564"/>
    <tag k="highway" v="tertiary"/>
    <tag k="name" v="Lighthorne Road"/>
  </way>
  <way id="26437773" version="5" timestamp="2022-02-10T14:07:07Z" changeset="117247886" uid="9065" user="brianboru">
    <nd ref="277897540"/>
    <nd ref="289696256"/>
    <nd ref="2298013868"/>
    <nd ref="2298013872"/>
    <nd ref="289696257"/>
    <nd ref="289696258"/>
    <nd ref="289696259"/>
    <nd ref="289696260"/>
    <nd ref="289696261"/>
    <nd ref="9495488867"/>
    <nd ref="289696262"/>
    <tag k="highway" v="tertiary"/>
    <tag k="name" v="Lighthorne Road"/>
    <tag k="source" v="NPE"/>
  </way>
  <way id="141668845" version="7" timestamp="2022-02-10T14:07:07Z" changeset="117247886" uid="9065" user="brianboru">
    <nd ref="289696208"/>
    <nd ref="9495488869"/>
    <nd ref="289696262"/>
    <nd ref="2619849071"/>
    <nd ref="289696209"/>
    <nd ref="8574964467"/>
    <nd ref="289696210"/>
    <nd ref="289696211"/>
    <nd ref="289696212"/>
    <nd ref="2298014099"/>
    <nd ref="289696213"/>
    <nd ref="289696214"/>
    <nd ref="2341931037"/>
    <nd ref="289696215"/>
    <nd ref="289696216"/>
    <nd ref="2341931034"/>
    <nd ref="2298014093"/>
    <nd ref="2298014094"/>
    <nd ref="277896643"/>
    <tag k="highway" v="tertiary"/>
    <tag k="source" v="NPE"/>
  </way>
  <way id="191358313" version="7" timestamp="2025-08-26T23:14:46Z" changeset="171053695" uid="13247722" user="TheCanMan">
    <nd ref="250854395"/>
    <nd ref="2019441668"/>
    <nd ref="2211146393"/>
    <nd ref="2211146397"/>
    <nd ref="2211146399"/>
    <nd ref="250854396"/>
    <nd ref="2211146387"/>
    <nd ref="2211146382"/>
    <nd ref="2211146388"/>
    <nd ref="2211146391"/>
    <nd ref="250854398"/>
    <tag k="highway" v="secondary"/>
    <tag k="maxspeed" v="60 mph"/>
    <tag k="name" v="Spring Hill"/>
    <tag k="ref" v="B4086"/>
    <tag k="source" v="NPE"/>
    <tag k="source:name" v="OS_OpenData_Locator"/>
    <tag k="surface" v="asphalt"/>
  </way>
  <way id="191358314" version="12" timestamp="2024-04-10T10:03:31Z" changeset="149811932" uid="18869198" user="TB-E">
    <nd ref="412605635"/>
    <nd ref="2559858484"/>
    <nd ref="2559858483"/>
    <nd ref="2559858475"/>
    <nd ref="412605638"/>
    <nd ref="2559858468"/>
    <nd ref="412605642"/>
    <nd ref="7543123196"/>
    <nd ref="412605645"/>
    <nd ref="11806821049"/>
    <nd ref="6888107901"/>
    <nd ref="2559858494"/>
    <nd ref="412605649"/>
    <nd ref="2559858522"/>
    <nd ref="1248021181"/>
    <nd ref="412605653"/>
    <nd ref="412605656"/>
    <nd ref="2549706550"/>
    <nd ref="2549761975"/>
    <nd ref="2549761985"/>
    <nd ref="412605662"/>
    <nd ref="2559858553"/>
    <nd ref="2559964225"/>
    <nd ref="2559858566"/>
    <nd ref="412605665"/>
    <nd ref="2559964227"/>
    <nd ref="2559858610"/>
    <nd ref="412605667"/>
    <nd ref="2559858646"/>
    <nd ref="412605670"/>
    <nd ref="2559964235"/>
    <nd ref="412605673"/>
    <nd ref="6892853532"/>
    <nd ref="412605677"/>
    <nd ref="2559964245"/>
    <nd ref="412605680"/>
    <nd ref="2559964250"/>
    <nd ref="2559964253"/>
    <nd ref="412605683"/>
    <nd ref="2559964258"/>
    <nd ref="412605686"/>
    <nd ref="412605699"/>
    <nd ref="2559964247"/>
    <nd ref="6892828983"/>
    <nd ref="412605702"/>
    <nd ref="6892828984"/>
    <nd ref="412605705"/>
    <nd ref="2554335298"/>
    <nd ref="412605709"/>
    <nd ref="2554335286"/>
    <nd ref="2554335283"/>
    <nd ref="2554335280"/>
    <nd ref="412605712"/>
    <nd ref="412605714"/>
    <nd ref="412605717"/>
    <nd ref="2554335262"/>
    <nd ref="412605719"/>
    <nd ref="2554335263"/>
    <nd ref="412605722"/>
    <nd ref="2549330006"/>
    <nd ref="2554335291"/>
    <nd ref="2554335306"/>
    <nd ref="412605724"/>
    <nd ref="2554335316"/>
    <nd ref="412605727"/>
    <nd ref="2554335342"/>
    <nd ref="2554335346"/>
    <nd ref="2554335353"/>
    <nd ref="2554335356"/>
    <nd ref="250854398"/>
    <tag k="highway" v="unclassified"/>
    <tag k="lanes" v="1"/>
    <tag k="maxspeed" v="30 mph"/>
    <tag k="name" v="Church Hill"/>
    <tag k="source" v="NPE"/>
    <tag k="source:name" v="OS_OpenData_Locator"/>
    <tag k="surface" v="asphalt"/>
  </way>
  <way id="191358315" version="11" timestamp="2024-11-29T22:36:16Z" changeset="159758879" uid="5229644" user="Nathan_A_RF">
    <nd ref="1248052302"/>
    <nd ref="250854390"/>
    <nd ref="2035848510"/>
    <nd ref="2211146565"/>
    <nd ref="250854392"/>
    <nd ref="2203152478"/>
    <nd ref="11690156951"/>
    <nd ref="250854394"/>
    <tag k="cycleway:both" v="no"/>
    <tag k="highway" v="secondary"/>
    <tag k="lanes" v="2"/>
    <tag k="maxspeed" v="60 mph"/>
    <tag k="maxspeed:type" v="GB:nsl_single"/>
    <tag k="name" v="Compton Hill"/>
    <tag k="ref" v="B4086"/>
    <tag k="sidewalk" v="no"/>
    <tag k="source" v="NPE"/>
    <tag k="source:name" v="OS_OpenData_Locator"/>
    <tag k="surface" v="asphalt"/>
  </way>
  <way id="191358316" version="9" timestamp="2024-11-29T22:36:16Z" changeset="159758879" uid="5229644" user="Nathan_A_RF">
    <nd ref="250854394"/>
    <nd ref="2211146396"/>
    <nd ref="2211146389"/>
    <nd ref="2203152389"/>
    <nd ref="2203152440"/>
    <tag k="cycleway:both" v="no"/>
    <tag k="highway" v="secondary"/>
    <tag k="lanes" v="2"/>
    <tag k="maxspeed" v="60 mph"/>
    <tag k="maxspeed:type" v="GB:nsl_single"/>
    <tag k="ref" v="B4086"/>
    <tag k="source" v="NPE"/>
    <tag k="surface" v="asphalt"/>
  </way>
  <way id="210216867" version="10" timestamp="2025-01-22T15:43:16Z" changeset="161643218" uid="139424" user="pigsonthewing">
    <nd ref="2203155995"/>
    <nd ref="2203155996"/>
    <nd ref="2203155998"/>
    <nd ref="2203155997"/>
    <nd ref="2203155988"/>
    <nd ref="2203155990"/>
    <nd ref="2203155986"/>
    <nd ref="2203155991"/>
    <nd ref="2203155987"/>
    <nd ref="9568365629"/>
    <nd ref="2203155999"/>
    <nd ref="2203155989"/>
    <nd ref="2203156002"/>
    <nd ref="2203155995"/>
    <tag k="addr:postcode" v="CV35 9HZ"/>
    <tag k="alt_name" v="Compton Verney"/>
    <tag k="building" v="yes"/>
    <tag k="fax" v="+44 1926 645501"/>
    <tag k="fee" v="yes"/>
    <tag k="heritage" v="2"/>
    <tag k="heritage:operator" v="Historic England"/>
    <tag k="listed_status" v="Grade I"/>
    <tag k="name" v="Compton Verney House"/>
    <tag k="opening_hours" v="Tu-Su 11:00-17:00; Mo off"/>
    <tag k="opening_hours:url" v="http://www.comptonverney.org.uk/plan_your_visit/opening.aspx"/>
    <tag k="phone" v="+44 1926 645500"/>
    <tag k="toilets:wheelchair" v="yes"/>
    <tag k="website" v="https://www.comptonverney.org.uk/"/>
    <tag k="wheelchair" v="yes"/>
    <tag k="wikidata" v="Q5157178"/>
    <tag k="wikipedia" v="en:Compton Verney House"/>
  </way>
  <way id="210217590" version="2" timestamp="2024-05-07T09:39:56Z" changeset="151001057" uid="8891552" user="Zomba">
    <nd ref="2203160304"/>
    <nd ref="2203160307"/>
    <nd ref="2203160320"/>
    <nd ref="2203160317"/>
    <nd ref="2203160310"/>
    <nd ref="2203160305"/>
    <nd ref="2203160321"/>
    <nd ref="2203160299"/>
    <nd ref="2203160308"/>
    <nd ref="2203160315"/>
    <nd ref="2203160313"/>
    <nd ref="2203160324"/>
    <nd ref="2203160304"/>
    <tag k="building" v="yes"/>
    <tag k="listed_status" v="Grade II"/>
    <tag k="name" v="The Butlers House"/>
    <tag k="wikidata" v="Q26661949"/>
  </way>
  <way id="211108285" version="7" timestamp="2024-11-29T22:36:16Z" changeset="159758879" uid="5229644" user="Nathan_A_RF">
    <nd ref="2203152440"/>
    <nd ref="2211142855"/>
    <tag k="bridge" v="yes"/>
    <tag k="cycleway:both" v="no"/>
    <tag k="highway" v="secondary"/>
    <tag k="lanes" v="2"/>
    <tag k="layer" v="1"/>
    <tag k="maxspeed" v="60 mph"/>
    <tag k="maxspeed:type" v="GB:nsl_single"/>
    <tag k="maxweight:signed" v="no"/>
    <tag k="ref" v="B4086"/>
    <tag k="source" v="NPE"/>
    <tag k="surface" v="asphalt"/>
  </way>
  <way id="217135409" version="12" timestamp="2024-11-29T22:36:16Z" changeset="159758879" uid="5229644" user="Nathan_A_RF">
    <nd ref="2147904084"/>
    <nd ref="2264388726"/>
    <nd ref="2264388712"/>
    <tag k="cycleway:both" v="no"/>
    <tag k="highway" v="secondary"/>
    <tag k="lanes" v="1"/>
    <tag k="lit" v="yes"/>
    <tag k="maxspeed" v="60 mph"/>
    <tag k="maxspeed:type" v="GB:nsl_single"/>
    <tag k="oneway" v="yes"/>
    <tag k="ref" v="B4086"/>
    <tag k="shoulder" v="no"/>
    <tag k="sidewalk" v="no"/>
    <tag k="source" v="NPE"/>
    <tag k="surface" v="asphalt"/>
  </way>
  <way id="217135410" version="11" timestamp="2024-11-29T22:36:16Z" changeset="159758879" uid="5229644" user="Nathan_A_RF">
    <nd ref="2264388712"/>
    <nd ref="2264388714"/>
    <nd ref="2147904089"/>
    <tag k="cycleway:both" v="no"/>
    <tag k="highway" v="secondary"/>
    <tag k="lanes" v="1"/>
    <tag k="lit" v="yes"/>
    <tag k="maxspeed" v="60 mph"/>
    <tag k="maxspeed:type" v="GB:nsl_single"/>
    <tag k="oneway" v="yes"/>
    <tag k="ref" v="B4086"/>
    <tag k="shoulder" v="no"/>
    <tag k="sidewalk" v="no"/>
    <tag k="source" v="NPE"/>
    <tag k="surface" v="asphalt"/>
  </way>
  <way id="217135413" version="11" timestamp="2024-11-29T22:36:16Z" changeset="159758879" uid="5229644" user="Nathan_A_RF">
    <nd ref="2147904088"/>
    <nd ref="2264388719"/>
    <nd ref="2264388715"/>
    <tag k="cycleway:both" v="no"/>
    <tag k="highway" v="secondary"/>
    <tag k="lane_markings" v="no"/>
    <tag k="lanes" v="1"/>
    <tag k="lit" v="yes"/>
    <tag k="maxspeed" v="60 mph"/>
    <tag k="maxspeed:type" v="GB:nsl_single"/>
    <tag k="name" v="Fosse Way"/>
    <tag k="oneway" v="yes"/>
    <tag k="ref" v="B4455"/>
    <tag k="sidewalk" v="no"/>
    <tag k="surface" v="asphalt"/>
  </way>
  <way id="217135414" version="11" timestamp="2024-11-29T22:36:16Z" changeset="159758879" uid="5229644" user="Nathan_A_RF">
    <nd ref="2264388724"/>
    <nd ref="2264388731"/>
    <nd ref="2147904083"/>
    <tag k="cycleway:both" v="no"/>
    <tag k="highway" v="secondary"/>
    <tag k="lanes" v="1"/>
    <tag k="lit" v="yes"/>
    <tag k="maxspeed" v="60 mph"/>
    <tag k="maxspeed:type" v="GB:nsl_single"/>
    <tag k="name" v="Fosse Way"/>
    <tag k="oneway" v="yes"/>
    <tag k="ref" v="B4455"/>
    <tag k="shoulder" v="no"/>
    <tag k="sidewalk" v="no"/>
    <tag k="surface" v="asphalt"/>
  </way>
  <way id="217135416" version="8" timestamp="2024-11-29T22:36:16Z" changeset="159758879" uid="5229644" user="Nathan_A_RF">
    <nd ref="2264388712"/>
    <nd ref="163115040"/>
    <nd ref="1248052302"/>
    <tag k="cycleway:both" v="no"/>
    <tag k="highway" v="secondary"/>
    <tag k="lanes" v="2"/>
    <tag k="maxspeed" v="60 mph"/>
    <tag k="maxspeed:type" v="GB:nsl_single"/>
    <tag k="ref" v="B4086"/>
    <tag k="shoulder" v="no"/>
    <tag k="sidewalk" v="no"/>
    <tag k="source" v="NPE"/>
    <tag k="surface" v="asphalt"/>
  </way>
  <way id="220709580" version="2" timestamp="2014-01-10T15:26:08Z" changeset="19919371" uid="55693" user="spiffy mapper">
    <nd ref="2298014012"/>
    <nd ref="2298014009"/>
    <nd ref="2298014010"/>
    <nd ref="2298013983"/>
    <nd ref="2298013981"/>
    <nd ref="2298013977"/>
    <nd ref="2298013957"/>
    <nd ref="2298013962"/>
    <nd ref="2298013958"/>
    <nd ref="2298013985"/>
    <nd ref="2298013989"/>
    <nd ref="2298013993"/>
    <nd ref="2298014012"/>
    <tag k="building" v="yes"/>
    <tag k="name" v="British Film Institute Master Film Store"/>
    <tag k="source" v="bing"/>
  </way>
  <way id="249376097" version="2" timestamp="2024-05-07T09:39:56Z" changeset="151001057" uid="8891552" user="Zomba">
    <nd ref="2559859035"/>
    <nd ref="2559859029"/>
    <nd ref="2559859038"/>
    <nd ref="2559859025"/>
    <nd ref="2559859015"/>
    <nd ref="2559859001"/>
    <nd ref="2559859021"/>
    <nd ref="2559859033"/>
    <nd ref="2559859048"/>
    <nd ref="2559859027"/>
    <nd ref="2559859019"/>
    <nd ref="2559859023"/>
    <nd ref="2559859004"/>
    <nd ref="2559859006"/>
    <nd ref="2559858996"/>
    <nd ref="2559859031"/>
    <nd ref="2559859035"/>
    <tag k="building" v="yes"/>
    <tag k="listed_status" v="Grade II"/>
    <tag k="name" v="Gardener's Cottage"/>
    <tag k="source" v="bing"/>
    <tag k="wikidata" v="Q26661946"/>
  </way>
  <way id="249376101" version="4" timestamp="2022-03-10T10:22:43Z" changeset="118316388" uid="9065" user="brianboru">
    <nd ref="2559858975"/>
    <nd ref="2559858970"/>
    <nd ref="2559858940"/>
    <nd ref="2559858964"/>
    <nd ref="2559858975"/>
    <tag k="building" v="church"/>
    <tag k="heritage" v="2"/>
    <tag k="heritage:operator" v="Historic England"/>
    <tag k="listed_status" v="Grade I"/>
    <tag k="name" v="Compton Verney Chapel"/>
    <tag k="religion" v="christian"/>
    <tag k="source" v="bing"/>
  </way>
  <way id="292167785" version="7" timestamp="2025-06-24T13:32:40Z" changeset="168049892" uid="14323616" user="Nick42UK">
    <nd ref="2957073331"/>
    <nd ref="2957073332"/>
    <nd ref="2957076033"/>
    <nd ref="2957076034"/>
    <nd ref="2957076035"/>
    <nd ref="2957076036"/>
    <nd ref="2957076037"/>
    <nd ref="2957076038"/>
    <nd ref="2957076039"/>
    <nd ref="2957076040"/>
    <nd ref="2957076041"/>
    <nd ref="2957076042"/>
    <nd ref="2957076043"/>
    <nd ref="2957076044"/>
    <nd ref="2957073331"/>
    <tag k="access" v="yes"/>
    <tag k="highway" v="unclassified"/>
    <tag k="surface" v="unpaved"/>
  </way>
  <way id="292167800" version="5" timestamp="2025-06-24T13:32:40Z" changeset="168049892" uid="14323616" user="Nick42UK">
    <nd ref="2957076037"/>
    <nd ref="2957075969"/>
    <nd ref="2957075970"/>
    <nd ref="2957075971"/>
    <nd ref="2957075972"/>
    <nd ref="2957075973"/>
    <nd ref="2957075974"/>
    <nd ref="2957075975"/>
    <nd ref="2957075976"/>
    <nd ref="2957075977"/>
    <nd ref="2957075978"/>
    <nd ref="2957075979"/>
    <nd ref="2957075980"/>
    <nd ref="2957079687"/>
    <nd ref="2957075981"/>
    <tag k="access" v="yes"/>
    <tag k="highway" v="unclassified"/>
    <tag k="name" v="Road C Out"/>
    <tag k="surface" v="unpaved"/>
  </way>
  <way id="292167823" version="5" timestamp="2025-06-24T13:32:40Z" changeset="168049892" uid="14323616" user="Nick42UK">
    <nd ref="2957075982"/>
    <nd ref="2957075983"/>
    <nd ref="2957075984"/>
    <nd ref="2957075985"/>
    <nd ref="2957075986"/>
    <nd ref="2957075987"/>
    <nd ref="2957075988"/>
    <nd ref="10699192268"/>
    <nd ref="2957075989"/>
    <nd ref="2957076033"/>
    <tag k="access" v="yes"/>
    <tag k="highway" v="unclassified"/>
    <tag k="name" v="Road C In"/>
    <tag k="surface" v="unpaved"/>
  </way>
  <way id="292167881" version="4" timestamp="2023-07-13T09:08:51Z" changeset="138454584" uid="14323616" user="Nick42UK">
    <nd ref="2957076872"/>
    <nd ref="2957076859"/>
    <nd ref="2957076860"/>
    <nd ref="2957076861"/>
    <nd ref="2957076862"/>
    <nd ref="2957076863"/>
    <nd ref="2957076864"/>
    <nd ref="2957076865"/>
    <nd ref="2957076866"/>
    <nd ref="2957075981"/>
    <tag k="access" v="yes"/>
    <tag k="highway" v="unclassified"/>
  </way>
  <way id="292168235" version="8" timestamp="2025-06-24T13:32:40Z" changeset="168049892" uid="14323616" user="Nick42UK">
    <nd ref="2957079687"/>
    <nd ref="2957079688"/>
    <nd ref="2957079689"/>
    <nd ref="2957079690"/>
    <nd ref="2957079691"/>
    <nd ref="2957079692"/>
    <nd ref="2957079693"/>
    <nd ref="2957079694"/>
    <nd ref="10699175401"/>
    <nd ref="2957079695"/>
    <nd ref="2957079696"/>
    <nd ref="2957079697"/>
    <nd ref="2957079698"/>
    <nd ref="2957079699"/>
    <nd ref="2957079700"/>
    <nd ref="2957079701"/>
    <nd ref="2957079702"/>
    <nd ref="2957079703"/>
    <nd ref="2957079704"/>
    <nd ref="2957079705"/>
    <nd ref="2957079706"/>
    <nd ref="2957079707"/>
    <nd ref="2957079708"/>
    <nd ref="2957079709"/>
    <nd ref="2957079710"/>
    <nd ref="2957079711"/>
    <nd ref="2957079712"/>
    <nd ref="2957079713"/>
    <nd ref="2957079714"/>
    <nd ref="2957079715"/>
    <nd ref="2957079716"/>
    <nd ref="2957079717"/>
    <nd ref="2957079718"/>
    <nd ref="2957079719"/>
    <nd ref="2957079720"/>
    <nd ref="2957079721"/>
    <nd ref="2957079722"/>
    <nd ref="2957079723"/>
    <nd ref="2957079724"/>
    <nd ref="2957079725"/>
    <nd ref="2957079726"/>
    <nd ref="2957079727"/>
    <nd ref="2957079728"/>
    <nd ref="2957079729"/>
    <nd ref="2957079730"/>
    <nd ref="2957079731"/>
    <nd ref="2957079732"/>
    <nd ref="2957082333"/>
    <nd ref="2957082334"/>
    <nd ref="2957082335"/>
    <nd ref="2957082336"/>
    <nd ref="2957082337"/>
    <nd ref="2957082338"/>
    <nd ref="2957082339"/>
    <nd ref="2957082340"/>
    <nd ref="2957082341"/>
    <nd ref="2957082342"/>
    <nd ref="2957082343"/>
    <nd ref="2957082344"/>
    <nd ref="2957082345"/>
    <nd ref="2957082346"/>
    <nd ref="2957082347"/>
    <nd ref="2957082348"/>
    <nd ref="2957082349"/>
    <nd ref="2957082350"/>
    <nd ref="2957082351"/>
    <nd ref="2957082352"/>
    <nd ref="2957082353"/>
    <nd ref="2957082354"/>
    <nd ref="2957082355"/>
    <nd ref="2957082356"/>
    <nd ref="2957082357"/>
    <nd ref="2957082358"/>
    <nd ref="2957082359"/>
    <nd ref="2957082360"/>
    <nd ref="11850018400"/>
    <nd ref="2957082361"/>
    <nd ref="12573942567"/>
    <nd ref="2957076863"/>
    <tag k="access" v="yes"/>
    <tag k="highway" v="unclassified"/>
    <tag k="name" v="Flint Road"/>
    <tag k="surface" v="unpaved"/>
  </way>
  <way id="410313242" version="2" timestamp="2019-07-08T19:04:20Z" changeset="72027049" uid="9065" user="brianboru">
    <nd ref="2957075982"/>
    <nd ref="2957076872"/>
    <tag k="access" v="private"/>
    <tag k="highway" v="unclassified"/>
  </way>
  <way id="410313243" version="2" timestamp="2019-07-08T19:04:20Z" changeset="72027049" uid="9065" user="brianboru">
    <nd ref="2957075981"/>
    <nd ref="2957076867"/>
    <nd ref="2957076868"/>
    <nd ref="2957076869"/>
    <nd ref="2957076870"/>
    <nd ref="2957076871"/>
    <nd ref="2957076872"/>
    <tag k="access" v="private"/>
    <tag k="highway" v="unclassified"/>
  </way>
  <way id="417638534" version="5" timestamp="2024-11-12T13:28:47Z" changeset="159050374" uid="14677286" user="yasslay">
    <nd ref="4181542768"/>
    <nd ref="4181542769"/>
    <nd ref="4181542771"/>
    <nd ref="4181542770"/>
    <tag k="access" v="private"/>
    <tag k="highway" v="unclassified"/>
  </way>
  <way id="417638535" version="5" timestamp="2024-11-12T13:28:47Z" changeset="159050374" uid="14677286" user="yasslay">
    <nd ref="4181542774"/>
    <nd ref="4181542773"/>
    <nd ref="4181542772"/>
    <nd ref="4181542770"/>
    <tag k="access" v="private"/>
    <tag k="highway" v="unclassified"/>
  </way>
  <way id="417638537" version="5" timestamp="2023-09-19T12:34:09Z" changeset="141467315" uid="14323616" user="Nick42UK">
    <nd ref="10716442166"/>
    <nd ref="4181542765"/>
    <nd ref="4181542766"/>
    <nd ref="4181542767"/>
    <nd ref="4181542770"/>
    <tag k="access" v="private"/>
    <tag k="highway" v="unclassified"/>
  </way>
  <way id="702528010" version="8" timestamp="2025-06-24T13:32:40Z" changeset="168049892" uid="14323616" user="Nick42UK">
    <nd ref="2957076044"/>
    <nd ref="6597342295"/>
    <nd ref="6597342294"/>
    <nd ref="6597342293"/>
    <nd ref="11853896207"/>
    <nd ref="6597342292"/>
    <nd ref="10699192263"/>
    <nd ref="6597342291"/>
    <nd ref="6597342290"/>
    <nd ref="6597342289"/>
    <nd ref="6597342288"/>
    <nd ref="6597342287"/>
    <nd ref="6597359205"/>
    <nd ref="6597359204"/>
    <nd ref="6597359203"/>
    <nd ref="6597359202"/>
    <nd ref="6597359201"/>
    <nd ref="6597359200"/>
    <nd ref="6597359199"/>
    <nd ref="6597359198"/>
    <nd ref="8100928237"/>
    <nd ref="8100928238"/>
    <nd ref="6597359197"/>
    <nd ref="8100928236"/>
    <nd ref="6597359196"/>
    <nd ref="8100928235"/>
    <nd ref="6597359195"/>
    <nd ref="6597359194"/>
    <nd ref="6597359193"/>
    <nd ref="6597359192"/>
    <nd ref="6597359191"/>
    <nd ref="8100928243"/>
    <nd ref="6597359190"/>
    <nd ref="8100928242"/>
    <nd ref="6597359189"/>
    <nd ref="8100928241"/>
    <nd ref="8100928240"/>
    <nd ref="8100928239"/>
    <nd ref="6597359188"/>
    <nd ref="6597359187"/>
    <nd ref="6597359186"/>
    <nd ref="6597359185"/>
    <nd ref="6597337284"/>
    <nd ref="6597337283"/>
    <nd ref="6597337282"/>
    <nd ref="6597337281"/>
    <nd ref="6597337280"/>
    <nd ref="6597337279"/>
    <nd ref="6597337278"/>
    <nd ref="11853896203"/>
    <nd ref="6597337277"/>
    <nd ref="6597337276"/>
    <nd ref="11885986810"/>
    <nd ref="11885986816"/>
    <nd ref="6597337275"/>
    <nd ref="6597337274"/>
    <nd ref="2957076041"/>
    <tag k="access" v="yes"/>
    <tag k="highway" v="unclassified"/>
    <tag k="name" v="B"/>
    <tag k="surface" v="unpaved"/>
  </way>
  <way id="869127392" version="4" timestamp="2025-06-24T13:32:40Z" changeset="168049892" uid="14323616" user="Nick42UK">
    <nd ref="6597359193"/>
    <nd ref="8100928251"/>
    <nd ref="8100928252"/>
    <nd ref="8100937563"/>
    <nd ref="8100928253"/>
    <nd ref="8100928254"/>
    <nd ref="8100928255"/>
    <nd ref="8100928256"/>
    <nd ref="8100928257"/>
    <nd ref="8100928258"/>
    <nd ref="8100928259"/>
    <nd ref="8100928260"/>
    <nd ref="8100928261"/>
    <nd ref="8100928262"/>
    <nd ref="8100928263"/>
    <nd ref="8100928264"/>
    <nd ref="8100928265"/>
    <nd ref="8100928266"/>
    <nd ref="8100928267"/>
    <nd ref="8100928268"/>
    <nd ref="8100928269"/>
    <nd ref="8100928270"/>
    <nd ref="8100928271"/>
    <nd ref="8100928272"/>
    <nd ref="8100928273"/>
    <nd ref="8100928274"/>
    <nd ref="8100928275"/>
    <nd ref="8100928276"/>
    <nd ref="8100928277"/>
    <nd ref="8100928278"/>
    <nd ref="8100928279"/>
    <nd ref="8100928280"/>
    <nd ref="8100928281"/>
    <nd ref="8100928282"/>
    <nd ref="8100928283"/>
    <nd ref="8100928284"/>
    <nd ref="8100928285"/>
    <nd ref="8100928286"/>
    <nd ref="8100928287"/>
    <nd ref="8100928288"/>
    <nd ref="8100928289"/>
    <nd ref="8100928290"/>
    <nd ref="8100928291"/>
    <nd ref="8100928292"/>
    <nd ref="8100928293"/>
    <nd ref="8100928294"/>
    <nd ref="8100928295"/>
    <nd ref="8100928296"/>
    <nd ref="8100928297"/>
    <nd ref="8100928298"/>
    <nd ref="8100928299"/>
    <nd ref="8100928300"/>
    <nd ref="8100928301"/>
    <nd ref="8100928302"/>
    <nd ref="8100928303"/>
    <nd ref="8100928304"/>
    <nd ref="8100928305"/>
    <nd ref="8100928306"/>
    <nd ref="8100928307"/>
    <nd ref="8100928308"/>
    <nd ref="8100928309"/>
    <nd ref="8100928310"/>
    <nd ref="8100928311"/>
    <nd ref="8100928312"/>
    <nd ref="8100928299"/>
    <tag k="highway" v="unclassified"/>
    <tag k="name" v="A"/>
    <tag k="surface" v="unpaved"/>
  </way>
  <way id="1039028618" version="2" timestamp="2024-05-07T09:39:56Z" changeset="151001057" uid="8891552" user="Zomba">
    <nd ref="9568365646"/>
    <nd ref="9568365645"/>
    <nd ref="9568365644"/>
    <nd ref="9568365643"/>
    <nd ref="9568365642"/>
    <nd ref="9568365641"/>
    <nd ref="9568365640"/>
    <nd ref="9568365639"/>
    <nd ref="9568365638"/>
    <nd ref="9568365637"/>
    <nd ref="9568365632"/>
    <nd ref="9568365636"/>
    <nd ref="9568365646"/>
    <tag k="building" v="yes"/>
    <tag k="listed_status" v="Grade II"/>
    <tag k="name" v="Ice House"/>
    <tag k="roof:material" v="thatch"/>
    <tag k="roof:shape" v="dome"/>
    <tag k="source" v="bing"/>
    <tag k="wikidata" v="Q26661947"/>
  </way>
  <way id="1039028626" version="3" timestamp="2024-05-06T22:09:36Z" changeset="150984769" uid="8891552" user="Zomba">
    <nd ref="9568365799"/>
    <nd ref="9568365798"/>
    <nd ref="9568365797"/>
    <nd ref="9568365796"/>
    <nd ref="9568365795"/>
    <nd ref="9568365794"/>
    <nd ref="9568365793"/>
    <nd ref="9568365792"/>
    <nd ref="9568365799"/>
    <tag k="building" v="retail"/>
    <tag k="building:use" v="retail"/>
    <tag k="name" v="Visitor Centre"/>
    <tag k="shop" v="ticket"/>
    <tag k="source" v="bing"/>
  </way>
  <way id="1150105544" version="7" timestamp="2025-10-02T13:09:38Z" changeset="172748542" uid="14323616" user="Nick42UK">
    <nd ref="6597337228"/>
    <nd ref="12338137546"/>
    <nd ref="13188741862"/>
    <nd ref="13188741863"/>
    <nd ref="13188741864"/>
    <tag k="access" v="yes"/>
    <tag k="highway" v="unclassified"/>
    <tag k="name" v="Braking Straights Access Road"/>
    <tag k="source" v="bing"/>
  </way>
  <way id="1150127857" version="1" timestamp="2023-02-28T10:38:06Z" changeset="133122626" uid="14323616" user="Nick42UK">
    <nd ref="10699192269"/>
    <nd ref="10699192270"/>
    <nd ref="10699192271"/>
    <nd ref="10699192272"/>
    <nd ref="10699192269"/>
    <tag k="building" v="yes"/>
    <tag k="name" v="PG Maintenance Area"/>
  </way>
  <way id="1151972863" version="6" timestamp="2025-06-24T13:36:57Z" changeset="168050093" uid="14323616" user="Nick42UK">
    <nd ref="10698975631"/>
    <nd ref="10716442271"/>
    <nd ref="12573920951"/>
    <nd ref="12573920950"/>
    <nd ref="10716442272"/>
    <nd ref="12573920949"/>
    <nd ref="12573920948"/>
    <nd ref="10716442273"/>
    <nd ref="12573920947"/>
    <nd ref="12573920946"/>
    <nd ref="10716442274"/>
    <nd ref="10716442275"/>
    <nd ref="10716442276"/>
    <nd ref="10716442277"/>
    <nd ref="10716442278"/>
    <nd ref="10716442279"/>
    <nd ref="10716442280"/>
    <nd ref="10716442281"/>
    <nd ref="12573920945"/>
    <nd ref="12949533219"/>
    <nd ref="10716442283"/>
    <nd ref="12573920944"/>
    <nd ref="10716442284"/>
    <nd ref="12949533222"/>
    <nd ref="12949533224"/>
    <nd ref="12949533226"/>
    <nd ref="10716442288"/>
    <nd ref="12573920943"/>
    <nd ref="10716442289"/>
    <nd ref="12573920942"/>
    <nd ref="12573920941"/>
    <nd ref="10716442290"/>
    <nd ref="10716442291"/>
    <nd ref="12573920940"/>
    <nd ref="10716442292"/>
    <nd ref="10716442293"/>
    <nd ref="12949533230"/>
    <nd ref="10716442295"/>
    <nd ref="10716442296"/>
    <nd ref="10716442297"/>
    <nd ref="10716442298"/>
    <nd ref="10716442299"/>
    <nd ref="10716442300"/>
    <nd ref="10716442301"/>
    <nd ref="10716442302"/>
    <nd ref="12573942568"/>
    <nd ref="10716442303"/>
    <nd ref="10716442304"/>
    <nd ref="10716442305"/>
    <nd ref="10716442306"/>
    <nd ref="2957076859"/>
    <tag k="highway" v="unclassified"/>
    <tag k="name" v="Southern Perimeter Road"/>
    <tag k="surface" v="unpaved"/>
  </way>
  <way id="1184336915" version="2" timestamp="2025-08-26T23:14:46Z" changeset="171053695" uid="13247722" user="TheCanMan">
    <nd ref="250854399"/>
    <nd ref="2211146394"/>
    <nd ref="2211146383"/>
    <nd ref="2211146398"/>
    <nd ref="2211146390"/>
    <nd ref="250854400"/>
    <nd ref="2211146385"/>
    <nd ref="2559982498"/>
    <nd ref="2211146400"/>
    <tag k="highway" v="secondary"/>
    <tag k="lanes" v="2"/>
    <tag k="maxspeed" v="60 mph"/>
    <tag k="ref" v="B4086"/>
    <tag k="source" v="NPE"/>
    <tag k="surface" v="asphalt"/>
  </way>
  <way id="1247064113" version="2" timestamp="2025-08-26T23:14:46Z" changeset="171053695" uid="13247722" user="TheCanMan">
    <nd ref="250854398"/>
    <nd ref="1246937739"/>
    <tag k="highway" v="secondary"/>
    <tag k="maxspeed" v="60 mph"/>
    <tag k="name" v="Spring Hill"/>
    <tag k="ref" v="B4086"/>
    <tag k="source" v="NPE"/>
    <tag k="source:name" v="OS_OpenData_Locator"/>
    <tag k="surface" v="asphalt"/>
  </way>
  <way id="1247064114" version="2" timestamp="2025-08-26T23:14:46Z" changeset="171053695" uid="13247722" user="TheCanMan">
    <nd ref="1246937739"/>
    <nd ref="250854399"/>
    <tag k="highway" v="secondary"/>
    <tag k="maxspeed" v="60 mph"/>
    <tag k="name" v="Spring Hill"/>
    <tag k="ref" v="B4086"/>
    <tag k="source" v="NPE"/>
    <tag k="source:name" v="OS_OpenData_Locator"/>
    <tag k="surface" v="asphalt"/>
  </way>
  <way id="1247064115" version="2" timestamp="2025-03-11T11:41:06Z" changeset="163481116" uid="19756269" user="RyanBush">
    <nd ref="277897540"/>
    <nd ref="277897542"/>
    <nd ref="277897543"/>
    <nd ref="277897544"/>
    <nd ref="277897545"/>
    <nd ref="277897546"/>
    <nd ref="1248057554"/>
    <nd ref="2484941860"/>
    <nd ref="277897547"/>
    <nd ref="277897548"/>
    <nd ref="277897549"/>
    <nd ref="2484932765"/>
    <nd ref="277897550"/>
    <nd ref="2624798406"/>
    <nd ref="1247944671"/>
    <tag k="highway" v="tertiary"/>
    <tag k="name" v="Lighthorne Road"/>
  </way>
  <way id="1276730287" version="2" timestamp="2025-06-24T13:32:40Z" changeset="168049892" uid="14323616" user="Nick42UK">
    <nd ref="11853896207"/>
    <nd ref="11853896206"/>
    <nd ref="11853896205"/>
    <nd ref="11853896204"/>
    <nd ref="11853896203"/>
    <tag k="highway" v="unclassified"/>
    <tag k="surface" v="unpaved"/>
  </way>
  <way id="1358616450" version="1" timestamp="2025-02-10T11:40:51Z" changeset="162346838" uid="14323616" user="Nick42UK">
    <nd ref="12573942567"/>
    <nd ref="12573942568"/>
    <tag k="highway" v="unclassified"/>
  </way>
  <way id="1434857470" version="1" timestamp="2025-10-02T13:09:38Z" changeset="172748542" uid="14323616" user="Nick42UK">
    <nd ref="13188741864"/>
    <nd ref="13188741865"/>
    <tag k="highway" v="unclassified"/>
    <tag k="lanes" v="5"/>
    <tag k="name" v="Braking Straights"/>
    <tag k="oneway" v="yes"/>
  </way>
  <relation id="2820534" version="4" timestamp="2024-05-07T09:39:56Z" changeset="151001057" uid="8891552" user="Zomba">
    <member type="way" ref="210217592" role="outer"/>
    <member type="way" ref="210217591" role="inner"/>
    <tag k="building" v="yes"/>
    <tag k="heritage" v="2"/>
    <tag k="heritage:operator" v="Historic England"/>
    <tag k="listed_status" v="Grade II*"/>
    <tag k="name" v="Stable Block"/>
    <tag k="type" v="multipolygon"/>
    <tag k="wikidata" v="Q17551775"/>
  </relation>

</osm>
