<?xml version="1.0" encoding="UTF-8"?>
<osm version="0.6" generator="Overpass API 0.7.62.8 e802775f">
<note>The data included in this document is from www.openstreetmap.org. The data is made available under ODbL.</note>
<meta osm_base="2025-10-23T17:48:02Z" areas="2025-10-23T12:46:58Z"/>

  <node id="26723246" lat="52.0720023" lon="-1.7499108" version="2" timestamp="2021-08-14T14:32:39Z" changeset="109672669" uid="9065" user="brianboru"/>
  <node id="26723319" lat="52.1004518" lon="-1.7341297" version="2" timestamp="2011-09-26T17:48:20Z" changeset="9403989" uid="9065" user="brianboru"/>
  <node id="254002811" lat="52.1194305" lon="-1.7290069" version="3" timestamp="2020-11-25T05:33:11Z" changeset="94746936" uid="11734032" user="daitv"/>
  <node id="254002826" lat="52.1178698" lon="-1.7132416" version="2" timestamp="2012-09-16T20:53:09Z" changeset="13136305" uid="208499" user="Steve Lockwood"/>
  <node id="1683004829" lat="52.0960415" lon="-1.7038944" version="1" timestamp="2012-03-20T09:09:41Z" changeset="11039086" uid="84263" user="Robert Whittaker"/>
  <way id="4378739" version="8" timestamp="2024-08-14T14:24:47Z" changeset="155243908" uid="5589" user="user_5589">
    <nd ref="26723319"/>
    <nd ref="1446374859"/>
    <nd ref="30247923"/>
    <nd ref="1446374844"/>
    <nd ref="1446374830"/>
    <nd ref="26723320"/>
    <nd ref="1446374827"/>
    <nd ref="1446374834"/>
    <nd ref="1446374845"/>
    <nd ref="26723321"/>
    <nd ref="30247908"/>
    <nd ref="1446374851"/>
    <nd ref="1418646785"/>
    <tag k="highway" v="unclassified"/>
    <tag k="maxspeed" v="60 mph"/>
    <tag k="maxspeed:type" v="GB:nsl_single"/>
    <tag k="surface" v="asphalt"/>
  </way>
  <way id="23453760" version="11" timestamp="2024-10-31T13:07:07Z" changeset="158580807" uid="10376039" user="Zaunhänger">
    <nd ref="254002811"/>
    <nd ref="254002812"/>
    <nd ref="254002813"/>
    <nd ref="2357248211"/>
    <nd ref="2357248212"/>
    <nd ref="254002814"/>
    <nd ref="254002815"/>
    <nd ref="254002816"/>
    <nd ref="2586509386"/>
    <nd ref="254002817"/>
    <nd ref="2586509382"/>
    <nd ref="254002818"/>
    <nd ref="11191202470"/>
    <nd ref="254002819"/>
    <nd ref="254002820"/>
    <nd ref="254002821"/>
    <nd ref="254002822"/>
    <nd ref="254002823"/>
    <nd ref="2586509378"/>
    <nd ref="2586509374"/>
    <nd ref="2586509372"/>
    <nd ref="254002824"/>
    <nd ref="254002825"/>
    <nd ref="2586509368"/>
    <nd ref="254002826"/>
    <nd ref="2586509366"/>
    <nd ref="254002827"/>
    <nd ref="8258191004"/>
    <nd ref="11191202471"/>
    <nd ref="254002828"/>
    <nd ref="254002829"/>
    <nd ref="2586480347"/>
    <nd ref="254002830"/>
    <nd ref="254002831"/>
    <nd ref="12301608391"/>
    <nd ref="12301608371"/>
    <nd ref="11191202475"/>
    <nd ref="254002832"/>
    <nd ref="12301608362"/>
    <nd ref="254002833"/>
    <nd ref="254002834"/>
    <nd ref="254002835"/>
    <nd ref="254002836"/>
    <nd ref="254002837"/>
    <nd ref="254002838"/>
    <nd ref="254002839"/>
    <nd ref="254002840"/>
    <nd ref="254002841"/>
    <nd ref="2583622391"/>
    <nd ref="254002842"/>
    <nd ref="2583622387"/>
    <nd ref="2583622385"/>
    <nd ref="254002843"/>
    <nd ref="254002844"/>
    <nd ref="254002845"/>
    <nd ref="254002846"/>
    <nd ref="254002847"/>
    <nd ref="2470254333"/>
    <nd ref="254002848"/>
    <nd ref="254002849"/>
    <tag k="highway" v="unclassified"/>
    <tag k="source" v="survey"/>
  </way>
  <way id="25625608" version="13" timestamp="2019-10-23T09:14:26Z" changeset="76091024" uid="10219374" user="mnharsha">
    <nd ref="254002826"/>
    <nd ref="2586509370"/>
    <nd ref="279294064"/>
    <nd ref="2586509395"/>
    <nd ref="279294065"/>
    <nd ref="2586509408"/>
    <nd ref="279294066"/>
    <nd ref="279294067"/>
    <nd ref="2586509420"/>
    <nd ref="279294068"/>
    <nd ref="2586509424"/>
    <nd ref="2586509429"/>
    <nd ref="1917748059"/>
    <nd ref="2586509437"/>
    <nd ref="2586509441"/>
    <nd ref="1917748061"/>
    <nd ref="2586509455"/>
    <nd ref="2586509457"/>
    <nd ref="1917748062"/>
    <nd ref="279294069"/>
    <nd ref="1917748064"/>
    <nd ref="2586480668"/>
    <nd ref="2586480670"/>
    <nd ref="279294070"/>
    <nd ref="2761345118"/>
    <nd ref="279294071"/>
    <nd ref="2586480795"/>
    <nd ref="279294072"/>
    <nd ref="2761365951"/>
    <nd ref="2586509586"/>
    <nd ref="6908336488"/>
    <nd ref="279294073"/>
    <nd ref="2586509671"/>
    <nd ref="279294074"/>
    <nd ref="759836408"/>
    <nd ref="2761359722"/>
    <nd ref="279294075"/>
    <nd ref="2761359717"/>
    <nd ref="2761359731"/>
    <nd ref="279294076"/>
    <nd ref="279294077"/>
    <nd ref="2578278561"/>
    <nd ref="2578278562"/>
    <nd ref="2578278563"/>
    <tag k="highway" v="unclassified"/>
    <tag k="source" v="NPE"/>
  </way>
  <way id="26434005" version="15" timestamp="2021-08-14T14:32:39Z" changeset="109672669" uid="9065" user="brianboru">
    <nd ref="26723246"/>
    <nd ref="3288288964"/>
    <nd ref="289654115"/>
    <nd ref="2526812220"/>
    <nd ref="2526812215"/>
    <nd ref="289654116"/>
    <nd ref="289654117"/>
    <nd ref="2526812205"/>
    <nd ref="2526812203"/>
    <nd ref="289654118"/>
    <nd ref="289654120"/>
    <nd ref="289654121"/>
    <nd ref="289654122"/>
    <nd ref="289654123"/>
    <nd ref="9006714513"/>
    <nd ref="289654124"/>
    <nd ref="9006714514"/>
    <nd ref="7740180456"/>
    <nd ref="289654125"/>
    <nd ref="2526608360"/>
    <nd ref="289654126"/>
    <nd ref="289654127"/>
    <nd ref="289654128"/>
    <nd ref="2526812250"/>
    <nd ref="289654129"/>
    <nd ref="289654130"/>
    <nd ref="4194305123"/>
    <nd ref="433319066"/>
    <nd ref="2278326021"/>
    <nd ref="289654131"/>
    <nd ref="2278326023"/>
    <nd ref="289654132"/>
    <nd ref="336276351"/>
    <nd ref="289654133"/>
    <nd ref="289654134"/>
    <nd ref="289654135"/>
    <nd ref="2525408613"/>
    <nd ref="3665849049"/>
    <nd ref="289654136"/>
    <nd ref="289654137"/>
    <nd ref="289654138"/>
    <nd ref="2525408701"/>
    <nd ref="2525408705"/>
    <nd ref="289654139"/>
    <nd ref="289654140"/>
    <nd ref="2525408763"/>
    <nd ref="3699996095"/>
    <nd ref="289654141"/>
    <nd ref="289654142"/>
    <nd ref="289654143"/>
    <nd ref="289654144"/>
    <nd ref="289654145"/>
    <nd ref="2525408816"/>
    <nd ref="289654146"/>
    <nd ref="289654147"/>
    <nd ref="289654148"/>
    <nd ref="2525408850"/>
    <nd ref="2525408852"/>
    <nd ref="2525408853"/>
    <nd ref="289654149"/>
    <nd ref="2525408857"/>
    <nd ref="877789383"/>
    <nd ref="3699996375"/>
    <nd ref="289654150"/>
    <tag k="highway" v="unclassified"/>
    <tag k="source" v="bing"/>
  </way>
  <way id="26434224" version="12" timestamp="2021-03-24T17:15:14Z" changeset="101663935" uid="10173439" user="gilasri">
    <nd ref="30247899"/>
    <nd ref="1683004700"/>
    <nd ref="1683004921"/>
    <nd ref="289658178"/>
    <nd ref="289658179"/>
    <nd ref="8407711073"/>
    <nd ref="8407711072"/>
    <nd ref="289658180"/>
    <nd ref="289658181"/>
    <nd ref="289658182"/>
    <nd ref="289658183"/>
    <nd ref="289658184"/>
    <nd ref="8256308564"/>
    <nd ref="289658185"/>
    <nd ref="2583622130"/>
    <nd ref="2583622132"/>
    <nd ref="2470252799"/>
    <nd ref="289658186"/>
    <nd ref="289658187"/>
    <nd ref="289658188"/>
    <nd ref="2583622148"/>
    <nd ref="289658189"/>
    <nd ref="2583622152"/>
    <nd ref="2583622155"/>
    <nd ref="2583622163"/>
    <nd ref="289658190"/>
    <nd ref="2583622176"/>
    <nd ref="2583622192"/>
    <nd ref="289658191"/>
    <nd ref="289658192"/>
    <nd ref="2583622262"/>
    <nd ref="2583622265"/>
    <nd ref="289658193"/>
    <nd ref="2583622270"/>
    <nd ref="289658194"/>
    <nd ref="2583622290"/>
    <nd ref="2583622294"/>
    <nd ref="289658196"/>
    <nd ref="6728459484"/>
    <nd ref="289658197"/>
    <nd ref="6895080854"/>
    <nd ref="289658198"/>
    <nd ref="8278383768"/>
    <nd ref="6568379172"/>
    <nd ref="289658199"/>
    <nd ref="289658200"/>
    <nd ref="2583622404"/>
    <nd ref="289658201"/>
    <nd ref="6568388348"/>
    <nd ref="289658202"/>
    <nd ref="8557802087"/>
    <nd ref="6568388349"/>
    <nd ref="6568388350"/>
    <nd ref="289658203"/>
    <nd ref="254002830"/>
    <tag k="highway" v="unclassified"/>
    <tag k="source" v="NPE"/>
  </way>
  <way id="37593952" version="8" timestamp="2024-08-14T14:27:15Z" changeset="155243908" uid="5589" user="user_5589">
    <nd ref="336270643"/>
    <nd ref="30247905"/>
    <nd ref="1446374822"/>
    <nd ref="1446374824"/>
    <nd ref="30247906"/>
    <nd ref="1446374846"/>
    <nd ref="30247907"/>
    <nd ref="1446374853"/>
    <nd ref="26723322"/>
    <nd ref="1446374855"/>
    <nd ref="1418646785"/>
    <tag k="highway" v="unclassified"/>
    <tag k="maxspeed" v="60 mph"/>
    <tag k="maxspeed:type" v="GB:nsl_single"/>
    <tag k="name" v="Admington Lane"/>
    <tag k="source" v="survey"/>
    <tag k="source:name" v="OS_OpenData_StreetView"/>
    <tag k="surface" v="asphalt"/>
  </way>
  <way id="74211114" version="9" timestamp="2024-08-14T14:27:15Z" changeset="155243908" uid="5589" user="user_5589">
    <nd ref="289654151"/>
    <nd ref="30247889"/>
    <nd ref="2526776054"/>
    <nd ref="30247890"/>
    <nd ref="30247891"/>
    <nd ref="30247892"/>
    <nd ref="1683004931"/>
    <nd ref="30247893"/>
    <nd ref="30247894"/>
    <nd ref="1683005054"/>
    <nd ref="30247895"/>
    <nd ref="30247896"/>
    <nd ref="30247897"/>
    <nd ref="30247898"/>
    <nd ref="1683004686"/>
    <nd ref="1683005027"/>
    <nd ref="30247899"/>
    <tag k="highway" v="unclassified"/>
    <tag k="maxspeed" v="60 mph"/>
    <tag k="maxspeed:type" v="GB:nsl_single"/>
    <tag k="name" v="Park Lane"/>
    <tag k="source:name" v="survey"/>
    <tag k="surface" v="asphalt"/>
  </way>
  <way id="74211165" version="1" timestamp="2010-08-24T21:03:08Z" changeset="5584144" uid="9065" user="brianboru">
    <nd ref="289654150"/>
    <nd ref="289654151"/>
    <tag k="highway" v="unclassified"/>
  </way>
  <way id="185261296" version="5" timestamp="2024-08-14T14:27:07Z" changeset="155243908" uid="5589" user="user_5589">
    <nd ref="1683004829"/>
    <nd ref="382097047"/>
    <nd ref="1683004819"/>
    <nd ref="1683004814"/>
    <nd ref="30247884"/>
    <nd ref="30247885"/>
    <nd ref="30247886"/>
    <nd ref="6728552405"/>
    <nd ref="30247887"/>
    <nd ref="30247888"/>
    <nd ref="289654151"/>
    <tag k="highway" v="unclassified"/>
    <tag k="maxspeed" v="60 mph"/>
    <tag k="maxspeed:type" v="GB:nsl_single"/>
    <tag k="name" v="Park Lane"/>
    <tag k="source" v="survey"/>
    <tag k="source:name" v="os_opendata_locator"/>
    <tag k="surface" v="asphalt"/>
  </way>
  <way id="185261303" version="5" timestamp="2024-08-14T14:27:16Z" changeset="155243908" uid="5589" user="user_5589">
    <nd ref="30247899"/>
    <nd ref="30247900"/>
    <nd ref="1683004689"/>
    <nd ref="30247901"/>
    <nd ref="382097049"/>
    <nd ref="1683004909"/>
    <nd ref="30247902"/>
    <nd ref="30247903"/>
    <nd ref="1683004895"/>
    <nd ref="30247904"/>
    <nd ref="6562061164"/>
    <nd ref="336270643"/>
    <tag k="highway" v="unclassified"/>
    <tag k="maxspeed" v="60 mph"/>
    <tag k="maxspeed:type" v="GB:nsl_single"/>
    <tag k="source" v="survey"/>
    <tag k="surface" v="asphalt"/>
  </way>
  <way id="252269547" version="11" timestamp="2021-08-02T12:35:09Z" changeset="109032117" uid="299668" user="innocenceisdeath">
    <nd ref="2583622257"/>
    <nd ref="2583622254"/>
    <nd ref="8974226506"/>
    <nd ref="2583622247"/>
    <nd ref="2583622234"/>
    <nd ref="2583622227"/>
    <nd ref="2583622235"/>
    <nd ref="2583622245"/>
    <nd ref="2583622248"/>
    <nd ref="2583622252"/>
    <nd ref="8974486791"/>
    <nd ref="2583622250"/>
    <nd ref="2583622257"/>
    <tag k="building" v="yes"/>
    <tag k="heritage" v="2"/>
    <tag k="heritage:operator" v="Historic England"/>
    <tag k="historic" v="manor"/>
    <tag k="listed_status" v="Grade II*"/>
    <tag k="name" v="Admington Hall"/>
    <tag k="source" v="Warwicks CC 2013 Aerial Imagery"/>
    <tag k="wikidata" v="Q17551948"/>
  </way>
  <way id="699474061" version="2" timestamp="2021-08-02T13:53:19Z" changeset="109036299" uid="299668" user="innocenceisdeath">
    <nd ref="6568401487"/>
    <nd ref="6568401486"/>
    <nd ref="6568401485"/>
    <nd ref="6568395284"/>
    <nd ref="6568395283"/>
    <nd ref="6568395282"/>
    <nd ref="6568395281"/>
    <nd ref="6568395280"/>
    <nd ref="6568401487"/>
    <tag k="building" v="yes"/>
    <tag k="name" v="Coach house"/>
    <tag k="source" v="Warwicks CC 2013 Aerial Imagery"/>
  </way>
  <relation id="13047442" version="1" timestamp="2021-08-02T13:53:19Z" changeset="109036299" uid="299668" user="innocenceisdeath">
    <member type="way" ref="699474058" role="outer"/>
    <member type="way" ref="699474059" role="outer"/>
    <tag k="building" v="yes"/>
    <tag k="name" v="Stable yard"/>
    <tag k="source" v="Warwicks CC 2013 Aerial Imagery"/>
    <tag k="type" v="multipolygon"/>
  </relation>

</osm>
