<?xml version="1.0" encoding="UTF-8"?>
<osm version="0.6" generator="Overpass API 0.7.62.8 e802775f">
<note>The data included in this document is from www.openstreetmap.org. The data is made available under ODbL.</note>
<meta osm_base="2025-10-23T17:41:00Z" areas="2025-10-23T14:54:58Z"/>

  <node id="255398582" lat="52.2556857" lon="-1.3245430" version="6" timestamp="2024-06-03T18:54:45Z" changeset="152213444" uid="10019232" user="stevewm"/>
  <node id="255398608" lat="52.2700610" lon="-1.3553076" version="5" timestamp="2019-08-07T07:26:21Z" changeset="73096226" uid="9065" user="brianboru"/>
  <node id="274771317" lat="52.2788890" lon="-1.3763120" version="3" timestamp="2013-10-16T10:32:47Z" changeset="18383624" uid="69984" user="richardwest"/>
  <node id="2281293607" lat="52.2615864" lon="-1.3884316" version="3" timestamp="2025-01-08T16:53:08Z" changeset="161140994" uid="5229644" user="Nathan_A_RF"/>
  <way id="23584975" version="33" timestamp="2023-04-14T16:38:46Z" changeset="134911748" uid="13001300" user="simonc11">
    <nd ref="255398582"/>
    <nd ref="2444614449"/>
    <nd ref="2444614456"/>
    <nd ref="2276545132"/>
    <nd ref="255398583"/>
    <nd ref="2501383980"/>
    <nd ref="255398584"/>
    <nd ref="255398585"/>
    <nd ref="8073641889"/>
    <nd ref="283473387"/>
    <nd ref="255398586"/>
    <nd ref="255398587"/>
    <nd ref="2501384002"/>
    <nd ref="255398588"/>
    <nd ref="255398589"/>
    <nd ref="255398590"/>
    <nd ref="850049501"/>
    <nd ref="255398591"/>
    <nd ref="255398594"/>
    <nd ref="4382780978"/>
    <nd ref="4382780980"/>
    <nd ref="4382779954"/>
    <nd ref="534436300"/>
    <nd ref="255398595"/>
    <nd ref="255398596"/>
    <nd ref="2501384067"/>
    <nd ref="2501384069"/>
    <nd ref="2501384070"/>
    <nd ref="255398597"/>
    <nd ref="255398598"/>
    <nd ref="2501384076"/>
    <nd ref="255398599"/>
    <nd ref="255398600"/>
    <nd ref="2663117884"/>
    <nd ref="255398601"/>
    <nd ref="255398602"/>
    <nd ref="8012992792"/>
    <nd ref="255398603"/>
    <nd ref="7405055150"/>
    <nd ref="255398604"/>
    <nd ref="255398605"/>
    <nd ref="2281293721"/>
    <nd ref="1422325582"/>
    <nd ref="255398606"/>
    <nd ref="528864685"/>
    <nd ref="255398607"/>
    <nd ref="255398608"/>
    <nd ref="6250772017"/>
    <tag k="highway" v="tertiary"/>
    <tag k="name" v="Napton Road"/>
  </way>
  <way id="25201136" version="5" timestamp="2023-04-02T08:34:38Z" changeset="134404705" uid="13001300" user="simonc11">
    <nd ref="274771319"/>
    <nd ref="274771317"/>
    <tag k="bridge" v="yes"/>
    <tag k="bridge:name" v="Stockton Lane Bridge"/>
    <tag k="bridge_ref" v="23"/>
    <tag k="highway" v="tertiary"/>
    <tag k="layer" v="1"/>
    <tag k="maxweight" v="18"/>
    <tag k="name" v="Stockton Road"/>
  </way>
  <way id="25201138" version="6" timestamp="2011-09-03T17:18:53Z" changeset="9202156" uid="154484" user="PeterP">
    <nd ref="274771317"/>
    <nd ref="255673227"/>
    <tag k="highway" v="tertiary"/>
    <tag k="name" v="Stockton Road"/>
  </way>
  <way id="41111581" version="11" timestamp="2023-08-03T10:50:49Z" changeset="139387398" uid="165" user="Richard">
    <nd ref="255398616"/>
    <nd ref="10265533051"/>
    <nd ref="2502820634"/>
    <nd ref="255673218"/>
    <nd ref="255673219"/>
    <nd ref="6616545513"/>
    <nd ref="255673220"/>
    <nd ref="6616528784"/>
    <nd ref="255673221"/>
    <nd ref="6616545492"/>
    <nd ref="255673222"/>
    <nd ref="8038698182"/>
    <nd ref="255673223"/>
    <tag k="cycleway:both" v="no"/>
    <tag k="highway" v="tertiary"/>
    <tag k="name" v="Stockton Road"/>
    <tag k="surface" v="asphalt"/>
  </way>
  <way id="41126694" version="8" timestamp="2025-04-07T17:17:49Z" changeset="164644880" uid="5589" user="user_5589">
    <nd ref="501882403"/>
    <nd ref="2349723238"/>
    <nd ref="501882399"/>
    <nd ref="501882395"/>
    <nd ref="501882391"/>
    <nd ref="4988291038"/>
    <nd ref="10270358438"/>
    <nd ref="501882384"/>
    <tag k="highway" v="residential"/>
    <tag k="maxspeed" v="30 mph"/>
    <tag k="maxspeed:type" v="sign"/>
    <tag k="name" v="High Street"/>
    <tag k="surface" v="asphalt"/>
  </way>
  <way id="41126699" version="5" timestamp="2017-07-23T15:09:28Z" changeset="50504078" uid="705850" user="Cebderby">
    <nd ref="503368229"/>
    <nd ref="4988291051"/>
    <nd ref="503368219"/>
    <nd ref="4988285519"/>
    <nd ref="1619072588"/>
    <tag k="highway" v="residential"/>
    <tag k="name" v="Church Street"/>
  </way>
  <way id="41126703" version="5" timestamp="2012-02-05T16:24:26Z" changeset="10595163" uid="188349" user="MatSmith">
    <nd ref="501882610"/>
    <nd ref="1619072588"/>
    <nd ref="501882729"/>
    <nd ref="501882739"/>
    <nd ref="503368394"/>
    <nd ref="501882753"/>
    <nd ref="501882786"/>
    <tag k="highway" v="residential"/>
    <tag k="name" v="Rectory Close"/>
    <tag k="surface" v="paved"/>
  </way>
  <way id="41126721" version="6" timestamp="2022-12-17T23:26:31Z" changeset="130199116" uid="13001300" user="simonc11">
    <nd ref="2349723240"/>
    <nd ref="10270358439"/>
    <nd ref="2349723239"/>
    <nd ref="501883095"/>
    <nd ref="501882403"/>
    <tag k="highway" v="residential"/>
    <tag k="name" v="High Street"/>
  </way>
  <way id="41201262" version="2" timestamp="2010-08-23T05:52:01Z" changeset="5567831" uid="44659" user="Phil Shipley">
    <nd ref="503368232"/>
    <nd ref="503368235"/>
    <nd ref="503368238"/>
    <nd ref="503368240"/>
    <nd ref="503368241"/>
    <nd ref="503368229"/>
    <tag k="highway" v="residential"/>
    <tag k="name" v="Earles Close"/>
    <tag k="surface" v="paved"/>
  </way>
  <way id="41201263" version="9" timestamp="2025-04-07T17:16:52Z" changeset="164644880" uid="5589" user="user_5589">
    <nd ref="501882505"/>
    <nd ref="4988285497"/>
    <nd ref="503368445"/>
    <nd ref="501882651"/>
    <nd ref="503368441"/>
    <nd ref="7684461323"/>
    <nd ref="501882662"/>
    <nd ref="501882676"/>
    <nd ref="6690374053"/>
    <nd ref="503368448"/>
    <nd ref="10810794808"/>
    <nd ref="10270358442"/>
    <nd ref="501882685"/>
    <tag k="highway" v="residential"/>
    <tag k="maxspeed" v="30 mph"/>
    <tag k="maxspeed:type" v="sign"/>
    <tag k="name" v="Post Office Lane"/>
    <tag k="surface" v="asphalt"/>
  </way>
  <way id="41201264" version="5" timestamp="2019-02-15T15:09:23Z" changeset="67229815" uid="9065" user="brianboru">
    <nd ref="503368229"/>
    <nd ref="503368335"/>
    <nd ref="6281086970"/>
    <nd ref="503368256"/>
    <nd ref="503368259"/>
    <nd ref="503368262"/>
    <nd ref="503368266"/>
    <nd ref="503368269"/>
    <nd ref="503368272"/>
    <nd ref="503368275"/>
    <nd ref="503368278"/>
    <nd ref="503368281"/>
    <nd ref="503368283"/>
    <nd ref="503368287"/>
    <nd ref="503368290"/>
    <nd ref="503368293"/>
    <nd ref="503368296"/>
    <nd ref="503368299"/>
    <nd ref="6281086967"/>
    <nd ref="503368316"/>
    <nd ref="503368319"/>
    <tag k="highway" v="residential"/>
    <tag k="name" v="St Michael's Crescent"/>
    <tag k="surface" v="paved"/>
  </way>
  <way id="41201265" version="2" timestamp="2019-02-06T01:40:30Z" changeset="66949795" uid="8369523" user="unnsyeda">
    <nd ref="503368335"/>
    <nd ref="503368338"/>
    <nd ref="503368344"/>
    <nd ref="503368348"/>
    <nd ref="503368351"/>
    <nd ref="503368354"/>
    <nd ref="503368357"/>
    <nd ref="503368361"/>
    <nd ref="503368365"/>
    <nd ref="503368371"/>
    <tag k="highway" v="residential"/>
    <tag k="name" v="Glebe Close"/>
    <tag k="surface" v="paved"/>
  </way>
  <way id="41201266" version="3" timestamp="2019-05-15T11:03:18Z" changeset="70270026" uid="9196091" user="hkkollip">
    <nd ref="503368383"/>
    <nd ref="503368371"/>
    <nd ref="503368376"/>
    <nd ref="6475153455"/>
    <tag k="highway" v="residential"/>
    <tag k="name" v="Glebe Close"/>
    <tag k="surface" v="paved"/>
  </way>
  <way id="41201267" version="3" timestamp="2017-07-23T15:09:27Z" changeset="50504078" uid="705850" user="Cebderby">
    <nd ref="501882610"/>
    <nd ref="4988291023"/>
    <nd ref="503368403"/>
    <nd ref="503368406"/>
    <nd ref="503368408"/>
    <nd ref="503368411"/>
    <nd ref="503368416"/>
    <nd ref="503368419"/>
    <nd ref="503368421"/>
    <nd ref="503368422"/>
    <nd ref="503368424"/>
    <nd ref="503368425"/>
    <nd ref="503368426"/>
    <nd ref="503368429"/>
    <nd ref="503368431"/>
    <nd ref="503368434"/>
    <nd ref="503368411"/>
    <tag k="highway" v="residential"/>
    <tag k="name" v="Manor Road"/>
    <tag k="surface" v="paved"/>
  </way>
  <way id="41201269" version="4" timestamp="2022-12-17T23:26:31Z" changeset="130199116" uid="13001300" user="simonc11">
    <nd ref="503368458"/>
    <nd ref="10270358445"/>
    <nd ref="503368462"/>
    <nd ref="503368464"/>
    <nd ref="503368466"/>
    <nd ref="503368469"/>
    <nd ref="503368472"/>
    <nd ref="503368477"/>
    <nd ref="503368481"/>
    <nd ref="503368485"/>
    <nd ref="503368487"/>
    <nd ref="503368491"/>
    <nd ref="503368495"/>
    <nd ref="503368499"/>
    <tag k="highway" v="residential"/>
    <tag k="name" v="Grange Farm Drive"/>
    <tag k="surface" v="paved"/>
  </way>
  <way id="41201271" version="1" timestamp="2009-09-20T16:19:17Z" changeset="2546977" uid="175311" user="beekeg">
    <nd ref="503368502"/>
    <nd ref="503368514"/>
    <nd ref="503368519"/>
    <nd ref="503368522"/>
    <nd ref="503368526"/>
    <nd ref="503368524"/>
    <tag k="highway" v="residential"/>
    <tag k="name" v="Grange Farm Drive"/>
    <tag k="surface" v="paved"/>
  </way>
  <way id="41201273" version="5" timestamp="2025-02-17T02:53:53Z" changeset="162593832" uid="493595" user="Yorvik Prestigitator">
    <nd ref="503368531"/>
    <nd ref="10270358441"/>
    <nd ref="12594345180"/>
    <nd ref="503368535"/>
    <nd ref="7919485690"/>
    <nd ref="503368575"/>
    <nd ref="503368538"/>
    <nd ref="503368540"/>
    <nd ref="503368543"/>
    <nd ref="503368546"/>
    <nd ref="503368548"/>
    <nd ref="503368551"/>
    <nd ref="503368554"/>
    <nd ref="6281115501"/>
    <nd ref="503368558"/>
    <nd ref="503368560"/>
    <nd ref="503368563"/>
    <nd ref="6281115505"/>
    <nd ref="503368565"/>
    <nd ref="503368569"/>
    <nd ref="503368572"/>
    <tag k="highway" v="residential"/>
    <tag k="name" v="George Street"/>
    <tag k="surface" v="paved"/>
  </way>
  <way id="41201274" version="1" timestamp="2009-09-20T16:19:18Z" changeset="2546977" uid="175311" user="beekeg">
    <nd ref="503368575"/>
    <nd ref="503368578"/>
    <tag k="highway" v="residential"/>
    <tag k="name" v="George Street"/>
    <tag k="surface" v="paved"/>
  </way>
  <way id="41201275" version="5" timestamp="2022-12-17T23:26:31Z" changeset="130199116" uid="13001300" user="simonc11">
    <nd ref="503368581"/>
    <nd ref="10270358440"/>
    <nd ref="4988291029"/>
    <nd ref="503368588"/>
    <nd ref="503368591"/>
    <nd ref="503368594"/>
    <nd ref="503368597"/>
    <nd ref="6617225286"/>
    <nd ref="4988285510"/>
    <nd ref="503368572"/>
    <tag k="highway" v="residential"/>
    <tag k="name" v="Elm Row"/>
    <tag k="surface" v="paved"/>
  </way>
  <way id="41201278" version="2" timestamp="2010-08-23T05:51:35Z" changeset="5567831" uid="44659" user="Phil Shipley">
    <nd ref="503368319"/>
    <nd ref="503368626"/>
    <nd ref="503368628"/>
    <tag k="highway" v="residential"/>
    <tag k="name" v="Beck's Close"/>
    <tag k="surface" v="unpaved"/>
  </way>
  <way id="41201279" version="3" timestamp="2017-07-23T15:09:27Z" changeset="50504078" uid="705850" user="Cebderby">
    <nd ref="503368316"/>
    <nd ref="503368634"/>
    <nd ref="4988291028"/>
    <nd ref="4988291034"/>
    <nd ref="4988291036"/>
    <nd ref="503368636"/>
    <tag k="highway" v="residential"/>
    <tag k="name" v="Laurel Drive"/>
  </way>
  <way id="41201280" version="3" timestamp="2017-07-23T15:09:27Z" changeset="50504078" uid="705850" user="Cebderby">
    <nd ref="503368634"/>
    <nd ref="503368641"/>
    <nd ref="503368643"/>
    <nd ref="503368645"/>
    <nd ref="503368648"/>
    <nd ref="4988291026"/>
    <nd ref="4988291031"/>
    <nd ref="503368651"/>
    <tag k="highway" v="residential"/>
    <tag k="name" v="Laurel Drive"/>
  </way>
  <way id="41201281" version="3" timestamp="2017-07-23T15:09:28Z" changeset="50504078" uid="705850" user="Cebderby">
    <nd ref="503368651"/>
    <nd ref="503368668"/>
    <nd ref="4988291048"/>
    <nd ref="503368671"/>
    <nd ref="503368674"/>
    <nd ref="503368690"/>
    <tag k="highway" v="residential"/>
    <tag k="name" v="Laurel Drive"/>
    <tag k="surface" v="paved"/>
  </way>
  <way id="41201282" version="2" timestamp="2017-07-23T15:09:28Z" changeset="50504078" uid="705850" user="Cebderby">
    <nd ref="4988285493"/>
    <nd ref="503368690"/>
    <nd ref="503368695"/>
    <tag k="highway" v="residential"/>
    <tag k="name" v="Laurel Drive"/>
    <tag k="surface" v="paved"/>
  </way>
  <way id="41201283" version="6" timestamp="2022-12-17T23:26:31Z" changeset="130199116" uid="13001300" user="simonc11">
    <nd ref="255398608"/>
    <nd ref="10270358443"/>
    <nd ref="528864696"/>
    <nd ref="503368698"/>
    <nd ref="2501384111"/>
    <nd ref="2501384113"/>
    <nd ref="528864688"/>
    <nd ref="2502806237"/>
    <nd ref="528864690"/>
    <nd ref="528864692"/>
    <nd ref="528864694"/>
    <tag k="highway" v="unclassified"/>
    <tag k="name" v="Station Road"/>
  </way>
  <way id="41201290" version="8" timestamp="2025-08-16T17:07:38Z" changeset="170533401" uid="5589" user="user_5589">
    <nd ref="255398614"/>
    <nd ref="255398615"/>
    <nd ref="8239440701"/>
    <nd ref="12737041548"/>
    <tag k="highway" v="tertiary"/>
    <tag k="lanes" v="2"/>
    <tag k="lanes:backward" v="1"/>
    <tag k="lanes:forward" v="1"/>
    <tag k="maxspeed" v="30 mph"/>
    <tag k="maxspeed:type" v="sign"/>
    <tag k="name" v="The Hill"/>
    <tag k="sidewalk" v="left"/>
    <tag k="surface" v="asphalt"/>
  </way>
  <way id="41201291" version="6" timestamp="2025-08-16T17:09:09Z" changeset="170533419" uid="5589" user="user_5589">
    <nd ref="503368319"/>
    <nd ref="503368328"/>
    <nd ref="503368332"/>
    <tag k="highway" v="residential"/>
    <tag k="maxspeed" v="30 mph"/>
    <tag k="maxspeed:type" v="sign"/>
    <tag k="name" v="Beck's lane"/>
    <tag k="surface" v="asphalt"/>
  </way>
  <way id="41201292" version="6" timestamp="2017-07-23T15:09:27Z" changeset="50504078" uid="705850" user="Cebderby">
    <nd ref="503368831"/>
    <nd ref="4988291037"/>
    <nd ref="4988291041"/>
    <nd ref="503368834"/>
    <nd ref="503368842"/>
    <nd ref="4988291044"/>
    <nd ref="4988291046"/>
    <nd ref="503368845"/>
    <tag k="highway" v="residential"/>
    <tag k="name" v="Mount Pleasant"/>
    <tag k="surface" v="paved"/>
  </way>
  <way id="41201294" version="4" timestamp="2017-07-23T15:09:27Z" changeset="50504078" uid="705850" user="Cebderby">
    <nd ref="503368842"/>
    <nd ref="4988291030"/>
    <nd ref="503368851"/>
    <nd ref="503368858"/>
    <nd ref="4988285517"/>
    <nd ref="503368862"/>
    <nd ref="503368866"/>
    <nd ref="4988285504"/>
    <tag k="highway" v="residential"/>
    <tag k="name" v="Tuckwell Close"/>
    <tag k="surface" v="paved"/>
  </way>
  <way id="73965676" version="3" timestamp="2022-12-17T16:49:18Z" changeset="130191456" uid="13001300" user="simonc11">
    <nd ref="875227883"/>
    <nd ref="875227887"/>
    <nd ref="2633051250"/>
    <nd ref="875227890"/>
    <nd ref="875227892"/>
    <tag k="access" v="private"/>
    <tag k="highway" v="residential"/>
    <tag k="name" v="Orchard Grove"/>
    <tag k="source" v="survey"/>
  </way>
  <way id="73965688" version="4" timestamp="2017-07-23T15:09:26Z" changeset="50504078" uid="705850" user="Cebderby">
    <nd ref="503368651"/>
    <nd ref="503368662"/>
    <nd ref="4988291042"/>
    <tag k="highway" v="residential"/>
    <tag k="name" v="Sycamore Close"/>
  </way>
  <way id="73965749" version="2" timestamp="2010-08-23T05:57:12Z" changeset="5567831" uid="44659" user="Phil Shipley">
    <nd ref="503368834"/>
    <nd ref="503368837"/>
    <nd ref="503368840"/>
    <tag k="highway" v="residential"/>
    <tag k="name" v="Mount Pleasant Close"/>
    <tag k="surface" v="paved"/>
  </way>
  <way id="128793169" version="5" timestamp="2025-04-07T17:17:25Z" changeset="164644880" uid="5589" user="user_5589">
    <nd ref="501882505"/>
    <nd ref="503368438"/>
    <nd ref="501882496"/>
    <nd ref="501882489"/>
    <nd ref="503368332"/>
    <nd ref="501882464"/>
    <nd ref="8714509771"/>
    <nd ref="503368831"/>
    <tag k="highway" v="residential"/>
    <tag k="maxspeed" v="30 mph"/>
    <tag k="maxspeed:type" v="sign"/>
    <tag k="name" v="School Street"/>
    <tag k="surface" v="asphalt"/>
  </way>
  <way id="128793184" version="1" timestamp="2011-09-03T17:18:49Z" changeset="9202156" uid="154484" user="PeterP">
    <nd ref="1422325572"/>
    <nd ref="255673226"/>
    <nd ref="274771319"/>
    <tag k="highway" v="tertiary"/>
    <tag k="name" v="Stockton Road"/>
  </way>
  <way id="145063593" version="4" timestamp="2023-04-04T23:55:57Z" changeset="134516886" uid="238419" user="HubMiner">
    <nd ref="1585208437"/>
    <nd ref="1585208459"/>
    <nd ref="1585208441"/>
    <nd ref="1585208434"/>
    <nd ref="1585208437"/>
    <tag k="addr:city" v="Stockton"/>
    <tag k="addr:postcode" v="CV47 8HA"/>
    <tag k="addr:street" v="Station Road"/>
    <tag k="brand" v="Wynnstay"/>
    <tag k="brand:wikidata" v="Q63016351"/>
    <tag k="building" v="retail"/>
    <tag k="fhrs:id" v="503107"/>
    <tag k="name" v="Wynnstay"/>
    <tag k="opening_hours" v="Mo-Fr 08:00-17:00; Sa 08:30-12:00"/>
    <tag k="operator" v="Wynnstay"/>
    <tag k="phone" v="+441295770707"/>
    <tag k="shop" v="country_store"/>
    <tag k="source" v="Bing"/>
    <tag k="website" v="https://www.wynnstay.co.uk/wynnstaystores/wynnstay-stockton/"/>
  </way>
  <way id="145063695" version="3" timestamp="2025-07-12T23:58:56Z" changeset="168855231" uid="8857" user="philipcullen">
    <nd ref="1585208566"/>
    <nd ref="1585208560"/>
    <nd ref="1585208546"/>
    <nd ref="1585208544"/>
    <nd ref="1585208558"/>
    <nd ref="1585208566"/>
    <tag k="addr:city" v="Southam"/>
    <tag k="addr:postcode" v="CV47 8HN"/>
    <tag k="building" v="industrial"/>
    <tag k="leisure" v="fitness_centre"/>
    <tag k="name" v="Better Than Before Fitness"/>
    <tag k="not:brand:wikidata" v="Q109721926"/>
    <tag k="phone" v="+447791435148"/>
    <tag k="ref:GB:uprn" v="10023586416;10094566796;10094566797;10094566798"/>
    <tag k="source" v="Bing"/>
    <tag k="website" v="https://www.btb.me.uk"/>
  </way>
  <way id="147250326" version="17" timestamp="2025-01-08T16:53:08Z" changeset="161140994" uid="5229644" user="Nathan_A_RF">
    <nd ref="2281293607"/>
    <nd ref="1604772133"/>
    <nd ref="2281293637"/>
    <nd ref="25881061"/>
    <nd ref="2281293656"/>
    <nd ref="2281293662"/>
    <nd ref="25881062"/>
    <nd ref="2281293668"/>
    <nd ref="2281293670"/>
    <nd ref="25881063"/>
    <nd ref="11586411096"/>
    <nd ref="8074943518"/>
    <nd ref="528927201"/>
    <nd ref="2281293748"/>
    <nd ref="2281293750"/>
    <nd ref="2281293753"/>
    <nd ref="25881064"/>
    <nd ref="25881065"/>
    <nd ref="10265761634"/>
    <nd ref="2281293775"/>
    <nd ref="255398616"/>
    <nd ref="25881081"/>
    <nd ref="2281293782"/>
    <nd ref="503368700"/>
    <nd ref="528864698"/>
    <nd ref="2502820770"/>
    <nd ref="503368704"/>
    <nd ref="2502820833"/>
    <nd ref="25881066"/>
    <nd ref="2502820899"/>
    <nd ref="2626100318"/>
    <nd ref="2502820952"/>
    <nd ref="25881082"/>
    <nd ref="25881067"/>
    <nd ref="6719969773"/>
    <nd ref="7833129115"/>
    <nd ref="7833126352"/>
    <nd ref="1069951566"/>
    <nd ref="25881083"/>
    <nd ref="1804160878"/>
    <nd ref="7833129116"/>
    <nd ref="274767294"/>
    <tag k="cycleway:both" v="no"/>
    <tag k="highway" v="primary"/>
    <tag k="lanes" v="2"/>
    <tag k="maxspeed" v="50 mph"/>
    <tag k="maxspeed:type" v="sign"/>
    <tag k="name" v="Rugby Road"/>
    <tag k="ref" v="A426"/>
    <tag k="surface" v="asphalt"/>
  </way>
  <way id="147478928" version="3" timestamp="2025-07-12T23:58:56Z" changeset="168855231" uid="8857" user="philipcullen">
    <nd ref="1606952215"/>
    <nd ref="1606952199"/>
    <nd ref="1606952218"/>
    <nd ref="1606952220"/>
    <nd ref="1606952215"/>
    <tag k="addr:city" v="Stockton"/>
    <tag k="addr:postcode" v="CV47 8LD"/>
    <tag k="addr:street" v="Stockton Road"/>
    <tag k="amenity" v="pub"/>
    <tag k="building" v="yes"/>
    <tag k="fhrs:id" v="503184"/>
    <tag k="name" v="The Blue Lias"/>
    <tag k="ref:GB:uprn" v="10024063457;100071503177;100071243762"/>
    <tag k="source" v="Bing"/>
    <tag k="website" v="http://www.bluelias.com/"/>
  </way>
  <way id="410577468" version="2" timestamp="2019-08-07T07:26:21Z" changeset="73096226" uid="9065" user="brianboru">
    <nd ref="503368499"/>
    <nd ref="6690374011"/>
    <nd ref="503368502"/>
    <nd ref="4123815222"/>
    <nd ref="2633051248"/>
    <nd ref="4123815221"/>
    <nd ref="6690374010"/>
    <nd ref="503368506"/>
    <nd ref="503368510"/>
    <nd ref="2633051243"/>
    <nd ref="503368499"/>
    <tag k="highway" v="residential"/>
    <tag k="name" v="Grange Farm Drive"/>
    <tag k="surface" v="paved"/>
  </way>
  <way id="472820120" version="5" timestamp="2025-07-12T23:58:56Z" changeset="168855231" uid="8857" user="philipcullen">
    <nd ref="501586921"/>
    <nd ref="4670242205"/>
    <nd ref="4670242206"/>
    <nd ref="4670242207"/>
    <nd ref="4670242208"/>
    <nd ref="4670242209"/>
    <nd ref="4670242210"/>
    <nd ref="4670242211"/>
    <nd ref="4670242212"/>
    <nd ref="4670242213"/>
    <nd ref="4670242214"/>
    <nd ref="4670242215"/>
    <nd ref="4670242216"/>
    <nd ref="4670242217"/>
    <nd ref="4670242218"/>
    <nd ref="4670242219"/>
    <nd ref="501586921"/>
    <tag k="amenity" v="place_of_worship"/>
    <tag k="building" v="church"/>
    <tag k="denomination" v="anglican"/>
    <tag k="heritage" v="2"/>
    <tag k="heritage:operator" v="Historic England"/>
    <tag k="listed_status" v="Grade II*"/>
    <tag k="name" v="St Michael"/>
    <tag k="ref:GB:uprn" v="10023581835"/>
    <tag k="ref:dove" v="10576"/>
    <tag k="religion" v="christian"/>
    <tag k="wikidata" v="Q17551207"/>
  </way>
  <way id="509637114" version="4" timestamp="2025-07-12T23:58:56Z" changeset="168855231" uid="8857" user="philipcullen">
    <nd ref="4988285514"/>
    <nd ref="4988285491"/>
    <nd ref="4988285511"/>
    <nd ref="11930221814"/>
    <nd ref="4988285496"/>
    <nd ref="11930221815"/>
    <nd ref="4988285514"/>
    <tag k="building" v="yes"/>
    <tag k="club" v="sport"/>
    <tag k="name" v="Stockton FC &amp; CC"/>
    <tag k="ref:GB:uprn" v="10023382033"/>
    <tag k="sport" v="cricket;soccer;netball;boules"/>
  </way>
  <way id="509637119" version="1" timestamp="2017-07-23T15:09:22Z" changeset="50504078" uid="705850" user="Cebderby">
    <nd ref="503368662"/>
    <nd ref="4988285502"/>
    <tag k="highway" v="residential"/>
    <tag k="name" v="Sycamore Close"/>
  </way>
  <way id="509637126" version="1" timestamp="2017-07-23T15:09:22Z" changeset="50504078" uid="705850" user="Cebderby">
    <nd ref="503368866"/>
    <nd ref="4988291050"/>
    <tag k="highway" v="residential"/>
    <tag k="name" v="Tuckwell Close"/>
    <tag k="surface" v="paved"/>
  </way>
  <way id="640621460" version="4" timestamp="2022-12-17T23:26:31Z" changeset="130199116" uid="13001300" user="simonc11">
    <nd ref="6034845165"/>
    <nd ref="7919485703"/>
    <nd ref="7919485701"/>
    <nd ref="7919485702"/>
    <nd ref="7919485700"/>
    <nd ref="7919485699"/>
    <nd ref="7919485698"/>
    <nd ref="7919485697"/>
    <nd ref="7919485706"/>
    <nd ref="7919485696"/>
    <nd ref="7919485695"/>
    <nd ref="8387330960"/>
    <nd ref="10270358446"/>
    <nd ref="7919485692"/>
    <tag k="highway" v="residential"/>
    <tag k="name" v="Nelson Way"/>
  </way>
  <way id="668579342" version="3" timestamp="2021-05-09T10:43:21Z" changeset="104391622" uid="493595" user="Yorvik Prestigitator">
    <nd ref="503368357"/>
    <nd ref="6260970411"/>
    <nd ref="6260970412"/>
    <nd ref="6260970413"/>
    <nd ref="6260970414"/>
    <nd ref="6260970415"/>
    <nd ref="6260970416"/>
    <nd ref="8714509772"/>
    <nd ref="6260970417"/>
    <nd ref="6260970418"/>
    <nd ref="6260970419"/>
    <tag k="highway" v="residential"/>
    <tag k="name" v="Jubilee Fields"/>
    <tag k="source:name" v="OS Open Roads"/>
  </way>
  <way id="670725330" version="1" timestamp="2019-02-15T15:09:16Z" changeset="67229815" uid="9065" user="brianboru">
    <nd ref="6281086552"/>
    <nd ref="6281086551"/>
    <nd ref="6281086550"/>
    <nd ref="6281086549"/>
    <nd ref="6281086548"/>
    <nd ref="6281086547"/>
    <nd ref="6281086546"/>
    <nd ref="6281086552"/>
    <tag k="amenity" v="pub"/>
    <tag k="building" v="yes"/>
    <tag k="internet_access" v="wlan"/>
    <tag k="name" v="The Crown"/>
    <tag k="source" v="Warwicks CC Aerial Imagery 2013"/>
  </way>
  <way id="670725332" version="4" timestamp="2025-07-12T23:58:56Z" changeset="168855231" uid="8857" user="philipcullen">
    <nd ref="6281086563"/>
    <nd ref="12594345179"/>
    <nd ref="12594345178"/>
    <nd ref="6281086562"/>
    <nd ref="6281086561"/>
    <nd ref="6281086560"/>
    <nd ref="12594345177"/>
    <nd ref="12594345176"/>
    <nd ref="6281086563"/>
    <tag k="addr:city" v="Stockton"/>
    <tag k="addr:street" v="Napton Road"/>
    <tag k="amenity" v="community_centre"/>
    <tag k="building" v="public"/>
    <tag k="community_centre" v="village_hall"/>
    <tag k="name" v="Stockton Village Hall"/>
    <tag k="ref:GB:uprn" v="10023382481"/>
  </way>
  <way id="711595095" version="1" timestamp="2019-08-07T07:26:21Z" changeset="73096226" uid="9065" user="brianboru">
    <nd ref="503368526"/>
    <nd ref="6690374012"/>
    <tag k="highway" v="residential"/>
    <tag k="name" v="Grange Farm Drive"/>
    <tag k="source" v="Warwicks CC Aerial Imagery 2013"/>
  </way>
  <way id="719374373" version="5" timestamp="2022-12-17T23:26:31Z" changeset="130199116" uid="13001300" user="simonc11">
    <nd ref="6753426538"/>
    <nd ref="10270358444"/>
    <nd ref="6753426539"/>
    <nd ref="6753426540"/>
    <nd ref="6753426541"/>
    <nd ref="7063093417"/>
    <nd ref="6753426542"/>
    <tag k="highway" v="residential"/>
    <tag k="name" v="Weavers Way"/>
    <tag k="source" v="survey"/>
  </way>
  <way id="866018919" version="5" timestamp="2025-08-16T17:07:49Z" changeset="170533401" uid="5589" user="user_5589">
    <nd ref="10811800117"/>
    <nd ref="255398612"/>
    <nd ref="4988291039"/>
    <nd ref="255398613"/>
    <nd ref="255398614"/>
    <tag k="highway" v="tertiary"/>
    <tag k="lanes" v="2"/>
    <tag k="lanes:backward" v="1"/>
    <tag k="lanes:forward" v="1"/>
    <tag k="maxspeed" v="30 mph"/>
    <tag k="maxspeed:type" v="sign"/>
    <tag k="name" v="Napton Road"/>
    <tag k="sidewalk" v="left"/>
    <tag k="surface" v="asphalt"/>
  </way>
  <way id="866018922" version="2" timestamp="2025-04-07T14:58:42Z" changeset="164639234" uid="5589" user="user_5589">
    <nd ref="501882505"/>
    <nd ref="501882637"/>
    <nd ref="501882623"/>
    <nd ref="501882610"/>
    <tag k="highway" v="residential"/>
    <tag k="name" v="School Street"/>
    <tag k="surface" v="asphalt"/>
  </way>
  <way id="866018927" version="5" timestamp="2025-04-07T17:17:42Z" changeset="164644880" uid="5589" user="user_5589">
    <nd ref="503368831"/>
    <nd ref="501882429"/>
    <nd ref="501883152"/>
    <nd ref="8714509768"/>
    <nd ref="501883139"/>
    <nd ref="8387330958"/>
    <nd ref="501883127"/>
    <nd ref="503368600"/>
    <nd ref="503368603"/>
    <nd ref="501883099"/>
    <nd ref="501882403"/>
    <tag k="highway" v="residential"/>
    <tag k="maxspeed" v="30 mph"/>
    <tag k="maxspeed:type" v="sign"/>
    <tag k="name" v="High Street"/>
    <tag k="surface" v="asphalt"/>
  </way>
  <way id="866018928" version="5" timestamp="2025-08-16T17:08:17Z" changeset="170533401" uid="5589" user="user_5589">
    <nd ref="503368581"/>
    <nd ref="503368531"/>
    <nd ref="501882685"/>
    <tag k="highway" v="tertiary"/>
    <tag k="lanes" v="2"/>
    <tag k="lanes:backward" v="1"/>
    <tag k="lanes:forward" v="1"/>
    <tag k="maxspeed" v="30 mph"/>
    <tag k="maxspeed:type" v="sign"/>
    <tag k="name" v="Napton Road"/>
    <tag k="sidewalk" v="both"/>
    <tag k="surface" v="asphalt"/>
  </way>
  <way id="886108143" version="1" timestamp="2020-12-18T06:48:31Z" changeset="96047017" uid="10170582" user="priymose">
    <nd ref="503368383"/>
    <nd ref="8239504036"/>
    <tag k="highway" v="residential"/>
  </way>
  <way id="997018184" version="2" timestamp="2022-12-17T17:16:11Z" changeset="130192029" uid="13001300" user="simonc11">
    <nd ref="6753426539"/>
    <nd ref="6753426543"/>
    <tag k="highway" v="residential"/>
    <tag k="name" v="Weavers Way"/>
    <tag k="source" v="survey"/>
  </way>
  <way id="1124698329" version="3" timestamp="2025-07-12T23:58:56Z" changeset="168855231" uid="8857" user="philipcullen">
    <nd ref="10284957285"/>
    <nd ref="10284957286"/>
    <nd ref="10284957287"/>
    <nd ref="10284957288"/>
    <nd ref="10284957285"/>
    <tag k="addr:city" v="Southam"/>
    <tag k="addr:postcode" v="CV47 8HN"/>
    <tag k="building" v="industrial"/>
    <tag k="name" v="Kajul"/>
    <tag k="office" v="engineer"/>
    <tag k="phone" v="+441926614147"/>
    <tag k="ref:GB:uprn" v="10093541974"/>
    <tag k="website" v="https://www.kajul.co.uk"/>
  </way>
  <way id="1162537589" version="1" timestamp="2023-04-14T16:38:46Z" changeset="134911748" uid="13001300" user="simonc11">
    <nd ref="6250772017"/>
    <nd ref="6753426538"/>
    <nd ref="255398609"/>
    <nd ref="503368458"/>
    <nd ref="255398610"/>
    <nd ref="503368451"/>
    <tag k="highway" v="tertiary"/>
    <tag k="name" v="Napton Road"/>
    <tag k="sidewalk" v="left"/>
  </way>
  <way id="1162537590" version="1" timestamp="2023-04-14T16:38:46Z" changeset="134911748" uid="13001300" user="simonc11">
    <nd ref="503368451"/>
    <nd ref="7919485693"/>
    <nd ref="7919485691"/>
    <nd ref="7919485694"/>
    <nd ref="7919485692"/>
    <nd ref="875227892"/>
    <nd ref="8954553737"/>
    <nd ref="501882685"/>
    <tag k="highway" v="tertiary"/>
    <tag k="name" v="Napton Road"/>
    <tag k="sidewalk" v="both"/>
  </way>
  <way id="1162537591" version="4" timestamp="2025-08-16T17:08:22Z" changeset="170533401" uid="5589" user="user_5589">
    <nd ref="501882384"/>
    <nd ref="2349723240"/>
    <nd ref="503368581"/>
    <tag k="highway" v="tertiary"/>
    <tag k="lanes" v="2"/>
    <tag k="lanes:backward" v="1"/>
    <tag k="lanes:forward" v="1"/>
    <tag k="maxspeed" v="30 mph"/>
    <tag k="maxspeed:type" v="sign"/>
    <tag k="name" v="Napton Road"/>
    <tag k="sidewalk" v="left"/>
    <tag k="surface" v="asphalt"/>
  </way>
  <way id="1162537592" version="4" timestamp="2025-08-16T17:08:25Z" changeset="170533330" uid="5589" user="user_5589">
    <nd ref="501882384"/>
    <nd ref="10811800117"/>
    <tag k="highway" v="tertiary"/>
    <tag k="lanes" v="2"/>
    <tag k="lanes:backward" v="1"/>
    <tag k="lanes:forward" v="1"/>
    <tag k="maxspeed" v="30 mph"/>
    <tag k="maxspeed:type" v="sign"/>
    <tag k="name" v="Napton Road"/>
    <tag k="sidewalk" v="both"/>
    <tag k="surface" v="asphalt"/>
  </way>
  <way id="1194245292" version="1" timestamp="2023-08-03T10:50:49Z" changeset="139387398" uid="165" user="Richard">
    <nd ref="11085450820"/>
    <nd ref="255673224"/>
    <nd ref="6884626716"/>
    <nd ref="255673225"/>
    <nd ref="1422325572"/>
    <tag k="cycleway:both" v="no"/>
    <tag k="highway" v="tertiary"/>
    <tag k="name" v="Stockton Road"/>
    <tag k="surface" v="asphalt"/>
  </way>
  <way id="1194245295" version="1" timestamp="2023-08-03T10:50:49Z" changeset="139387398" uid="165" user="Richard">
    <nd ref="255673223"/>
    <nd ref="9908353151"/>
    <nd ref="11085450820"/>
    <tag k="bridge" v="yes"/>
    <tag k="cycleway:both" v="no"/>
    <tag k="highway" v="tertiary"/>
    <tag k="layer" v="1"/>
    <tag k="name" v="Stockton Road"/>
    <tag k="surface" v="asphalt"/>
  </way>
  <way id="1375638996" version="3" timestamp="2025-04-07T17:14:13Z" changeset="164644880" uid="5589" user="user_5589">
    <nd ref="12737041548"/>
    <nd ref="10265533052"/>
    <nd ref="255398616"/>
    <tag k="highway" v="tertiary"/>
    <tag k="lanes" v="2"/>
    <tag k="lanes:backward" v="1"/>
    <tag k="lanes:forward" v="1"/>
    <tag k="maxspeed" v="50 mph"/>
    <tag k="maxspeed:type" v="sign"/>
    <tag k="name" v="The Hill"/>
    <tag k="sidewalk" v="left"/>
    <tag k="surface" v="asphalt"/>
  </way>

</osm>
