<?xml version="1.0" encoding="UTF-8"?>
<osm version="0.6" generator="Overpass API 0.7.62.8 e802775f">
<note>The data included in this document is from www.openstreetmap.org. The data is made available under ODbL.</note>
<meta osm_base="2025-10-23T17:44:01Z" areas="2025-10-23T14:54:58Z"/>

  <node id="249499788" lat="52.1471058" lon="-1.7762912" version="3" timestamp="2013-12-16T16:36:06Z" changeset="19484866" uid="9065" user="brianboru"/>
  <node id="279312253" lat="52.1608287" lon="-1.7548027" version="4" timestamp="2017-10-10T13:04:56Z" changeset="52791209" uid="1834625" user="urViator"/>
  <node id="2579553543" lat="52.1444762" lon="-1.7387847" version="2" timestamp="2013-12-14T15:40:31Z" changeset="19450213" uid="9065" user="brianboru"/>
  <node id="2587871090" lat="52.1599897" lon="-1.7550423" version="1" timestamp="2013-12-20T14:37:56Z" changeset="19550892" uid="9065" user="brianboru"/>
  <node id="2587871167" lat="52.1621543" lon="-1.7663424" version="1" timestamp="2013-12-20T14:37:58Z" changeset="19550892" uid="9065" user="brianboru"/>
  <way id="25627455" version="13" timestamp="2021-02-10T07:23:41Z" changeset="99021722" uid="10219386" user="bathines">
    <nd ref="249499788"/>
    <nd ref="2582554269"/>
    <nd ref="2582554264"/>
    <nd ref="2582554262"/>
    <nd ref="279312234"/>
    <nd ref="8410890333"/>
    <nd ref="2582614186"/>
    <nd ref="279312235"/>
    <nd ref="279312236"/>
    <nd ref="1469853080"/>
    <nd ref="279312237"/>
    <nd ref="2582554249"/>
    <nd ref="279312238"/>
    <nd ref="279312239"/>
    <nd ref="2582614202"/>
    <nd ref="279312240"/>
    <nd ref="2582554273"/>
    <nd ref="279312241"/>
    <nd ref="279312242"/>
    <nd ref="279312243"/>
    <nd ref="279312244"/>
    <nd ref="279312245"/>
    <nd ref="279312246"/>
    <nd ref="2582572952"/>
    <nd ref="279312247"/>
    <nd ref="279312248"/>
    <nd ref="2582572964"/>
    <nd ref="2582572975"/>
    <nd ref="2589278959"/>
    <nd ref="279312249"/>
    <nd ref="2582572982"/>
    <nd ref="279312250"/>
    <nd ref="2582572992"/>
    <nd ref="279312251"/>
    <nd ref="2587871089"/>
    <tag k="highway" v="unclassified"/>
    <tag k="source" v="NPE"/>
  </way>
  <way id="30508207" version="10" timestamp="2025-05-14T14:29:44Z" changeset="166260366" uid="3199858" user="Mateusz Konieczny - bot account">
    <nd ref="336744537"/>
    <nd ref="2585456234"/>
    <nd ref="4459267124"/>
    <nd ref="336744538"/>
    <nd ref="2366334917"/>
    <nd ref="336744543"/>
    <nd ref="336744550"/>
    <nd ref="6930031008"/>
    <nd ref="336744551"/>
    <nd ref="336744555"/>
    <nd ref="2585456209"/>
    <nd ref="336744505"/>
    <tag k="highway" v="residential"/>
    <tag k="name" v="Weston Road"/>
    <tag k="sidewalk" v="no"/>
    <tag k="source" v="survey"/>
  </way>
  <way id="154853997" version="8" timestamp="2025-05-14T14:29:47Z" changeset="166260366" uid="3199858" user="Mateusz Konieczny - bot account">
    <nd ref="336744505"/>
    <nd ref="7959452098"/>
    <nd ref="2582573068"/>
    <nd ref="2582573053"/>
    <nd ref="336744556"/>
    <tag k="highway" v="residential"/>
    <tag k="lit" v="no"/>
    <tag k="name" v="Weston Road"/>
    <tag k="sidewalk" v="no"/>
    <tag k="surface" v="asphalt"/>
  </way>
  <way id="228008081" version="1" timestamp="2013-06-29T22:58:52Z" changeset="16758903" uid="324405" user="m902">
    <nd ref="336744537"/>
    <nd ref="2366334880"/>
    <nd ref="2366334882"/>
    <tag k="highway" v="residential"/>
    <tag k="source" v="OS_OpenData_Strretview"/>
  </way>
  <way id="228008084" version="4" timestamp="2024-08-15T08:07:10Z" changeset="155270905" uid="7819986" user="Howling0">
    <nd ref="2366334886"/>
    <nd ref="4459267129"/>
    <nd ref="842599070"/>
    <nd ref="842599392"/>
    <nd ref="2585456239"/>
    <nd ref="336744537"/>
    <tag k="highway" v="residential"/>
    <tag k="name" v="Weston Road"/>
    <tag k="source" v="survey"/>
    <tag k="surface" v="unpaved"/>
  </way>
  <way id="228008091" version="4" timestamp="2020-10-05T21:09:52Z" changeset="92007731" uid="364" user="Edward">
    <nd ref="2366334911"/>
    <nd ref="2585456219"/>
    <nd ref="2366334858"/>
    <nd ref="2366334860"/>
    <nd ref="2366334867"/>
    <nd ref="2585456214"/>
    <nd ref="2366334862"/>
    <nd ref="2585456218"/>
    <nd ref="2366334911"/>
    <tag k="amenity" v="place_of_worship"/>
    <tag k="building" v="church"/>
    <tag k="denomination" v="anglican"/>
    <tag k="heritage" v="2"/>
    <tag k="heritage:operator" v="Historic England"/>
    <tag k="listed_status" v="Grade I"/>
    <tag k="name" v="All Saints"/>
    <tag k="religion" v="christian"/>
    <tag k="wikidata" v="Q4729542"/>
  </way>
  <way id="234838510" version="4" timestamp="2025-05-08T23:00:04Z" changeset="166005612" uid="1338050" user="samon53">
    <nd ref="2429664976"/>
    <nd ref="2429664977"/>
    <nd ref="2429664978"/>
    <nd ref="2429664979"/>
    <nd ref="2429664976"/>
    <tag k="amenity" v="cafe"/>
    <tag k="building" v="yes"/>
    <tag k="name" v="Milcote cafe"/>
    <tag k="opening_hours" v="Mo-Su 09:00-14:30"/>
    <tag k="outdoor_seating" v="yes"/>
  </way>
  <way id="251779394" version="4" timestamp="2020-10-21T13:57:31Z" changeset="92838075" uid="10455645" user="viplavm">
    <nd ref="2579553543"/>
    <nd ref="2579553545"/>
    <nd ref="2579553549"/>
    <nd ref="2579553550"/>
    <nd ref="2579553558"/>
    <nd ref="8032461388"/>
    <nd ref="2579553569"/>
    <nd ref="2579553573"/>
    <nd ref="2579553581"/>
    <nd ref="7882886828"/>
    <nd ref="2579553584"/>
    <nd ref="2579553587"/>
    <nd ref="2579553596"/>
    <nd ref="2579553597"/>
    <nd ref="2579553594"/>
    <nd ref="2579553585"/>
    <nd ref="2579553575"/>
    <nd ref="2579553577"/>
    <nd ref="2579553582"/>
    <nd ref="2579553599"/>
    <nd ref="2579553603"/>
    <nd ref="2579553604"/>
    <nd ref="2579553605"/>
    <nd ref="2579553607"/>
    <nd ref="2579553609"/>
    <nd ref="2579553610"/>
    <nd ref="2579553612"/>
    <tag k="highway" v="unclassified"/>
  </way>
  <way id="252154560" version="2" timestamp="2024-08-15T08:07:10Z" changeset="155270905" uid="7819986" user="Howling0">
    <nd ref="2582573053"/>
    <nd ref="2582573046"/>
    <tag k="highway" v="unclassified"/>
    <tag k="name" v="Weston Road"/>
    <tag k="source" v="bing"/>
  </way>
  <way id="252755504" version="3" timestamp="2020-08-13T13:38:12Z" changeset="89360200" uid="9065" user="brianboru">
    <nd ref="2587871167"/>
    <nd ref="279312443"/>
    <nd ref="2582573058"/>
    <nd ref="279312444"/>
    <nd ref="2582573046"/>
    <nd ref="336744556"/>
    <nd ref="279312445"/>
    <nd ref="2582573028"/>
    <nd ref="279312446"/>
    <nd ref="5975313886"/>
    <nd ref="279312447"/>
    <nd ref="7810122803"/>
    <nd ref="279312448"/>
    <tag k="highway" v="unclassified"/>
    <tag k="name" v="Milcote Road"/>
    <tag k="source" v="NPE"/>
  </way>
  <way id="252755505" version="1" timestamp="2013-12-20T14:38:00Z" changeset="19550892" uid="9065" user="brianboru">
    <nd ref="2587871168"/>
    <nd ref="2587871167"/>
    <tag k="bridge" v="yes"/>
    <tag k="highway" v="unclassified"/>
    <tag k="layer" v="1"/>
    <tag k="name" v="Milcote Road"/>
    <tag k="source" v="NPE"/>
  </way>
  <way id="252755506" version="1" timestamp="2013-12-20T14:38:00Z" changeset="19550892" uid="9065" user="brianboru">
    <nd ref="2587871089"/>
    <nd ref="2587871090"/>
    <tag k="bridge" v="yes"/>
    <tag k="highway" v="unclassified"/>
    <tag k="layer" v="1"/>
    <tag k="source" v="bing"/>
  </way>
  <way id="252755507" version="4" timestamp="2020-09-20T21:25:56Z" changeset="91189125" uid="65226" user="wince">
    <nd ref="2587871090"/>
    <nd ref="279312252"/>
    <nd ref="279312253"/>
    <nd ref="2582573025"/>
    <nd ref="1469854084"/>
    <nd ref="279312254"/>
    <nd ref="5158963747"/>
    <nd ref="7926331993"/>
    <nd ref="279312255"/>
    <tag k="highway" v="unclassified"/>
    <tag k="name" v="Station Road"/>
    <tag k="source" v="NPE"/>
  </way>
  <way id="252914542" version="4" timestamp="2021-03-26T08:30:21Z" changeset="101774444" uid="10173439" user="gilasri">
    <nd ref="279312253"/>
    <nd ref="2582573022"/>
    <nd ref="279312435"/>
    <nd ref="2582573031"/>
    <nd ref="279312436"/>
    <nd ref="2582573038"/>
    <nd ref="2582573033"/>
    <nd ref="2582573035"/>
    <nd ref="279312437"/>
    <nd ref="2582573043"/>
    <nd ref="7882886658"/>
    <nd ref="8563009978"/>
    <nd ref="279312438"/>
    <nd ref="8258941723"/>
    <nd ref="2582573040"/>
    <nd ref="2582573047"/>
    <nd ref="279312439"/>
    <nd ref="2582573050"/>
    <nd ref="2582573055"/>
    <nd ref="279312440"/>
    <nd ref="2582573060"/>
    <nd ref="279312441"/>
    <nd ref="2582573065"/>
    <nd ref="279312442"/>
    <nd ref="2582573062"/>
    <nd ref="2587871168"/>
    <tag k="highway" v="unclassified"/>
    <tag k="name" v="Milcote Road"/>
    <tag k="source" v="NPE"/>
  </way>

</osm>
