<?xml version="1.0" encoding="UTF-8"?>
<osm version="0.6" generator="Overpass API 0.7.62.8 e802775f">
<note>The data included in this document is from www.openstreetmap.org. The data is made available under ODbL.</note>
<meta osm_base="2025-10-23T17:31:43Z" areas="2025-10-23T14:54:58Z"/>

  <node id="21653839" lat="52.2839961" lon="-1.7283268" version="4" timestamp="2011-03-17T17:03:18Z" changeset="7587360" uid="9065" user="brianboru"/>
  <node id="366904463" lat="52.2652621" lon="-1.6931520" version="3" timestamp="2019-01-24T20:27:16Z" changeset="66613120" uid="9065" user="brianboru"/>
  <node id="674460654" lat="52.2569675" lon="-1.7199076" version="2" timestamp="2013-05-05T19:02:26Z" changeset="15988479" uid="9065" user="brianboru"/>
  <node id="1598605746" lat="52.2780246" lon="-1.7155304" version="3" timestamp="2018-02-20T13:15:36Z" changeset="56520507" uid="9065" user="brianboru"/>
  <way id="32628884" version="12" timestamp="2024-05-07T23:52:01Z" changeset="151032362" uid="3432400" user="GinaroZ">
    <nd ref="366904463"/>
    <nd ref="366904464"/>
    <nd ref="2264156106"/>
    <nd ref="366904466"/>
    <nd ref="7100943667"/>
    <nd ref="7574981817"/>
    <nd ref="366904467"/>
    <nd ref="366904468"/>
    <nd ref="6085425721"/>
    <nd ref="366904470"/>
    <nd ref="366904471"/>
    <nd ref="366904472"/>
    <nd ref="366904475"/>
    <nd ref="6085425708"/>
    <nd ref="2264156051"/>
    <nd ref="366904477"/>
    <nd ref="2264156047"/>
    <nd ref="2264156045"/>
    <nd ref="2264156041"/>
    <nd ref="366904482"/>
    <nd ref="772435084"/>
    <nd ref="366904487"/>
    <nd ref="11887818216"/>
    <nd ref="2264156035"/>
    <nd ref="366904490"/>
    <nd ref="366904494"/>
    <nd ref="366904500"/>
    <nd ref="366904506"/>
    <nd ref="2264156012"/>
    <nd ref="366904512"/>
    <nd ref="8364863469"/>
    <nd ref="366904460"/>
    <nd ref="366904517"/>
    <nd ref="366904521"/>
    <nd ref="366904523"/>
    <nd ref="2264155973"/>
    <nd ref="366904524"/>
    <nd ref="366904527"/>
    <nd ref="2264155961"/>
    <nd ref="366904528"/>
    <tag k="highway" v="tertiary"/>
    <tag k="maxspeed" v="60 mph"/>
    <tag k="maxspeed:type" v="GB:nsl_single"/>
    <tag k="name" v="Langley Road"/>
    <tag k="source" v="survey"/>
  </way>
  <way id="35868880" version="6" timestamp="2025-02-24T02:14:31Z" changeset="162874061" uid="563773" user="mrpacmanmap">
    <nd ref="366904431"/>
    <nd ref="419241148"/>
    <nd ref="419241150"/>
    <nd ref="2280526218"/>
    <nd ref="2280526219"/>
    <nd ref="419241151"/>
    <nd ref="419241152"/>
    <nd ref="419241153"/>
    <nd ref="2280526221"/>
    <nd ref="425542118"/>
    <nd ref="419241154"/>
    <nd ref="425547294"/>
    <nd ref="425547296"/>
    <nd ref="6470628684"/>
    <nd ref="6470629503"/>
    <nd ref="425547298"/>
    <nd ref="425547299"/>
    <nd ref="2280526226"/>
    <nd ref="2280526227"/>
    <nd ref="366904417"/>
    <tag k="highway" v="unclassified"/>
    <tag k="name" v="Spring Lane"/>
    <tag k="source" v="survey"/>
  </way>
  <way id="53323345" version="3" timestamp="2016-03-23T19:40:01Z" changeset="38027284" uid="9065" user="brianboru">
    <nd ref="366904528"/>
    <nd ref="4075638510"/>
    <nd ref="674460654"/>
    <tag k="highway" v="tertiary"/>
    <tag k="maxheight" v="13'6&quot;"/>
    <tag k="maxspeed" v="60 mph"/>
    <tag k="maxspeed:type" v="GB:nsl_single"/>
    <tag k="name" v="Langley Road"/>
    <tag k="source" v="survey"/>
  </way>
  <way id="53323348" version="5" timestamp="2021-01-26T16:50:59Z" changeset="98174383" uid="9065" user="brianboru">
    <nd ref="419241146"/>
    <nd ref="366904441"/>
    <nd ref="8364863504"/>
    <nd ref="8364863506"/>
    <nd ref="366904442"/>
    <nd ref="6881842065"/>
    <nd ref="366904444"/>
    <nd ref="6555085868"/>
    <nd ref="366904446"/>
    <nd ref="366904447"/>
    <nd ref="2280534212"/>
    <nd ref="366904448"/>
    <nd ref="2280534207"/>
    <nd ref="366904450"/>
    <nd ref="2280534201"/>
    <nd ref="366904451"/>
    <nd ref="2280534190"/>
    <nd ref="2280534175"/>
    <nd ref="366904452"/>
    <nd ref="366904454"/>
    <tag k="highway" v="unclassified"/>
    <tag k="name" v="Langley Road"/>
  </way>
  <way id="53323372" version="3" timestamp="2016-03-23T19:45:39Z" changeset="38027400" uid="9065" user="brianboru">
    <nd ref="366904454"/>
    <nd ref="4075645686"/>
    <nd ref="366904458"/>
    <nd ref="2264155994"/>
    <nd ref="2264155988"/>
    <nd ref="366904460"/>
    <tag k="highway" v="unclassified"/>
    <tag k="name" v="Langley Road"/>
  </way>
  <way id="146590004" version="10" timestamp="2020-12-17T17:54:08Z" changeset="96021644" uid="10170582" user="priymose">
    <nd ref="21653839"/>
    <nd ref="5615875146"/>
    <nd ref="1598606337"/>
    <nd ref="1598606334"/>
    <nd ref="8238163250"/>
    <nd ref="1598606326"/>
    <nd ref="1598606303"/>
    <nd ref="1598606291"/>
    <nd ref="1598606285"/>
    <nd ref="1598606275"/>
    <nd ref="1598606243"/>
    <nd ref="1598606207"/>
    <nd ref="419230073"/>
    <nd ref="7602066873"/>
    <nd ref="1598606201"/>
    <nd ref="419230070"/>
    <nd ref="1598606193"/>
    <nd ref="6725993535"/>
    <nd ref="1598606153"/>
    <nd ref="1598606141"/>
    <nd ref="1598606103"/>
    <nd ref="6528074780"/>
    <nd ref="1598606086"/>
    <nd ref="7305548023"/>
    <nd ref="1598606050"/>
    <nd ref="1598606009"/>
    <nd ref="1598605913"/>
    <nd ref="1598605824"/>
    <nd ref="1598605752"/>
    <nd ref="7733276135"/>
    <nd ref="1598605736"/>
    <nd ref="1598605721"/>
    <nd ref="419241170"/>
    <nd ref="1598605703"/>
    <nd ref="1598605678"/>
    <nd ref="1598605666"/>
    <nd ref="1598605643"/>
    <nd ref="1598605640"/>
    <nd ref="1598605638"/>
    <nd ref="1598605636"/>
    <nd ref="1598605634"/>
    <nd ref="1598605633"/>
    <nd ref="1598605630"/>
    <nd ref="1598605629"/>
    <nd ref="1598605606"/>
    <nd ref="1598605598"/>
    <nd ref="1598605596"/>
    <nd ref="21653817"/>
    <nd ref="1598605592"/>
    <nd ref="1598605589"/>
    <nd ref="1598605585"/>
    <nd ref="1598605581"/>
    <nd ref="2940624601"/>
    <nd ref="1598605578"/>
    <nd ref="1598605555"/>
    <nd ref="419230105"/>
    <nd ref="1598605545"/>
    <nd ref="1598605541"/>
    <nd ref="1598605515"/>
    <nd ref="1598605511"/>
    <nd ref="1598605509"/>
    <nd ref="1598605506"/>
    <nd ref="1625535037"/>
    <nd ref="1598605513"/>
    <nd ref="1598605517"/>
    <nd ref="1598605543"/>
    <nd ref="1598605549"/>
    <nd ref="1598605551"/>
    <nd ref="1598605559"/>
    <nd ref="1598605562"/>
    <nd ref="1598605565"/>
    <nd ref="1598605566"/>
    <nd ref="21653807"/>
    <tag k="highway" v="unclassified"/>
    <tag k="name" v="Kington Lane"/>
    <tag k="source" v="bing"/>
    <tag k="source:name" v="OS_Locator"/>
  </way>
  <way id="146590005" version="12" timestamp="2025-02-23T22:01:34Z" changeset="162870292" uid="563773" user="mrpacmanmap">
    <nd ref="1598605746"/>
    <nd ref="1625535135"/>
    <nd ref="1598605727"/>
    <nd ref="11887795842"/>
    <nd ref="1598605719"/>
    <nd ref="772435080"/>
    <nd ref="1625535116"/>
    <nd ref="1625535114"/>
    <nd ref="1598605714"/>
    <nd ref="1598605712"/>
    <nd ref="8411376344"/>
    <nd ref="11887818185"/>
    <nd ref="11887818191"/>
    <nd ref="1598605707"/>
    <nd ref="6755671290"/>
    <nd ref="1598605705"/>
    <nd ref="6937890258"/>
    <nd ref="1598605696"/>
    <nd ref="6937890254"/>
    <nd ref="1598605694"/>
    <nd ref="1598605692"/>
    <nd ref="1598605691"/>
    <nd ref="6937890252"/>
    <nd ref="1598605688"/>
    <nd ref="1598605684"/>
    <nd ref="1598605680"/>
    <nd ref="1598605676"/>
    <nd ref="1598605673"/>
    <nd ref="419230099"/>
    <nd ref="1598605664"/>
    <nd ref="1598605662"/>
    <nd ref="21653806"/>
    <nd ref="1598605631"/>
    <nd ref="1598605628"/>
    <nd ref="21653841"/>
    <nd ref="2266974116"/>
    <nd ref="21653807"/>
    <nd ref="1598605547"/>
    <nd ref="6229274155"/>
    <nd ref="366904401"/>
    <nd ref="2280526265"/>
    <nd ref="366904402"/>
    <nd ref="2280526254"/>
    <nd ref="366904404"/>
    <nd ref="366904405"/>
    <nd ref="2280526251"/>
    <nd ref="366904406"/>
    <nd ref="2280526245"/>
    <nd ref="366904408"/>
    <nd ref="2280526240"/>
    <nd ref="366904409"/>
    <nd ref="11887818192"/>
    <nd ref="366904410"/>
    <nd ref="772435076"/>
    <nd ref="2280526235"/>
    <nd ref="366904412"/>
    <nd ref="366904414"/>
    <nd ref="366904415"/>
    <nd ref="2280526230"/>
    <nd ref="366904417"/>
    <nd ref="2280526228"/>
    <nd ref="2280526229"/>
    <nd ref="366904418"/>
    <nd ref="366904419"/>
    <nd ref="2280526225"/>
    <nd ref="2280526224"/>
    <nd ref="366904421"/>
    <nd ref="2280526223"/>
    <nd ref="366904422"/>
    <tag k="highway" v="unclassified"/>
    <tag k="name" v="Langley Road"/>
  </way>
  <way id="290544006" version="5" timestamp="2025-02-23T22:01:34Z" changeset="162870292" uid="563773" user="mrpacmanmap">
    <nd ref="419241146"/>
    <nd ref="366904439"/>
    <nd ref="366904438"/>
    <nd ref="6544488671"/>
    <nd ref="366904437"/>
    <nd ref="366904435"/>
    <nd ref="366904434"/>
    <nd ref="366904433"/>
    <nd ref="11887818212"/>
    <nd ref="366904431"/>
    <tag k="highway" v="unclassified"/>
    <tag k="name" v="Langley Road"/>
    <tag k="source" v="Warwickshire CC Aerial Imagery 2013"/>
    <tag k="source:name" v="OS Locator"/>
  </way>
  <way id="544175778" version="2" timestamp="2021-02-03T16:23:30Z" changeset="98655838" uid="281267" user="smb1001">
    <nd ref="5260401624"/>
    <nd ref="5260401625"/>
    <nd ref="5260401626"/>
    <nd ref="5260401627"/>
    <nd ref="5260401624"/>
    <tag k="addr:city" v="Langley"/>
    <tag k="amenity" v="place_of_worship"/>
    <tag k="building" v="church"/>
    <tag k="denomination" v="anglican"/>
    <tag k="name" v="St Mary"/>
    <tag k="religion" v="christian"/>
    <tag k="source" v="survey"/>
    <tag k="wikidata" v="Q105094317"/>
  </way>
  <way id="1362391856" version="1" timestamp="2025-02-23T22:01:34Z" changeset="162870292" uid="563773" user="mrpacmanmap">
    <nd ref="674460654"/>
    <nd ref="2292887753"/>
    <nd ref="419241121"/>
    <nd ref="366904530"/>
    <nd ref="2292887727"/>
    <nd ref="2292887712"/>
    <nd ref="9022069549"/>
    <nd ref="366904532"/>
    <nd ref="2292887653"/>
    <nd ref="366904533"/>
    <nd ref="366904535"/>
    <nd ref="366904536"/>
    <nd ref="366904537"/>
    <nd ref="2292887506"/>
    <nd ref="2292887494"/>
    <nd ref="366904539"/>
    <nd ref="5106844950"/>
    <tag k="highway" v="tertiary"/>
    <tag k="maxspeed" v="60 mph"/>
    <tag k="maxspeed:type" v="GB:nsl_single"/>
    <tag k="name" v="Langley Road"/>
    <tag k="source" v="survey"/>
  </way>
  <way id="1362391860" version="1" timestamp="2025-02-23T22:01:34Z" changeset="162870292" uid="563773" user="mrpacmanmap">
    <nd ref="366904431"/>
    <nd ref="2280526215"/>
    <nd ref="366904430"/>
    <nd ref="2280526217"/>
    <nd ref="366904427"/>
    <nd ref="366904426"/>
    <nd ref="366904425"/>
    <nd ref="2280526220"/>
    <nd ref="366904423"/>
    <nd ref="2280526222"/>
    <nd ref="12613669067"/>
    <nd ref="366904422"/>
    <tag k="highway" v="unclassified"/>
    <tag k="name" v="Langley Road"/>
  </way>

</osm>
