<?xml version="1.0" encoding="UTF-8"?>
<osm version="0.6" generator="Overpass API 0.7.62.8 e802775f">
<note>The data included in this document is from www.openstreetmap.org. The data is made available under ODbL.</note>
<meta osm_base="2025-10-23T17:32:45Z" areas="2025-10-23T14:54:58Z"/>

  <node id="323237" lat="52.0322377" lon="-1.6171267" version="8" timestamp="2011-11-14T12:23:33Z" changeset="9824152" uid="243152" user="ChinnorBoy"/>
  <node id="33689843" lat="52.0063138" lon="-1.6352093" version="3" timestamp="2012-07-15T19:28:23Z" changeset="12234718" uid="19492" user="rw__"/>
  <node id="278706867" lat="52.0319856" lon="-1.6170887" version="8" timestamp="2011-11-14T12:23:33Z" changeset="9824152" uid="243152" user="ChinnorBoy"/>
  <node id="1522410204" lat="52.0209536" lon="-1.6151447" version="3" timestamp="2021-03-22T09:26:30Z" changeset="101489381" uid="9065" user="brianboru"/>
  <node id="1522410408" lat="52.0064829" lon="-1.5991627" version="1" timestamp="2011-11-29T00:45:15Z" changeset="9983651" uid="165" user="Richard"/>
  <way id="25568862" version="17" timestamp="2021-02-06T21:18:36Z" changeset="98829539" uid="493595" user="Yorvik Prestigitator">
    <nd ref="278706867"/>
    <nd ref="6072825824"/>
    <nd ref="2396959076"/>
    <nd ref="278706868"/>
    <nd ref="278706869"/>
    <nd ref="278706870"/>
    <nd ref="514471154"/>
    <nd ref="2528035265"/>
    <nd ref="514471161"/>
    <nd ref="2528035250"/>
    <nd ref="514471164"/>
    <nd ref="278706871"/>
    <nd ref="7927482032"/>
    <nd ref="7927482035"/>
    <nd ref="514471171"/>
    <nd ref="2528035226"/>
    <nd ref="278706872"/>
    <nd ref="514471191"/>
    <nd ref="278706873"/>
    <nd ref="514471215"/>
    <nd ref="514471226"/>
    <nd ref="514471240"/>
    <nd ref="278706874"/>
    <nd ref="278706875"/>
    <nd ref="514471288"/>
    <nd ref="2528035065"/>
    <nd ref="2532269538"/>
    <nd ref="278706876"/>
    <nd ref="278706877"/>
    <nd ref="2528035000"/>
    <nd ref="278706878"/>
    <nd ref="278706879"/>
    <nd ref="278706880"/>
    <nd ref="800664294"/>
    <nd ref="278706882"/>
    <nd ref="8400745890"/>
    <nd ref="278706883"/>
    <nd ref="3405339432"/>
    <nd ref="3405339443"/>
    <nd ref="278706884"/>
    <nd ref="3405339442"/>
    <nd ref="278706885"/>
    <nd ref="3405339436"/>
    <tag k="highway" v="tertiary"/>
    <tag k="maxspeed" v="60 mph"/>
    <tag k="maxspeed:type" v="GB:nsl_single"/>
    <tag k="source" v="survey"/>
  </way>
  <way id="32976559" version="8" timestamp="2025-01-02T12:11:21Z" changeset="160904232" uid="5229644" user="Nathan_A_RF">
    <nd ref="323237"/>
    <nd ref="278706867"/>
    <tag k="highway" v="primary"/>
    <tag k="lanes" v="2"/>
    <tag k="maxspeed" v="50 mph"/>
    <tag k="maxspeed:type" v="sign"/>
    <tag k="ref" v="A3400"/>
    <tag k="surface" v="asphalt"/>
  </way>
  <way id="32976565" version="14" timestamp="2025-01-02T12:11:21Z" changeset="160904232" uid="5229644" user="Nathan_A_RF">
    <nd ref="278706867"/>
    <nd ref="1502792483"/>
    <nd ref="1502792475"/>
    <nd ref="323285"/>
    <nd ref="1502792484"/>
    <nd ref="7305756859"/>
    <nd ref="6777176197"/>
    <nd ref="1502792479"/>
    <nd ref="1502792478"/>
    <nd ref="1502792477"/>
    <nd ref="323286"/>
    <nd ref="1502792472"/>
    <nd ref="323295"/>
    <nd ref="2531958627"/>
    <nd ref="1502792476"/>
    <nd ref="3405339430"/>
    <nd ref="1502792482"/>
    <nd ref="1522410204"/>
    <nd ref="11191202560"/>
    <nd ref="323296"/>
    <nd ref="1502794022"/>
    <nd ref="323297"/>
    <nd ref="1502794016"/>
    <nd ref="323298"/>
    <nd ref="1818040520"/>
    <nd ref="1502794030"/>
    <nd ref="323299"/>
    <nd ref="1818040585"/>
    <nd ref="6459177667"/>
    <nd ref="323300"/>
    <nd ref="6572700956"/>
    <nd ref="1502794017"/>
    <nd ref="1502794021"/>
    <nd ref="5745766635"/>
    <nd ref="323301"/>
    <nd ref="323302"/>
    <nd ref="5745766637"/>
    <nd ref="1502794029"/>
    <nd ref="323303"/>
    <nd ref="1502794041"/>
    <nd ref="323304"/>
    <nd ref="1502794028"/>
    <nd ref="323305"/>
    <nd ref="323319"/>
    <nd ref="1502794036"/>
    <nd ref="1502794014"/>
    <nd ref="2531038318"/>
    <nd ref="1502794027"/>
    <nd ref="323320"/>
    <nd ref="323321"/>
    <nd ref="1522410408"/>
    <nd ref="323322"/>
    <nd ref="1502794039"/>
    <nd ref="323323"/>
    <nd ref="1502794026"/>
    <nd ref="1502794034"/>
    <nd ref="1502794018"/>
    <nd ref="323324"/>
    <nd ref="323336"/>
    <nd ref="1502794032"/>
    <nd ref="1502794031"/>
    <nd ref="323339"/>
    <nd ref="1502794033"/>
    <nd ref="1502794040"/>
    <nd ref="323342"/>
    <tag k="highway" v="primary"/>
    <tag k="lanes" v="2"/>
    <tag k="maxspeed" v="50 mph"/>
    <tag k="maxspeed:type" v="sign"/>
    <tag k="ref" v="A3400"/>
    <tag k="surface" v="asphalt"/>
  </way>
  <way id="37595318" version="11" timestamp="2021-03-22T11:08:33Z" changeset="101498381" uid="9065" user="brianboru">
    <nd ref="33689843"/>
    <nd ref="6335365085"/>
    <nd ref="33689844"/>
    <nd ref="1826832471"/>
    <nd ref="33689845"/>
    <nd ref="1826832470"/>
    <nd ref="1818040586"/>
    <nd ref="1818040584"/>
    <nd ref="6583956252"/>
    <nd ref="33689846"/>
    <nd ref="2532269138"/>
    <nd ref="8548749893"/>
    <nd ref="33689847"/>
    <nd ref="2532269144"/>
    <nd ref="2532269149"/>
    <nd ref="1818040583"/>
    <nd ref="2532269159"/>
    <nd ref="33689848"/>
    <nd ref="33689849"/>
    <tag k="highway" v="unclassified"/>
    <tag k="name" v="Little Wolford Road"/>
    <tag k="source:name" v="http://www.openstreetmap.org/user/dfarman"/>
  </way>
  <way id="138840993" version="2" timestamp="2021-03-22T09:26:30Z" changeset="101489381" uid="9065" user="brianboru">
    <nd ref="1522410204"/>
    <nd ref="8548424112"/>
    <nd ref="1522410163"/>
    <nd ref="1522410130"/>
    <nd ref="1522410122"/>
    <nd ref="1522410103"/>
    <nd ref="1522410099"/>
    <nd ref="1522410092"/>
    <nd ref="1522410062"/>
    <nd ref="1522410060"/>
    <nd ref="1522410054"/>
    <nd ref="1522410058"/>
    <nd ref="1522410050"/>
    <nd ref="1522410070"/>
    <nd ref="1522410483"/>
    <nd ref="1522410066"/>
    <nd ref="1522410028"/>
    <nd ref="1522410031"/>
    <nd ref="1522410025"/>
    <nd ref="1522410023"/>
    <nd ref="753175936"/>
    <nd ref="1522410011"/>
    <nd ref="1522409995"/>
    <nd ref="1522409993"/>
    <nd ref="1522410014"/>
    <nd ref="1522410623"/>
    <nd ref="1522409987"/>
    <nd ref="1522410018"/>
    <nd ref="1522410019"/>
    <nd ref="1522409991"/>
    <tag k="highway" v="unclassified"/>
  </way>
  <way id="138840999" version="2" timestamp="2013-04-25T18:19:59Z" changeset="15863690" uid="782788" user="GordonFS">
    <nd ref="1522410408"/>
    <nd ref="1522410428"/>
    <nd ref="1522410406"/>
    <nd ref="1522410404"/>
    <nd ref="1522410397"/>
    <nd ref="1522410206"/>
    <nd ref="1522410214"/>
    <nd ref="1522410625"/>
    <nd ref="1522410209"/>
    <nd ref="1522410217"/>
    <nd ref="1522410182"/>
    <nd ref="1522410185"/>
    <nd ref="1522410173"/>
    <nd ref="1519529009"/>
    <tag k="highway" v="unclassified"/>
    <tag k="lanes" v="1"/>
    <tag k="name" v="Hack Lane"/>
    <tag k="source:name" v="OS_OpenData_Locator"/>
  </way>
  <way id="170645211" version="3" timestamp="2025-03-17T18:06:00Z" changeset="163744365" uid="493595" user="Yorvik Prestigitator">
    <nd ref="1818045962"/>
    <nd ref="1818045953"/>
    <nd ref="1818045969"/>
    <nd ref="1818045952"/>
    <nd ref="1818045958"/>
    <nd ref="1818045970"/>
    <nd ref="1818045955"/>
    <nd ref="1818045956"/>
    <nd ref="1818045957"/>
    <nd ref="1818045954"/>
    <nd ref="1818045962"/>
    <tag k="addr:city" v="Little Wolford"/>
    <tag k="amenity" v="community_centre"/>
    <tag k="building" v="public"/>
    <tag k="community_centre" v="village_hall"/>
    <tag k="name" v="Wolfords Village Hall"/>
    <tag k="website" v="https://www.thewolfordsvillagehall.org.uk/"/>
  </way>
  <way id="283530641" version="1" timestamp="2014-05-21T23:18:22Z" changeset="22476752" uid="76617" user="robbieonsea">
    <nd ref="2873778145"/>
    <nd ref="1502792474"/>
    <nd ref="1502792485"/>
    <nd ref="1502792473"/>
    <nd ref="323296"/>
    <tag k="highway" v="unclassified"/>
    <tag k="name" v="Little Wolford Road"/>
    <tag k="source:name" v="http://www.openstreetmap.org/user/dfarman"/>
  </way>
  <way id="283530642" version="5" timestamp="2020-08-25T04:05:26Z" changeset="89886030" uid="10252541" user="thadad">
    <nd ref="33689849"/>
    <nd ref="2532269213"/>
    <nd ref="5745766647"/>
    <nd ref="2532269221"/>
    <nd ref="7799977740"/>
    <nd ref="33689850"/>
    <nd ref="6885849874"/>
    <nd ref="33689851"/>
    <nd ref="1818040587"/>
    <nd ref="1818040515"/>
    <nd ref="1818045968"/>
    <nd ref="33689852"/>
    <nd ref="33689853"/>
    <nd ref="7841827135"/>
    <nd ref="2873778145"/>
    <tag k="highway" v="unclassified"/>
    <tag k="maxspeed" v="30 mph"/>
    <tag k="name" v="Little Wolford Road"/>
    <tag k="source:name" v="http://www.openstreetmap.org/user/dfarman"/>
  </way>
  <way id="782375485" version="2" timestamp="2021-12-21T17:05:59Z" changeset="115218691" uid="12637824" user="MrMapperBanbury">
    <nd ref="7305756859"/>
    <nd ref="7305756861"/>
    <nd ref="9356127589"/>
    <tag k="highway" v="residential"/>
    <tag k="name" v="Wolford Field Barns"/>
  </way>
  <way id="920688835" version="2" timestamp="2021-12-21T17:05:59Z" changeset="115218691" uid="12637824" user="MrMapperBanbury">
    <nd ref="8548443343"/>
    <nd ref="8548443342"/>
    <nd ref="8548443341"/>
    <nd ref="8548443340"/>
    <nd ref="8548443339"/>
    <nd ref="8548443338"/>
    <nd ref="8548443337"/>
    <nd ref="8548443336"/>
    <nd ref="8548443335"/>
    <nd ref="8548443334"/>
    <nd ref="8548443333"/>
    <nd ref="8548443332"/>
    <nd ref="8548443331"/>
    <nd ref="8548443330"/>
    <nd ref="8548443343"/>
    <tag k="building" v="residential"/>
    <tag k="name" v="Wolford Fields House"/>
    <tag k="source" v="bing"/>
  </way>
  <way id="1014108214" version="1" timestamp="2021-12-21T17:05:59Z" changeset="115218691" uid="12637824" user="MrMapperBanbury">
    <nd ref="9356127563"/>
    <nd ref="9356127564"/>
    <nd ref="9356127565"/>
    <nd ref="9356127566"/>
    <nd ref="9356127567"/>
    <nd ref="9356127568"/>
    <nd ref="9356127569"/>
    <nd ref="9356127570"/>
    <nd ref="9356127571"/>
    <nd ref="9356127572"/>
    <nd ref="9356127563"/>
    <tag k="building" v="semidetached_house"/>
    <tag k="name" v="The Deer Park"/>
  </way>
  <way id="1014108215" version="1" timestamp="2021-12-21T17:05:59Z" changeset="115218691" uid="12637824" user="MrMapperBanbury">
    <nd ref="9356127563"/>
    <nd ref="9356127573"/>
    <nd ref="9356127574"/>
    <nd ref="9356127575"/>
    <nd ref="9356127576"/>
    <nd ref="9356127564"/>
    <nd ref="9356127563"/>
    <tag k="building" v="house"/>
    <tag k="name" v="Willow Barn"/>
  </way>
  <way id="1014108216" version="1" timestamp="2021-12-21T17:05:59Z" changeset="115218691" uid="12637824" user="MrMapperBanbury">
    <nd ref="9356127573"/>
    <nd ref="9356127577"/>
    <nd ref="9356127578"/>
    <nd ref="9356127579"/>
    <nd ref="9356127580"/>
    <nd ref="9356127581"/>
    <nd ref="9356127582"/>
    <nd ref="9356127583"/>
    <nd ref="9356127584"/>
    <nd ref="9356127574"/>
    <nd ref="9356127573"/>
    <tag k="building" v="house"/>
    <tag k="name" v="Mollys Barn"/>
  </way>
  <way id="1014108217" version="1" timestamp="2021-12-21T17:05:59Z" changeset="115218691" uid="12637824" user="MrMapperBanbury">
    <nd ref="9356127581"/>
    <nd ref="9356127585"/>
    <nd ref="9356127586"/>
    <nd ref="9356127587"/>
    <nd ref="9356127588"/>
    <nd ref="9356127582"/>
    <nd ref="9356127581"/>
    <tag k="building" v="semidetached_house"/>
    <tag k="name" v="Tommys House"/>
  </way>

</osm>
