<?xml version="1.0" encoding="UTF-8"?>
<osm version="0.6" generator="Overpass API 0.7.62.8 e802775f">
<note>The data included in this document is from www.openstreetmap.org. The data is made available under ODbL.</note>
<meta osm_base="2025-10-23T17:46:02Z" areas="2025-10-23T14:54:58Z"/>

  <node id="25880776" lat="52.2915811" lon="-1.2205435" version="5" timestamp="2018-07-16T18:55:07Z" changeset="60773566" uid="9065" user="brianboru"/>
  <node id="276223303" lat="52.3212159" lon="-1.2048298" version="7" timestamp="2025-01-08T16:22:36Z" changeset="161139959" uid="5229644" user="Nathan_A_RF"/>
  <node id="279274962" lat="52.3053686" lon="-1.2557078" version="2" timestamp="2011-10-21T23:49:11Z" changeset="9620734" uid="185805" user="Jon Iles"/>
  <node id="279534280" lat="52.2920338" lon="-1.2619997" version="3" timestamp="2013-10-19T06:56:41Z" changeset="18429608" uid="9065" user="brianboru"/>
  <node id="1470716073" lat="52.2931744" lon="-1.2473579" version="1" timestamp="2011-10-17T12:16:33Z" changeset="9581437" uid="185805" user="Jon Iles">
    <tag k="building" v="yes"/>
    <tag k="name" v="Willoughby House"/>
  </node>
  <node id="1611666636" lat="52.3192439" lon="-1.2542711" version="2" timestamp="2018-07-16T18:55:10Z" changeset="60773566" uid="9065" user="brianboru"/>
  <way id="25357289" version="21" timestamp="2025-01-08T16:22:36Z" changeset="161139959" uid="5229644" user="Nathan_A_RF">
    <nd ref="276223303"/>
    <nd ref="272419720"/>
    <nd ref="390208906"/>
    <nd ref="390208903"/>
    <nd ref="390208907"/>
    <nd ref="390208909"/>
    <nd ref="272419721"/>
    <nd ref="390208911"/>
    <nd ref="1474100743"/>
    <nd ref="1474100799"/>
    <nd ref="390208913"/>
    <nd ref="272419722"/>
    <nd ref="2491929746"/>
    <nd ref="7937281583"/>
    <nd ref="2491929731"/>
    <nd ref="2747257628"/>
    <nd ref="272419723"/>
    <nd ref="2747257626"/>
    <nd ref="2491929698"/>
    <nd ref="2747257625"/>
    <nd ref="2491929692"/>
    <nd ref="8270215662"/>
    <nd ref="2747257623"/>
    <nd ref="2491523296"/>
    <nd ref="390208914"/>
    <nd ref="2491523293"/>
    <nd ref="1578087876"/>
    <nd ref="2491929643"/>
    <nd ref="1578087853"/>
    <nd ref="2491523286"/>
    <nd ref="1578087860"/>
    <nd ref="2491523284"/>
    <nd ref="1474098547"/>
    <nd ref="272419724"/>
    <nd ref="7525459206"/>
    <nd ref="2470983280"/>
    <nd ref="2747257608"/>
    <nd ref="280156626"/>
    <tag k="cycleway:both" v="no"/>
    <tag k="highway" v="tertiary"/>
    <tag k="lanes" v="2"/>
    <tag k="lit" v="no"/>
    <tag k="maxspeed" v="60 mph"/>
    <tag k="maxspeed:type" v="GB:nsl_single"/>
    <tag k="name" v="Longdown Lane"/>
    <tag k="surface" v="asphalt"/>
  </way>
  <way id="25624184" version="8" timestamp="2020-04-01T11:38:36Z" changeset="82920779" uid="9065" user="brianboru">
    <nd ref="279274969"/>
    <nd ref="279274994"/>
    <nd ref="793681622"/>
    <nd ref="535766920"/>
    <nd ref="279274995"/>
    <nd ref="535987946"/>
    <nd ref="535766927"/>
    <nd ref="535987941"/>
    <nd ref="534888903"/>
    <nd ref="279274996"/>
    <nd ref="761403926"/>
    <nd ref="761403927"/>
    <nd ref="761403928"/>
    <nd ref="7354131072"/>
    <nd ref="279274997"/>
    <tag k="highway" v="unclassified"/>
    <tag k="name" v="Lower Street"/>
  </way>
  <way id="25696443" version="10" timestamp="2024-08-21T10:10:55Z" changeset="155548787" uid="5589" user="user_5589">
    <nd ref="280156626"/>
    <nd ref="280156629"/>
    <tag k="bridge" v="yes"/>
    <tag k="bridge_ref" v="85"/>
    <tag k="highway" v="tertiary"/>
    <tag k="layer" v="1"/>
    <tag k="lit" v="no"/>
    <tag k="maxweight:signed" v="no"/>
    <tag k="name" v="Longdown Lane"/>
    <tag k="surface" v="asphalt"/>
  </way>
  <way id="25696444" version="10" timestamp="2024-08-21T10:09:47Z" changeset="155548250" uid="5589" user="user_5589">
    <nd ref="280156629"/>
    <nd ref="2470983279"/>
    <nd ref="793683323"/>
    <nd ref="5764370525"/>
    <nd ref="5764370526"/>
    <nd ref="5764370531"/>
    <nd ref="5764370532"/>
    <nd ref="5764370535"/>
    <tag k="highway" v="tertiary"/>
    <tag k="name" v="Longdown Lane"/>
  </way>
  <way id="42088654" version="15" timestamp="2023-01-13T22:17:12Z" changeset="131247214" uid="3560" user="Firefishy">
    <nd ref="25880776"/>
    <nd ref="2746568352"/>
    <nd ref="57778105"/>
    <nd ref="2746568416"/>
    <nd ref="2746568510"/>
    <nd ref="57778106"/>
    <nd ref="2746568512"/>
    <nd ref="2746568515"/>
    <nd ref="57778107"/>
    <nd ref="2746568517"/>
    <nd ref="57778108"/>
    <nd ref="57778109"/>
    <nd ref="1475500613"/>
    <nd ref="57778110"/>
    <nd ref="2491949575"/>
    <nd ref="793707470"/>
    <nd ref="793707471"/>
    <nd ref="2491949586"/>
    <nd ref="2470983016"/>
    <nd ref="5764370544"/>
    <nd ref="25880777"/>
    <nd ref="5764370543"/>
    <tag k="highway" v="trunk"/>
    <tag k="lanes" v="2"/>
    <tag k="name" v="London Road"/>
    <tag k="ref" v="A45"/>
    <tag k="surface" v="asphalt"/>
  </way>
  <way id="42779128" version="2" timestamp="2021-03-29T01:15:57Z" changeset="101894004" uid="493595" user="Yorvik Prestigitator">
    <nd ref="534888910"/>
    <nd ref="8570266327"/>
    <nd ref="534888908"/>
    <tag k="highway" v="unclassified"/>
  </way>
  <way id="42780454" version="16" timestamp="2023-05-07T21:06:48Z" changeset="135827363" uid="13001300" user="simonc11">
    <nd ref="2501370582"/>
    <nd ref="283476026"/>
    <nd ref="280155008"/>
    <nd ref="1475480100"/>
    <nd ref="2501370614"/>
    <nd ref="279534281"/>
    <nd ref="2501370620"/>
    <nd ref="279534282"/>
    <nd ref="283476007"/>
    <nd ref="2501370635"/>
    <nd ref="279534283"/>
    <nd ref="2501370640"/>
    <nd ref="6901808955"/>
    <nd ref="279534284"/>
    <nd ref="2501370643"/>
    <nd ref="279534285"/>
    <nd ref="7936593805"/>
    <nd ref="2491949534"/>
    <nd ref="2491949537"/>
    <nd ref="283476020"/>
    <nd ref="2491949541"/>
    <nd ref="279534286"/>
    <nd ref="10876526085"/>
    <nd ref="280155016"/>
    <nd ref="2501370665"/>
    <nd ref="1470716082"/>
    <nd ref="2501370670"/>
    <nd ref="279534287"/>
    <nd ref="279534288"/>
    <nd ref="7393608427"/>
    <nd ref="7354101062"/>
    <nd ref="279534289"/>
    <nd ref="279534290"/>
    <nd ref="7936250327"/>
    <nd ref="279534291"/>
    <nd ref="279534292"/>
    <nd ref="7354101061"/>
    <nd ref="279534294"/>
    <nd ref="279534295"/>
    <nd ref="7354101075"/>
    <nd ref="279534296"/>
    <nd ref="7354101076"/>
    <nd ref="279534297"/>
    <nd ref="2500750237"/>
    <nd ref="279534298"/>
    <nd ref="7354136188"/>
    <nd ref="7354136189"/>
    <nd ref="279275006"/>
    <nd ref="7354136190"/>
    <nd ref="7354136192"/>
    <nd ref="8256412206"/>
    <nd ref="8815013300"/>
    <nd ref="761403902"/>
    <nd ref="7354136193"/>
    <nd ref="279274997"/>
    <tag k="highway" v="tertiary"/>
    <tag k="name" v="Moor Lane"/>
    <tag k="surface" v="asphalt"/>
  </way>
  <way id="42780528" version="14" timestamp="2024-04-16T20:41:03Z" changeset="150102497" uid="7463" user="kesterlester">
    <nd ref="279274962"/>
    <nd ref="279274963"/>
    <nd ref="1475480019"/>
    <nd ref="793708626"/>
    <nd ref="279274964"/>
    <nd ref="2498329699"/>
    <nd ref="761403778"/>
    <nd ref="2498329689"/>
    <nd ref="2498329694"/>
    <nd ref="2498329697"/>
    <nd ref="279274965"/>
    <nd ref="2498329709"/>
    <nd ref="279274966"/>
    <nd ref="2498329713"/>
    <nd ref="279274967"/>
    <nd ref="1473074575"/>
    <nd ref="6010864552"/>
    <nd ref="535989009"/>
    <nd ref="279274968"/>
    <nd ref="6010864554"/>
    <nd ref="6010864553"/>
    <nd ref="2498337591"/>
    <nd ref="7399118397"/>
    <nd ref="6010864020"/>
    <nd ref="535989007"/>
    <nd ref="2470983236"/>
    <nd ref="279274969"/>
    <nd ref="2470983234"/>
    <nd ref="277349490"/>
    <nd ref="761403810"/>
    <nd ref="5764370509"/>
    <nd ref="5764370540"/>
    <tag k="highway" v="unclassified"/>
    <tag k="name" v="Woolscott Road"/>
  </way>
  <way id="42838859" version="5" timestamp="2019-09-06T06:59:24Z" changeset="74159395" uid="10219372" user="saisuri">
    <nd ref="535987946"/>
    <nd ref="535987947"/>
    <nd ref="535987948"/>
    <nd ref="535987942"/>
    <nd ref="2470983181"/>
    <nd ref="6776251435"/>
    <nd ref="535987943"/>
    <nd ref="6010864401"/>
    <nd ref="2470983186"/>
    <nd ref="793682017"/>
    <nd ref="535987944"/>
    <nd ref="535987945"/>
    <tag k="highway" v="unclassified"/>
    <tag k="name" v="Brooks Close"/>
  </way>
  <way id="42838860" version="3" timestamp="2018-10-24T19:32:00Z" changeset="63844959" uid="9065" user="brianboru">
    <nd ref="535987948"/>
    <nd ref="6010864489"/>
    <nd ref="2498337579"/>
    <nd ref="535987941"/>
    <tag k="highway" v="unclassified"/>
    <tag k="name" v="Brooks Close"/>
  </way>
  <way id="42839077" version="1" timestamp="2009-10-19T22:44:54Z" changeset="2898898" uid="185805" user="Jon Iles">
    <nd ref="535989009"/>
    <nd ref="535989011"/>
    <nd ref="535989014"/>
    <tag k="highway" v="unclassified"/>
    <tag k="name" v="Pye Court"/>
  </way>
  <way id="42886028" version="3" timestamp="2010-06-27T21:42:21Z" changeset="5093473" uid="10983" user="Guy">
    <nd ref="536934438"/>
    <nd ref="536934444"/>
    <nd ref="536934447"/>
    <tag k="access" v="private"/>
    <tag k="highway" v="residential"/>
    <tag k="name" v="White Barn Close"/>
    <tag k="surface" v="asphalt"/>
  </way>
  <way id="60822143" version="3" timestamp="2020-04-01T11:38:36Z" changeset="82920779" uid="9065" user="brianboru">
    <nd ref="1443452989"/>
    <nd ref="1443453341"/>
    <nd ref="1443453319"/>
    <nd ref="1443453012"/>
    <nd ref="7354136647"/>
    <nd ref="1443453027"/>
    <nd ref="761403746"/>
    <nd ref="7354136646"/>
    <nd ref="761403753"/>
    <nd ref="761403757"/>
    <nd ref="761403760"/>
    <nd ref="761403764"/>
    <tag k="highway" v="residential"/>
    <tag k="name" v="College Road"/>
    <tag k="source" v="Os Openview Streetview"/>
  </way>
  <way id="60822144" version="2" timestamp="2020-04-01T11:38:36Z" changeset="82920779" uid="9065" user="brianboru">
    <nd ref="761403841"/>
    <nd ref="761403844"/>
    <nd ref="7354133884"/>
    <nd ref="279275008"/>
    <tag k="highway" v="residential"/>
  </way>
  <way id="60822145" version="3" timestamp="2021-07-29T11:19:18Z" changeset="108820710" uid="10455633" user="tnayini">
    <nd ref="761403844"/>
    <nd ref="7354125266"/>
    <nd ref="761403856"/>
    <nd ref="761403857"/>
    <nd ref="761403858"/>
    <nd ref="7354125265"/>
    <nd ref="761403875"/>
    <nd ref="7354125264"/>
    <nd ref="761403878"/>
    <nd ref="761403881"/>
    <nd ref="8959770903"/>
    <nd ref="761403884"/>
    <tag k="highway" v="residential"/>
  </way>
  <way id="60822147" version="2" timestamp="2020-04-01T11:38:36Z" changeset="82920779" uid="9065" user="brianboru">
    <nd ref="7354124876"/>
    <nd ref="761403917"/>
    <nd ref="7354124877"/>
    <nd ref="7354124878"/>
    <nd ref="761403918"/>
    <nd ref="761403919"/>
    <nd ref="7354124879"/>
    <nd ref="761403920"/>
    <nd ref="761403921"/>
    <nd ref="761403922"/>
    <tag k="highway" v="residential"/>
    <tag k="name" v="Magdalen Road"/>
    <tag k="source" v="Os Openview Streetview"/>
  </way>
  <way id="60823034" version="6" timestamp="2021-03-29T01:24:13Z" changeset="101894107" uid="493595" user="Yorvik Prestigitator">
    <nd ref="279274997"/>
    <nd ref="7354136195"/>
    <nd ref="536934438"/>
    <nd ref="7354136194"/>
    <nd ref="283475940"/>
    <nd ref="7354136199"/>
    <nd ref="534888910"/>
    <nd ref="7354133883"/>
    <nd ref="279275007"/>
    <nd ref="761403930"/>
    <nd ref="8570290677"/>
    <nd ref="761403841"/>
    <nd ref="7354136585"/>
    <nd ref="279275008"/>
    <nd ref="8570290679"/>
    <nd ref="761403931"/>
    <nd ref="761403932"/>
    <nd ref="761403933"/>
    <nd ref="283476009"/>
    <nd ref="793707533"/>
    <nd ref="761403764"/>
    <nd ref="279275009"/>
    <nd ref="761403922"/>
    <nd ref="8256363145"/>
    <nd ref="761403934"/>
    <nd ref="6010864244"/>
    <nd ref="57778113"/>
    <tag k="highway" v="tertiary"/>
    <tag k="name" v="Main Street"/>
  </way>
  <way id="133620118" version="5" timestamp="2025-07-19T22:42:05Z" changeset="169173190" uid="8857" user="philipcullen">
    <nd ref="1470748779"/>
    <nd ref="1470748777"/>
    <nd ref="1470748776"/>
    <nd ref="7354124843"/>
    <nd ref="7354124842"/>
    <nd ref="1470748778"/>
    <nd ref="8570290670"/>
    <nd ref="8570290671"/>
    <nd ref="1470748779"/>
    <tag k="addr:city" v="Willoughby"/>
    <tag k="amenity" v="community_centre"/>
    <tag k="building" v="public"/>
    <tag k="community_centre" v="village_hall"/>
    <tag k="name" v="Willoughby Village Hall"/>
    <tag k="ref:GB:uprn" v="100071399677"/>
  </way>
  <way id="148057572" version="11" timestamp="2024-02-12T14:32:56Z" changeset="147369973" uid="13341565" user="Falsernet">
    <nd ref="1611666636"/>
    <nd ref="1611666635"/>
    <nd ref="1611666634"/>
    <nd ref="1611666633"/>
    <nd ref="1611666632"/>
    <nd ref="1611666631"/>
    <nd ref="1611666630"/>
    <nd ref="1611666629"/>
    <nd ref="1611666628"/>
    <nd ref="5764370494"/>
    <nd ref="1611666627"/>
    <nd ref="5764370495"/>
    <nd ref="1611666626"/>
    <nd ref="1611666625"/>
    <nd ref="57778114"/>
    <nd ref="5764370497"/>
    <nd ref="1611666624"/>
    <nd ref="1611666623"/>
    <nd ref="1611666622"/>
    <nd ref="2498329881"/>
    <nd ref="1475549584"/>
    <nd ref="7399118401"/>
    <nd ref="1611666621"/>
    <nd ref="1611666620"/>
    <nd ref="1611666619"/>
    <nd ref="1611666618"/>
    <nd ref="1611666617"/>
    <nd ref="5764370536"/>
    <tag k="highway" v="trunk"/>
    <tag k="lanes" v="2"/>
    <tag k="maxspeed" v="50 mph"/>
    <tag k="name" v="Daventry Road"/>
    <tag k="ref" v="A45"/>
    <tag k="surface" v="asphalt"/>
  </way>
  <way id="242344104" version="6" timestamp="2025-07-19T22:42:05Z" changeset="169173190" uid="8857" user="philipcullen">
    <nd ref="2498337564"/>
    <nd ref="2498337568"/>
    <nd ref="2498337566"/>
    <nd ref="2498337567"/>
    <nd ref="2498337565"/>
    <nd ref="2498337562"/>
    <nd ref="2498337561"/>
    <nd ref="2498337560"/>
    <nd ref="6010864399"/>
    <nd ref="6010864397"/>
    <nd ref="6010864398"/>
    <nd ref="6010864400"/>
    <nd ref="2498337564"/>
    <tag k="amenity" v="place_of_worship"/>
    <tag k="building" v="church"/>
    <tag k="denomination" v="anglican"/>
    <tag k="heritage" v="2"/>
    <tag k="heritage:operator" v="Historic England"/>
    <tag k="listed_status" v="Grade II*"/>
    <tag k="name" v="St Nicholas"/>
    <tag k="ref:GB:uprn" v="10010522500"/>
    <tag k="ref:dove" v="12496"/>
    <tag k="religion" v="christian"/>
    <tag k="source" v="Warwicks CC Aerial Imagery 2013"/>
    <tag k="wikidata" v="Q17550861"/>
  </way>
  <way id="242679006" version="2" timestamp="2025-07-19T22:42:05Z" changeset="169173190" uid="8857" user="philipcullen">
    <nd ref="2501370807"/>
    <nd ref="2501370806"/>
    <nd ref="2501370802"/>
    <nd ref="2501370803"/>
    <nd ref="2501370807"/>
    <tag k="addr:city" v="Willoughby"/>
    <tag k="addr:postcode" v="CV23 8DA"/>
    <tag k="building" v="residential"/>
    <tag k="name" v="The Leys"/>
    <tag k="ref:GB:uprn" v="100071240580"/>
    <tag k="source" v="visual survey; bing"/>
  </way>
  <way id="608430604" version="5" timestamp="2024-08-21T10:09:44Z" changeset="155548787" uid="5589" user="user_5589">
    <nd ref="5764370536"/>
    <nd ref="5764370540"/>
    <tag k="highway" v="trunk"/>
    <tag k="lanes" v="3"/>
    <tag k="lanes:backward" v="1"/>
    <tag k="lanes:forward" v="2"/>
    <tag k="lit" v="yes"/>
    <tag k="maxspeed" v="50 mph"/>
    <tag k="name" v="Daventry Road"/>
    <tag k="ref" v="A45"/>
    <tag k="source" v="Warwicks CC Aerial Imagery 2013"/>
    <tag k="surface" v="asphalt"/>
    <tag k="turn:lanes:forward" v="through|right"/>
  </way>
  <way id="608430605" version="8" timestamp="2024-08-21T10:09:43Z" changeset="155548787" uid="5589" user="user_5589">
    <nd ref="1611666616"/>
    <nd ref="5764370542"/>
    <nd ref="5764370540"/>
    <tag k="highway" v="trunk"/>
    <tag k="lanes" v="3"/>
    <tag k="lanes:backward" v="1"/>
    <tag k="lanes:forward" v="2"/>
    <tag k="lit" v="yes"/>
    <tag k="maxspeed" v="50 mph"/>
    <tag k="name" v="Daventry Road"/>
    <tag k="ref" v="A45"/>
    <tag k="sidewalk" v="left"/>
    <tag k="source" v="Warwicks CC Aerial Imagery 2013"/>
    <tag k="surface" v="asphalt"/>
    <tag k="turn:lanes:forward" v="through|right"/>
  </way>
  <way id="608430606" version="5" timestamp="2024-04-16T20:41:03Z" changeset="150102497" uid="7463" user="kesterlester">
    <nd ref="1611666616"/>
    <nd ref="793683351"/>
    <nd ref="618821065"/>
    <nd ref="1611666615"/>
    <nd ref="7937347509"/>
    <nd ref="1611666614"/>
    <tag k="highway" v="trunk"/>
    <tag k="lanes" v="2"/>
    <tag k="maxspeed" v="50 mph"/>
    <tag k="name" v="Daventry Road"/>
    <tag k="ref" v="A45"/>
    <tag k="surface" v="asphalt"/>
  </way>
  <way id="608430609" version="2" timestamp="2023-01-13T22:17:12Z" changeset="131247214" uid="3560" user="Firefishy">
    <nd ref="1611666614"/>
    <nd ref="1611666613"/>
    <tag k="highway" v="trunk"/>
    <tag k="lanes" v="2"/>
    <tag k="maxspeed" v="50 mph"/>
    <tag k="name" v="Daventry Road"/>
    <tag k="ref" v="A45"/>
    <tag k="surface" v="asphalt"/>
  </way>
  <way id="608430610" version="2" timestamp="2023-01-13T22:17:12Z" changeset="131247214" uid="3560" user="Firefishy">
    <nd ref="1611666613"/>
    <nd ref="2470983182"/>
    <nd ref="1611666612"/>
    <nd ref="1611666611"/>
    <nd ref="57778113"/>
    <tag k="highway" v="trunk"/>
    <tag k="lanes" v="3"/>
    <tag k="lanes:backward" v="1"/>
    <tag k="lanes:forward" v="2"/>
    <tag k="maxspeed" v="50 mph"/>
    <tag k="name" v="Daventry Road"/>
    <tag k="ref" v="A45"/>
    <tag k="surface" v="asphalt"/>
    <tag k="turn:lanes:forward" v="through|right"/>
  </way>
  <way id="608430611" version="4" timestamp="2023-01-13T22:17:12Z" changeset="131247214" uid="3560" user="Firefishy">
    <nd ref="5764370543"/>
    <nd ref="793707472"/>
    <nd ref="2893681530"/>
    <nd ref="25880780"/>
    <nd ref="6010863860"/>
    <nd ref="1578087884"/>
    <nd ref="57778111"/>
    <nd ref="7834523516"/>
    <nd ref="6010864243"/>
    <nd ref="57778112"/>
    <nd ref="7834523507"/>
    <nd ref="7834523496"/>
    <nd ref="57778113"/>
    <tag k="highway" v="trunk"/>
    <tag k="lanes" v="2"/>
    <tag k="maxspeed" v="50 mph"/>
    <tag k="name" v="London Road"/>
    <tag k="ref" v="A45"/>
    <tag k="surface" v="asphalt"/>
  </way>
  <way id="637612644" version="1" timestamp="2018-10-24T19:31:54Z" changeset="63844959" uid="9065" user="brianboru">
    <nd ref="6010864543"/>
    <nd ref="6010864542"/>
    <nd ref="6010864541"/>
    <nd ref="6010864540"/>
    <nd ref="6010864539"/>
    <nd ref="6010864538"/>
    <nd ref="6010864537"/>
    <nd ref="6010864536"/>
    <nd ref="6010864543"/>
    <tag k="building" v="residential"/>
    <tag k="name" v="The Old Vicarage"/>
  </way>
  <way id="637612645" version="2" timestamp="2025-07-19T22:42:05Z" changeset="169173190" uid="8857" user="philipcullen">
    <nd ref="6010864551"/>
    <nd ref="6010864550"/>
    <nd ref="6010864549"/>
    <nd ref="6010864548"/>
    <nd ref="6010864547"/>
    <nd ref="6010864546"/>
    <nd ref="6010864545"/>
    <nd ref="6010864544"/>
    <nd ref="6010864551"/>
    <tag k="building" v="residential"/>
    <tag k="name" v="The Vicarage"/>
    <tag k="ref:GB:uprn" v="100071239087"/>
    <tag k="source" v="Warwicks CC Aerial Imagery 2013"/>
  </way>
  <way id="786507863" version="1" timestamp="2020-04-01T11:38:35Z" changeset="82920779" uid="9065" user="brianboru">
    <nd ref="761403916"/>
    <nd ref="7354124876"/>
    <nd ref="7354124875"/>
    <tag k="highway" v="residential"/>
    <tag k="name" v="Magdalen Road"/>
    <tag k="source" v="Os Openview Streetview"/>
  </way>
  <way id="1169733147" version="1" timestamp="2023-05-07T21:06:48Z" changeset="135827363" uid="13001300" user="simonc11">
    <nd ref="279534280"/>
    <nd ref="2501370582"/>
    <tag k="bridge" v="yes"/>
    <tag k="highway" v="tertiary"/>
    <tag k="layer" v="1"/>
    <tag k="name" v="Moor Lane"/>
    <tag k="surface" v="asphalt"/>
  </way>
  <way id="1309286348" version="5" timestamp="2024-08-21T10:10:53Z" changeset="155548416" uid="5589" user="user_5589">
    <nd ref="5764370535"/>
    <nd ref="5764370508"/>
    <nd ref="5764370540"/>
    <tag k="highway" v="tertiary"/>
    <tag k="lanes" v="2"/>
    <tag k="lanes:backward" v="1"/>
    <tag k="lanes:forward" v="1"/>
    <tag k="lit" v="yes"/>
    <tag k="name" v="Longdown Lane"/>
    <tag k="surface" v="asphalt"/>
  </way>

</osm>
