<?xml version="1.0" encoding="UTF-8"?>
<osm version="0.6" generator="Overpass API 0.7.62.8 e802775f">
<note>The data included in this document is from www.openstreetmap.org. The data is made available under ODbL.</note>
<meta osm_base="2025-10-23T17:43:00Z" areas="2025-10-23T12:46:58Z"/>

  <node id="249499726" lat="52.1469123" lon="-1.7991787" version="3" timestamp="2011-06-12T14:45:26Z" changeset="8416104" uid="213451" user="Richard Phillips"/>
  <node id="249499788" lat="52.1471058" lon="-1.7762912" version="3" timestamp="2013-12-16T16:36:06Z" changeset="19484866" uid="9065" user="brianboru"/>
  <node id="254002678" lat="52.1605182" lon="-1.8254251" version="3" timestamp="2013-09-04T09:20:06Z" changeset="17667885" uid="9065" user="brianboru"/>
  <node id="459848066" lat="52.1599747" lon="-1.8300841" version="2" timestamp="2013-04-29T11:16:39Z" changeset="15906981" uid="213451" user="Richard Phillips"/>
  <node id="1478006380" lat="52.1411207" lon="-1.7763392" version="3" timestamp="2025-01-03T00:30:56Z" changeset="160930804" uid="5229644" user="Nathan_A_RF"/>
  <node id="2020099683" lat="52.1756665" lon="-1.7895492" version="3" timestamp="2021-03-20T16:13:36Z" changeset="101393524" uid="9065" user="brianboru"/>
  <node id="2587871167" lat="52.1621543" lon="-1.7663424" version="1" timestamp="2013-12-20T14:37:58Z" changeset="19550892" uid="9065" user="brianboru"/>
  <way id="23096742" version="18" timestamp="2021-02-09T05:05:41Z" changeset="98945295" uid="10252557" user="anuvashi">
    <nd ref="249328407"/>
    <nd ref="2582256267"/>
    <nd ref="249328455"/>
    <nd ref="249328456"/>
    <nd ref="2285546632"/>
    <nd ref="2285546630"/>
    <nd ref="249328458"/>
    <nd ref="2285546628"/>
    <nd ref="2582256201"/>
    <nd ref="2582256198"/>
    <nd ref="249328459"/>
    <nd ref="2582256175"/>
    <nd ref="8407039148"/>
    <nd ref="249328461"/>
    <nd ref="249328462"/>
    <nd ref="2582256135"/>
    <nd ref="249328463"/>
    <tag k="highway" v="tertiary"/>
    <tag k="name" v="Barton Road"/>
  </way>
  <way id="23110231" version="15" timestamp="2021-06-29T08:26:27Z" changeset="107132537" uid="10455640" user="madnikhi">
    <nd ref="249499737"/>
    <nd ref="2256111796"/>
    <nd ref="1578746993"/>
    <nd ref="249499738"/>
    <nd ref="1578746987"/>
    <nd ref="7121667682"/>
    <nd ref="249499740"/>
    <nd ref="8874403637"/>
    <nd ref="8874403630"/>
    <nd ref="2255704312"/>
    <nd ref="1578746997"/>
    <nd ref="2255975794"/>
    <nd ref="650106394"/>
    <nd ref="2255704341"/>
    <nd ref="2255704343"/>
    <nd ref="6128779587"/>
    <nd ref="249499741"/>
    <tag k="cycleway:both" v="no"/>
    <tag k="highway" v="unclassified"/>
    <tag k="lane_markings" v="no"/>
    <tag k="maxspeed" v="30 mph"/>
    <tag k="name" v="Headland Road"/>
    <tag k="source" v="npe"/>
    <tag k="source:name" v="OS_OpenData_Locator"/>
    <tag k="surface" v="asphalt"/>
  </way>
  <way id="23453748" version="11" timestamp="2023-08-21T20:04:15Z" changeset="140199061" uid="411244" user="RobJN">
    <nd ref="254002678"/>
    <nd ref="249328403"/>
    <nd ref="2445488740"/>
    <nd ref="249328404"/>
    <nd ref="2445488744"/>
    <nd ref="7352575664"/>
    <nd ref="2285546666"/>
    <nd ref="2582256286"/>
    <nd ref="7980044439"/>
    <nd ref="249328405"/>
    <nd ref="11134908919"/>
    <nd ref="6536572797"/>
    <nd ref="249328406"/>
    <nd ref="249328407"/>
    <tag k="highway" v="tertiary"/>
    <tag k="name" v="Barton Road"/>
    <tag k="source" v="survey"/>
  </way>
  <way id="25627455" version="13" timestamp="2021-02-10T07:23:41Z" changeset="99021722" uid="10219386" user="bathines">
    <nd ref="249499788"/>
    <nd ref="2582554269"/>
    <nd ref="2582554264"/>
    <nd ref="2582554262"/>
    <nd ref="279312234"/>
    <nd ref="8410890333"/>
    <nd ref="2582614186"/>
    <nd ref="279312235"/>
    <nd ref="279312236"/>
    <nd ref="1469853080"/>
    <nd ref="279312237"/>
    <nd ref="2582554249"/>
    <nd ref="279312238"/>
    <nd ref="279312239"/>
    <nd ref="2582614202"/>
    <nd ref="279312240"/>
    <nd ref="2582554273"/>
    <nd ref="279312241"/>
    <nd ref="279312242"/>
    <nd ref="279312243"/>
    <nd ref="279312244"/>
    <nd ref="279312245"/>
    <nd ref="279312246"/>
    <nd ref="2582572952"/>
    <nd ref="279312247"/>
    <nd ref="279312248"/>
    <nd ref="2582572964"/>
    <nd ref="2582572975"/>
    <nd ref="2589278959"/>
    <nd ref="279312249"/>
    <nd ref="2582572982"/>
    <nd ref="279312250"/>
    <nd ref="2582572992"/>
    <nd ref="279312251"/>
    <nd ref="2587871089"/>
    <tag k="highway" v="unclassified"/>
    <tag k="source" v="NPE"/>
  </way>
  <way id="28480895" version="1" timestamp="2008-11-17T22:33:42Z" changeset="760914" uid="7037" user="Gregory Williams">
    <nd ref="249499778"/>
    <nd ref="312881856"/>
    <nd ref="312881857"/>
    <nd ref="312881858"/>
    <nd ref="312881859"/>
    <nd ref="312881860"/>
    <nd ref="312881861"/>
    <nd ref="312881862"/>
    <tag k="highway" v="residential"/>
    <tag k="name" v="Orchard Close"/>
    <tag k="source" v="survey"/>
  </way>
  <way id="28480896" version="1" timestamp="2008-11-17T22:33:43Z" changeset="760914" uid="7037" user="Gregory Williams">
    <nd ref="312881861"/>
    <nd ref="312881863"/>
    <tag k="highway" v="residential"/>
    <tag k="name" v="Orchard Close"/>
    <tag k="source" v="survey"/>
  </way>
  <way id="28480898" version="11" timestamp="2021-02-11T07:44:30Z" changeset="99086805" uid="10177504" user="GoodSeth">
    <nd ref="312881843"/>
    <nd ref="5407671938"/>
    <nd ref="312881842"/>
    <nd ref="5803461289"/>
    <nd ref="4264654843"/>
    <nd ref="249499778"/>
    <nd ref="7352606386"/>
    <nd ref="4264654844"/>
    <nd ref="279312448"/>
    <tag k="cycleway:both" v="no"/>
    <tag k="highway" v="tertiary"/>
    <tag k="lanes" v="2"/>
    <tag k="maxspeed" v="30 mph"/>
    <tag k="name" v="Long Marston Road"/>
    <tag k="source" v="survey"/>
    <tag k="surface" v="asphalt"/>
  </way>
  <way id="28480900" version="6" timestamp="2021-02-11T07:39:12Z" changeset="99086805" uid="10177504" user="GoodSeth">
    <nd ref="249328472"/>
    <nd ref="842599057"/>
    <tag k="cycleway:both" v="no"/>
    <tag k="highway" v="tertiary"/>
    <tag k="lanes" v="2"/>
    <tag k="maxspeed" v="30 mph"/>
    <tag k="name" v="High Street"/>
    <tag k="source" v="survey"/>
    <tag k="surface" v="asphalt"/>
  </way>
  <way id="28481031" version="4" timestamp="2018-12-10T16:59:22Z" changeset="65350509" uid="9065" user="brianboru">
    <nd ref="312881845"/>
    <nd ref="2256065311"/>
    <nd ref="312884320"/>
    <nd ref="2256141468"/>
    <nd ref="2256065321"/>
    <nd ref="312884321"/>
    <nd ref="6128779110"/>
    <nd ref="312884323"/>
    <nd ref="312884324"/>
    <nd ref="312884325"/>
    <nd ref="312884326"/>
    <nd ref="312884327"/>
    <nd ref="312884328"/>
    <tag k="highway" v="residential"/>
    <tag k="name" v="Chapel Street"/>
    <tag k="source" v="survey"/>
  </way>
  <way id="28481032" version="9" timestamp="2025-05-14T14:29:42Z" changeset="166260366" uid="3199858" user="Mateusz Konieczny - bot account">
    <nd ref="312884328"/>
    <nd ref="8874691623"/>
    <nd ref="6552379102"/>
    <nd ref="312884329"/>
    <nd ref="312884330"/>
    <nd ref="312884331"/>
    <nd ref="8874689209"/>
    <nd ref="312884333"/>
    <nd ref="312884334"/>
    <nd ref="312884335"/>
    <nd ref="312884336"/>
    <nd ref="312884337"/>
    <nd ref="312884339"/>
    <nd ref="8957619174"/>
    <nd ref="312884340"/>
    <nd ref="2366334895"/>
    <nd ref="312884342"/>
    <tag k="highway" v="residential"/>
    <tag k="name" v="Duck Lane"/>
    <tag k="sidewalk" v="no"/>
  </way>
  <way id="28481033" version="1" timestamp="2008-11-17T22:42:03Z" changeset="760914" uid="7037" user="Gregory Williams">
    <nd ref="312884347"/>
    <nd ref="312884346"/>
    <nd ref="312884344"/>
    <nd ref="312884320"/>
    <tag k="highway" v="residential"/>
    <tag k="name" v="Montague's Corner"/>
    <tag k="source" v="survey"/>
  </way>
  <way id="28481035" version="1" timestamp="2008-11-17T22:42:04Z" changeset="760914" uid="7037" user="Gregory Williams">
    <nd ref="312884320"/>
    <nd ref="249328469"/>
    <tag k="highway" v="residential"/>
    <tag k="name" v="Chapel Street"/>
    <tag k="source" v="survey"/>
  </way>
  <way id="28481036" version="2" timestamp="2018-10-11T13:33:46Z" changeset="63419518" uid="9065" user="brianboru">
    <nd ref="312884323"/>
    <nd ref="312884349"/>
    <nd ref="312884350"/>
    <nd ref="5975313379"/>
    <nd ref="312884351"/>
    <tag k="highway" v="residential"/>
    <tag k="name" v="Pool Close"/>
    <tag k="source" v="survey"/>
  </way>
  <way id="28481037" version="5" timestamp="2025-05-14T14:29:42Z" changeset="166260366" uid="3199858" user="Mateusz Konieczny - bot account">
    <nd ref="312884321"/>
    <nd ref="312884353"/>
    <nd ref="312884354"/>
    <nd ref="312884356"/>
    <nd ref="312884357"/>
    <nd ref="312884358"/>
    <nd ref="312884360"/>
    <nd ref="312884361"/>
    <nd ref="8105564515"/>
    <nd ref="312884363"/>
    <nd ref="312884364"/>
    <nd ref="312884365"/>
    <nd ref="312884367"/>
    <nd ref="312884368"/>
    <nd ref="312884370"/>
    <tag k="highway" v="residential"/>
    <tag k="name" v="Chapel Close"/>
    <tag k="sidewalk" v="no"/>
  </way>
  <way id="28481038" version="4" timestamp="2025-05-14T14:29:43Z" changeset="166260366" uid="3199858" user="Mateusz Konieczny - bot account">
    <nd ref="312884328"/>
    <nd ref="312884371"/>
    <nd ref="312884372"/>
    <nd ref="312884374"/>
    <nd ref="312884375"/>
    <nd ref="312884377"/>
    <nd ref="312884378"/>
    <nd ref="312884379"/>
    <nd ref="2255994635"/>
    <nd ref="2255994637"/>
    <nd ref="312884381"/>
    <nd ref="312884382"/>
    <nd ref="249328470"/>
    <tag k="highway" v="residential"/>
    <tag k="name" v="Millers Close"/>
    <tag k="sidewalk" v="no"/>
    <tag k="source" v="survey"/>
  </way>
  <way id="28481039" version="5" timestamp="2025-05-14T14:29:43Z" changeset="166260366" uid="3199858" user="Mateusz Konieczny - bot account">
    <nd ref="312884381"/>
    <nd ref="312884385"/>
    <nd ref="4264654841"/>
    <nd ref="312884389"/>
    <nd ref="312884395"/>
    <nd ref="312884403"/>
    <nd ref="312884412"/>
    <nd ref="312884415"/>
    <nd ref="312884417"/>
    <nd ref="312884418"/>
    <tag k="highway" v="residential"/>
    <tag k="name" v="Fraser Way"/>
    <tag k="sidewalk" v="no"/>
  </way>
  <way id="28481040" version="3" timestamp="2025-05-14T14:29:43Z" changeset="166260366" uid="3199858" user="Mateusz Konieczny - bot account">
    <nd ref="312884412"/>
    <nd ref="312884419"/>
    <tag k="highway" v="residential"/>
    <tag k="name" v="Frasers Way"/>
    <tag k="sidewalk" v="no"/>
  </way>
  <way id="31350020" version="17" timestamp="2019-03-18T00:41:13Z" changeset="68243202" uid="8446894" user="kararcha">
    <nd ref="249328480"/>
    <nd ref="2255796241"/>
    <nd ref="2255796182"/>
    <nd ref="249328479"/>
    <nd ref="4265016310"/>
    <nd ref="312881851"/>
    <nd ref="2578313301"/>
    <nd ref="249328478"/>
    <nd ref="312881850"/>
    <nd ref="2255796152"/>
    <nd ref="312881849"/>
    <nd ref="249328477"/>
    <nd ref="2578313270"/>
    <nd ref="650106417"/>
    <nd ref="249328476"/>
    <nd ref="312881848"/>
    <nd ref="6343966008"/>
    <nd ref="249328475"/>
    <nd ref="312881847"/>
    <nd ref="249328474"/>
    <nd ref="2144112043"/>
    <nd ref="312881846"/>
    <nd ref="249328473"/>
    <nd ref="2257558093"/>
    <nd ref="1578749427"/>
    <nd ref="2257558066"/>
    <nd ref="1578749431"/>
    <nd ref="1629380570"/>
    <nd ref="3653837490"/>
    <nd ref="3979267307"/>
    <tag k="highway" v="tertiary"/>
    <tag k="lanes" v="2"/>
    <tag k="maxspeed" v="30 mph"/>
    <tag k="name" v="Binton Road"/>
    <tag k="source" v="survey"/>
  </way>
  <way id="50989697" version="5" timestamp="2013-04-07T17:07:36Z" changeset="15643516" uid="213451" user="Richard Phillips">
    <nd ref="650106394"/>
    <nd ref="1578742581"/>
    <nd ref="2255704338"/>
    <nd ref="1578742580"/>
    <nd ref="2255704335"/>
    <nd ref="1578742583"/>
    <nd ref="2255796037"/>
    <nd ref="2255704333"/>
    <nd ref="2255704331"/>
    <tag k="designation" v="public_footpath"/>
    <tag k="highway" v="residential"/>
    <tag k="name" v="Mill Lane"/>
  </way>
  <way id="50989698" version="7" timestamp="2021-02-11T07:41:49Z" changeset="99086810" uid="10177504" user="GoodSeth">
    <nd ref="650106398"/>
    <nd ref="7810127701"/>
    <nd ref="2255796051"/>
    <nd ref="1578742585"/>
    <nd ref="2255704346"/>
    <nd ref="2255704350"/>
    <nd ref="249499741"/>
    <tag k="highway" v="residential"/>
    <tag k="lit" v="no"/>
    <tag k="name" v="Boat Lane"/>
    <tag k="surface" v="asphalt"/>
  </way>
  <way id="134420019" version="5" timestamp="2025-01-03T00:30:56Z" changeset="160930804" uid="5229644" user="Nathan_A_RF">
    <nd ref="1478006380"/>
    <nd ref="12470278705"/>
    <nd ref="1478006370"/>
    <nd ref="312881823"/>
    <nd ref="312881822"/>
    <nd ref="1469853297"/>
    <nd ref="249499803"/>
    <tag k="cycleway:both" v="no"/>
    <tag k="highway" v="tertiary"/>
    <tag k="lanes" v="2"/>
    <tag k="maxspeed" v="30 mph"/>
    <tag k="name" v="Welford Road"/>
    <tag k="source" v="survey"/>
    <tag k="source:name" v="OS_OpenData_Locator"/>
  </way>
  <way id="144333650" version="14" timestamp="2025-05-14T14:29:45Z" changeset="166260366" uid="3199858" user="Mateusz Konieczny - bot account">
    <nd ref="249499741"/>
    <nd ref="6128779588"/>
    <nd ref="2255704356"/>
    <nd ref="2255704363"/>
    <nd ref="1578742582"/>
    <nd ref="1578742586"/>
    <nd ref="1578742579"/>
    <nd ref="1578749420"/>
    <nd ref="2255890760"/>
    <nd ref="2255796071"/>
    <tag k="highway" v="residential"/>
    <tag k="lit" v="no"/>
    <tag k="name" v="Church Street"/>
    <tag k="sidewalk" v="no"/>
    <tag k="source" v="survey"/>
    <tag k="surface" v="asphalt"/>
  </way>
  <way id="144333651" version="6" timestamp="2025-05-14T14:29:45Z" changeset="166260366" uid="3199858" user="Mateusz Konieczny - bot account">
    <nd ref="1578742582"/>
    <nd ref="2255704387"/>
    <nd ref="1578742584"/>
    <nd ref="2255704443"/>
    <nd ref="2255704455"/>
    <nd ref="2255704457"/>
    <nd ref="2255704460"/>
    <nd ref="2255704463"/>
    <nd ref="650106411"/>
    <nd ref="2255704465"/>
    <nd ref="2255704468"/>
    <nd ref="650106413"/>
    <nd ref="2255704471"/>
    <nd ref="650106415"/>
    <nd ref="2366338104"/>
    <nd ref="650106409"/>
    <tag k="highway" v="residential"/>
    <tag k="name" v="Church Lane"/>
    <tag k="sidewalk" v="no"/>
    <tag k="surface" v="asphalt"/>
  </way>
  <way id="144333919" version="5" timestamp="2021-02-11T07:40:51Z" changeset="99086810" uid="10177504" user="GoodSeth">
    <nd ref="6128874620"/>
    <nd ref="1578746985"/>
    <nd ref="1578746989"/>
    <nd ref="1578746987"/>
    <tag k="highway" v="residential"/>
    <tag k="lit" v="no"/>
    <tag k="name" v="Headland Close"/>
    <tag k="sidewalk" v="both"/>
    <tag k="source" v="Warwicks CC Aerial Imagery 2013"/>
    <tag k="surface" v="asphalt"/>
  </way>
  <way id="144333920" version="3" timestamp="2021-02-11T07:40:15Z" changeset="99086810" uid="10177504" user="GoodSeth">
    <nd ref="1578746995"/>
    <nd ref="1578746993"/>
    <tag k="highway" v="residential"/>
    <tag k="lit" v="no"/>
    <tag k="name" v="Headland Close"/>
    <tag k="source" v="OS opendata streetview"/>
    <tag k="surface" v="asphalt"/>
  </way>
  <way id="144333921" version="2" timestamp="2012-03-13T10:55:22Z" changeset="10965194" uid="112997" user="sobbomapper">
    <nd ref="1578746991"/>
    <nd ref="1578746997"/>
    <tag k="highway" v="residential"/>
    <tag k="name" v="Blundells Croft"/>
    <tag k="source" v="OS opendata streetview"/>
    <tag k="source:name" v="OS_OpenData_Locator"/>
  </way>
  <way id="144334230" version="4" timestamp="2021-02-11T07:38:08Z" changeset="99086810" uid="10177504" user="GoodSeth">
    <nd ref="1578749418"/>
    <nd ref="1578749416"/>
    <nd ref="1578749429"/>
    <nd ref="1578749422"/>
    <tag k="highway" v="residential"/>
    <tag k="lit" v="no"/>
    <tag k="name" v="Quiney's Leys"/>
    <tag k="sidewalk" v="both"/>
    <tag k="source" v="OS opendata streetview"/>
    <tag k="surface" v="asphalt"/>
  </way>
  <way id="144334231" version="6" timestamp="2021-02-11T07:38:03Z" changeset="99086810" uid="10177504" user="GoodSeth">
    <nd ref="1578749416"/>
    <nd ref="1578749417"/>
    <nd ref="1578749439"/>
    <nd ref="1578749427"/>
    <tag k="highway" v="residential"/>
    <tag k="lit" v="no"/>
    <tag k="name" v="Quiney's Leys"/>
    <tag k="sidewalk" v="both"/>
    <tag k="source" v="OS opendata streetview"/>
    <tag k="surface" v="asphalt"/>
  </way>
  <way id="144334232" version="2" timestamp="2021-02-13T15:25:19Z" changeset="99217650" uid="10177504" user="GoodSeth">
    <nd ref="1578749434"/>
    <nd ref="1578749420"/>
    <tag k="highway" v="residential"/>
    <tag k="name" v="Church Lane"/>
    <tag k="source" v="OS opendata streetview"/>
  </way>
  <way id="144334233" version="5" timestamp="2021-02-11T07:38:28Z" changeset="99086810" uid="10177504" user="GoodSeth">
    <nd ref="1578749437"/>
    <nd ref="1578749441"/>
    <nd ref="2255886897"/>
    <nd ref="1578749425"/>
    <nd ref="1578749431"/>
    <tag k="highway" v="residential"/>
    <tag k="lit" v="no"/>
    <tag k="name" v="Willow Bank"/>
    <tag k="sidewalk" v="right"/>
    <tag k="source" v="OS opendata streetview"/>
    <tag k="surface" v="asphalt"/>
  </way>
  <way id="144334234" version="4" timestamp="2021-02-11T07:38:21Z" changeset="99086810" uid="10177504" user="GoodSeth">
    <nd ref="1578749443"/>
    <nd ref="1578749422"/>
    <nd ref="1578749415"/>
    <tag k="highway" v="residential"/>
    <tag k="lit" v="no"/>
    <tag k="name" v="Quiney's Leys"/>
    <tag k="sidewalk" v="both"/>
    <tag k="source" v="OS opendata streetview"/>
    <tag k="surface" v="asphalt"/>
  </way>
  <way id="144334904" version="2" timestamp="2012-01-06T20:09:19Z" changeset="10315323" uid="232621" user="vnjones">
    <nd ref="1578756103"/>
    <nd ref="312881843"/>
    <tag k="highway" v="residential"/>
    <tag k="name" v="Frog Lane"/>
    <tag k="source" v="OS opendata streetview"/>
  </way>
  <way id="144334905" version="4" timestamp="2024-06-01T17:42:11Z" changeset="152132651" uid="411244" user="RobJN">
    <nd ref="1578756102"/>
    <nd ref="1578756104"/>
    <nd ref="11950562813"/>
    <nd ref="11950562812"/>
    <tag k="highway" v="residential"/>
    <tag k="name" v="Barton Fields"/>
    <tag k="sidewalk" v="both"/>
    <tag k="source" v="OS opendata streetview"/>
  </way>
  <way id="144334906" version="5" timestamp="2025-05-14T14:29:46Z" changeset="166260366" uid="3199858" user="Mateusz Konieczny - bot account">
    <nd ref="1578756100"/>
    <nd ref="312881842"/>
    <tag k="highway" v="residential"/>
    <tag k="lit" v="no"/>
    <tag k="sidewalk" v="no"/>
    <tag k="source" v="OS opendata streetview"/>
    <tag k="surface" v="asphalt"/>
  </way>
  <way id="144335697" version="7" timestamp="2023-05-27T23:23:20Z" changeset="136640416" uid="411244" user="RobJN">
    <nd ref="249499726"/>
    <nd ref="1478034517"/>
    <nd ref="249499727"/>
    <nd ref="5220102446"/>
    <nd ref="249499728"/>
    <nd ref="6902295242"/>
    <nd ref="2582298865"/>
    <nd ref="249499729"/>
    <nd ref="2582298877"/>
    <nd ref="2582298885"/>
    <nd ref="249499730"/>
    <nd ref="2582298894"/>
    <nd ref="460341551"/>
    <nd ref="2582255821"/>
    <nd ref="460341552"/>
    <nd ref="2582255834"/>
    <nd ref="2582255840"/>
    <nd ref="249499731"/>
    <nd ref="2582255845"/>
    <nd ref="460341553"/>
    <nd ref="2582255858"/>
    <nd ref="249499732"/>
    <nd ref="2582255899"/>
    <nd ref="10932538122"/>
    <nd ref="249499733"/>
    <nd ref="2582255940"/>
    <nd ref="5220102453"/>
    <nd ref="249499734"/>
    <nd ref="2582255963"/>
    <nd ref="8280234369"/>
    <nd ref="249499735"/>
    <nd ref="8280234374"/>
    <nd ref="460341554"/>
    <nd ref="2582256035"/>
    <nd ref="249499736"/>
    <nd ref="2582256114"/>
    <nd ref="249328463"/>
    <tag k="highway" v="unclassified"/>
    <tag k="name" v="Braggington Lane"/>
    <tag k="source" v="survey"/>
  </way>
  <way id="144448399" version="10" timestamp="2025-05-14T14:29:47Z" changeset="166260366" uid="3199858" user="Mateusz Konieczny - bot account">
    <nd ref="1579954847"/>
    <nd ref="1579954870"/>
    <nd ref="3311634368"/>
    <nd ref="1579954874"/>
    <nd ref="8559529570"/>
    <nd ref="1579954862"/>
    <nd ref="1579954868"/>
    <nd ref="1579954872"/>
    <nd ref="1579954865"/>
    <tag k="highway" v="residential"/>
    <tag k="lit" v="no"/>
    <tag k="name" v="Hunt Hall Lane"/>
    <tag k="sidewalk" v="no"/>
    <tag k="source" v="OS opendata streetview"/>
    <tag k="surface" v="asphalt"/>
  </way>
  <way id="154846319" version="6" timestamp="2024-06-08T18:12:59Z" changeset="152426766" uid="411244" user="RobJN">
    <nd ref="459848066"/>
    <nd ref="254002675"/>
    <nd ref="2470022782"/>
    <nd ref="254002676"/>
    <nd ref="1321934189"/>
    <nd ref="2445488705"/>
    <nd ref="254002677"/>
    <nd ref="254002678"/>
    <tag k="highway" v="tertiary"/>
    <tag k="name" v="Welford Road"/>
  </way>
  <way id="154846321" version="12" timestamp="2021-02-11T07:39:35Z" changeset="99086805" uid="10177504" user="GoodSeth">
    <nd ref="842599057"/>
    <nd ref="2255796058"/>
    <nd ref="249328471"/>
    <nd ref="249328470"/>
    <nd ref="2257558057"/>
    <nd ref="4264654836"/>
    <nd ref="7305221174"/>
    <nd ref="5407671564"/>
    <nd ref="2255994630"/>
    <nd ref="6571938149"/>
    <nd ref="249328469"/>
    <nd ref="312881845"/>
    <nd ref="2255951137"/>
    <nd ref="249328468"/>
    <nd ref="312881844"/>
    <nd ref="5407671939"/>
    <nd ref="312881843"/>
    <tag k="cycleway:both" v="no"/>
    <tag k="highway" v="tertiary"/>
    <tag k="lanes" v="2"/>
    <tag k="maxspeed" v="30 mph"/>
    <tag k="name" v="High Street"/>
    <tag k="source" v="survey"/>
    <tag k="surface" v="asphalt"/>
  </way>
  <way id="168503013" version="5" timestamp="2025-05-14T14:29:47Z" changeset="166260366" uid="3199858" user="Mateusz Konieczny - bot account">
    <nd ref="312884342"/>
    <nd ref="312884343"/>
    <tag k="highway" v="residential"/>
    <tag k="lit" v="no"/>
    <tag k="name" v="Duck Lane"/>
    <tag k="sidewalk" v="no"/>
    <tag k="surface" v="asphalt"/>
  </way>
  <way id="191434835" version="9" timestamp="2021-11-06T03:32:27Z" changeset="113432838" uid="322039" user="MacLondon">
    <nd ref="2020099683"/>
    <nd ref="382379332"/>
    <nd ref="249328480"/>
    <tag k="bridge" v="viaduct"/>
    <tag k="cycleway:left" v="no"/>
    <tag k="cycleway:right" v="track"/>
    <tag k="cycleway:right:segregated" v="no"/>
    <tag k="highway" v="tertiary"/>
    <tag k="lanes" v="2"/>
    <tag k="layer" v="1"/>
    <tag k="lit" v="no"/>
    <tag k="maxspeed" v="30 mph"/>
    <tag k="maxweight" v="10"/>
    <tag k="maxweightrating" v="10"/>
    <tag k="motor_vehicle" v="designated"/>
    <tag k="name" v="Binton Road"/>
    <tag k="sidewalk" v="right"/>
    <tag k="source" v="survey"/>
    <tag k="surface" v="asphalt"/>
  </way>
  <way id="193051976" version="5" timestamp="2025-01-03T00:30:56Z" changeset="160930804" uid="5229644" user="Nathan_A_RF">
    <nd ref="249499790"/>
    <nd ref="312881824"/>
    <nd ref="1478006380"/>
    <tag k="cycleway:both" v="no"/>
    <tag k="highway" v="tertiary"/>
    <tag k="lanes" v="2"/>
    <tag k="maxspeed" v="60 mph"/>
    <tag k="maxspeed:type" v="GB:nsl_single"/>
    <tag k="name" v="Welford Road"/>
    <tag k="source" v="survey"/>
    <tag k="source:name" v="OS_OpenData_Locator"/>
    <tag k="surface" v="asphalt"/>
  </way>
  <way id="216122448" version="3" timestamp="2024-06-01T17:42:11Z" changeset="152132651" uid="411244" user="RobJN">
    <nd ref="2254879172"/>
    <nd ref="2254879170"/>
    <nd ref="2254879167"/>
    <nd ref="5978479792"/>
    <nd ref="2254879164"/>
    <nd ref="2254879161"/>
    <nd ref="11950562848"/>
    <nd ref="2254879150"/>
    <tag k="highway" v="unclassified"/>
  </way>
  <way id="216217087" version="5" timestamp="2023-12-01T09:06:34Z" changeset="144654010" uid="504708" user="HillWithSmallFields">
    <nd ref="2255704414"/>
    <nd ref="2255704403"/>
    <nd ref="2255704406"/>
    <nd ref="2255704395"/>
    <nd ref="2255704398"/>
    <nd ref="2255704409"/>
    <nd ref="2255704412"/>
    <nd ref="2255704428"/>
    <nd ref="2255704423"/>
    <nd ref="2255704435"/>
    <nd ref="2255704431"/>
    <nd ref="2255704417"/>
    <nd ref="2255704414"/>
    <tag k="amenity" v="place_of_worship"/>
    <tag k="building" v="church"/>
    <tag k="denomination" v="anglican"/>
    <tag k="heritage" v="2"/>
    <tag k="heritage:operator" v="Historic England"/>
    <tag k="listed_status" v="Grade I"/>
    <tag k="name" v="St Peter"/>
    <tag k="ref:dove" v="14403"/>
    <tag k="religion" v="christian"/>
    <tag k="tower" v="yes"/>
    <tag k="wikidata" v="Q17528491"/>
  </way>
  <way id="216228562" version="1" timestamp="2013-04-07T17:07:26Z" changeset="15643516" uid="213451" user="Richard Phillips">
    <nd ref="2255796014"/>
    <nd ref="2255796008"/>
    <nd ref="2255796012"/>
    <nd ref="2255796010"/>
    <nd ref="2255796011"/>
    <nd ref="2255796019"/>
    <nd ref="2255796017"/>
    <nd ref="2255796015"/>
    <nd ref="2255796014"/>
    <tag k="building" v="yes"/>
    <tag k="leisure" v="social_club"/>
    <tag k="name" v="Bowls Club"/>
  </way>
  <way id="216228563" version="6" timestamp="2025-05-14T14:29:51Z" changeset="166260366" uid="3199858" user="Mateusz Konieczny - bot account">
    <nd ref="2255796058"/>
    <nd ref="2255796061"/>
    <nd ref="2255796066"/>
    <nd ref="2255796071"/>
    <tag k="highway" v="residential"/>
    <tag k="lit" v="no"/>
    <tag k="name" v="Church Street"/>
    <tag k="sidewalk" v="no"/>
    <tag k="surface" v="asphalt"/>
  </way>
  <way id="216228564" version="4" timestamp="2021-03-20T16:13:37Z" changeset="101393524" uid="9065" user="brianboru">
    <nd ref="2255796217"/>
    <nd ref="8541243300"/>
    <nd ref="8541243299"/>
    <nd ref="2255796221"/>
    <nd ref="2255796223"/>
    <nd ref="2255796229"/>
    <nd ref="2255796256"/>
    <nd ref="2255796248"/>
    <nd ref="2255796245"/>
    <nd ref="8541243301"/>
    <nd ref="2255796239"/>
    <nd ref="2255796217"/>
    <tag k="addr:postcode" v="CV37 8PW"/>
    <tag k="amenity" v="pub"/>
    <tag k="building" v="yes"/>
    <tag k="name" v="Four Alls"/>
  </way>
  <way id="216228570" version="4" timestamp="2025-05-14T14:29:51Z" changeset="166260366" uid="3199858" user="Mateusz Konieczny - bot account">
    <nd ref="2255704331"/>
    <nd ref="2255796034"/>
    <nd ref="2255796033"/>
    <tag k="designation" v="public_footpath"/>
    <tag k="highway" v="residential"/>
    <tag k="name" v="Mill Lane"/>
    <tag k="sidewalk" v="no"/>
  </way>
  <way id="216238896" version="3" timestamp="2022-02-12T18:18:56Z" changeset="117331540" uid="53626" user="jambamkin">
    <nd ref="2255886872"/>
    <nd ref="2255886873"/>
    <nd ref="2255886886"/>
    <nd ref="3653837475"/>
    <nd ref="3653837478"/>
    <nd ref="2255886885"/>
    <nd ref="2255886881"/>
    <nd ref="2255886879"/>
    <nd ref="2255886875"/>
    <nd ref="2255886876"/>
    <nd ref="2255886872"/>
    <tag k="amenity" v="pub"/>
    <tag k="building" v="yes"/>
    <tag k="name" v="Bell Inn"/>
    <tag k="outdoor_seating" v="yes"/>
  </way>
  <way id="216246175" version="2" timestamp="2024-03-10T10:49:59Z" changeset="148455813" uid="632066" user="ChrisHodgesUK">
    <nd ref="2255951141"/>
    <nd ref="2255951139"/>
    <nd ref="2255951138"/>
    <nd ref="11710887281"/>
    <nd ref="2255951140"/>
    <nd ref="2255951141"/>
    <tag k="amenity" v="community_centre"/>
    <tag k="building" v="yes"/>
    <tag k="name" v="Memorial Hall"/>
  </way>
  <way id="216256525" version="3" timestamp="2021-10-14T19:04:09Z" changeset="112516909" uid="53626" user="jambamkin">
    <nd ref="2256065314"/>
    <nd ref="2256065315"/>
    <nd ref="2256065317"/>
    <nd ref="2256065304"/>
    <nd ref="2256065302"/>
    <nd ref="2256141467"/>
    <nd ref="2256065310"/>
    <nd ref="2256065309"/>
    <nd ref="2256065307"/>
    <nd ref="2256065305"/>
    <nd ref="2256065314"/>
    <tag k="amenity" v="pub"/>
    <tag k="building" v="yes"/>
    <tag k="name" v="The Shakespeare"/>
    <tag k="outdoor_seating" v="yes"/>
  </way>
  <way id="216404000" version="3" timestamp="2021-02-10T18:25:12Z" changeset="99059140" uid="10177504" user="GoodSeth">
    <nd ref="2257558084"/>
    <nd ref="2257558073"/>
    <nd ref="2257558068"/>
    <nd ref="2257558087"/>
    <nd ref="2257558084"/>
    <tag k="amenity" v="fuel"/>
    <tag k="building" v="yes"/>
    <tag k="name" v="Welford on Avon Petrol Station"/>
  </way>
  <way id="219392685" version="2" timestamp="2015-03-31T18:21:54Z" changeset="29884939" uid="9065" user="brianboru">
    <nd ref="2285546628"/>
    <nd ref="2285546657"/>
    <nd ref="2285546659"/>
    <nd ref="2285546684"/>
    <nd ref="2285546691"/>
    <tag k="highway" v="residential"/>
    <tag k="name" v="Rivermeade"/>
    <tag k="source" v="bing"/>
    <tag k="source:name" v="OS_Locator"/>
  </way>
  <way id="224896917" version="8" timestamp="2025-01-03T00:30:56Z" changeset="160930804" uid="5229644" user="Nathan_A_RF">
    <nd ref="279312448"/>
    <nd ref="249499779"/>
    <nd ref="249499780"/>
    <nd ref="2582530947"/>
    <nd ref="312881841"/>
    <nd ref="2582530936"/>
    <nd ref="249499781"/>
    <nd ref="312881840"/>
    <nd ref="249499783"/>
    <nd ref="312881839"/>
    <nd ref="249499784"/>
    <nd ref="312881838"/>
    <nd ref="312881837"/>
    <nd ref="312881832"/>
    <nd ref="249499785"/>
    <nd ref="312881830"/>
    <nd ref="6307843441"/>
    <nd ref="249499786"/>
    <nd ref="2582614296"/>
    <nd ref="312881829"/>
    <nd ref="312881828"/>
    <nd ref="249499787"/>
    <nd ref="2582614237"/>
    <nd ref="2582554272"/>
    <nd ref="2582614213"/>
    <nd ref="249499788"/>
    <nd ref="312881827"/>
    <nd ref="312881826"/>
    <nd ref="312881825"/>
    <nd ref="6550571155"/>
    <nd ref="249499789"/>
    <nd ref="249499790"/>
    <tag k="highway" v="tertiary"/>
    <tag k="lanes" v="2"/>
    <tag k="maxspeed" v="60 mph"/>
    <tag k="maxspeed:type" v="GB:nsl_single"/>
    <tag k="name" v="Long Marston Road"/>
    <tag k="source" v="survey"/>
  </way>
  <way id="251646462" version="1" timestamp="2013-12-13T15:23:50Z" changeset="19434577" uid="9065" user="brianboru">
    <nd ref="2578313352"/>
    <nd ref="2578313353"/>
    <nd ref="2578313351"/>
    <nd ref="2578313350"/>
    <nd ref="2578313352"/>
    <tag k="addr:postcode" v="CV37 8PW"/>
    <tag k="building" v="residential"/>
    <tag k="name" v="Bridgend B &amp; B"/>
    <tag k="source" v="bing"/>
    <tag k="tourism" v="guest_house"/>
  </way>
  <way id="252117469" version="4" timestamp="2021-02-12T08:56:30Z" changeset="99161456" uid="10177504" user="GoodSeth">
    <nd ref="2582256114"/>
    <nd ref="2582256135"/>
    <tag k="cycleway:both" v="no"/>
    <tag k="highway" v="unclassified"/>
    <tag k="lane_markings" v="no"/>
    <tag k="name" v="Braggington Lane"/>
    <tag k="source" v="bing"/>
    <tag k="surface" v="asphalt"/>
  </way>
  <way id="252755504" version="3" timestamp="2020-08-13T13:38:12Z" changeset="89360200" uid="9065" user="brianboru">
    <nd ref="2587871167"/>
    <nd ref="279312443"/>
    <nd ref="2582573058"/>
    <nd ref="279312444"/>
    <nd ref="2582573046"/>
    <nd ref="336744556"/>
    <nd ref="279312445"/>
    <nd ref="2582573028"/>
    <nd ref="279312446"/>
    <nd ref="5975313886"/>
    <nd ref="279312447"/>
    <nd ref="7810122803"/>
    <nd ref="279312448"/>
    <tag k="highway" v="unclassified"/>
    <tag k="name" v="Milcote Road"/>
    <tag k="source" v="NPE"/>
  </way>
  <way id="283271645" version="9" timestamp="2024-06-01T17:42:11Z" changeset="152132651" uid="411244" user="RobJN">
    <nd ref="2256013568"/>
    <nd ref="8559529564"/>
    <nd ref="1579954865"/>
    <nd ref="4958701693"/>
    <nd ref="4459278403"/>
    <nd ref="7990679627"/>
    <nd ref="4958701697"/>
    <nd ref="249328465"/>
    <nd ref="249499737"/>
    <nd ref="3311633754"/>
    <nd ref="2254879171"/>
    <nd ref="2254879172"/>
    <nd ref="7990679615"/>
    <nd ref="11950562847"/>
    <nd ref="1578746984"/>
    <nd ref="4958701704"/>
    <nd ref="249328466"/>
    <nd ref="5407671937"/>
    <nd ref="249328467"/>
    <nd ref="249328468"/>
    <tag k="highway" v="tertiary"/>
    <tag k="maxspeed" v="30 mph"/>
    <tag k="name" v="Barton Road"/>
  </way>
  <way id="396439003" version="1" timestamp="2016-02-06T18:46:21Z" changeset="37046712" uid="322785" user="BCNorwich">
    <nd ref="249328472"/>
    <nd ref="2255796071"/>
    <tag k="highway" v="residential"/>
    <tag k="name" v="Church Street"/>
    <tag k="source" v="survey"/>
  </way>
  <way id="427225659" version="4" timestamp="2020-03-31T21:31:45Z" changeset="82891533" uid="10965030" user="Sylvain Verstraeten">
    <nd ref="4459271489"/>
    <nd ref="5978479573"/>
    <nd ref="4459271490"/>
    <nd ref="4459271491"/>
    <nd ref="5978479572"/>
    <nd ref="4459271492"/>
    <nd ref="4264654842"/>
    <nd ref="4264654843"/>
    <tag k="highway" v="residential"/>
    <tag k="name" v="Badger Close"/>
    <tag k="note" v="new residential development. No street name visible."/>
    <tag k="source" v="gps survey"/>
  </way>
  <way id="427225660" version="3" timestamp="2021-02-10T19:00:09Z" changeset="99060163" uid="10177504" user="GoodSeth">
    <nd ref="4264654844"/>
    <nd ref="6128776259"/>
    <nd ref="4264654845"/>
    <nd ref="4264654846"/>
    <nd ref="6128776260"/>
    <nd ref="6128776230"/>
    <nd ref="6128776261"/>
    <nd ref="4264654847"/>
    <nd ref="6128776229"/>
    <nd ref="4264654848"/>
    <tag k="highway" v="residential"/>
    <tag k="name" v="Samantha Close"/>
    <tag k="sidewalk" v="both"/>
    <tag k="source" v="gps survey"/>
    <tag k="surface" v="asphalt"/>
  </way>
  <way id="427940055" version="1" timestamp="2016-06-29T05:54:30Z" changeset="40358263" uid="705850" user="Cebderby">
    <nd ref="2255886887"/>
    <nd ref="249328472"/>
    <tag k="highway" v="tertiary"/>
    <tag k="lanes" v="2"/>
    <tag k="maxspeed" v="30 mph"/>
    <tag k="name" v="Binton Road"/>
    <tag k="source" v="survey"/>
  </way>
  <way id="427940056" version="2" timestamp="2021-02-11T07:39:04Z" changeset="99087047" uid="10177504" user="GoodSeth">
    <nd ref="3979267307"/>
    <nd ref="2255886887"/>
    <tag k="cycleway:both" v="no"/>
    <tag k="highway" v="tertiary"/>
    <tag k="lanes" v="1"/>
    <tag k="maxspeed" v="30 mph"/>
    <tag k="name" v="Binton Road"/>
    <tag k="note" v="single lane, northbound priority"/>
    <tag k="source" v="survey"/>
  </way>
  <way id="448959729" version="2" timestamp="2018-12-10T18:15:38Z" changeset="65352649" uid="9065" user="brianboru">
    <nd ref="4459278400"/>
    <nd ref="6128905894"/>
    <nd ref="4459278402"/>
    <nd ref="4459278403"/>
    <tag k="highway" v="residential"/>
    <tag k="name" v="Holland Meadow"/>
    <tag k="source" v="GPS survey"/>
  </way>
  <way id="461400610" version="2" timestamp="2021-04-20T06:41:30Z" changeset="103242839" uid="3582136" user="sgdwn">
    <nd ref="4569011350"/>
    <nd ref="4569011351"/>
    <nd ref="4569011352"/>
    <nd ref="4569011353"/>
    <nd ref="4569011354"/>
    <nd ref="4569011355"/>
    <nd ref="4569011356"/>
    <nd ref="4569011350"/>
    <tag k="building" v="house"/>
    <tag k="name" v="Avoncot"/>
  </way>
  <way id="461402226" version="2" timestamp="2021-02-10T18:25:12Z" changeset="99059140" uid="10177504" user="GoodSeth">
    <nd ref="4569023385"/>
    <nd ref="4569023386"/>
    <nd ref="4569023387"/>
    <nd ref="4569023388"/>
    <nd ref="4569023385"/>
    <tag k="building" v="yes"/>
    <tag k="name" v="Welford on Avon Garage"/>
    <tag k="shop" v="car_repair"/>
  </way>
  <way id="506085563" version="1" timestamp="2017-07-08T17:05:13Z" changeset="50135619" uid="346039" user="fitzsimons">
    <nd ref="4958701690"/>
    <nd ref="4958701691"/>
    <nd ref="4958701692"/>
    <nd ref="4958701693"/>
    <tag k="highway" v="residential"/>
    <tag k="name" v="Cress Hill Meadow"/>
    <tag k="source" v="GPS survey"/>
  </way>
  <way id="506085564" version="2" timestamp="2020-08-13T13:38:12Z" changeset="89360200" uid="9065" user="brianboru">
    <nd ref="7810143436"/>
    <nd ref="7810143438"/>
    <nd ref="4958701696"/>
    <nd ref="4958701697"/>
    <tag k="highway" v="residential"/>
    <tag k="name" v="Damson Close"/>
    <tag k="source" v="GPS survey"/>
  </way>
  <way id="506085565" version="5" timestamp="2021-02-11T07:40:06Z" changeset="99086810" uid="10177504" user="GoodSeth">
    <nd ref="4958701698"/>
    <nd ref="4958701699"/>
    <nd ref="4958701700"/>
    <nd ref="4958701701"/>
    <nd ref="8395771726"/>
    <nd ref="4958701702"/>
    <nd ref="4958701703"/>
    <nd ref="4958701704"/>
    <tag k="highway" v="residential"/>
    <tag k="lit" v="no"/>
    <tag k="name" v="Barton Meadow"/>
    <tag k="sidewalk" v="left"/>
    <tag k="source" v="GPS survey"/>
    <tag k="surface" v="asphalt"/>
  </way>
  <way id="614223491" version="4" timestamp="2021-03-25T08:41:36Z" changeset="101701605" uid="10170574" user="asnghpi">
    <nd ref="249328463"/>
    <nd ref="2582256146"/>
    <nd ref="8559525214"/>
    <nd ref="1285216921"/>
    <nd ref="459848374"/>
    <nd ref="2285705503"/>
    <nd ref="2587881661"/>
    <nd ref="6904629832"/>
    <nd ref="2256013568"/>
    <tag k="highway" v="tertiary"/>
    <tag k="name" v="Barton Road"/>
  </way>
  <way id="633326222" version="2" timestamp="2021-02-13T15:27:24Z" changeset="99217650" uid="10177504" user="GoodSeth">
    <nd ref="5978479571"/>
    <nd ref="4459271489"/>
    <nd ref="5978479570"/>
    <tag k="highway" v="residential"/>
    <tag k="name" v="Badger Close"/>
    <tag k="source" v="Digital Globe Standard"/>
  </way>
  <way id="654010196" version="2" timestamp="2021-02-10T19:00:09Z" changeset="99060163" uid="10177504" user="GoodSeth">
    <nd ref="6128776228"/>
    <nd ref="4264654848"/>
    <nd ref="4264654849"/>
    <tag k="highway" v="residential"/>
    <tag k="name" v="Samantha Close"/>
    <tag k="sidewalk" v="both"/>
    <tag k="source" v="gps survey"/>
    <tag k="surface" v="asphalt"/>
  </way>
  <way id="654020475" version="4" timestamp="2021-02-11T07:40:33Z" changeset="99086810" uid="10177504" user="GoodSeth">
    <nd ref="6128874478"/>
    <nd ref="1578746995"/>
    <nd ref="6128874477"/>
    <tag k="highway" v="residential"/>
    <tag k="lit" v="no"/>
    <tag k="name" v="Headland Close"/>
    <tag k="sidewalk" v="both"/>
    <tag k="source" v="Warwicks CC Aerial Imagery 2013"/>
    <tag k="surface" v="asphalt"/>
  </way>
  <way id="654020500" version="4" timestamp="2021-02-11T07:41:03Z" changeset="99086810" uid="10177504" user="GoodSeth">
    <nd ref="1578746986"/>
    <nd ref="6128874620"/>
    <nd ref="6128874619"/>
    <tag k="highway" v="residential"/>
    <tag k="lit" v="no"/>
    <tag k="name" v="Headland Rise"/>
    <tag k="sidewalk" v="both"/>
    <tag k="source" v="OS opendata streetview"/>
    <tag k="surface" v="asphalt"/>
  </way>
  <way id="654024000" version="1" timestamp="2018-12-10T18:15:34Z" changeset="65352649" uid="9065" user="brianboru">
    <nd ref="4459278401"/>
    <nd ref="4459278400"/>
    <nd ref="6128905893"/>
    <tag k="highway" v="residential"/>
    <tag k="name" v="Holland Meadow"/>
    <tag k="source" v="GPS survey"/>
  </way>
  <way id="677536874" version="7" timestamp="2025-05-14T14:29:53Z" changeset="166260366" uid="3199858" user="Mateusz Konieczny - bot account">
    <nd ref="6343966008"/>
    <nd ref="6343966009"/>
    <nd ref="6343966010"/>
    <nd ref="6343966011"/>
    <nd ref="6917422352"/>
    <nd ref="6343966012"/>
    <nd ref="6343966013"/>
    <tag k="highway" v="residential"/>
    <tag k="lit" v="no"/>
    <tag k="name" v="Two Acre Lane"/>
    <tag k="sidewalk" v="no"/>
    <tag k="surface" v="gravel"/>
  </way>
  <way id="786365229" version="1" timestamp="2020-03-31T21:31:19Z" changeset="82891522" uid="10965030" user="Sylvain Verstraeten">
    <nd ref="7352606386"/>
    <nd ref="7352606387"/>
    <nd ref="7352606388"/>
    <nd ref="7352606389"/>
    <nd ref="7352606390"/>
    <nd ref="7352606391"/>
    <nd ref="7352606392"/>
    <nd ref="7352606393"/>
    <nd ref="7352606394"/>
    <tag k="highway" v="residential"/>
    <tag k="name" v="Elisabeth Close"/>
  </way>
  <way id="836814873" version="4" timestamp="2023-07-14T09:30:47Z" changeset="138498622" uid="7436199" user="aleksaJov">
    <nd ref="11046119265"/>
    <nd ref="11046119266"/>
    <nd ref="11046119267"/>
    <nd ref="11046119268"/>
    <nd ref="7810122809"/>
    <nd ref="11046119269"/>
    <nd ref="11046119270"/>
    <nd ref="11046119271"/>
    <nd ref="11046119272"/>
    <nd ref="7810122808"/>
    <nd ref="11046119273"/>
    <nd ref="7810122807"/>
    <nd ref="7810122806"/>
    <nd ref="7810122805"/>
    <nd ref="7810122804"/>
    <nd ref="7810122803"/>
    <tag k="highway" v="residential"/>
    <tag k="name" v="Milcote Close"/>
    <tag k="sidewalk" v="both"/>
    <tag k="source" v="bing"/>
  </way>
  <way id="836814899" version="2" timestamp="2021-02-13T15:26:52Z" changeset="99217650" uid="10177504" user="GoodSeth">
    <nd ref="7810143432"/>
    <nd ref="7810143433"/>
    <nd ref="7810143431"/>
    <tag k="highway" v="residential"/>
    <tag k="name" v="Barton Orchards"/>
    <tag k="source" v="bing"/>
  </way>
  <way id="836814900" version="2" timestamp="2021-02-13T15:26:38Z" changeset="99217650" uid="10177504" user="GoodSeth">
    <nd ref="249328465"/>
    <nd ref="7810143435"/>
    <nd ref="7810143434"/>
    <nd ref="7810143433"/>
    <tag k="highway" v="residential"/>
    <tag k="name" v="Barton Orchards"/>
    <tag k="source" v="bing"/>
  </way>
  <way id="836814902" version="1" timestamp="2020-08-13T13:38:12Z" changeset="89360200" uid="9065" user="brianboru">
    <nd ref="4958701696"/>
    <nd ref="7810143437"/>
    <tag k="highway" v="residential"/>
    <tag k="name" v="Damson Close"/>
    <tag k="source" v="bing"/>
  </way>
  <way id="902076881" version="4" timestamp="2021-02-11T07:38:15Z" changeset="99086810" uid="10177504" user="GoodSeth">
    <nd ref="8379137636"/>
    <nd ref="1578749418"/>
    <nd ref="8379137635"/>
    <tag k="highway" v="residential"/>
    <tag k="lit" v="no"/>
    <tag k="name" v="Quiney's Leys"/>
    <tag k="sidewalk" v="both"/>
    <tag k="source" v="bing"/>
    <tag k="surface" v="asphalt"/>
  </way>
  <way id="1288753760" version="1" timestamp="2024-06-01T17:26:18Z" changeset="152131981" uid="411244" user="RobJN">
    <nd ref="11950548026"/>
    <nd ref="11950548025"/>
    <nd ref="11950548024"/>
    <nd ref="11950548023"/>
    <nd ref="11950548022"/>
    <nd ref="11950548021"/>
    <nd ref="11950548020"/>
    <nd ref="11950548019"/>
    <nd ref="11950548026"/>
    <tag k="addr:housenumber" v="23"/>
    <tag k="addr:postcode" v="CV37 8QG"/>
    <tag k="addr:street" v="Millers Close"/>
    <tag k="building" v="house"/>
    <tag k="start_date" v="2024"/>
  </way>
  <way id="1288753761" version="1" timestamp="2024-06-01T17:26:18Z" changeset="152131981" uid="411244" user="RobJN">
    <nd ref="11950548034"/>
    <nd ref="11950548033"/>
    <nd ref="11950548032"/>
    <nd ref="11950548031"/>
    <nd ref="11950548030"/>
    <nd ref="11950548029"/>
    <nd ref="11950548028"/>
    <nd ref="11950548027"/>
    <nd ref="11950548034"/>
    <tag k="addr:housenumber" v="24"/>
    <tag k="addr:postcode" v="CV37 8QG"/>
    <tag k="addr:street" v="Millers Close"/>
    <tag k="building" v="house"/>
    <tag k="start_date" v="2024"/>
  </way>
  <way id="1288755801" version="1" timestamp="2024-06-01T17:42:11Z" changeset="152132651" uid="411244" user="RobJN">
    <nd ref="11950562845"/>
    <nd ref="11950562813"/>
    <tag k="highway" v="residential"/>
    <tag k="name" v="Barton Fields"/>
    <tag k="sidewalk" v="both"/>
    <tag k="source" v="OS opendata streetview"/>
  </way>
  <way id="1288755804" version="1" timestamp="2024-06-01T17:42:11Z" changeset="152132651" uid="411244" user="RobJN">
    <nd ref="11950562826"/>
    <nd ref="11950562825"/>
    <nd ref="11950562827"/>
    <nd ref="11950562824"/>
    <nd ref="11950562823"/>
    <nd ref="11950562822"/>
    <tag k="highway" v="residential"/>
  </way>
  <way id="1288755805" version="2" timestamp="2024-09-23T14:14:34Z" changeset="156998049" uid="683925" user="cr0uch">
    <nd ref="11950562847"/>
    <nd ref="11950562846"/>
    <nd ref="11950562845"/>
    <nd ref="11950562844"/>
    <nd ref="11950562843"/>
    <nd ref="11950562842"/>
    <nd ref="11950562841"/>
    <nd ref="11950562840"/>
    <nd ref="11950562839"/>
    <nd ref="11950562838"/>
    <nd ref="11950562837"/>
    <nd ref="11950562836"/>
    <nd ref="11950562818"/>
    <nd ref="11950562835"/>
    <nd ref="11950562834"/>
    <nd ref="11950562833"/>
    <nd ref="11950562832"/>
    <nd ref="11950562831"/>
    <nd ref="11950562819"/>
    <nd ref="11950562830"/>
    <nd ref="11950562829"/>
    <nd ref="11950562828"/>
    <nd ref="11950562827"/>
    <tag k="addr:postcode" v="CV37 8ZS"/>
    <tag k="highway" v="residential"/>
    <tag k="lanes" v="2"/>
    <tag k="maxspeed" v="30 mph"/>
    <tag k="name" v="Deerhurst Gardens"/>
    <tag k="object:postcode" v="CV37 8ZS"/>
    <tag k="oneway" v="no"/>
    <tag k="postal_code" v="CV37 8ZS"/>
    <tag k="source:addr:postcode" v="CV37 8ZS"/>
    <tag k="source:postcode" v="CV37 8ZS"/>
    <tag k="surface" v="asphalt"/>
  </way>

</osm>
