<?xml version="1.0" encoding="UTF-8"?>
<osm version="0.6" generator="Overpass API 0.7.62.8 e802775f">
<note>The data included in this document is from www.openstreetmap.org. The data is made available under ODbL.</note>
<meta osm_base="2025-10-23T17:18:16Z" areas="2025-10-23T14:54:58Z"/>

  <node id="264483513" lat="52.0636032" lon="-1.4990426" version="4" timestamp="2011-05-02T09:09:23Z" changeset="8028839" uid="9065" user="brianboru"/>
  <node id="312300195" lat="52.1351705" lon="-1.5108011" version="2" timestamp="2013-11-26T11:25:02Z" changeset="19124880" uid="9065" user="brianboru"/>
  <node id="312300396" lat="52.1152063" lon="-1.4889079" version="4" timestamp="2022-01-07T17:07:12Z" changeset="115884830" uid="30587" user="IknowJoseph"/>
  <node id="312300493" lat="52.1262896" lon="-1.4769622" version="2" timestamp="2013-06-04T17:12:26Z" changeset="16421943" uid="782788" user="GordonFS"/>
  <node id="489801317" lat="52.1199274" lon="-1.4614147" version="1" timestamp="2009-09-08T17:53:15Z" changeset="2416225" uid="22445" user="PhilH"/>
  <node id="755829416" lat="52.1150919" lon="-1.4646201" version="2" timestamp="2011-12-15T13:44:16Z" changeset="10124122" uid="165" user="Richard"/>
  <node id="1545705626" lat="52.1071430" lon="-1.5392878" version="1" timestamp="2011-12-14T12:38:39Z" changeset="10115461" uid="165" user="Richard"/>
  <node id="1546097799" lat="52.0801811" lon="-1.5539696" version="2" timestamp="2013-12-01T13:39:30Z" changeset="19210487" uid="9065" user="brianboru"/>
  <node id="1550133813" lat="52.0854308" lon="-1.4845647" version="2" timestamp="2014-11-27T00:58:21Z" changeset="27058935" uid="38588" user="mentor"/>
  <node id="6796922045" lat="52.1097877" lon="-1.4700264" version="2" timestamp="2023-06-23T15:56:57Z" changeset="137694713" uid="14254601" user="hcbcath"/>
  <node id="10253488165" lat="52.0935449" lon="-1.4801490" version="1" timestamp="2022-12-11T16:53:15Z" changeset="129968854" uid="30587" user="IknowJoseph"/>
  <node id="12949866797" lat="52.1045439" lon="-1.4757799" version="1" timestamp="2025-06-24T16:26:53Z" changeset="168057484" uid="22685594" user="NTTrailsMEE"/>
  <way id="25609276" version="13" timestamp="2025-04-24T08:29:31Z" changeset="165366709" uid="30587" user="IknowJoseph">
    <nd ref="264483513"/>
    <nd ref="2574552581"/>
    <nd ref="279128836"/>
    <nd ref="279128837"/>
    <nd ref="12782226111"/>
    <nd ref="279128838"/>
    <nd ref="12782226110"/>
    <nd ref="279128839"/>
    <nd ref="12782226109"/>
    <nd ref="279128840"/>
    <nd ref="279128841"/>
    <nd ref="7205653272"/>
    <nd ref="344211179"/>
    <nd ref="12782226108"/>
    <nd ref="2331992200"/>
    <nd ref="279128842"/>
    <nd ref="1546098173"/>
    <nd ref="279128843"/>
    <nd ref="279128844"/>
    <nd ref="279128846"/>
    <nd ref="279128847"/>
    <nd ref="279128848"/>
    <nd ref="279128849"/>
    <nd ref="2518768401"/>
    <nd ref="2331992189"/>
    <nd ref="279128850"/>
    <nd ref="279128851"/>
    <nd ref="279128852"/>
    <nd ref="279128853"/>
    <nd ref="279128854"/>
    <nd ref="2331994195"/>
    <nd ref="279128855"/>
    <nd ref="279128856"/>
    <nd ref="2559618956"/>
    <nd ref="279128858"/>
    <nd ref="279128859"/>
    <nd ref="279128861"/>
    <nd ref="279128862"/>
    <nd ref="279128863"/>
    <nd ref="279128864"/>
    <nd ref="279128865"/>
    <nd ref="279128866"/>
    <nd ref="2895104801"/>
    <nd ref="279128867"/>
    <nd ref="2895104803"/>
    <nd ref="2895104804"/>
    <nd ref="2895104806"/>
    <nd ref="719715112"/>
    <nd ref="279128868"/>
    <tag k="highway" v="tertiary"/>
    <tag k="lanes" v="1.5"/>
    <tag k="source" v="NPE;OS_OpenData_StreetView"/>
  </way>
  <way id="26436866" version="9" timestamp="2024-01-05T09:06:55Z" changeset="145912324" uid="18869198" user="TB-E">
    <nd ref="1546097799"/>
    <nd ref="2559826771"/>
    <nd ref="2559826774"/>
    <nd ref="289686463"/>
    <nd ref="289686464"/>
    <nd ref="289686465"/>
    <nd ref="289686466"/>
    <nd ref="2561753818"/>
    <nd ref="2559826781"/>
    <nd ref="1305287245"/>
    <nd ref="8326911114"/>
    <nd ref="2559826788"/>
    <nd ref="2559826791"/>
    <nd ref="1546097459"/>
    <nd ref="1546097467"/>
    <nd ref="1546097455"/>
    <nd ref="1546097437"/>
    <nd ref="1546097430"/>
    <nd ref="6564250162"/>
    <nd ref="1546098507"/>
    <nd ref="1546098501"/>
    <nd ref="1546098484"/>
    <nd ref="1546098481"/>
    <nd ref="1546098478"/>
    <nd ref="1546098473"/>
    <nd ref="1546098354"/>
    <nd ref="6905172436"/>
    <nd ref="1546098340"/>
    <nd ref="1546098335"/>
    <nd ref="1546098332"/>
    <nd ref="1546098329"/>
    <nd ref="1546098326"/>
    <nd ref="1546097994"/>
    <nd ref="1546097991"/>
    <nd ref="1546097965"/>
    <nd ref="1546097961"/>
    <nd ref="1546097951"/>
    <nd ref="1546097936"/>
    <nd ref="1546097928"/>
    <nd ref="1546097925"/>
    <nd ref="1546097917"/>
    <nd ref="1546097885"/>
    <nd ref="1546097878"/>
    <nd ref="1546098064"/>
    <nd ref="1546098017"/>
    <nd ref="8026024226"/>
    <nd ref="1546097668"/>
    <nd ref="1546098419"/>
    <nd ref="420421942"/>
    <nd ref="1546097484"/>
    <nd ref="1546097427"/>
    <nd ref="1546097795"/>
    <nd ref="11491185538"/>
    <nd ref="2895105057"/>
    <nd ref="2895105058"/>
    <nd ref="1546098360"/>
    <nd ref="2895105060"/>
    <nd ref="1546097604"/>
    <nd ref="2559810780"/>
    <nd ref="1546097559"/>
    <nd ref="2559810787"/>
    <nd ref="1546097568"/>
    <nd ref="6465396628"/>
    <nd ref="1546097523"/>
    <tag k="highway" v="unclassified"/>
    <tag k="source" v="NPE"/>
  </way>
  <way id="28426030" version="5" timestamp="2022-01-07T17:07:12Z" changeset="115884830" uid="30587" user="IknowJoseph">
    <nd ref="312300396"/>
    <nd ref="9400271992"/>
    <nd ref="312300480"/>
    <nd ref="9400271993"/>
    <nd ref="9400271994"/>
    <nd ref="312300481"/>
    <nd ref="1540849053"/>
    <nd ref="312300482"/>
    <nd ref="9400271991"/>
    <nd ref="1540849057"/>
    <nd ref="9400271988"/>
    <nd ref="312300484"/>
    <nd ref="9400271989"/>
    <nd ref="312300485"/>
    <nd ref="2332012618"/>
    <tag k="highway" v="unclassified"/>
    <tag k="lanes" v="2"/>
    <tag k="source" v="NPE"/>
  </way>
  <way id="35967764" version="8" timestamp="2014-10-21T14:55:31Z" changeset="26236180" uid="1322826" user="Ant Beck">
    <nd ref="420415432"/>
    <nd ref="2890995746"/>
    <tag k="highway" v="unclassified"/>
    <tag k="maxspeed" v="30 mph"/>
    <tag k="name" v="Sandpits Road"/>
    <tag k="source" v="OS_OpenData_StreetView"/>
    <tag k="source:name" v="OS_OpenData_Locator"/>
  </way>
  <way id="37623977" version="10" timestamp="2022-12-11T16:53:15Z" changeset="129968854" uid="30587" user="IknowJoseph">
    <nd ref="1550133813"/>
    <nd ref="279128969"/>
    <nd ref="3190407375"/>
    <nd ref="279128970"/>
    <nd ref="279128971"/>
    <nd ref="279128972"/>
    <tag k="highway" v="unclassified"/>
    <tag k="name" v="Shenington Road"/>
    <tag k="source" v="NPE"/>
    <tag k="source:name" v="OS_OpenData_StreetView"/>
  </way>
  <way id="53053479" version="14" timestamp="2020-12-18T06:21:59Z" changeset="96045347" uid="11734030" user="uchodip">
    <nd ref="1545705642"/>
    <nd ref="2559618980"/>
    <nd ref="2725472391"/>
    <nd ref="2559618978"/>
    <nd ref="2725472393"/>
    <nd ref="8239456188"/>
    <nd ref="2725472394"/>
    <nd ref="1546097745"/>
    <nd ref="1546097742"/>
    <nd ref="2725472400"/>
    <nd ref="2891401177"/>
    <nd ref="2725472403"/>
    <nd ref="2725472405"/>
    <nd ref="1546097806"/>
    <nd ref="2725472406"/>
    <nd ref="2559810823"/>
    <nd ref="719715100"/>
    <nd ref="2559810825"/>
    <nd ref="1546097723"/>
    <nd ref="719715095"/>
    <nd ref="2559810799"/>
    <nd ref="2895107093"/>
    <nd ref="1546097727"/>
    <nd ref="2891153943"/>
    <nd ref="2559810797"/>
    <nd ref="1546097792"/>
    <nd ref="2559810800"/>
    <nd ref="2559810827"/>
    <nd ref="1546097523"/>
    <tag k="highway" v="unclassified"/>
    <tag k="lanes" v="2"/>
    <tag k="maxspeed" v="30 mph"/>
    <tag k="name" v="Shipston Road"/>
    <tag k="source" v="OS_OpenData_StreetView"/>
  </way>
  <way id="53053480" version="19" timestamp="2021-02-03T08:40:07Z" changeset="98630666" uid="10219386" user="bathines">
    <nd ref="1540849312"/>
    <nd ref="6880668839"/>
    <nd ref="2559810951"/>
    <nd ref="1540849301"/>
    <nd ref="2891277522"/>
    <nd ref="1540849290"/>
    <nd ref="1540849286"/>
    <nd ref="1540849258"/>
    <nd ref="7562655496"/>
    <nd ref="2559810902"/>
    <nd ref="4783131721"/>
    <nd ref="2895088144"/>
    <nd ref="1540849252"/>
    <nd ref="1540849239"/>
    <nd ref="8389795966"/>
    <nd ref="1540849206"/>
    <nd ref="719715168"/>
    <nd ref="2895103808"/>
    <nd ref="719715158"/>
    <nd ref="719715160"/>
    <nd ref="1540849244"/>
    <nd ref="2725472420"/>
    <nd ref="2725472413"/>
    <nd ref="2824625658"/>
    <nd ref="1545705640"/>
    <nd ref="2725472412"/>
    <nd ref="2559619005"/>
    <nd ref="2559619003"/>
    <nd ref="2895107095"/>
    <nd ref="1545705641"/>
    <nd ref="2559618993"/>
    <nd ref="2559618984"/>
    <nd ref="2559618982"/>
    <nd ref="2725472396"/>
    <nd ref="1545705642"/>
    <tag k="highway" v="tertiary"/>
    <tag k="lanes" v="2"/>
    <tag k="maxspeed" v="30 mph"/>
    <tag k="name" v="Main Street"/>
    <tag k="source:name" v="OS_OpenData_StreetView"/>
  </way>
  <way id="58008796" version="3" timestamp="2012-11-24T05:08:19Z" changeset="14008372" uid="4951" user="PeterEastern">
    <nd ref="719715206"/>
    <nd ref="719715209"/>
    <tag k="highway" v="residential"/>
    <tag k="name" v="Church Farm Court"/>
    <tag k="source" v="visual survey;OS_OpenData_StreetView"/>
    <tag k="source:name" v="OS_OpenData_Locator"/>
  </way>
  <way id="58008801" version="11" timestamp="2017-04-08T16:04:51Z" changeset="47571776" uid="346039" user="fitzsimons">
    <nd ref="719715211"/>
    <nd ref="2891292313"/>
    <nd ref="719715206"/>
    <nd ref="2895088146"/>
    <nd ref="719715201"/>
    <nd ref="1540849113"/>
    <nd ref="1540849110"/>
    <nd ref="1540849101"/>
    <nd ref="2891349481"/>
    <nd ref="1540849354"/>
    <nd ref="2727193193"/>
    <nd ref="1540849250"/>
    <nd ref="759706641"/>
    <nd ref="1540849172"/>
    <nd ref="759706583"/>
    <nd ref="1540849143"/>
    <nd ref="2895090637"/>
    <nd ref="2895090636"/>
    <nd ref="1540849312"/>
    <tag k="highway" v="tertiary"/>
    <tag k="lanes" v="2"/>
    <tag k="maxspeed" v="30 mph"/>
  </way>
  <way id="58008803" version="1" timestamp="2010-05-03T22:16:08Z" changeset="4599989" uid="27408" user="Andrew Chadwick">
    <nd ref="719715168"/>
    <nd ref="719715189"/>
    <tag k="highway" v="residential"/>
    <tag k="name" v="Avon Avenue"/>
    <tag k="source" v="OS_OpenData_StreetView"/>
  </way>
  <way id="58008805" version="7" timestamp="2020-09-13T13:50:56Z" changeset="90820468" uid="11286310" user="Manateedriver">
    <nd ref="719715160"/>
    <nd ref="2895103802"/>
    <nd ref="719715162"/>
    <tag k="highway" v="residential"/>
    <tag k="lit" v="no"/>
    <tag k="name" v="Middleton Close"/>
    <tag k="source" v="OS_OpenData_StreetView"/>
    <tag k="surface" v="asphalt"/>
  </way>
  <way id="58008807" version="4" timestamp="2014-06-02T10:31:13Z" changeset="22690904" uid="9065" user="brianboru">
    <nd ref="719715162"/>
    <nd ref="2895103798"/>
    <nd ref="2891276187"/>
    <nd ref="719715137"/>
    <nd ref="2725472409"/>
    <nd ref="719715139"/>
    <tag k="highway" v="residential"/>
    <tag k="name" v="Middleton Close"/>
    <tag k="source" v="OS_OpenData_StreetView"/>
  </way>
  <way id="58008808" version="2" timestamp="2014-05-07T18:12:12Z" changeset="22194012" uid="1322826" user="Ant Beck">
    <nd ref="719715103"/>
    <nd ref="719715108"/>
    <nd ref="719715110"/>
    <nd ref="719715102"/>
    <tag k="highway" v="residential"/>
    <tag k="name" v="Poolgate"/>
    <tag k="source" v="OS_OpenData_StreetView"/>
  </way>
  <way id="58008812" version="3" timestamp="2014-03-18T17:00:47Z" changeset="21177915" uid="9065" user="brianboru">
    <nd ref="719715137"/>
    <nd ref="719715140"/>
    <nd ref="2725472410"/>
    <nd ref="719715142"/>
    <nd ref="719715143"/>
    <tag k="highway" v="residential"/>
    <tag k="source" v="OS_OpenData_StreetView"/>
  </way>
  <way id="58008814" version="9" timestamp="2014-10-21T14:44:00Z" changeset="26235962" uid="1322826" user="Ant Beck">
    <nd ref="1545705641"/>
    <nd ref="719715117"/>
    <nd ref="2891024804"/>
    <nd ref="2891035064"/>
    <nd ref="719715119"/>
    <nd ref="719715120"/>
    <tag k="highway" v="residential"/>
    <tag k="name" v="Baldwins Lane"/>
    <tag k="source" v="OS_OpenData_StreetView"/>
  </way>
  <way id="58008816" version="6" timestamp="2014-06-02T10:39:29Z" changeset="22691045" uid="9065" user="brianboru">
    <nd ref="1545705640"/>
    <nd ref="2895108302"/>
    <nd ref="2895108303"/>
    <nd ref="719715122"/>
    <nd ref="2895108307"/>
    <nd ref="719715124"/>
    <nd ref="719715125"/>
    <nd ref="2895108311"/>
    <nd ref="2725472416"/>
    <nd ref="719715127"/>
    <nd ref="2895108318"/>
    <nd ref="719715129"/>
    <tag k="alt_name" v="Faggot Alley"/>
    <tag k="highway" v="residential"/>
    <tag k="name" v="Old Tree Lane"/>
    <tag k="source" v="OS_OpenData_StreetView"/>
  </way>
  <way id="58008817" version="2" timestamp="2013-11-03T15:13:14Z" changeset="18695797" uid="9065" user="brianboru">
    <nd ref="719715094"/>
    <nd ref="719715096"/>
    <nd ref="2518768799"/>
    <nd ref="719715097"/>
    <nd ref="719715098"/>
    <nd ref="719715099"/>
    <nd ref="719715095"/>
    <tag k="highway" v="residential"/>
    <tag k="name" v="Smarts Lane"/>
    <tag k="source" v="OS_OpenData_StreetView"/>
  </way>
  <way id="58008819" version="3" timestamp="2014-06-02T10:39:29Z" changeset="22691045" uid="9065" user="brianboru">
    <nd ref="719715100"/>
    <nd ref="2895107094"/>
    <nd ref="719715101"/>
    <nd ref="2559810840"/>
    <nd ref="719715102"/>
    <tag k="highway" v="residential"/>
    <tag k="name" v="Poolgate"/>
    <tag k="source" v="OS_OpenData_StreetView"/>
  </way>
  <way id="58008821" version="4" timestamp="2018-08-10T13:25:44Z" changeset="61538247" uid="9065" user="brianboru">
    <nd ref="719715145"/>
    <nd ref="719715146"/>
    <nd ref="5823132393"/>
    <nd ref="5823132391"/>
    <nd ref="719715130"/>
    <nd ref="5823132392"/>
    <nd ref="5823132390"/>
    <nd ref="5823132389"/>
    <nd ref="719715132"/>
    <nd ref="5823132388"/>
    <nd ref="5823132386"/>
    <nd ref="719715134"/>
    <tag k="highway" v="residential"/>
    <tag k="name" v="Jeffs Close"/>
    <tag k="source" v="Warwicks Aerial Imagery OGLv2 2013"/>
  </way>
  <way id="58008823" version="11" timestamp="2014-06-02T10:32:22Z" changeset="22690916" uid="9065" user="brianboru">
    <nd ref="279128868"/>
    <nd ref="2518768752"/>
    <nd ref="279128869"/>
    <nd ref="279128870"/>
    <nd ref="2895104301"/>
    <nd ref="2895104302"/>
    <nd ref="2895104303"/>
    <nd ref="2559810663"/>
    <nd ref="2559810697"/>
    <nd ref="279128871"/>
    <tag k="highway" v="tertiary"/>
    <tag k="lanes" v="1.5"/>
    <tag k="maxspeed" v="30 mph"/>
    <tag k="name" v="Epwell Road"/>
    <tag k="source" v="NPE;OS_OpenData_StreetView"/>
  </way>
  <way id="58008826" version="4" timestamp="2014-06-02T10:32:23Z" changeset="22690916" uid="9065" user="brianboru">
    <nd ref="279128871"/>
    <nd ref="2895104304"/>
    <nd ref="719715114"/>
    <tag k="highway" v="residential"/>
    <tag k="name" v="Walnut Pladdocks"/>
    <tag k="source" v="OS_OpenData_StreetView"/>
    <tag k="source:name" v="OS_OpenData_Locator"/>
  </way>
  <way id="58008828" version="5" timestamp="2014-10-21T14:55:31Z" changeset="26236180" uid="1322826" user="Ant Beck">
    <nd ref="420415441"/>
    <nd ref="2890995770"/>
    <tag k="highway" v="residential"/>
    <tag k="maxspeed" v="30 mph"/>
    <tag k="name" v="Sandpits Close"/>
    <tag k="source" v="OS_OpenData_StreetView"/>
    <tag k="source:name" v="OS_OpenData_Locator"/>
  </way>
  <way id="58008829" version="8" timestamp="2020-12-28T10:27:27Z" changeset="96527515" uid="10170582" user="priymose">
    <nd ref="1540849301"/>
    <nd ref="2725475091"/>
    <nd ref="2895109050"/>
    <nd ref="719715170"/>
    <nd ref="2895109060"/>
    <nd ref="719715181"/>
    <nd ref="8266431402"/>
    <nd ref="719715183"/>
    <nd ref="2895090662"/>
    <nd ref="7410646012"/>
    <nd ref="719715185"/>
    <nd ref="2727193186"/>
    <nd ref="719715186"/>
    <tag k="highway" v="residential"/>
    <tag k="name" v="Back Lane"/>
    <tag k="source" v="OS_OpenData_StreetView"/>
  </way>
  <way id="58008831" version="3" timestamp="2012-11-24T05:08:20Z" changeset="14008372" uid="4951" user="PeterEastern">
    <nd ref="719715163"/>
    <nd ref="719715165"/>
    <tag k="highway" v="residential"/>
    <tag k="name" v="Avon Way"/>
    <tag k="source" v="OS_OpenData_StreetView"/>
    <tag k="source:name" v="OS_OpenData_Locator"/>
  </way>
  <way id="58008832" version="4" timestamp="2014-10-21T14:04:50Z" changeset="26235346" uid="1322826" user="Ant Beck">
    <nd ref="3141867816"/>
    <nd ref="2844667529"/>
    <tag k="highway" v="residential"/>
    <tag k="maxspeed" v="30 mph"/>
    <tag k="name" v="Windmill Way"/>
    <tag k="source" v="Warwicks Aerial Imagery OGLv2"/>
  </way>
  <way id="58008834" version="5" timestamp="2021-02-08T12:33:24Z" changeset="98910333" uid="10205154" user="mundlk">
    <nd ref="1540849143"/>
    <nd ref="8404914591"/>
    <nd ref="719715193"/>
    <nd ref="2727193191"/>
    <nd ref="719715194"/>
    <nd ref="719715196"/>
    <nd ref="2895090695"/>
    <nd ref="2895090699"/>
    <nd ref="719715198"/>
    <tag k="highway" v="residential"/>
    <tag k="name" v="Saddledon Street"/>
    <tag k="source" v="OS_OpenData_StreetView"/>
  </way>
  <way id="58008836" version="4" timestamp="2024-02-23T12:38:14Z" changeset="147810295" uid="84263" user="Robert Whittaker">
    <nd ref="719715196"/>
    <nd ref="2902821648"/>
    <nd ref="11656179257"/>
    <nd ref="719715199"/>
    <tag k="highway" v="residential"/>
    <tag k="source" v="OS_OpenData_StreetView"/>
  </way>
  <way id="58008837" version="5" timestamp="2014-06-08T07:59:54Z" changeset="22804796" uid="38588" user="mentor">
    <nd ref="1540849101"/>
    <nd ref="2891589591"/>
    <nd ref="2891589589"/>
    <nd ref="2891589587"/>
    <nd ref="719715191"/>
    <nd ref="2891292307"/>
    <nd ref="719715208"/>
    <tag k="highway" v="residential"/>
    <tag k="name" v="Peacock Lane"/>
    <tag k="source" v="OS_OpenData_StreetView"/>
  </way>
  <way id="60541025" version="6" timestamp="2025-07-17T14:09:45Z" changeset="169063615" uid="22685594" user="NTTrailsMEE">
    <nd ref="755829425"/>
    <nd ref="273536565"/>
    <nd ref="755829496"/>
    <tag k="highway" v="primary"/>
    <tag k="lanes" v="2"/>
    <tag k="maxspeed" v="60 mph"/>
    <tag k="maxspeed:type" v="GB:nsl_single"/>
    <tag k="ref" v="A422"/>
    <tag k="sidewalk" v="no"/>
    <tag k="smoothness" v="excellent"/>
    <tag k="source" v="survey"/>
    <tag k="surface" v="asphalt"/>
  </way>
  <way id="60541027" version="1" timestamp="2010-05-29T10:02:02Z" changeset="4840983" uid="9065" user="brianboru">
    <nd ref="755829427"/>
    <nd ref="755829401"/>
    <nd ref="755829484"/>
    <nd ref="755829462"/>
    <tag k="highway" v="unclassified"/>
    <tag k="source" v="survey;OS_OpenData_StreetView"/>
  </way>
  <way id="60541028" version="5" timestamp="2025-06-30T15:32:28Z" changeset="168315308" uid="22685594" user="NTTrailsMEE">
    <nd ref="755829427"/>
    <nd ref="6559476671"/>
    <nd ref="2563072896"/>
    <nd ref="755829496"/>
    <tag k="highway" v="unclassified"/>
    <tag k="sidewalk" v="no"/>
    <tag k="smoothness" v="good"/>
    <tag k="source" v="survey;OS_OpenData_StreetView"/>
    <tag k="surface" v="concrete"/>
  </way>
  <way id="60541032" version="3" timestamp="2019-05-19T07:32:42Z" changeset="70402976" uid="9196091" user="hkkollip">
    <nd ref="755829416"/>
    <nd ref="755829498"/>
    <nd ref="755829475"/>
    <nd ref="6483432539"/>
    <nd ref="755829451"/>
    <nd ref="2515703642"/>
    <nd ref="755829429"/>
    <nd ref="2515703645"/>
    <nd ref="755829403"/>
    <nd ref="755829486"/>
    <tag k="highway" v="unclassified"/>
    <tag k="source" v="visual survey;OS_OpenData_StreetView"/>
  </way>
  <way id="60541039" version="3" timestamp="2025-07-17T14:09:45Z" changeset="169063615" uid="22685594" user="NTTrailsMEE">
    <nd ref="755829424"/>
    <nd ref="755829486"/>
    <tag k="highway" v="unclassified"/>
    <tag k="sidewalk" v="no"/>
    <tag k="smoothness" v="good"/>
    <tag k="source" v="visual survey;OS_OpenData_StreetView"/>
    <tag k="surface" v="asphalt"/>
  </way>
  <way id="60543197" version="3" timestamp="2014-05-31T11:19:19Z" changeset="22654059" uid="9065" user="brianboru">
    <nd ref="755873053"/>
    <nd ref="2891277523"/>
    <nd ref="2891277524"/>
    <nd ref="755873062"/>
    <nd ref="755873049"/>
    <nd ref="755873056"/>
    <nd ref="755873053"/>
    <tag k="amenity" v="place_of_worship"/>
    <tag k="building" v="church"/>
    <tag k="denomination" v="methodist"/>
    <tag k="name" v="Tysoe Methodist Church"/>
    <tag k="religion" v="christian"/>
    <tag k="source" v="local_knowledge;OS_OpenData_StreetView"/>
  </way>
  <way id="60543199" version="4" timestamp="2023-03-05T22:36:41Z" changeset="133342770" uid="493595" user="Yorvik Prestigitator">
    <nd ref="755873052"/>
    <nd ref="755873061"/>
    <nd ref="755873043"/>
    <nd ref="755873054"/>
    <nd ref="2895119155"/>
    <nd ref="2895119154"/>
    <nd ref="755873052"/>
    <tag k="addr:city" v="Tysoe"/>
    <tag k="amenity" v="community_centre"/>
    <tag k="building" v="yes"/>
    <tag k="community_centre" v="village_hall"/>
    <tag k="name" v="Village Hall"/>
    <tag k="source" v="visual survey;OS_OpenData_StreetView"/>
    <tag k="start_date" v="1929"/>
  </way>
  <way id="60684843" version="3" timestamp="2023-03-05T22:36:41Z" changeset="133342770" uid="493595" user="Yorvik Prestigitator">
    <nd ref="759706502"/>
    <nd ref="2895088143"/>
    <nd ref="2895088142"/>
    <nd ref="2895088141"/>
    <nd ref="2895088140"/>
    <nd ref="759706550"/>
    <nd ref="2895088139"/>
    <nd ref="759706618"/>
    <nd ref="10713191140"/>
    <nd ref="759706502"/>
    <tag k="building" v="yes"/>
    <tag k="name" v="The Old Fire Station"/>
    <tag k="source" v="visual survey;OS_OpenData_StreetView"/>
  </way>
  <way id="60684846" version="3" timestamp="2014-03-21T17:53:17Z" changeset="21231335" uid="38588" user="mentor">
    <nd ref="719715201"/>
    <nd ref="719715203"/>
    <nd ref="755873067"/>
    <tag k="highway" v="residential"/>
    <tag k="source" v="visual survey;OS_OpenData_StreetView"/>
  </way>
  <way id="60684850" version="7" timestamp="2023-03-09T05:58:02Z" changeset="133464477" uid="14512471" user="SOWMMGAD">
    <nd ref="312300217"/>
    <nd ref="2533807121"/>
    <nd ref="6888155483"/>
    <nd ref="6888172688"/>
    <nd ref="2533807119"/>
    <nd ref="8254838598"/>
    <nd ref="10722737626"/>
    <nd ref="2533807107"/>
    <nd ref="2727193440"/>
    <nd ref="2533807101"/>
    <nd ref="759706446"/>
    <nd ref="2533807097"/>
    <nd ref="2533807096"/>
    <nd ref="759706553"/>
    <nd ref="759706563"/>
    <tag k="highway" v="unclassified"/>
    <tag k="maxspeed" v="40 mph"/>
    <tag k="name" v="Lane End"/>
    <tag k="source" v="OS_OpenData_StreetView"/>
    <tag k="source:maxspeed" v="survey"/>
  </way>
  <way id="115569065" version="7" timestamp="2025-01-02T18:43:33Z" changeset="160921475" uid="5229644" user="Nathan_A_RF">
    <nd ref="1540849333"/>
    <nd ref="1498577674"/>
    <nd ref="1498577787"/>
    <nd ref="312300396"/>
    <tag k="cycleway:both" v="no"/>
    <tag k="highway" v="primary"/>
    <tag k="lanes" v="2"/>
    <tag k="maxspeed" v="60 mph"/>
    <tag k="maxspeed:type" v="GB:nsl_single"/>
    <tag k="ref" v="A422"/>
    <tag k="surface" v="asphalt"/>
  </way>
  <way id="115569072" version="18" timestamp="2025-01-02T18:43:33Z" changeset="160921475" uid="5229644" user="Nathan_A_RF">
    <nd ref="312300396"/>
    <nd ref="15830472"/>
    <nd ref="1498577641"/>
    <nd ref="1498577685"/>
    <nd ref="1498577689"/>
    <nd ref="1498577765"/>
    <nd ref="1498577639"/>
    <nd ref="1498577793"/>
    <nd ref="1498577723"/>
    <nd ref="1498577699"/>
    <nd ref="15830473"/>
    <nd ref="1498577668"/>
    <nd ref="1498577743"/>
    <nd ref="1498577709"/>
    <nd ref="1498577741"/>
    <nd ref="1498577681"/>
    <nd ref="1498577720"/>
    <nd ref="312300204"/>
    <nd ref="1498577781"/>
    <nd ref="1498577758"/>
    <nd ref="1498577678"/>
    <nd ref="1498577712"/>
    <nd ref="1498577722"/>
    <nd ref="1498577683"/>
    <nd ref="1498577770"/>
    <nd ref="15830474"/>
    <nd ref="1498577767"/>
    <nd ref="1498577736"/>
    <nd ref="1498577751"/>
    <nd ref="1498577744"/>
    <nd ref="1498577646"/>
    <nd ref="6905297275"/>
    <nd ref="1498577654"/>
    <nd ref="1498577661"/>
    <nd ref="1498577773"/>
    <nd ref="15830475"/>
    <nd ref="1498577715"/>
    <nd ref="1498577746"/>
    <nd ref="1498577730"/>
    <nd ref="15830476"/>
    <nd ref="1498577796"/>
    <nd ref="1498577697"/>
    <nd ref="6564208615"/>
    <nd ref="1498577643"/>
    <nd ref="8109887732"/>
    <nd ref="1498577704"/>
    <nd ref="15830477"/>
    <nd ref="1498577686"/>
    <nd ref="1498577732"/>
    <nd ref="1498577653"/>
    <nd ref="1498577713"/>
    <nd ref="1498577677"/>
    <nd ref="1498577688"/>
    <nd ref="1498577649"/>
    <nd ref="15830478"/>
    <nd ref="1498577672"/>
    <nd ref="264484036"/>
    <nd ref="1498577663"/>
    <nd ref="1498577757"/>
    <nd ref="1498577655"/>
    <nd ref="1498577776"/>
    <nd ref="1498577687"/>
    <nd ref="15830479"/>
    <nd ref="1498577742"/>
    <nd ref="15830480"/>
    <nd ref="1498577734"/>
    <nd ref="1498577708"/>
    <nd ref="1498577665"/>
    <nd ref="1498577792"/>
    <nd ref="1498577798"/>
    <nd ref="1498577669"/>
    <nd ref="610651399"/>
    <nd ref="1498577664"/>
    <nd ref="1498577711"/>
    <nd ref="1498577673"/>
    <nd ref="1498577666"/>
    <nd ref="610651400"/>
    <nd ref="610651401"/>
    <nd ref="1498577731"/>
    <nd ref="747829789"/>
    <nd ref="1498577721"/>
    <nd ref="1498577656"/>
    <nd ref="1498577784"/>
    <nd ref="15830498"/>
    <nd ref="1498722383"/>
    <nd ref="1498722464"/>
    <nd ref="1498722379"/>
    <nd ref="1498722515"/>
    <nd ref="732649877"/>
    <nd ref="15830497"/>
    <nd ref="1498722485"/>
    <nd ref="1498722489"/>
    <nd ref="1498722433"/>
    <nd ref="1498722385"/>
    <nd ref="2561449229"/>
    <nd ref="15830496"/>
    <nd ref="1498722400"/>
    <nd ref="1498722483"/>
    <nd ref="1498722476"/>
    <nd ref="1498722387"/>
    <nd ref="15830495"/>
    <nd ref="1498722403"/>
    <nd ref="600095428"/>
    <nd ref="1498722521"/>
    <nd ref="1498722498"/>
    <nd ref="1498722502"/>
    <tag k="cycleway:both" v="no"/>
    <tag k="highway" v="primary"/>
    <tag k="lanes" v="2"/>
    <tag k="maxspeed" v="60 mph"/>
    <tag k="maxspeed:type" v="GB:nsl_single"/>
    <tag k="ref" v="A422"/>
    <tag k="shoulder" v="no"/>
    <tag k="surface" v="asphalt"/>
  </way>
  <way id="141196919" version="4" timestamp="2017-04-08T16:04:52Z" changeset="47571776" uid="346039" user="fitzsimons">
    <nd ref="1545705626"/>
    <nd ref="1545705627"/>
    <nd ref="1611866988"/>
    <nd ref="1545705628"/>
    <nd ref="2559826875"/>
    <nd ref="1545705629"/>
    <nd ref="1545705630"/>
    <nd ref="1545705613"/>
    <nd ref="1545705631"/>
    <nd ref="2559826868"/>
    <nd ref="755836521"/>
    <nd ref="1545705632"/>
    <nd ref="4783164040"/>
    <tag k="highway" v="unclassified"/>
    <tag k="name" v="Tysoe Road"/>
    <tag k="source:name" v="OSSV"/>
  </way>
  <way id="141196920" version="4" timestamp="2014-10-21T14:55:31Z" changeset="26236180" uid="1322826" user="Ant Beck">
    <nd ref="719715157"/>
    <nd ref="2890964472"/>
    <tag k="highway" v="unclassified"/>
  </way>
  <way id="141196921" version="6" timestamp="2014-10-21T14:55:31Z" changeset="26236180" uid="1322826" user="Ant Beck">
    <nd ref="719715157"/>
    <nd ref="420415432"/>
    <tag k="highway" v="unclassified"/>
    <tag k="maxspeed" v="30 mph"/>
    <tag k="name" v="Oxhill Road"/>
    <tag k="source" v="OS_OpenData_StreetView"/>
  </way>
  <way id="141336052" version="8" timestamp="2025-01-02T19:03:54Z" changeset="160922478" uid="5229644" user="Nathan_A_RF">
    <nd ref="489801317"/>
    <nd ref="1547225189"/>
    <nd ref="1547225453"/>
    <nd ref="1547225152"/>
    <nd ref="1547225167"/>
    <nd ref="1547225155"/>
    <nd ref="1547225163"/>
    <nd ref="755829416"/>
    <nd ref="1547225186"/>
    <nd ref="1547225187"/>
    <nd ref="1547225181"/>
    <nd ref="1498577706"/>
    <nd ref="11001903457"/>
    <nd ref="1498577735"/>
    <nd ref="1548129671"/>
    <tag k="highway" v="tertiary"/>
    <tag k="lanes" v="2"/>
    <tag k="maxspeed" v="60 mph"/>
    <tag k="maxspeed:type" v="GB:nsl_single"/>
    <tag k="surface" v="asphalt"/>
  </way>
  <way id="141612703" version="7" timestamp="2025-06-24T16:05:17Z" changeset="168056542" uid="22685594" user="NTTrailsMEE">
    <nd ref="10253488165"/>
    <nd ref="344211614"/>
    <nd ref="1550133902"/>
    <nd ref="1550134159"/>
    <nd ref="1550134127"/>
    <nd ref="719715334"/>
    <nd ref="1550134039"/>
    <nd ref="1550134072"/>
    <nd ref="1550133881"/>
    <nd ref="1550133879"/>
    <nd ref="1550133893"/>
    <nd ref="10253488166"/>
    <nd ref="1550133845"/>
    <nd ref="1550133867"/>
    <nd ref="6796936629"/>
    <nd ref="10253488167"/>
    <nd ref="1550133836"/>
    <nd ref="1550134153"/>
    <nd ref="1550133784"/>
    <nd ref="6796936631"/>
    <nd ref="1550133974"/>
    <nd ref="759647834"/>
    <tag k="highway" v="unclassified"/>
    <tag k="name" v="Sugarswell Lane"/>
    <tag k="source" v="OS_OpenData_StreetView"/>
  </way>
  <way id="141612705" version="10" timestamp="2025-01-02T18:43:33Z" changeset="160921475" uid="5229644" user="Nathan_A_RF">
    <nd ref="755829425"/>
    <nd ref="11001903452"/>
    <nd ref="2563072914"/>
    <nd ref="2563072918"/>
    <nd ref="1550133925"/>
    <nd ref="1550133919"/>
    <nd ref="1550133995"/>
    <nd ref="2563072948"/>
    <nd ref="1550134144"/>
    <nd ref="11001903451"/>
    <nd ref="1550134075"/>
    <nd ref="11001903450"/>
    <nd ref="11001903449"/>
    <nd ref="2563072970"/>
    <nd ref="11001903447"/>
    <nd ref="1550133884"/>
    <nd ref="11001903442"/>
    <nd ref="1550133802"/>
    <nd ref="11199230296"/>
    <nd ref="11001903446"/>
    <nd ref="1550134065"/>
    <nd ref="11001903448"/>
    <nd ref="11001903443"/>
    <nd ref="1550134218"/>
    <nd ref="11001903444"/>
    <nd ref="11001903445"/>
    <nd ref="1550134070"/>
    <nd ref="755880467"/>
    <nd ref="1550133948"/>
    <nd ref="1550134047"/>
    <nd ref="1550134156"/>
    <nd ref="11199230297"/>
    <nd ref="1540849333"/>
    <tag k="cycleway:both" v="no"/>
    <tag k="highway" v="primary"/>
    <tag k="lanes" v="2"/>
    <tag k="maxspeed" v="60 mph"/>
    <tag k="maxspeed:type" v="GB:nsl_single"/>
    <tag k="name" v="Sun Rising Hill"/>
    <tag k="ref" v="A422"/>
    <tag k="shoulder" v="no"/>
    <tag k="source:name" v="OS_OpenData_Locator"/>
    <tag k="surface" v="asphalt"/>
  </way>
  <way id="146630264" version="8" timestamp="2025-01-02T18:31:35Z" changeset="160920852" uid="5229644" user="Nathan_A_RF">
    <nd ref="1540849333"/>
    <nd ref="7570152137"/>
    <nd ref="1598984527"/>
    <nd ref="7570152156"/>
    <nd ref="1598984526"/>
    <nd ref="6755533044"/>
    <nd ref="1598984524"/>
    <nd ref="1598984523"/>
    <nd ref="1598984521"/>
    <nd ref="1598984519"/>
    <nd ref="2895102737"/>
    <tag k="highway" v="tertiary"/>
    <tag k="maxspeed" v="50 mph"/>
    <tag k="source" v="visual survey;bing"/>
    <tag k="surface" v="asphalt"/>
  </way>
  <way id="191357606" version="10" timestamp="2025-01-02T19:03:54Z" changeset="160922478" uid="5229644" user="Nathan_A_RF">
    <nd ref="312300195"/>
    <nd ref="2552395695"/>
    <nd ref="9342080051"/>
    <nd ref="2533807175"/>
    <nd ref="312300197"/>
    <nd ref="312300198"/>
    <nd ref="12110800622"/>
    <nd ref="12110800621"/>
    <nd ref="12110800620"/>
    <nd ref="312300199"/>
    <nd ref="12110800619"/>
    <nd ref="12110800618"/>
    <nd ref="2533807173"/>
    <nd ref="2552395536"/>
    <nd ref="2533807165"/>
    <nd ref="312300200"/>
    <nd ref="2552395527"/>
    <nd ref="312300201"/>
    <nd ref="12110800623"/>
    <nd ref="2552395523"/>
    <nd ref="2552425441"/>
    <nd ref="2552395522"/>
    <nd ref="12110800624"/>
    <nd ref="2533807155"/>
    <nd ref="12110800625"/>
    <nd ref="312300203"/>
    <nd ref="12110800626"/>
    <nd ref="12110800627"/>
    <nd ref="2533807147"/>
    <nd ref="12110800628"/>
    <nd ref="12110800629"/>
    <nd ref="2533807146"/>
    <nd ref="12110800630"/>
    <nd ref="12110800631"/>
    <nd ref="12110800632"/>
    <nd ref="312300204"/>
    <tag k="highway" v="tertiary"/>
    <tag k="lanes" v="2"/>
    <tag k="maxspeed" v="60 mph"/>
    <tag k="maxspeed:type" v="GB:nsl_single"/>
    <tag k="maxweight" v="7.5"/>
    <tag k="name" v="Tysoe Road"/>
    <tag k="source" v="NPE"/>
  </way>
  <way id="192383219" version="3" timestamp="2014-10-21T14:55:31Z" changeset="26236180" uid="1322826" user="Ant Beck">
    <nd ref="719715162"/>
    <nd ref="719715165"/>
    <tag k="highway" v="residential"/>
    <tag k="name" v="Welchman Place"/>
    <tag k="source" v="OS_OpenData_StreetView"/>
    <tag k="source:name" v="OS_OpenData_Locator"/>
  </way>
  <way id="216960122" version="3" timestamp="2023-09-18T06:49:29Z" changeset="141408640" uid="18869198" user="TB-E">
    <nd ref="2262773579"/>
    <nd ref="2262773549"/>
    <nd ref="2262773577"/>
    <nd ref="2262773559"/>
    <nd ref="2262773572"/>
    <nd ref="2262773558"/>
    <nd ref="2262773554"/>
    <nd ref="2262773578"/>
    <nd ref="2533453226"/>
    <nd ref="2262773551"/>
    <nd ref="2533453222"/>
    <nd ref="2262773575"/>
    <nd ref="2533453218"/>
    <nd ref="2262773568"/>
    <nd ref="2533453214"/>
    <nd ref="2262773553"/>
    <nd ref="2533453209"/>
    <nd ref="11199230266"/>
    <nd ref="2262773557"/>
    <nd ref="755829434"/>
    <nd ref="755829457"/>
    <nd ref="755829480"/>
    <nd ref="755829503"/>
    <nd ref="755829421"/>
    <nd ref="755829424"/>
    <tag k="highway" v="unclassified"/>
    <tag k="source" v="visual survey;OS_OpenData_StreetView"/>
  </way>
  <way id="224385878" version="14" timestamp="2025-01-02T18:31:35Z" changeset="160920852" uid="5229644" user="Nathan_A_RF">
    <nd ref="1540849197"/>
    <nd ref="2727193426"/>
    <nd ref="2727193425"/>
    <nd ref="2727193423"/>
    <nd ref="2727193422"/>
    <nd ref="2727193417"/>
    <nd ref="1598984517"/>
    <nd ref="2727193405"/>
    <nd ref="2727193399"/>
    <nd ref="9021656627"/>
    <nd ref="1598984515"/>
    <nd ref="2895102823"/>
    <nd ref="1598984508"/>
    <nd ref="9021656617"/>
    <nd ref="1598984507"/>
    <nd ref="1598984506"/>
    <nd ref="1598984505"/>
    <nd ref="2891401179"/>
    <nd ref="2891401178"/>
    <nd ref="1598984504"/>
    <nd ref="1598984503"/>
    <nd ref="2895102735"/>
    <nd ref="2895102734"/>
    <nd ref="1598984502"/>
    <nd ref="1598984501"/>
    <nd ref="11656189454"/>
    <nd ref="11656189451"/>
    <nd ref="9797567766"/>
    <nd ref="6726470993"/>
    <nd ref="9471573159"/>
    <nd ref="719715211"/>
    <tag k="highway" v="tertiary"/>
    <tag k="lanes" v="2"/>
    <tag k="maxspeed" v="40 mph"/>
    <tag k="name" v="Tysoe Road"/>
    <tag k="source" v="visual survey;bing"/>
  </way>
  <way id="224386695" version="2" timestamp="2019-06-20T05:49:06Z" changeset="71426926" uid="9196110" user="shishf">
    <nd ref="312300493"/>
    <nd ref="312300495"/>
    <nd ref="6559319348"/>
    <nd ref="312300496"/>
    <nd ref="2332012625"/>
    <nd ref="312300497"/>
    <nd ref="312300499"/>
    <nd ref="2332012630"/>
    <nd ref="312300504"/>
    <tag k="highway" v="unclassified"/>
    <tag k="lanes" v="1.5"/>
    <tag k="source" v="gps_trace"/>
  </way>
  <way id="224386696" version="2" timestamp="2013-11-27T13:16:30Z" changeset="19144198" uid="9065" user="brianboru">
    <nd ref="2332012618"/>
    <nd ref="312300487"/>
    <nd ref="2332012621"/>
    <nd ref="312300489"/>
    <nd ref="2554187899"/>
    <nd ref="312300490"/>
    <nd ref="2554187959"/>
    <nd ref="2332012623"/>
    <nd ref="312300491"/>
    <nd ref="312300493"/>
    <tag k="highway" v="unclassified"/>
    <tag k="lanes" v="1"/>
    <tag k="source" v="gps_trace"/>
  </way>
  <way id="224390552" version="6" timestamp="2024-08-14T17:38:16Z" changeset="155252383" uid="19756269" user="RyanBush">
    <nd ref="312300204"/>
    <nd ref="12110800633"/>
    <nd ref="12110800634"/>
    <nd ref="12110800635"/>
    <nd ref="6564251664"/>
    <nd ref="6619066085"/>
    <nd ref="12110800636"/>
    <nd ref="312300206"/>
    <nd ref="12110800637"/>
    <nd ref="12110800638"/>
    <nd ref="12110800639"/>
    <nd ref="12110800640"/>
    <nd ref="312300207"/>
    <nd ref="12110800641"/>
    <nd ref="312300208"/>
    <nd ref="12110800642"/>
    <nd ref="12110800643"/>
    <nd ref="312300209"/>
    <nd ref="12110800644"/>
    <nd ref="12110800645"/>
    <nd ref="12110800646"/>
    <nd ref="12110800647"/>
    <nd ref="312300211"/>
    <nd ref="12110800648"/>
    <nd ref="12110800649"/>
    <nd ref="759706485"/>
    <nd ref="12110800650"/>
    <nd ref="12110800651"/>
    <nd ref="12110800652"/>
    <nd ref="12110800653"/>
    <nd ref="12110800654"/>
    <nd ref="312300212"/>
    <nd ref="12110800655"/>
    <nd ref="12110800656"/>
    <nd ref="12110800657"/>
    <nd ref="12110800658"/>
    <nd ref="312300213"/>
    <nd ref="2727193519"/>
    <tag k="highway" v="tertiary"/>
    <tag k="lanes" v="2"/>
    <tag k="maxspeed" v="50 mph"/>
    <tag k="name" v="Tysoe Road"/>
    <tag k="source" v="NPE"/>
    <tag k="source:maxspeed" v="survey"/>
  </way>
  <way id="258928785" version="1" timestamp="2014-01-29T18:05:52Z" changeset="20269739" uid="1061235" user="extremedogwalkers">
    <nd ref="2642355399"/>
    <nd ref="2642355401"/>
    <nd ref="2642355403"/>
    <nd ref="2642355405"/>
    <nd ref="2642355406"/>
    <nd ref="2642355408"/>
    <nd ref="2642355399"/>
    <tag k="building" v="residential"/>
    <tag k="name" v="Old Lodge Farm"/>
  </way>
  <way id="258928886" version="2" timestamp="2022-01-24T12:01:16Z" changeset="116538356" uid="34867" user="SammyTheSnake">
    <nd ref="2642358090"/>
    <nd ref="2642358092"/>
    <nd ref="2642358093"/>
    <nd ref="2642358095"/>
    <nd ref="2642358096"/>
    <nd ref="2642358098"/>
    <nd ref="2642358090"/>
    <tag k="addr:housename" v="Rupert Cottage"/>
    <tag k="building" v="residential"/>
    <tag k="name" v="Rupert Cottage"/>
  </way>
  <way id="267251240" version="5" timestamp="2024-08-14T17:38:16Z" changeset="155252383" uid="19756269" user="RyanBush">
    <nd ref="2727193519"/>
    <nd ref="312300215"/>
    <nd ref="2727193490"/>
    <nd ref="12110800659"/>
    <nd ref="732644420"/>
    <nd ref="2727193475"/>
    <nd ref="2533807127"/>
    <nd ref="2533807125"/>
    <nd ref="312300217"/>
    <nd ref="2533807122"/>
    <nd ref="2727193470"/>
    <nd ref="2727193469"/>
    <nd ref="2727193468"/>
    <nd ref="2727193467"/>
    <nd ref="2895413695"/>
    <nd ref="2727193459"/>
    <nd ref="7737632849"/>
    <nd ref="312300218"/>
    <nd ref="312300219"/>
    <nd ref="759706603"/>
    <nd ref="312300220"/>
    <nd ref="2891383324"/>
    <nd ref="312300221"/>
    <nd ref="12110800660"/>
    <nd ref="2727193438"/>
    <nd ref="312300223"/>
    <nd ref="12110800661"/>
    <nd ref="1540849245"/>
    <nd ref="2727193435"/>
    <nd ref="2727193434"/>
    <nd ref="1540849201"/>
    <nd ref="2727193431"/>
    <nd ref="2727193428"/>
    <nd ref="1540849197"/>
    <tag k="highway" v="tertiary"/>
    <tag k="lanes" v="2"/>
    <tag k="maxspeed" v="40 mph"/>
    <tag k="name" v="Tysoe Road"/>
    <tag k="source" v="NPE"/>
    <tag k="source:maxspeed" v="survey"/>
  </way>
  <way id="278026719" version="2" timestamp="2014-05-31T10:13:49Z" changeset="22652924" uid="411244" user="RobJN">
    <nd ref="2891133827"/>
    <nd ref="2824571263"/>
    <nd ref="2824571260"/>
    <nd ref="2824571265"/>
    <nd ref="2824571266"/>
    <nd ref="2891133827"/>
    <tag k="addr:city" v="Middle Tysoe"/>
    <tag k="addr:housenumber" v="7"/>
    <tag k="addr:street" v="Avon Avenue"/>
    <tag k="building" v="residential"/>
    <tag k="source" v="Bing"/>
  </way>
  <way id="278032162" version="4" timestamp="2015-09-11T21:57:10Z" changeset="33971085" uid="2748195" user="karitotp">
    <nd ref="3141912053"/>
    <nd ref="3141912051"/>
    <nd ref="2824625672"/>
    <nd ref="2824625669"/>
    <nd ref="2824625665"/>
    <nd ref="2824625664"/>
    <nd ref="2824625659"/>
    <nd ref="2824625666"/>
    <nd ref="2824625668"/>
    <nd ref="2824625667"/>
    <nd ref="3141912053"/>
    <tag k="building" v="yes"/>
    <tag k="name" v="Dinsdale House"/>
    <tag k="source" v="Warwicks Aerial Imagery OGLv2"/>
  </way>
  <way id="280032051" version="4" timestamp="2022-07-03T20:42:14Z" changeset="123164599" uid="242345" user="confusedbuffalo">
    <nd ref="2842086215"/>
    <nd ref="2842086216"/>
    <nd ref="2842086218"/>
    <nd ref="2842086219"/>
    <nd ref="2891369723"/>
    <nd ref="2842086220"/>
    <nd ref="2842086215"/>
    <tag k="addr:postcode" v="CV35 0TR"/>
    <tag k="building" v="house"/>
    <tag k="name" v="Garden Cottage"/>
  </way>
  <way id="280037344" version="3" timestamp="2017-05-17T19:03:16Z" changeset="48771057" uid="2773866" user="kreuzschnabel">
    <nd ref="2842122972"/>
    <nd ref="2842122973"/>
    <nd ref="2842122974"/>
    <nd ref="2842122975"/>
    <nd ref="2842122972"/>
    <tag k="building" v="barn"/>
    <tag k="name" v="Barn"/>
    <tag k="source" v="Bing"/>
  </way>
  <way id="280051106" version="1" timestamp="2014-05-07T18:12:12Z" changeset="22194012" uid="1322826" user="Ant Beck">
    <nd ref="719715102"/>
    <nd ref="719715148"/>
    <nd ref="719715150"/>
    <tag k="highway" v="residential"/>
    <tag k="name" v="Poolgate"/>
    <tag k="source" v="OS_OpenData_StreetView"/>
  </way>
  <way id="280327632" version="2" timestamp="2014-05-31T11:19:20Z" changeset="22654059" uid="9065" user="brianboru">
    <nd ref="2844667540"/>
    <nd ref="2891277521"/>
    <nd ref="719715157"/>
    <tag k="highway" v="residential"/>
    <tag k="name" v="Windmill Way"/>
    <tag k="source" v="Warwicks Aerial Imagery OGLv2"/>
  </way>
  <way id="280327633" version="2" timestamp="2014-05-31T11:19:20Z" changeset="22654059" uid="9065" user="brianboru">
    <nd ref="2844667535"/>
    <nd ref="719715155"/>
    <nd ref="2844667540"/>
    <tag k="highway" v="residential"/>
    <tag k="maxspeed" v="30 mph"/>
    <tag k="name" v="Windmill Way"/>
    <tag k="source" v="Warwicks Aerial Imagery OGLv2"/>
  </way>
  <way id="280327634" version="2" timestamp="2014-05-31T11:19:20Z" changeset="22654059" uid="9065" user="brianboru">
    <nd ref="2844667529"/>
    <nd ref="2844667532"/>
    <nd ref="719715153"/>
    <nd ref="2844667535"/>
    <tag k="highway" v="residential"/>
    <tag k="maxspeed" v="30 mph"/>
    <tag k="name" v="Windmill Way"/>
    <tag k="source" v="Warwicks Aerial Imagery OGLv2"/>
  </way>
  <way id="280327636" version="2" timestamp="2014-05-31T09:05:17Z" changeset="22652127" uid="9065" user="brianboru">
    <nd ref="2844667544"/>
    <nd ref="2844667543"/>
    <nd ref="2890964467"/>
    <nd ref="2890964465"/>
    <nd ref="2890964464"/>
    <nd ref="2844667539"/>
    <nd ref="2844667541"/>
    <nd ref="2844667544"/>
    <tag k="addr:city" v="Tysoe"/>
    <tag k="addr:housenumber" v="4"/>
    <tag k="addr:postcode" v="CV35 0SB"/>
    <tag k="addr:street" v="Windmill Way"/>
    <tag k="building" v="yes"/>
    <tag k="source" v="Warwicks Aerial Imagery OGLv2"/>
  </way>
  <way id="280327637" version="3" timestamp="2014-05-31T14:54:05Z" changeset="22656847" uid="9065" user="brianboru">
    <nd ref="2844667542"/>
    <nd ref="2844667538"/>
    <nd ref="2844667536"/>
    <nd ref="2844667537"/>
    <nd ref="2844667542"/>
    <tag k="addr:city" v="Tysoe"/>
    <tag k="addr:housenumber" v="2"/>
    <tag k="addr:postcode" v="CV35 0SB"/>
    <tag k="addr:street" v="Windmill Way"/>
    <tag k="building" v="residential"/>
    <tag k="source" v="Warwicks Aerial Imagery OGLv2"/>
  </way>
  <way id="280327639" version="2" timestamp="2014-05-31T11:19:20Z" changeset="22654059" uid="9065" user="brianboru">
    <nd ref="2844667531"/>
    <nd ref="2844667530"/>
    <tag k="highway" v="residential"/>
    <tag k="maxspeed" v="30 mph"/>
    <tag k="source" v="Warwicks Aerial Imagery OGLv2"/>
  </way>
  <way id="280327640" version="2" timestamp="2014-05-31T11:19:20Z" changeset="22654059" uid="9065" user="brianboru">
    <nd ref="2844667529"/>
    <nd ref="2844667534"/>
    <tag k="highway" v="residential"/>
    <tag k="maxspeed" v="30 mph"/>
    <tag k="source" v="Warwicks Aerial Imagery OGLv2"/>
  </way>
  <way id="280327642" version="3" timestamp="2014-10-21T14:44:02Z" changeset="26235962" uid="1322826" user="Ant Beck">
    <nd ref="2844667535"/>
    <nd ref="2844667531"/>
    <tag k="highway" v="residential"/>
    <tag k="maxspeed" v="30 mph"/>
    <tag k="source" v="Warwicks Aerial Imagery OGLv2"/>
  </way>
  <way id="281147142" version="1" timestamp="2014-05-11T19:08:07Z" changeset="22278046" uid="1322826" user="Ant Beck">
    <nd ref="279128871"/>
    <nd ref="2559618977"/>
    <tag k="highway" v="tertiary"/>
    <tag k="lanes" v="1.5"/>
    <tag k="maxspeed" v="30 mph"/>
    <tag k="name" v="Epwell Road"/>
    <tag k="source" v="NPE;OS_OpenData_StreetView"/>
  </way>
  <way id="281147143" version="1" timestamp="2014-05-11T19:08:07Z" changeset="22278046" uid="1322826" user="Ant Beck">
    <nd ref="2559618977"/>
    <nd ref="2725472387"/>
    <nd ref="1545705642"/>
    <tag k="highway" v="tertiary"/>
    <tag k="lanes" v="1.5"/>
    <tag k="maxspeed" v="30 mph"/>
    <tag k="name" v="Epwell Road"/>
    <tag k="source" v="NPE;OS_OpenData_StreetView"/>
  </way>
  <way id="281147145" version="2" timestamp="2014-05-21T23:37:40Z" changeset="22476943" uid="76617" user="robbieonsea">
    <nd ref="719715145"/>
    <nd ref="2725472412"/>
    <tag k="highway" v="unclassified"/>
    <tag k="maxspeed" v="30 mph"/>
    <tag k="name" v="Shenington Road"/>
    <tag k="source" v="NPE"/>
    <tag k="source:name" v="OS_OpenData_StreetView"/>
  </way>
  <way id="281147149" version="4" timestamp="2016-10-25T19:50:10Z" changeset="43173339" uid="346039" user="fitzsimons">
    <nd ref="2851405630"/>
    <nd ref="2851405627"/>
    <nd ref="2851405624"/>
    <nd ref="2851405629"/>
    <nd ref="2851405630"/>
    <tag k="addr:city" v="Upper Tysoe"/>
    <tag k="addr:housenumber" v="3"/>
    <tag k="addr:postcode" v="CV35 0TQ"/>
    <tag k="addr:street" v="Jeffs Close"/>
    <tag k="building" v="house"/>
    <tag k="name" v="Willow Cottage"/>
    <tag k="source" v="Warwicks Aerial Imagery OGLv2 2013"/>
  </way>
  <way id="281147150" version="3" timestamp="2018-08-10T13:25:47Z" changeset="61538247" uid="9065" user="brianboru">
    <nd ref="2851405622"/>
    <nd ref="2851405617"/>
    <nd ref="2891253593"/>
    <nd ref="2891253594"/>
    <nd ref="5823131640"/>
    <nd ref="2891253595"/>
    <nd ref="2891253596"/>
    <nd ref="2891253597"/>
    <nd ref="2891253598"/>
    <nd ref="2851405615"/>
    <nd ref="2851405621"/>
    <nd ref="2851405622"/>
    <tag k="addr:city" v="Upper Tysoe"/>
    <tag k="addr:housenumber" v="4"/>
    <tag k="addr:street" v="Jeffs Close"/>
    <tag k="building" v="house"/>
    <tag k="source" v="Warwicks Aerial Imagery OGLv2 2013"/>
  </way>
  <way id="281147151" version="2" timestamp="2014-05-31T11:04:37Z" changeset="22653816" uid="411244" user="RobJN">
    <nd ref="2851405638"/>
    <nd ref="2851405637"/>
    <nd ref="2851405635"/>
    <nd ref="2851405634"/>
    <nd ref="2851405632"/>
    <nd ref="2851405636"/>
    <nd ref="2851405638"/>
    <tag k="addr:city" v="Upper Tysoe"/>
    <tag k="addr:housenumber" v="17"/>
    <tag k="addr:street" v="Jeffs Close"/>
    <tag k="building" v="house"/>
    <tag k="source" v="Warwicks Aerial Imagery OGLv2 2013"/>
  </way>
  <way id="283531896" version="3" timestamp="2014-06-02T10:22:39Z" changeset="22690765" uid="9065" user="brianboru">
    <nd ref="2873785484"/>
    <nd ref="279128983"/>
    <nd ref="2895098464"/>
    <nd ref="279128984"/>
    <nd ref="2895098465"/>
    <nd ref="279128985"/>
    <nd ref="279128986"/>
    <nd ref="279128987"/>
    <nd ref="2891521374"/>
    <nd ref="279128988"/>
    <nd ref="279128989"/>
    <nd ref="2873785485"/>
    <tag k="highway" v="unclassified"/>
    <tag k="name" v="Shenington Road"/>
    <tag k="source" v="NPE"/>
    <tag k="source:name" v="OS_OpenData_StreetView"/>
  </way>
  <way id="283531897" version="1" timestamp="2014-05-21T23:37:40Z" changeset="22476943" uid="76617" user="robbieonsea">
    <nd ref="279128972"/>
    <nd ref="279128973"/>
    <nd ref="279128974"/>
    <nd ref="279128975"/>
    <nd ref="279128976"/>
    <nd ref="2511442192"/>
    <nd ref="279128977"/>
    <nd ref="2511442194"/>
    <nd ref="2511442190"/>
    <nd ref="279128978"/>
    <nd ref="2511442188"/>
    <nd ref="279128979"/>
    <nd ref="279128980"/>
    <nd ref="2511442182"/>
    <nd ref="279128981"/>
    <nd ref="2511442184"/>
    <nd ref="279128982"/>
    <nd ref="2873785484"/>
    <tag k="highway" v="unclassified"/>
    <tag k="incline" v="-14%"/>
    <tag k="name" v="Shenington Road"/>
    <tag k="source" v="NPE"/>
    <tag k="source:name" v="OS_OpenData_StreetView"/>
  </way>
  <way id="283531898" version="1" timestamp="2014-05-21T23:37:40Z" changeset="22476943" uid="76617" user="robbieonsea">
    <nd ref="2873785485"/>
    <nd ref="2559618988"/>
    <nd ref="719715139"/>
    <nd ref="719715145"/>
    <tag k="highway" v="unclassified"/>
    <tag k="maxspeed" v="30 mph"/>
    <tag k="name" v="Shenington Road"/>
    <tag k="source" v="NPE"/>
    <tag k="source:name" v="OS_OpenData_StreetView"/>
  </way>
  <way id="285406335" version="1" timestamp="2014-05-31T09:22:05Z" changeset="22652305" uid="9065" user="brianboru">
    <nd ref="2890995746"/>
    <nd ref="2890995745"/>
    <tag k="highway" v="residential"/>
  </way>
  <way id="285406779" version="1" timestamp="2014-05-31T09:28:48Z" changeset="22652391" uid="9065" user="brianboru">
    <nd ref="2891008327"/>
    <nd ref="2891008332"/>
    <nd ref="2891008326"/>
    <nd ref="2891008322"/>
    <nd ref="2891008325"/>
    <nd ref="2891008321"/>
    <nd ref="2891008327"/>
    <tag k="addr:city" v="Tysoe"/>
    <tag k="addr:housenumber" v="1"/>
    <tag k="addr:postcode" v="CV35 0TU"/>
    <tag k="addr:street" v="Sandpits Close"/>
    <tag k="building" v="residential"/>
    <tag k="source" v="bing"/>
  </way>
  <way id="285406780" version="2" timestamp="2014-06-02T10:53:01Z" changeset="22691290" uid="9065" user="brianboru">
    <nd ref="2891008327"/>
    <nd ref="2891008319"/>
    <nd ref="2895119134"/>
    <nd ref="2895119133"/>
    <nd ref="2895119131"/>
    <nd ref="2895119128"/>
    <nd ref="2895119127"/>
    <nd ref="2895119130"/>
    <nd ref="2891008317"/>
    <nd ref="2891008318"/>
    <nd ref="2891008320"/>
    <nd ref="2891008321"/>
    <nd ref="2891008327"/>
    <tag k="addr:city" v="Tysoe"/>
    <tag k="addr:housenumber" v="2"/>
    <tag k="addr:postcode" v="CV35 0TU"/>
    <tag k="addr:street" v="Sandpits Close"/>
    <tag k="building" v="residential"/>
    <tag k="source" v="bing"/>
  </way>
  <way id="285406781" version="1" timestamp="2014-05-31T09:28:48Z" changeset="22652391" uid="9065" user="brianboru">
    <nd ref="2891008335"/>
    <nd ref="2891008334"/>
    <nd ref="2891008333"/>
    <nd ref="2891008331"/>
    <nd ref="2891008330"/>
    <nd ref="2891008324"/>
    <nd ref="2891008328"/>
    <nd ref="2891008323"/>
    <nd ref="2891008329"/>
    <nd ref="2891008335"/>
    <tag k="addr:city" v="Tysoe"/>
    <tag k="addr:housenumber" v="3"/>
    <tag k="addr:postcode" v="CV35 0TU"/>
    <tag k="addr:street" v="Sandpits Close"/>
    <tag k="building" v="residential"/>
  </way>
  <way id="285406782" version="2" timestamp="2014-06-02T10:53:02Z" changeset="22691290" uid="9065" user="brianboru">
    <nd ref="2891008335"/>
    <nd ref="2891008336"/>
    <nd ref="2559810868"/>
    <nd ref="2895119140"/>
    <nd ref="2895119143"/>
    <nd ref="2895119144"/>
    <nd ref="2895119142"/>
    <nd ref="2895119141"/>
    <nd ref="2895119139"/>
    <nd ref="2891008337"/>
    <nd ref="2895119138"/>
    <nd ref="2891008334"/>
    <nd ref="2891008335"/>
    <tag k="addr:city" v="Tysoe"/>
    <tag k="addr:housenumber" v="4"/>
    <tag k="addr:postcode" v="CV35 0TU"/>
    <tag k="addr:street" v="Sandpits Close"/>
    <tag k="building" v="residential"/>
  </way>
  <way id="285407794" version="3" timestamp="2016-01-22T16:33:45Z" changeset="36742720" uid="5541" user="Ian Haylock">
    <nd ref="2891024802"/>
    <nd ref="2891023195"/>
    <nd ref="2891023193"/>
    <nd ref="2891023200"/>
    <nd ref="2891024802"/>
    <tag k="addr:city" v="Upper Tysoe"/>
    <tag k="addr:street" v="Baldwins Lane"/>
    <tag k="amenity" v="theatre"/>
    <tag k="building" v="yes"/>
    <tag k="name" v="Tysoe Marionette Theatre"/>
    <tag k="source" v="Warwicks Aerial Imagery OGLv2 2013"/>
    <tag k="website" v="http://tysoemarionettes.webplus.net/index.html"/>
  </way>
  <way id="285413807" version="2" timestamp="2014-05-31T12:23:45Z" changeset="22655098" uid="411244" user="RobJN">
    <nd ref="2891074839"/>
    <nd ref="2891074840"/>
    <nd ref="2891074838"/>
    <nd ref="2891074835"/>
    <nd ref="2891074836"/>
    <nd ref="2891074837"/>
    <nd ref="2891074839"/>
    <tag k="addr:city" v="Middle Tysoe"/>
    <tag k="addr:housename" v="Homefarm Barns"/>
    <tag k="addr:housenumber" v="7"/>
    <tag k="addr:street" v="Sandpits Road"/>
    <tag k="building" v="residential"/>
  </way>
  <way id="285414371" version="1" timestamp="2014-05-31T09:51:55Z" changeset="22652663" uid="9065" user="brianboru">
    <nd ref="2891081628"/>
    <nd ref="2891081629"/>
    <nd ref="2891081625"/>
    <nd ref="2891081613"/>
    <nd ref="2891081622"/>
    <nd ref="2891081619"/>
    <nd ref="2891081620"/>
    <nd ref="2891081621"/>
    <nd ref="2891081623"/>
    <nd ref="2891081626"/>
    <nd ref="2891081624"/>
    <nd ref="2891081627"/>
    <nd ref="2891081628"/>
    <tag k="amenity" v="pub"/>
    <tag k="building" v="yes"/>
    <tag k="name" v="The Peacock"/>
  </way>
  <way id="285414372" version="2" timestamp="2014-05-31T14:54:05Z" changeset="22656847" uid="9065" user="brianboru">
    <nd ref="2891081618"/>
    <nd ref="2891589520"/>
    <nd ref="2891589522"/>
    <nd ref="2891081616"/>
    <nd ref="2891081614"/>
    <nd ref="2891081615"/>
    <nd ref="2891081617"/>
    <nd ref="2891081618"/>
    <tag k="building" v="yes"/>
    <tag k="name" v="The Reading Rooms"/>
    <tag k="source" v="local_knowledge"/>
  </way>
  <way id="285415821" version="1" timestamp="2014-05-31T09:59:40Z" changeset="22652748" uid="9065" user="brianboru">
    <nd ref="2891098447"/>
    <nd ref="2891098445"/>
    <nd ref="2891098450"/>
    <nd ref="2891098448"/>
    <nd ref="2891098441"/>
    <nd ref="2891098443"/>
    <nd ref="2891098447"/>
    <tag k="addr:city" v="Tysoe"/>
    <tag k="addr:housenumber" v="5"/>
    <tag k="addr:postcode" v="CV35 0SP"/>
    <tag k="addr:street" v="Avon Avenue"/>
    <tag k="building" v="residential"/>
  </way>
  <way id="285415824" version="3" timestamp="2019-03-06T22:56:13Z" changeset="67862131" uid="9451067" user="b-jazz-bot">
    <nd ref="2891098451"/>
    <nd ref="2891098453"/>
    <nd ref="2891098452"/>
    <nd ref="2891098449"/>
    <nd ref="2891098451"/>
    <tag k="building" v="pottery"/>
    <tag k="name" v="Penny Varley Ceramics"/>
    <tag k="website" v="https://www.pennyvarleyceramics.co.uk/"/>
  </way>
  <way id="285417432" version="4" timestamp="2022-07-03T20:42:14Z" changeset="123164599" uid="242345" user="confusedbuffalo">
    <nd ref="2891105543"/>
    <nd ref="2891105542"/>
    <nd ref="2891105538"/>
    <nd ref="2891105540"/>
    <nd ref="2891105543"/>
    <tag k="addr:city" v="Tysoe"/>
    <tag k="addr:housenumber" v="5"/>
    <tag k="addr:postcode" v="CV35 0ST"/>
    <tag k="addr:street" v="Avon Way"/>
    <tag k="building" v="residential"/>
  </way>
  <way id="285417434" version="3" timestamp="2023-06-21T01:45:15Z" changeset="137583555" uid="19354165" user="DracFury">
    <nd ref="2891105546"/>
    <nd ref="2891105547"/>
    <nd ref="2891105545"/>
    <nd ref="2891105544"/>
    <nd ref="2891105546"/>
    <tag k="building" v="clubhouse"/>
    <tag k="club" v="sport"/>
    <tag k="name" v="The Pavilion"/>
    <tag k="source" v="local_knowledge"/>
  </way>
  <way id="285418067" version="2" timestamp="2014-06-02T10:53:01Z" changeset="22691290" uid="9065" user="brianboru">
    <nd ref="2891113097"/>
    <nd ref="2891113098"/>
    <nd ref="2891114801"/>
    <nd ref="2895119124"/>
    <nd ref="2895119122"/>
    <nd ref="2895119121"/>
    <nd ref="2895119120"/>
    <nd ref="2895119118"/>
    <nd ref="2891113099"/>
    <nd ref="2895119119"/>
    <nd ref="2891113097"/>
    <tag k="addr:city" v="Tysoe"/>
    <tag k="addr:housenumber" v="10"/>
    <tag k="addr:postcode" v="CV35 0SX"/>
    <tag k="addr:street" v="Oxhill Road"/>
    <tag k="building" v="residential"/>
    <tag k="source" v="survey"/>
  </way>
  <way id="285418068" version="2" timestamp="2014-06-02T10:53:01Z" changeset="22691290" uid="9065" user="brianboru">
    <nd ref="2891113098"/>
    <nd ref="2891113100"/>
    <nd ref="2891114802"/>
    <nd ref="2895119123"/>
    <nd ref="2895119125"/>
    <nd ref="2891114801"/>
    <nd ref="2891113098"/>
    <tag k="addr:city" v="Tysoe"/>
    <tag k="addr:housenumber" v="12"/>
    <tag k="addr:postcode" v="CV35 0SX"/>
    <tag k="addr:street" v="Oxhill Road"/>
    <tag k="building" v="residential"/>
    <tag k="source" v="survey"/>
  </way>
  <way id="285421779" version="1" timestamp="2014-05-31T10:13:49Z" changeset="22652924" uid="411244" user="RobJN">
    <nd ref="2824571266"/>
    <nd ref="2824571261"/>
    <nd ref="2824571262"/>
    <nd ref="2891133827"/>
    <nd ref="2824571266"/>
    <tag k="addr:city" v="Middle Tysoe"/>
    <tag k="addr:housenumber" v="8"/>
    <tag k="addr:street" v="Avon Avenue"/>
    <tag k="building" v="residential"/>
    <tag k="source" v="Bing"/>
  </way>
  <way id="285422131" version="8" timestamp="2023-12-01T09:06:34Z" changeset="144654010" uid="504708" user="HillWithSmallFields">
    <nd ref="2891151182"/>
    <nd ref="2891277529"/>
    <nd ref="2891151183"/>
    <nd ref="2891151187"/>
    <nd ref="2891151186"/>
    <nd ref="2891151188"/>
    <nd ref="2891151184"/>
    <nd ref="2891151185"/>
    <nd ref="2891151181"/>
    <nd ref="2891151180"/>
    <nd ref="2891151179"/>
    <nd ref="2891171980"/>
    <nd ref="2891171978"/>
    <nd ref="2891171977"/>
    <nd ref="2891171979"/>
    <nd ref="2891151178"/>
    <nd ref="2891277528"/>
    <nd ref="2891277527"/>
    <nd ref="2891151182"/>
    <tag k="HE_ref" v="1186160"/>
    <tag k="amenity" v="place_of_worship"/>
    <tag k="building" v="church"/>
    <tag k="denomination" v="anglican"/>
    <tag k="heritage" v="2"/>
    <tag k="heritage:operator" v="Historic England"/>
    <tag k="listed_status" v="Grade I"/>
    <tag k="name" v="Church of the Assumption of the Blessed Virgin Mary"/>
    <tag k="ref:dove" v="14266"/>
    <tag k="religion" v="christian"/>
    <tag k="wikidata" v="Q17528331"/>
  </way>
  <way id="285422173" version="3" timestamp="2017-01-29T19:34:08Z" changeset="45630078" uid="3277230" user="Polarbear-repair">
    <nd ref="755873043"/>
    <nd ref="2891153945"/>
    <nd ref="2891153944"/>
    <nd ref="755873054"/>
    <nd ref="755873043"/>
    <tag k="addr:city" v="Tysoe"/>
    <tag k="addr:street" v="Main Street"/>
    <tag k="amenity" v="community_centre"/>
    <tag k="building" v="yes"/>
    <tag k="name" v="Tysoe Social Club"/>
  </way>
  <way id="285452231" version="1" timestamp="2014-05-31T11:19:18Z" changeset="22654059" uid="9065" user="brianboru">
    <nd ref="2891277514"/>
    <nd ref="2891277512"/>
    <nd ref="2891277517"/>
    <nd ref="2891277516"/>
    <nd ref="2891277518"/>
    <nd ref="2891277510"/>
    <nd ref="2891277506"/>
    <nd ref="2891277508"/>
    <nd ref="2891277509"/>
    <nd ref="2891277511"/>
    <nd ref="2891277513"/>
    <nd ref="2891277515"/>
    <nd ref="2891277514"/>
    <tag k="addr:city" v="Tysoe"/>
    <tag k="addr:housenumber" v="6"/>
    <tag k="addr:postcode" v="CV35 0SB"/>
    <tag k="addr:street" v="Windmill Way"/>
    <tag k="building" v="residential"/>
    <tag k="source" v="local_knowledge"/>
  </way>
  <way id="285452232" version="1" timestamp="2014-05-31T11:19:18Z" changeset="22654059" uid="9065" user="brianboru">
    <nd ref="2891277507"/>
    <nd ref="2891277505"/>
    <nd ref="2891277503"/>
    <nd ref="2891277504"/>
    <nd ref="2891277507"/>
    <tag k="addr:city" v="Tysoe"/>
    <tag k="addr:housenumber" v="8"/>
    <tag k="addr:postcode" v="CV35 0SB"/>
    <tag k="addr:street" v="Windmill Way"/>
    <tag k="building" v="residential"/>
    <tag k="source" v="local_knowledge"/>
  </way>
  <way id="285454024" version="1" timestamp="2014-05-31T11:55:52Z" changeset="22654627" uid="9065" user="brianboru">
    <nd ref="2891305348"/>
    <nd ref="719715209"/>
    <nd ref="2891305347"/>
    <tag k="highway" v="residential"/>
    <tag k="name" v="Church Farm Court"/>
    <tag k="source" v="Warwicks Aerial Imagery OGLv2"/>
  </way>
  <way id="285459943" version="1" timestamp="2014-05-31T12:23:44Z" changeset="22655098" uid="411244" user="RobJN">
    <nd ref="2891346909"/>
    <nd ref="2891346914"/>
    <nd ref="2891346916"/>
    <nd ref="2891346921"/>
    <nd ref="2891346924"/>
    <nd ref="2891346919"/>
    <nd ref="2891346922"/>
    <nd ref="2891346918"/>
    <nd ref="2891346909"/>
    <tag k="addr:city" v="Middle Tysoe"/>
    <tag k="addr:housename" v="The Old Carthouse"/>
    <tag k="addr:housenumber" v="4"/>
    <tag k="addr:street" v="Sandpits Road"/>
    <tag k="building" v="residential"/>
  </way>
  <way id="285459944" version="1" timestamp="2014-05-31T12:23:44Z" changeset="22655098" uid="411244" user="RobJN">
    <nd ref="2891346945"/>
    <nd ref="2891346934"/>
    <nd ref="2891346939"/>
    <nd ref="2891346942"/>
    <nd ref="2891346946"/>
    <nd ref="2891346954"/>
    <nd ref="2891346949"/>
    <nd ref="2891346952"/>
    <nd ref="2891346945"/>
    <tag k="addr:city" v="Middle Tysoe"/>
    <tag k="addr:housename" v="The Old Workshop"/>
    <tag k="addr:housenumber" v="6"/>
    <tag k="addr:postcode" v="CV35 0SZ"/>
    <tag k="addr:street" v="Sandpits Road"/>
    <tag k="building" v="residential"/>
  </way>
  <way id="285459945" version="1" timestamp="2014-05-31T12:23:44Z" changeset="22655098" uid="411244" user="RobJN">
    <nd ref="2891346903"/>
    <nd ref="2891346100"/>
    <nd ref="2891346905"/>
    <nd ref="2891346907"/>
    <nd ref="2891346906"/>
    <nd ref="2891346904"/>
    <nd ref="2891346903"/>
    <tag k="addr:city" v="Middle Tysoe"/>
    <tag k="addr:housenumber" v="1"/>
    <tag k="addr:street" v="Sandpits Road"/>
    <tag k="building" v="residential"/>
  </way>
  <way id="285459946" version="2" timestamp="2014-10-21T14:44:01Z" changeset="26235962" uid="1322826" user="Ant Beck">
    <nd ref="2891346089"/>
    <nd ref="2891346094"/>
    <nd ref="2891346096"/>
    <nd ref="2891346091"/>
    <nd ref="2891346093"/>
    <nd ref="2891346090"/>
    <nd ref="2891346092"/>
    <nd ref="2891346088"/>
    <nd ref="2891346087"/>
    <nd ref="2891346086"/>
    <nd ref="2891346085"/>
    <nd ref="2891346089"/>
    <tag k="addr:city" v="Middle Tysoe"/>
    <tag k="addr:housenumber" v="17"/>
    <tag k="addr:postcode" v="CV35 0SB"/>
    <tag k="addr:street" v="Windmill Way"/>
    <tag k="building" v="yes"/>
    <tag k="source" v="Warwicks Aerial Imagery OGLv2"/>
  </way>
  <way id="285459947" version="1" timestamp="2014-05-31T12:23:45Z" changeset="22655098" uid="411244" user="RobJN">
    <nd ref="2891346905"/>
    <nd ref="2891346910"/>
    <nd ref="2891346915"/>
    <nd ref="2891346912"/>
    <nd ref="2891346917"/>
    <nd ref="2891346911"/>
    <nd ref="2891346908"/>
    <nd ref="2891346907"/>
    <nd ref="2891346905"/>
    <tag k="addr:city" v="Middle Tysoe"/>
    <tag k="addr:housenumber" v="2"/>
    <tag k="addr:street" v="Sandpits Road"/>
    <tag k="building" v="residential"/>
  </way>
  <way id="285459948" version="1" timestamp="2014-05-31T12:23:45Z" changeset="22655098" uid="411244" user="RobJN">
    <nd ref="2891346914"/>
    <nd ref="2891346906"/>
    <nd ref="2891346904"/>
    <nd ref="2891346909"/>
    <nd ref="2891346914"/>
    <tag k="addr:city" v="Middle Tysoe"/>
    <tag k="addr:housenumber" v="3"/>
    <tag k="addr:street" v="Sandpits Road"/>
    <tag k="building" v="residential"/>
  </way>
  <way id="285459949" version="1" timestamp="2014-05-31T12:23:45Z" changeset="22655098" uid="411244" user="RobJN">
    <nd ref="2891346935"/>
    <nd ref="2891346930"/>
    <nd ref="2891346920"/>
    <nd ref="2891346923"/>
    <nd ref="2891346926"/>
    <nd ref="2891346927"/>
    <nd ref="2891346932"/>
    <nd ref="2891346929"/>
    <nd ref="2891346935"/>
    <tag k="addr:city" v="Middle Tysoe"/>
    <tag k="addr:housenumber" v="5"/>
    <tag k="addr:street" v="Sandpits Road"/>
    <tag k="building" v="residential"/>
  </way>
  <way id="285460564" version="2" timestamp="2018-08-10T14:28:37Z" changeset="61540642" uid="9065" user="brianboru">
    <nd ref="2891349484"/>
    <nd ref="5823416593"/>
    <nd ref="2891349487"/>
    <nd ref="2891349486"/>
    <nd ref="2891349485"/>
    <nd ref="2891349483"/>
    <nd ref="2891349482"/>
    <nd ref="2891349484"/>
    <tag k="addr:city" v="Tysoe"/>
    <tag k="addr:housenumber" v="4"/>
    <tag k="addr:postcode" v="CV35 0TE"/>
    <tag k="addr:street" v="Church Farm Court"/>
    <tag k="building" v="residential"/>
    <tag k="source" v="local_knowledge"/>
  </way>
  <way id="285463612" version="1" timestamp="2014-05-31T12:38:11Z" changeset="22655294" uid="1945268" user="Mike Sanderson">
    <nd ref="2891367297"/>
    <nd ref="2891367298"/>
    <nd ref="2891367299"/>
    <nd ref="2891367300"/>
    <nd ref="2891367901"/>
    <nd ref="2891367902"/>
    <nd ref="2891367297"/>
    <tag k="addr:city" v="Upper Tysoe"/>
    <tag k="addr:postcode" v="CV35 0TR"/>
    <tag k="addr:street" v="Shipston Road"/>
    <tag k="building" v="house"/>
    <tag k="name" v="The Stables"/>
  </way>
  <way id="285465234" version="2" timestamp="2024-08-26T12:14:54Z" changeset="155779343" uid="15273669" user="sivannap">
    <nd ref="759706613"/>
    <nd ref="2891383174"/>
    <nd ref="759706518"/>
    <nd ref="759706530"/>
    <nd ref="2533869303"/>
    <nd ref="759706653"/>
    <nd ref="12137608059"/>
    <nd ref="759706603"/>
    <tag k="alt_name" v="Badgers Farm Lane"/>
    <tag k="highway" v="unclassified"/>
    <tag k="name" v="Badgers Lane"/>
    <tag k="note" v="names for OS Locator and OS Streetview difer"/>
    <tag k="source" v="OS_OpenData_StreetView"/>
  </way>
  <way id="285466260" version="3" timestamp="2016-10-25T19:50:10Z" changeset="43173339" uid="346039" user="fitzsimons">
    <nd ref="2891395057"/>
    <nd ref="2891395058"/>
    <nd ref="2891395059"/>
    <nd ref="2891395060"/>
    <nd ref="2891395061"/>
    <nd ref="2891395062"/>
    <nd ref="2891395063"/>
    <nd ref="2891395064"/>
    <nd ref="3141821136"/>
    <nd ref="2891395057"/>
    <tag k="addr:city" v="Upper Tysoe"/>
    <tag k="addr:housenumber" v="7"/>
    <tag k="addr:postcode" v="CV35 0TS"/>
    <tag k="addr:street" v="Poolgate"/>
    <tag k="building" v="house"/>
    <tag k="name" v="The Corner"/>
    <tag k="source" v="Warwicks Aerial Imagery OGLv2 2013"/>
  </way>
  <way id="285467851" version="2" timestamp="2014-10-21T14:44:01Z" changeset="26235962" uid="1322826" user="Ant Beck">
    <nd ref="2891414313"/>
    <nd ref="2891414314"/>
    <nd ref="2891414315"/>
    <nd ref="2891414316"/>
    <nd ref="2891414313"/>
    <tag k="addr:city" v="Upper Tysoe"/>
    <tag k="addr:postcode" v="CV35 0TX"/>
    <tag k="addr:street" v="Baldwins Lane"/>
    <tag k="building" v="house"/>
    <tag k="name" v="Rose Cottage"/>
    <tag k="source" v="Warwicks Aerial Imagery OGLv2 2013"/>
  </way>
  <way id="285469042" version="2" timestamp="2014-05-31T14:19:22Z" changeset="22656736" uid="2100877" user="butchart">
    <nd ref="2891430099"/>
    <nd ref="2891430098"/>
    <nd ref="2891430097"/>
    <nd ref="2891430094"/>
    <nd ref="2891430088"/>
    <nd ref="2891430089"/>
    <nd ref="2891430091"/>
    <nd ref="2891430092"/>
    <nd ref="2891430090"/>
    <nd ref="2891430093"/>
    <nd ref="2891430095"/>
    <nd ref="2891430096"/>
    <nd ref="2891430099"/>
    <tag k="addr:city" v="Tysoe"/>
    <tag k="addr:housename" v="Keeper's Cottage"/>
    <tag k="addr:housenumber" v="Keepers Cottage"/>
    <tag k="addr:postcode" v="CV35 0SX"/>
    <tag k="addr:street" v="Oxhill Road"/>
    <tag k="building" v="residential"/>
    <tag k="source" v="Warwicks Aerial Imagery OGLv2"/>
  </way>
  <way id="285471877" version="4" timestamp="2016-10-25T19:50:11Z" changeset="43173339" uid="346039" user="fitzsimons">
    <nd ref="2891470622"/>
    <nd ref="3141867809"/>
    <nd ref="3141867808"/>
    <nd ref="2891470619"/>
    <nd ref="2891470620"/>
    <nd ref="2891470621"/>
    <nd ref="2891470622"/>
    <tag k="addr:city" v="Upper Tysoe"/>
    <tag k="addr:housenumber" v="9"/>
    <tag k="addr:postcode" v="CV35 0TS"/>
    <tag k="addr:street" v="Poolgate"/>
    <tag k="building" v="house"/>
    <tag k="source" v="Warwicks Aerial Imagery OGLv2 2013"/>
  </way>
  <way id="285476223" version="1" timestamp="2014-05-31T14:12:34Z" changeset="22656628" uid="1945268" user="Mike Sanderson">
    <nd ref="2891522721"/>
    <nd ref="2891522722"/>
    <nd ref="2891522723"/>
    <nd ref="2891522724"/>
    <nd ref="2891522725"/>
    <nd ref="2891522726"/>
    <nd ref="2891522721"/>
    <tag k="addr:city" v="Upper Tysoe"/>
    <tag k="addr:postcode" v="CV35 0TR"/>
    <tag k="addr:street" v="Shipston Road"/>
    <tag k="building" v="house"/>
    <tag k="name" v="The Old Bakehouse"/>
  </way>
  <way id="285476236" version="1" timestamp="2014-05-31T14:13:38Z" changeset="22656641" uid="1945268" user="Mike Sanderson">
    <nd ref="2891529647"/>
    <nd ref="2891529648"/>
    <nd ref="2891529649"/>
    <nd ref="2891529650"/>
    <nd ref="2891529647"/>
    <tag k="addr:city" v="Upper Tysoe"/>
    <tag k="addr:postcode" v="CV35 0TR"/>
    <tag k="addr:street" v="Shipston Road"/>
    <tag k="building" v="house"/>
    <tag k="name" v="Brook Cottage"/>
  </way>
  <way id="285478403" version="4" timestamp="2022-03-01T02:00:19Z" changeset="117961003" uid="1778799" user="SomeoneElse_Revert">
    <nd ref="2891305336"/>
    <nd ref="2891559399"/>
    <nd ref="2891559400"/>
    <nd ref="2891560301"/>
    <nd ref="2891552327"/>
    <nd ref="2891560303"/>
    <nd ref="2891560304"/>
    <nd ref="2891305336"/>
    <tag k="addr:city" v="Middle Tysoe"/>
    <tag k="addr:postcode" v="CV35 0SF"/>
    <tag k="addr:street" v="Main Street"/>
    <tag k="building" v="house"/>
    <tag k="name" v="Churchfarm  House"/>
  </way>
  <way id="285483373" version="1" timestamp="2014-05-31T14:54:03Z" changeset="22656847" uid="9065" user="brianboru">
    <nd ref="2891589554"/>
    <nd ref="2891589556"/>
    <nd ref="2891589543"/>
    <nd ref="2891589539"/>
    <nd ref="2891589554"/>
    <tag k="building" v="yes"/>
    <tag k="name" v="The Old Bakehouse"/>
    <tag k="source" v="local_knowledge"/>
  </way>
  <way id="285483374" version="1" timestamp="2014-05-31T14:54:04Z" changeset="22656847" uid="9065" user="brianboru">
    <nd ref="2891589577"/>
    <nd ref="2891589576"/>
    <nd ref="2891589569"/>
    <nd ref="2891589570"/>
    <nd ref="2891589564"/>
    <nd ref="2891589568"/>
    <nd ref="2891589573"/>
    <nd ref="2891589575"/>
    <nd ref="2891589577"/>
    <tag k="building" v="retail"/>
    <tag k="name" v="Tysoe Butchers"/>
    <tag k="previous_name" v="L J Carter"/>
    <tag k="shop" v="butcher"/>
  </way>
  <way id="285483377" version="3" timestamp="2023-10-21T10:05:08Z" changeset="142916462" uid="6816132" user="CjMalone">
    <nd ref="2891589525"/>
    <nd ref="2891589528"/>
    <nd ref="2891589527"/>
    <nd ref="755873046"/>
    <nd ref="2891589523"/>
    <nd ref="2891589525"/>
    <tag k="addr:city" v="Warwick"/>
    <tag k="addr:postcode" v="CV35 0SE"/>
    <tag k="addr:street" v="Main Street"/>
    <tag k="addr:village" v="Tysoe"/>
    <tag k="amenity" v="post_office"/>
    <tag k="brand" v="Post Office"/>
    <tag k="brand:wikidata" v="Q1783168"/>
    <tag k="building" v="retail"/>
    <tag k="name" v="Tysoe Post Office"/>
    <tag k="opening_hours" v="Mo-We,Fr 09:00-17:30; Th 09:00-13:00,14:00-17:30; Sa 09:00-12:30"/>
    <tag k="ref:pol_id" v="15357"/>
    <tag k="source" v="Warwicks Aerial Imagery OGLv2"/>
    <tag k="website" v="https://www.postoffice.co.uk/branch-finder/4672461/tysoe"/>
  </way>
  <way id="285483378" version="2" timestamp="2021-10-06T00:26:46Z" changeset="112145276" uid="5589" user="user_5589">
    <nd ref="2891589592"/>
    <nd ref="2891589593"/>
    <nd ref="2891589588"/>
    <nd ref="2891589590"/>
    <nd ref="2891589586"/>
    <nd ref="2891589583"/>
    <nd ref="2891589582"/>
    <nd ref="2891589581"/>
    <nd ref="2891589584"/>
    <nd ref="2891589585"/>
    <nd ref="2891589592"/>
    <tag k="amenity" v="doctors"/>
    <tag k="building" v="yes"/>
    <tag k="healthcare" v="doctor"/>
    <tag k="name" v="Tysoe Surgery"/>
    <tag k="operator" v="Vale of the Red Horse Health Care Centres"/>
    <tag k="source" v="Warwicks Aerial Imagery OGLv2"/>
  </way>
  <way id="285483379" version="1" timestamp="2014-05-31T14:54:04Z" changeset="22656847" uid="9065" user="brianboru">
    <nd ref="2891589528"/>
    <nd ref="2891589529"/>
    <nd ref="2891589533"/>
    <nd ref="2891589546"/>
    <nd ref="2891589536"/>
    <nd ref="2891589532"/>
    <nd ref="2891589530"/>
    <nd ref="2891589527"/>
    <nd ref="2891589528"/>
    <tag k="building" v="retail"/>
    <tag k="name" v="Tysoe Village Store &amp; Deli"/>
    <tag k="shop" v="convenience"/>
    <tag k="source" v="Warwicks Aerial Imagery OGLv2"/>
  </way>
  <way id="285483380" version="1" timestamp="2014-05-31T14:54:04Z" changeset="22656847" uid="9065" user="brianboru">
    <nd ref="2891589532"/>
    <nd ref="2891589537"/>
    <nd ref="2891589535"/>
    <nd ref="2891589531"/>
    <nd ref="2891589530"/>
    <nd ref="2891589532"/>
    <tag k="amenity" v="cafe"/>
    <tag k="building" v="retail"/>
    <tag k="name" v="Village Tea Room"/>
    <tag k="source" v="Warwicks Aerial Imagery OGLv2"/>
  </way>
  <way id="285873263" version="2" timestamp="2014-10-21T14:55:31Z" changeset="26236180" uid="1322826" user="Ant Beck">
    <nd ref="2895103797"/>
    <nd ref="719715143"/>
    <tag k="highway" v="residential"/>
    <tag k="source" v="Warwicks Aerial Imagery OGLv2"/>
  </way>
  <way id="308902065" version="1" timestamp="2014-10-21T14:43:59Z" changeset="26235962" uid="1322826" user="Ant Beck">
    <nd ref="719715120"/>
    <nd ref="2725472418"/>
    <nd ref="2891276188"/>
    <tag k="highway" v="residential"/>
    <tag k="name" v="Baldwins Lane"/>
    <tag k="source" v="Warwicks Aerial Imagery OGLv2 2013"/>
  </way>
  <way id="308902066" version="1" timestamp="2014-10-21T14:43:59Z" changeset="26235962" uid="1322826" user="Ant Beck">
    <nd ref="2891276188"/>
    <nd ref="2895108316"/>
    <nd ref="2891276189"/>
    <nd ref="2895108319"/>
    <nd ref="719715129"/>
    <tag k="highway" v="residential"/>
    <tag k="name" v="Baldwins Lane"/>
    <tag k="source" v="OS_OpenData_StreetView"/>
  </way>
  <way id="308902077" version="1" timestamp="2014-10-21T14:44:00Z" changeset="26235962" uid="1322826" user="Ant Beck">
    <nd ref="2844667531"/>
    <nd ref="2844667533"/>
    <tag k="highway" v="residential"/>
    <tag k="maxspeed" v="30 mph"/>
    <tag k="source" v="Warwicks Aerial Imagery OGLv2"/>
  </way>
  <way id="308902719" version="1" timestamp="2014-10-21T14:55:10Z" changeset="26236180" uid="1322826" user="Ant Beck">
    <nd ref="2891277520"/>
    <nd ref="2891277519"/>
    <tag k="highway" v="unclassified"/>
    <tag k="maxspeed" v="30 mph"/>
    <tag k="name" v="Oxhill Road"/>
    <tag k="source" v="OS_OpenData_StreetView"/>
  </way>
  <way id="308902720" version="1" timestamp="2014-10-21T14:55:11Z" changeset="26236180" uid="1322826" user="Ant Beck">
    <nd ref="420415432"/>
    <nd ref="2890995745"/>
    <tag k="highway" v="unclassified"/>
    <tag k="maxspeed" v="30 mph"/>
    <tag k="name" v="Oxhill Road"/>
    <tag k="source" v="OS_OpenData_StreetView"/>
  </way>
  <way id="308902721" version="1" timestamp="2014-10-21T14:55:11Z" changeset="26236180" uid="1322826" user="Ant Beck">
    <nd ref="2891277519"/>
    <nd ref="2725478486"/>
    <tag k="highway" v="unclassified"/>
    <tag k="maxspeed" v="30 mph"/>
    <tag k="name" v="Oxhill Road"/>
    <tag k="source" v="OS_OpenData_StreetView"/>
  </way>
  <way id="308902722" version="1" timestamp="2014-10-21T14:55:11Z" changeset="26236180" uid="1322826" user="Ant Beck">
    <nd ref="2890995745"/>
    <nd ref="2890995744"/>
    <tag k="highway" v="unclassified"/>
    <tag k="maxspeed" v="30 mph"/>
    <tag k="name" v="Oxhill Road"/>
    <tag k="source" v="OS_OpenData_StreetView"/>
  </way>
  <way id="308902724" version="1" timestamp="2014-10-21T14:55:11Z" changeset="26236180" uid="1322826" user="Ant Beck">
    <nd ref="2890995744"/>
    <nd ref="2891277520"/>
    <tag k="highway" v="unclassified"/>
    <tag k="maxspeed" v="30 mph"/>
    <tag k="name" v="Oxhill Road"/>
    <tag k="source" v="OS_OpenData_StreetView"/>
  </way>
  <way id="308902726" version="1" timestamp="2014-10-21T14:55:11Z" changeset="26236180" uid="1322826" user="Ant Beck">
    <nd ref="2725478486"/>
    <nd ref="1540849244"/>
    <tag k="highway" v="unclassified"/>
    <tag k="maxspeed" v="30 mph"/>
    <tag k="name" v="Oxhill Road"/>
    <tag k="source" v="OS_OpenData_StreetView"/>
  </way>
  <way id="308902729" version="1" timestamp="2014-10-21T14:55:11Z" changeset="26236180" uid="1322826" user="Ant Beck">
    <nd ref="2890995770"/>
    <nd ref="719715167"/>
    <tag k="highway" v="residential"/>
    <tag k="maxspeed" v="30 mph"/>
    <tag k="name" v="Sandpits Close"/>
    <tag k="source" v="OS_OpenData_StreetView"/>
    <tag k="source:name" v="OS_OpenData_Locator"/>
  </way>
  <way id="308902730" version="1" timestamp="2014-10-21T14:55:11Z" changeset="26236180" uid="1322826" user="Ant Beck">
    <nd ref="2890995773"/>
    <nd ref="420415445"/>
    <tag k="highway" v="unclassified"/>
    <tag k="maxspeed" v="30 mph"/>
    <tag k="name" v="Sandpits Road"/>
    <tag k="source" v="OS_OpenData_StreetView"/>
    <tag k="source:name" v="OS_OpenData_Locator"/>
  </way>
  <way id="308902732" version="1" timestamp="2014-10-21T14:55:11Z" changeset="26236180" uid="1322826" user="Ant Beck">
    <nd ref="420415441"/>
    <nd ref="2890995773"/>
    <tag k="highway" v="unclassified"/>
    <tag k="maxspeed" v="30 mph"/>
    <tag k="name" v="Sandpits Road"/>
    <tag k="source" v="OS_OpenData_StreetView"/>
    <tag k="source:name" v="OS_OpenData_Locator"/>
  </way>
  <way id="308902734" version="1" timestamp="2014-10-21T14:55:11Z" changeset="26236180" uid="1322826" user="Ant Beck">
    <nd ref="2890995746"/>
    <nd ref="420415436"/>
    <nd ref="420415441"/>
    <tag k="highway" v="unclassified"/>
    <tag k="maxspeed" v="30 mph"/>
    <tag k="name" v="Sandpits Road"/>
    <tag k="source" v="OS_OpenData_StreetView"/>
    <tag k="source:name" v="OS_OpenData_Locator"/>
  </way>
  <way id="308902735" version="1" timestamp="2014-10-21T14:55:11Z" changeset="26236180" uid="1322826" user="Ant Beck">
    <nd ref="420415445"/>
    <nd ref="420415450"/>
    <nd ref="420415454"/>
    <nd ref="2891346913"/>
    <nd ref="420415456"/>
    <nd ref="420415460"/>
    <nd ref="420415463"/>
    <nd ref="1540849301"/>
    <tag k="highway" v="unclassified"/>
    <tag k="maxspeed" v="30 mph"/>
    <tag k="name" v="Sandpits Road"/>
    <tag k="source" v="OS_OpenData_StreetView"/>
    <tag k="source:name" v="OS_OpenData_Locator"/>
  </way>
  <way id="308902737" version="1" timestamp="2014-10-21T14:55:11Z" changeset="26236180" uid="1322826" user="Ant Beck">
    <nd ref="719715165"/>
    <nd ref="2891521378"/>
    <tag k="highway" v="residential"/>
    <tag k="name" v="Welchman Place"/>
    <tag k="source" v="OS_OpenData_StreetView"/>
    <tag k="source:name" v="OS_OpenData_Locator"/>
  </way>
  <way id="308902738" version="1" timestamp="2014-10-21T14:55:11Z" changeset="26236180" uid="1322826" user="Ant Beck">
    <nd ref="2891521378"/>
    <nd ref="719715188"/>
    <tag k="highway" v="residential"/>
    <tag k="name" v="Welchman Place"/>
    <tag k="source" v="OS_OpenData_StreetView"/>
    <tag k="source:name" v="OS_OpenData_Locator"/>
  </way>
  <way id="308902739" version="2" timestamp="2014-10-21T14:57:47Z" changeset="26236214" uid="1322826" user="Ant Beck">
    <nd ref="3141919737"/>
    <nd ref="3141919735"/>
    <nd ref="3141919732"/>
    <nd ref="3141919734"/>
    <nd ref="3141919737"/>
    <tag k="addr:city" v="Tysoe"/>
    <tag k="addr:housenumber" v="22"/>
    <tag k="addr:postcode" v="CV35 0SX"/>
    <tag k="addr:street" v="Oxhill Road"/>
    <tag k="building" v="residential"/>
    <tag k="source" v="Warwicks Aerial Imagery OGLv2 2013"/>
  </way>
  <way id="308902740" version="2" timestamp="2014-10-21T14:57:47Z" changeset="26236214" uid="1322826" user="Ant Beck">
    <nd ref="3141919731"/>
    <nd ref="3141919733"/>
    <nd ref="3141919730"/>
    <nd ref="3141913227"/>
    <nd ref="3141919731"/>
    <tag k="addr:city" v="Tysoe"/>
    <tag k="addr:housenumber" v="20"/>
    <tag k="addr:postcode" v="CV35 0SX"/>
    <tag k="addr:street" v="Oxhill Road"/>
    <tag k="building" v="residential"/>
    <tag k="source" v="Warwicks Aerial Imagery OGLv2 2013"/>
  </way>
  <way id="308902741" version="2" timestamp="2014-10-21T14:57:47Z" changeset="26236214" uid="1322826" user="Ant Beck">
    <nd ref="3141919737"/>
    <nd ref="3141919738"/>
    <nd ref="3141919736"/>
    <nd ref="3141919734"/>
    <nd ref="3141919737"/>
    <tag k="addr:city" v="Tysoe"/>
    <tag k="addr:housenumber" v="24"/>
    <tag k="addr:postcode" v="CV35 0SX"/>
    <tag k="addr:street" v="Oxhill Road"/>
    <tag k="building" v="residential"/>
    <tag k="source" v="Warwicks Aerial Imagery OGLv2 2013"/>
  </way>
  <way id="308902742" version="2" timestamp="2014-10-21T14:57:47Z" changeset="26236214" uid="1322826" user="Ant Beck">
    <nd ref="3141919731"/>
    <nd ref="3141913228"/>
    <nd ref="3141913223"/>
    <nd ref="3141913227"/>
    <nd ref="3141919731"/>
    <tag k="addr:city" v="Tysoe"/>
    <tag k="addr:housenumber" v="18"/>
    <tag k="addr:postcode" v="CV35 0SX"/>
    <tag k="addr:street" v="Oxhill Road"/>
    <tag k="building" v="residential"/>
    <tag k="source" v="Warwicks Aerial Imagery OGLv2 2013"/>
  </way>
  <way id="308902744" version="2" timestamp="2014-10-21T14:57:47Z" changeset="26236214" uid="1322826" user="Ant Beck">
    <nd ref="3141913222"/>
    <nd ref="3141913218"/>
    <nd ref="3141913221"/>
    <nd ref="3141919729"/>
    <nd ref="3141913226"/>
    <nd ref="3141913225"/>
    <nd ref="3141913222"/>
    <tag k="addr:city" v="Tysoe"/>
    <tag k="addr:housenumber" v="16"/>
    <tag k="addr:postcode" v="CV35 0SX"/>
    <tag k="addr:street" v="Oxhill Road"/>
    <tag k="building" v="residential"/>
    <tag k="source" v="Warwicks Aerial Imagery OGLv2 2013"/>
  </way>
  <way id="308902746" version="2" timestamp="2014-10-21T14:57:47Z" changeset="26236214" uid="1322826" user="Ant Beck">
    <nd ref="3141913222"/>
    <nd ref="3141913220"/>
    <nd ref="3141913224"/>
    <nd ref="3141913219"/>
    <nd ref="3141913217"/>
    <nd ref="3141913218"/>
    <nd ref="3141913222"/>
    <tag k="addr:city" v="Tysoe"/>
    <tag k="addr:housenumber" v="14"/>
    <tag k="addr:postcode" v="CV35 0SX"/>
    <tag k="addr:street" v="Oxhill Road"/>
    <tag k="building" v="residential"/>
    <tag k="source" v="Warwicks Aerial Imagery OGLv2 2013"/>
  </way>
  <way id="308902749" version="1" timestamp="2014-10-21T14:55:12Z" changeset="26236180" uid="1322826" user="Ant Beck">
    <nd ref="719715143"/>
    <nd ref="2895103796"/>
    <tag k="highway" v="residential"/>
    <tag k="source" v="Warwicks Aerial Imagery OGLv2"/>
  </way>
  <way id="308902753" version="3" timestamp="2021-01-01T04:08:25Z" changeset="96756760" uid="10455625" user="bmmundad">
    <nd ref="2890964472"/>
    <nd ref="8280234951"/>
    <nd ref="2533869116"/>
    <nd ref="2533869123"/>
    <nd ref="5823415955"/>
    <nd ref="1545705636"/>
    <tag k="highway" v="unclassified"/>
  </way>
  <way id="485536367" version="1" timestamp="2017-04-08T16:04:51Z" changeset="47571776" uid="346039" user="fitzsimons">
    <nd ref="4783164040"/>
    <nd ref="4783164041"/>
    <tag k="bridge" v="yes"/>
    <tag k="highway" v="unclassified"/>
    <tag k="name" v="Tysoe Road"/>
    <tag k="source:name" v="OSSV"/>
  </way>
  <way id="485536368" version="1" timestamp="2017-04-08T16:04:51Z" changeset="47571776" uid="346039" user="fitzsimons">
    <nd ref="4783164041"/>
    <nd ref="1545705633"/>
    <nd ref="1545705634"/>
    <nd ref="1545705635"/>
    <nd ref="1545705636"/>
    <tag k="highway" v="unclassified"/>
    <tag k="name" v="Tysoe Road"/>
    <tag k="source:name" v="OSSV"/>
  </way>
  <way id="615846851" version="1" timestamp="2018-08-10T13:25:33Z" changeset="61538247" uid="9065" user="brianboru">
    <nd ref="5823132384"/>
    <nd ref="2851405605"/>
    <nd ref="5823132383"/>
    <tag k="highway" v="residential"/>
    <tag k="name" v="Jeffs Close"/>
    <tag k="source" v="Warwicks CC Aerial Imagery 2013"/>
  </way>
  <way id="615846852" version="1" timestamp="2018-08-10T13:25:33Z" changeset="61538247" uid="9065" user="brianboru">
    <nd ref="719715134"/>
    <nd ref="5823132387"/>
    <tag k="highway" v="residential"/>
    <tag k="name" v="Jeffs Close"/>
    <tag k="source" v="Warwicks CC Aerial Imagery 2013"/>
  </way>
  <way id="615846853" version="1" timestamp="2018-08-10T13:25:33Z" changeset="61538247" uid="9065" user="brianboru">
    <nd ref="719715134"/>
    <nd ref="5823132385"/>
    <nd ref="719715135"/>
    <nd ref="2851405606"/>
    <nd ref="2851405604"/>
    <nd ref="2851405605"/>
    <tag k="highway" v="residential"/>
    <tag k="name" v="Jeffs Close"/>
    <tag k="source" v="Warwicks Aerial Imagery OGLv2 2013"/>
  </way>
  <way id="615846916" version="1" timestamp="2018-08-10T13:25:36Z" changeset="61538247" uid="9065" user="brianboru">
    <nd ref="719715099"/>
    <nd ref="2559810799"/>
    <tag k="highway" v="unclassified"/>
    <tag k="source" v="Warwicks CC Aerial Imagery 2013"/>
  </way>
  <way id="715744755" version="3" timestamp="2024-02-23T12:38:14Z" changeset="147810295" uid="84263" user="Robert Whittaker">
    <nd ref="6726470993"/>
    <nd ref="11656193800"/>
    <nd ref="6726470994"/>
    <nd ref="11656193799"/>
    <nd ref="6726470995"/>
    <nd ref="6726470996"/>
    <tag k="highway" v="residential"/>
    <tag k="name" v="Red Horse Close"/>
  </way>
  <way id="808760097" version="1" timestamp="2020-05-27T11:44:19Z" changeset="85830118" uid="10252553" user="chaubean">
    <nd ref="7562655496"/>
    <nd ref="7562655497"/>
    <nd ref="7562655498"/>
    <nd ref="7562655499"/>
    <nd ref="7562655500"/>
    <nd ref="7562655501"/>
    <nd ref="7562655502"/>
    <nd ref="7562655503"/>
    <nd ref="7562655504"/>
    <tag k="highway" v="residential"/>
  </way>
  <way id="808760098" version="1" timestamp="2020-05-27T11:44:19Z" changeset="85830118" uid="10252553" user="chaubean">
    <nd ref="7562655503"/>
    <nd ref="7562655505"/>
    <nd ref="7562655506"/>
    <tag k="highway" v="residential"/>
  </way>
  <way id="1027381143" version="2" timestamp="2024-02-23T12:38:14Z" changeset="147810295" uid="84263" user="Robert Whittaker">
    <nd ref="9471573159"/>
    <nd ref="9471573160"/>
    <nd ref="11656193801"/>
    <nd ref="9471573161"/>
    <nd ref="11656193802"/>
    <nd ref="11656193803"/>
    <nd ref="9471573162"/>
    <nd ref="9471573163"/>
    <nd ref="9471573164"/>
    <tag k="highway" v="residential"/>
  </way>
  <way id="1027381144" version="1" timestamp="2022-02-03T13:16:57Z" changeset="116964102" uid="14513069" user="fgupanki">
    <nd ref="9471573165"/>
    <nd ref="9471573164"/>
    <nd ref="9471573166"/>
    <tag k="highway" v="residential"/>
  </way>
  <way id="1253943274" version="1" timestamp="2024-02-23T12:38:14Z" changeset="147810295" uid="84263" user="Robert Whittaker">
    <nd ref="11656193798"/>
    <nd ref="6726470996"/>
    <nd ref="11656193797"/>
    <tag k="highway" v="residential"/>
    <tag k="name" v="Red Horse Close"/>
  </way>
  <way id="1348045930" version="1" timestamp="2025-01-02T18:31:35Z" changeset="160920852" uid="5229644" user="Nathan_A_RF">
    <nd ref="2895102737"/>
    <nd ref="12469438427"/>
    <nd ref="1540849248"/>
    <nd ref="1540849197"/>
    <tag k="highway" v="tertiary"/>
    <tag k="maxspeed" v="40 mph"/>
    <tag k="source" v="visual survey;bing"/>
    <tag k="surface" v="asphalt"/>
  </way>
  <way id="1409259355" version="2" timestamp="2025-06-24T16:26:53Z" changeset="168057484" uid="22685594" user="NTTrailsMEE">
    <nd ref="12949866797"/>
    <nd ref="6796922032"/>
    <nd ref="1550133862"/>
    <nd ref="1550134182"/>
    <nd ref="2563067580"/>
    <nd ref="755829462"/>
    <nd ref="1548129287"/>
    <tag k="highway" v="unclassified"/>
    <tag k="name" v="Sugarswell Lane"/>
    <tag k="source" v="OS_OpenData_StreetView"/>
  </way>
  <way id="1409259357" version="1" timestamp="2025-06-24T16:05:17Z" changeset="168056542" uid="22685594" user="NTTrailsMEE">
    <nd ref="1550133813"/>
    <nd ref="1550133830"/>
    <nd ref="1550133798"/>
    <nd ref="1550134105"/>
    <nd ref="1550133785"/>
    <nd ref="10253488152"/>
    <nd ref="10253488151"/>
    <nd ref="1550134076"/>
    <nd ref="1550133805"/>
    <nd ref="10253488150"/>
    <nd ref="1550133979"/>
    <nd ref="1550134131"/>
    <nd ref="10253488149"/>
    <nd ref="1550134158"/>
    <nd ref="1550133865"/>
    <nd ref="1550133989"/>
    <nd ref="10253488148"/>
    <nd ref="10253488147"/>
    <nd ref="10253488146"/>
    <nd ref="1550133814"/>
    <nd ref="10253488153"/>
    <nd ref="1550134150"/>
    <tag k="highway" v="unclassified"/>
    <tag k="name" v="Sugarswell Lane"/>
    <tag k="source" v="OS_OpenData_StreetView"/>
  </way>
  <way id="1409259358" version="2" timestamp="2025-06-30T15:32:28Z" changeset="168315308" uid="22685594" user="NTTrailsMEE">
    <nd ref="1550134150"/>
    <nd ref="10253488165"/>
    <tag k="highway" v="unclassified"/>
    <tag k="name" v="Sugarswell Lane"/>
    <tag k="smoothness" v="good"/>
    <tag k="source" v="OS_OpenData_StreetView"/>
    <tag k="surface" v="compacted"/>
  </way>
  <way id="1409259360" version="2" timestamp="2025-06-30T15:32:28Z" changeset="168315308" uid="22685594" user="NTTrailsMEE">
    <nd ref="6796922045"/>
    <nd ref="1548129406"/>
    <nd ref="1548129448"/>
    <nd ref="1548129287"/>
    <nd ref="1550134230"/>
    <nd ref="2515703589"/>
    <nd ref="755829496"/>
    <tag k="description" v="Grass verges on both sides that you can walk on"/>
    <tag k="highway" v="primary"/>
    <tag k="lanes" v="2"/>
    <tag k="maxspeed" v="60 mph"/>
    <tag k="maxspeed:type" v="GB:nsl_single"/>
    <tag k="ref" v="A422"/>
    <tag k="sidewalk" v="no"/>
    <tag k="smoothness" v="excellent"/>
    <tag k="surface" v="asphalt"/>
  </way>

</osm>
