<?xml version="1.0" encoding="UTF-8"?>
<osm version="0.6" generator="Overpass API 0.7.62.8 e802775f">
<note>The data included in this document is from www.openstreetmap.org. The data is made available under ODbL.</note>
<meta osm_base="2025-10-23T17:38:56Z" areas="2025-10-23T12:46:58Z"/>

  <node id="251548742" lat="52.6516147" lon="-1.6113018" version="5" timestamp="2011-08-11T20:07:14Z" changeset="8989232" uid="203014" user="Former OSM contributor"/>
  <node id="373317563" lat="52.6421159" lon="-1.6304184" version="8" timestamp="2021-05-02T11:26:48Z" changeset="103990216" uid="2938324" user="randomdigits"/>
  <node id="430387541" lat="52.6659706" lon="-1.6147672" version="3" timestamp="2017-10-20T12:25:57Z" changeset="53096943" uid="9065" user="brianboru"/>
  <node id="667172752" lat="52.6629336" lon="-1.6134763" version="4" timestamp="2019-06-24T18:09:17Z" changeset="71571627" uid="9065" user="brianboru"/>
  <node id="667172762" lat="52.6635369" lon="-1.6009622" version="4" timestamp="2013-05-10T12:38:26Z" changeset="16063731" uid="9065" user="brianboru"/>
  <node id="2298139268" lat="52.6485702" lon="-1.6819118" version="2" timestamp="2019-09-29T18:12:33Z" changeset="75068970" uid="705850" user="Cebderby"/>
  <way id="23247970" version="8" timestamp="2024-02-07T03:46:20Z" changeset="147159154" uid="563773" user="mrpacmanmap">
    <nd ref="667172752"/>
    <nd ref="8170063518"/>
    <nd ref="251548728"/>
    <nd ref="251548729"/>
    <nd ref="251548730"/>
    <nd ref="251548731"/>
    <nd ref="251548733"/>
    <nd ref="251548734"/>
    <nd ref="251548735"/>
    <nd ref="251548736"/>
    <nd ref="251548737"/>
    <nd ref="251548738"/>
    <nd ref="251548739"/>
    <nd ref="251548740"/>
    <nd ref="251548741"/>
    <nd ref="251548742"/>
    <tag k="highway" v="tertiary"/>
    <tag k="name" v="Hangman's Lane"/>
  </way>
  <way id="37006809" version="13" timestamp="2023-01-12T04:05:27Z" changeset="131168854" uid="14512471" user="SOWMMGAD">
    <nd ref="430387541"/>
    <nd ref="430387553"/>
    <nd ref="430387555"/>
    <nd ref="430387556"/>
    <nd ref="430387558"/>
    <nd ref="430387560"/>
    <nd ref="430387550"/>
    <nd ref="430387562"/>
    <nd ref="430387563"/>
    <nd ref="667172219"/>
    <nd ref="430387566"/>
    <nd ref="430387567"/>
    <nd ref="430387569"/>
    <nd ref="430387573"/>
    <nd ref="8371464590"/>
    <nd ref="430387575"/>
    <nd ref="430387579"/>
    <nd ref="430387582"/>
    <nd ref="430387585"/>
    <nd ref="430387589"/>
    <nd ref="430387595"/>
    <nd ref="430387600"/>
    <nd ref="430387606"/>
    <nd ref="430387609"/>
    <nd ref="430387613"/>
    <nd ref="5178129154"/>
    <nd ref="430387614"/>
    <nd ref="430387617"/>
    <nd ref="430387619"/>
    <nd ref="430387625"/>
    <nd ref="430387626"/>
    <nd ref="430387627"/>
    <nd ref="5210407239"/>
    <nd ref="430387629"/>
    <nd ref="430387630"/>
    <nd ref="430387632"/>
    <nd ref="9008673869"/>
    <nd ref="430387633"/>
    <nd ref="430387636"/>
    <nd ref="430387637"/>
    <nd ref="7845289573"/>
    <nd ref="430387639"/>
    <nd ref="430387646"/>
    <nd ref="5178129161"/>
    <nd ref="430387648"/>
    <nd ref="430387651"/>
    <nd ref="430387654"/>
    <nd ref="10542245218"/>
    <nd ref="10542245221"/>
    <nd ref="8450419384"/>
    <nd ref="430387657"/>
    <nd ref="430387660"/>
    <nd ref="430387666"/>
    <nd ref="430387669"/>
    <nd ref="5178129332"/>
    <nd ref="430387673"/>
    <nd ref="430387677"/>
    <nd ref="2127366694"/>
    <nd ref="7979242614"/>
    <nd ref="430387684"/>
    <nd ref="430387688"/>
    <nd ref="430387692"/>
    <nd ref="430387696"/>
    <nd ref="430387700"/>
    <nd ref="430387702"/>
    <nd ref="430387704"/>
    <nd ref="430387705"/>
    <nd ref="430387706"/>
    <nd ref="430387708"/>
    <nd ref="430387709"/>
    <nd ref="430387711"/>
    <nd ref="430387712"/>
    <nd ref="430387714"/>
    <nd ref="430387715"/>
    <nd ref="430387716"/>
    <nd ref="430387718"/>
    <nd ref="430387719"/>
    <nd ref="430387720"/>
    <nd ref="430387722"/>
    <nd ref="430387723"/>
    <nd ref="430387726"/>
    <nd ref="430387727"/>
    <nd ref="430387728"/>
    <nd ref="430387729"/>
    <nd ref="430387731"/>
    <nd ref="430387733"/>
    <nd ref="430387734"/>
    <nd ref="430387737"/>
    <nd ref="430387739"/>
    <nd ref="430387743"/>
    <nd ref="430387748"/>
    <nd ref="430387750"/>
    <nd ref="430387752"/>
    <nd ref="430387754"/>
    <nd ref="10268709078"/>
    <nd ref="373335966"/>
    <tag k="highway" v="unclassified"/>
    <tag k="name" v="Thorpe Lane"/>
    <tag k="source:name" v="survey"/>
  </way>
  <way id="52486882" version="5" timestamp="2020-11-27T09:49:54Z" changeset="94887128" uid="11734026" user="sourabik">
    <nd ref="1319367534"/>
    <nd ref="8170040713"/>
    <nd ref="7999442094"/>
    <nd ref="1319367507"/>
    <nd ref="7999442089"/>
    <nd ref="1319367517"/>
    <nd ref="667172752"/>
    <tag k="highway" v="residential"/>
    <tag k="name" v="The Green"/>
  </way>
  <way id="117123155" version="3" timestamp="2013-05-10T12:38:25Z" changeset="16063731" uid="9065" user="brianboru">
    <nd ref="667172752"/>
    <nd ref="667172753"/>
    <nd ref="2298216537"/>
    <nd ref="667172754"/>
    <nd ref="2298216543"/>
    <nd ref="667172755"/>
    <nd ref="2298216541"/>
    <nd ref="2298216540"/>
    <nd ref="667172756"/>
    <nd ref="2298216544"/>
    <nd ref="2298216553"/>
    <nd ref="667172757"/>
    <nd ref="2298216555"/>
    <nd ref="667172758"/>
    <nd ref="2298216568"/>
    <nd ref="667172759"/>
    <nd ref="2298216569"/>
    <nd ref="2298216567"/>
    <nd ref="2298216566"/>
    <nd ref="667172760"/>
    <nd ref="2298216565"/>
    <nd ref="667172761"/>
    <nd ref="667172762"/>
    <tag k="highway" v="unclassified"/>
    <tag k="name" v="Newton Lane"/>
  </way>
  <way id="117123162" version="6" timestamp="2021-08-02T06:03:14Z" changeset="109002093" uid="133272" user="wongataa">
    <nd ref="1319367469"/>
    <nd ref="6568384423"/>
    <nd ref="1319367541"/>
    <nd ref="6568384424"/>
    <nd ref="6568384425"/>
    <nd ref="6568384222"/>
    <nd ref="1319367496"/>
    <nd ref="6568384221"/>
    <nd ref="1319367488"/>
    <nd ref="6568384426"/>
    <nd ref="6568384220"/>
    <nd ref="6568384219"/>
    <nd ref="1319367515"/>
    <nd ref="8535675764"/>
    <nd ref="6568384427"/>
    <nd ref="6568384428"/>
    <nd ref="6568384429"/>
    <nd ref="6568384415"/>
    <nd ref="1319367475"/>
    <nd ref="6568384414"/>
    <nd ref="1319367471"/>
    <tag k="highway" v="residential"/>
    <tag k="name" v="Church Lane"/>
  </way>
  <way id="117123166" version="1" timestamp="2011-06-10T19:58:35Z" changeset="8400363" uid="157964" user="tamritt">
    <nd ref="1319367517"/>
    <nd ref="251548727"/>
    <tag k="highway" v="residential"/>
    <tag k="name" v="The Green"/>
  </way>
  <way id="125678999" version="9" timestamp="2021-08-02T06:03:15Z" changeset="109002093" uid="133272" user="wongataa">
    <nd ref="251548742"/>
    <nd ref="243678764"/>
    <nd ref="2677108746"/>
    <nd ref="8973448521"/>
    <nd ref="2677108755"/>
    <nd ref="243678765"/>
    <nd ref="6587214073"/>
    <nd ref="5511665422"/>
    <nd ref="243678767"/>
    <nd ref="8179939116"/>
    <nd ref="8973448522"/>
    <tag k="gritting" v="priority_1"/>
    <tag k="gritting_depot" v="Coleshill Heath Road"/>
    <tag k="gritting_operator" v="Warwickshire County Council"/>
    <tag k="gritting_route_ref" v="2"/>
    <tag k="gritting_route_revision" v="201105"/>
    <tag k="highway" v="tertiary"/>
    <tag k="highway_authority_ref" v="C3"/>
    <tag k="lanes" v="2"/>
    <tag k="maintenance" v="gritting"/>
    <tag k="name" v="Shuttington Lane"/>
  </way>
  <way id="231144794" version="31" timestamp="2025-10-20T20:55:43Z" changeset="173555993" uid="13078383" user="Keith Barnett">
    <nd ref="2298139268"/>
    <nd ref="6835534169"/>
    <nd ref="6835558453"/>
    <nd ref="317818596"/>
    <nd ref="2298139280"/>
    <nd ref="106005999"/>
    <nd ref="5902235395"/>
    <nd ref="106006002"/>
    <nd ref="8032133844"/>
    <nd ref="106006003"/>
    <nd ref="11416741593"/>
    <nd ref="106006004"/>
    <nd ref="5902235394"/>
    <nd ref="6333142375"/>
    <nd ref="5902235393"/>
    <nd ref="106006005"/>
    <nd ref="5902235392"/>
    <nd ref="106006008"/>
    <nd ref="5902235391"/>
    <nd ref="2298139350"/>
    <nd ref="106006013"/>
    <nd ref="5902235390"/>
    <nd ref="106006017"/>
    <nd ref="5902235389"/>
    <nd ref="1483995090"/>
    <nd ref="106006021"/>
    <nd ref="5902235388"/>
    <nd ref="5902235387"/>
    <nd ref="6544012527"/>
    <nd ref="106006024"/>
    <nd ref="5902235385"/>
    <nd ref="8984202947"/>
    <nd ref="5902235386"/>
    <nd ref="106006026"/>
    <nd ref="8370959547"/>
    <nd ref="5902235384"/>
    <nd ref="7616127850"/>
    <nd ref="106006027"/>
    <nd ref="5902235383"/>
    <nd ref="5902235381"/>
    <nd ref="5902235382"/>
    <nd ref="5902235380"/>
    <nd ref="106006030"/>
    <nd ref="5902235379"/>
    <nd ref="243861555"/>
    <nd ref="5902235378"/>
    <nd ref="243861556"/>
    <nd ref="5902235377"/>
    <nd ref="317818595"/>
    <nd ref="5902235376"/>
    <nd ref="243861557"/>
    <nd ref="5902235375"/>
    <nd ref="5902235374"/>
    <nd ref="243861558"/>
    <nd ref="5902235373"/>
    <nd ref="243861559"/>
    <nd ref="5902235372"/>
    <nd ref="243861560"/>
    <nd ref="5902235370"/>
    <nd ref="5902235371"/>
    <nd ref="5902235369"/>
    <nd ref="5902235368"/>
    <nd ref="5902235367"/>
    <nd ref="243861561"/>
    <nd ref="373334765"/>
    <nd ref="243861563"/>
    <nd ref="1483995075"/>
    <nd ref="7994038159"/>
    <nd ref="2298139534"/>
    <nd ref="243861564"/>
    <nd ref="6877673983"/>
    <nd ref="243861565"/>
    <nd ref="243861566"/>
    <nd ref="2298139573"/>
    <nd ref="243861567"/>
    <nd ref="7138674713"/>
    <nd ref="2298139587"/>
    <nd ref="2298139589"/>
    <nd ref="243861568"/>
    <nd ref="5902235366"/>
    <nd ref="8450419267"/>
    <nd ref="2298139599"/>
    <nd ref="243861569"/>
    <nd ref="7611308820"/>
    <nd ref="416933660"/>
    <nd ref="5902235365"/>
    <nd ref="2298139606"/>
    <nd ref="243861570"/>
    <nd ref="5902235364"/>
    <nd ref="243861571"/>
    <nd ref="5902235363"/>
    <nd ref="243861572"/>
    <nd ref="5178127276"/>
    <nd ref="243861573"/>
    <nd ref="6561296676"/>
    <nd ref="243861574"/>
    <nd ref="5178127266"/>
    <nd ref="243861575"/>
    <nd ref="5178127267"/>
    <nd ref="9008673868"/>
    <nd ref="243861576"/>
    <nd ref="8027482963"/>
    <nd ref="243861577"/>
    <nd ref="5178127269"/>
    <nd ref="7130257857"/>
    <nd ref="251548720"/>
    <nd ref="430387541"/>
    <nd ref="5178127268"/>
    <nd ref="243861578"/>
    <nd ref="5902235362"/>
    <nd ref="243861579"/>
    <nd ref="5902235361"/>
    <nd ref="243861580"/>
    <nd ref="6572895926"/>
    <nd ref="8450419521"/>
    <nd ref="243861581"/>
    <nd ref="5902235360"/>
    <nd ref="243861582"/>
    <nd ref="5902235359"/>
    <nd ref="5902235358"/>
    <nd ref="6909454717"/>
    <nd ref="1223592595"/>
    <nd ref="5210401673"/>
    <nd ref="243861584"/>
    <nd ref="5210401691"/>
    <nd ref="1342042627"/>
    <nd ref="5210401688"/>
    <nd ref="5210401717"/>
    <nd ref="5210401719"/>
    <nd ref="243861585"/>
    <nd ref="243861586"/>
    <nd ref="5902235357"/>
    <nd ref="243861587"/>
    <nd ref="10268560158"/>
    <nd ref="8016362149"/>
    <tag k="highway" v="secondary"/>
    <tag k="lanes" v="2"/>
    <tag k="lit" v="no"/>
    <tag k="name" v="Ashby Road"/>
    <tag k="old_ref" v="A453"/>
    <tag k="ref" v="B5493"/>
    <tag k="source" v="Local Knowledge"/>
    <tag k="surface" v="asphalt"/>
  </way>
  <way id="351661992" version="8" timestamp="2024-07-08T21:43:06Z" changeset="153722179" uid="493595" user="Yorvik Prestigitator">
    <nd ref="373317563"/>
    <nd ref="6587213765"/>
    <nd ref="6587213764"/>
    <nd ref="243042934"/>
    <nd ref="243042937"/>
    <nd ref="6587213767"/>
    <nd ref="6587213769"/>
    <nd ref="243042938"/>
    <nd ref="6587213770"/>
    <nd ref="243042939"/>
    <nd ref="243042941"/>
    <nd ref="6587213771"/>
    <nd ref="243042942"/>
    <nd ref="7994133249"/>
    <nd ref="2497732094"/>
    <nd ref="1315507046"/>
    <nd ref="8690364110"/>
    <nd ref="243042943"/>
    <nd ref="5911299336"/>
    <nd ref="5911299337"/>
    <nd ref="243042945"/>
    <nd ref="5911299338"/>
    <nd ref="5911299339"/>
    <nd ref="6587141665"/>
    <nd ref="1319367539"/>
    <nd ref="243042946"/>
    <nd ref="7994133257"/>
    <nd ref="243042948"/>
    <nd ref="243042949"/>
    <nd ref="2497732138"/>
    <nd ref="2298154565"/>
    <nd ref="12042528862"/>
    <nd ref="243042950"/>
    <nd ref="2298154581"/>
    <nd ref="2298154583"/>
    <nd ref="243678758"/>
    <nd ref="2298154592"/>
    <nd ref="6587219663"/>
    <nd ref="2298154598"/>
    <nd ref="6587219664"/>
    <nd ref="243678759"/>
    <nd ref="2298154604"/>
    <nd ref="2298154608"/>
    <nd ref="243678760"/>
    <nd ref="6587219665"/>
    <nd ref="243678761"/>
    <nd ref="6587219666"/>
    <nd ref="243678762"/>
    <nd ref="243678763"/>
    <nd ref="2677108730"/>
    <nd ref="430333514"/>
    <nd ref="251548742"/>
    <tag k="cycleway:both" v="no"/>
    <tag k="gritting" v="priority_1"/>
    <tag k="gritting_depot" v="Coleshill Heath Road"/>
    <tag k="gritting_operator" v="Warwickshire County Council"/>
    <tag k="gritting_route_ref" v="2"/>
    <tag k="gritting_route_revision" v="201105"/>
    <tag k="highway" v="tertiary"/>
    <tag k="highway_authority_ref" v="C3"/>
    <tag k="maintenance" v="gritting"/>
    <tag k="name" v="Main Road"/>
    <tag k="surface" v="asphalt"/>
  </way>
  <way id="699471616" version="3" timestamp="2023-11-18T16:26:45Z" changeset="144181434" uid="504708" user="HillWithSmallFields">
    <nd ref="6568384437"/>
    <nd ref="6568384436"/>
    <nd ref="6568384435"/>
    <nd ref="6568384434"/>
    <nd ref="6568384433"/>
    <nd ref="6568384432"/>
    <nd ref="6568384431"/>
    <nd ref="6568384430"/>
    <nd ref="6568384437"/>
    <tag k="amenity" v="place_of_worship"/>
    <tag k="building" v="church"/>
    <tag k="denomination" v="anglican"/>
    <tag k="heritage" v="2"/>
    <tag k="heritage:operator" v="Historic England"/>
    <tag k="listed_status" v="Grade II*"/>
    <tag k="name" v="All Saints"/>
    <tag k="ref:dove" v="14225"/>
    <tag k="religion" v="christian"/>
    <tag k="source" v="Warwicks CC 2013 Aerial Imagery"/>
    <tag k="wikidata" v="Q17550623"/>
  </way>
  <way id="969698668" version="1" timestamp="2021-08-02T06:02:49Z" changeset="109002093" uid="133272" user="wongataa">
    <nd ref="667172762"/>
    <nd ref="2298216551"/>
    <nd ref="2298216548"/>
    <nd ref="667172763"/>
    <nd ref="2298216552"/>
    <nd ref="667172764"/>
    <nd ref="667172765"/>
    <tag k="highway" v="unclassified"/>
    <tag k="name" v="Seckington Lane"/>
    <tag k="source" v="Bing;ITO"/>
    <tag k="surface" v="asphalt"/>
  </way>
  <way id="1247067740" version="1" timestamp="2024-02-07T03:46:20Z" changeset="147159154" uid="563773" user="mrpacmanmap">
    <nd ref="251548720"/>
    <nd ref="251548721"/>
    <nd ref="251548722"/>
    <nd ref="251548723"/>
    <nd ref="8450419319"/>
    <nd ref="1319367469"/>
    <nd ref="251548724"/>
    <nd ref="6568384422"/>
    <nd ref="251548725"/>
    <nd ref="2298265238"/>
    <nd ref="251548726"/>
    <nd ref="8761489819"/>
    <nd ref="251548727"/>
    <nd ref="667172752"/>
    <tag k="highway" v="tertiary"/>
    <tag k="name" v="Hangman's Lane"/>
  </way>

</osm>
