<?xml version="1.0" encoding="UTF-8"?>
<osm version="0.6" generator="Overpass API 0.7.62.8 e802775f">
<note>The data included in this document is from www.openstreetmap.org. The data is made available under ODbL.</note>
<meta osm_base="2025-10-23T17:48:02Z" areas="2025-10-23T12:46:58Z"/>

  <node id="256267883" lat="52.2993785" lon="-1.3311514" version="6" timestamp="2013-10-29T13:07:31Z" changeset="18601212" uid="9065" user="brianboru"/>
  <node id="279274962" lat="52.3053686" lon="-1.2557078" version="2" timestamp="2011-10-21T23:49:11Z" changeset="9620734" uid="185805" user="Jon Iles"/>
  <node id="331283254" lat="52.2982900" lon="-1.2832189" version="3" timestamp="2013-10-20T12:37:39Z" changeset="18450484" uid="9065" user="brianboru"/>
  <node id="333286264" lat="52.3001698" lon="-1.3238333" version="5" timestamp="2013-10-23T05:54:59Z" changeset="18496979" uid="9065" user="brianboru"/>
  <node id="534436278" lat="52.2746580" lon="-1.3367016" version="3" timestamp="2011-11-01T21:45:48Z" changeset="9717333" uid="185805" user="Jon Iles"/>
  <node id="537001939" lat="52.3198261" lon="-1.2554289" version="4" timestamp="2018-07-16T18:55:07Z" changeset="60773566" uid="9065" user="brianboru"/>
  <node id="762516352" lat="52.2965955" lon="-1.2798616" version="2" timestamp="2015-02-17T09:12:49Z" changeset="28903768" uid="1849224" user="sensecall">
    <tag k="building" v="chapel"/>
    <tag k="name" v="Grandborough Methodist Chapel"/>
  </node>
  <node id="1611666636" lat="52.3192439" lon="-1.2542711" version="2" timestamp="2018-07-16T18:55:10Z" changeset="60773566" uid="9065" user="brianboru"/>
  <node id="4592754023" lat="52.3271039" lon="-1.2729667" version="1" timestamp="2017-01-06T15:28:10Z" changeset="44955959" uid="9065" user="brianboru"/>
  <way id="23654006" version="27" timestamp="2025-04-26T13:49:02Z" changeset="165466767" uid="119838" user="n1dom">
    <nd ref="256267883"/>
    <nd ref="256267884"/>
    <nd ref="256267885"/>
    <nd ref="1488925002"/>
    <nd ref="2503503011"/>
    <nd ref="256267886"/>
    <nd ref="2503503005"/>
    <nd ref="256267887"/>
    <nd ref="1488925041"/>
    <nd ref="256267888"/>
    <nd ref="1490296810"/>
    <nd ref="256267889"/>
    <nd ref="2498696280"/>
    <nd ref="8835892987"/>
    <nd ref="256267890"/>
    <nd ref="8835892986"/>
    <nd ref="256267891"/>
    <nd ref="1490296827"/>
    <nd ref="256267892"/>
    <nd ref="1490296874"/>
    <nd ref="1490296901"/>
    <nd ref="1490296807"/>
    <nd ref="256267893"/>
    <nd ref="1490296878"/>
    <nd ref="256267894"/>
    <nd ref="1490296832"/>
    <nd ref="2502773126"/>
    <nd ref="1490296885"/>
    <nd ref="256267895"/>
    <nd ref="1490296939"/>
    <nd ref="1490296862"/>
    <nd ref="1490296896"/>
    <nd ref="256267896"/>
    <nd ref="256267897"/>
    <nd ref="256267898"/>
    <nd ref="1490296800"/>
    <nd ref="1490296917"/>
    <nd ref="8239412638"/>
    <nd ref="1490296879"/>
    <nd ref="256267899"/>
    <nd ref="1491221889"/>
    <nd ref="1257698376"/>
    <nd ref="256267900"/>
    <nd ref="256267901"/>
    <nd ref="3163605096"/>
    <nd ref="256267902"/>
    <nd ref="1491261347"/>
    <nd ref="2498740328"/>
    <nd ref="1491261349"/>
    <nd ref="256267903"/>
    <nd ref="256267904"/>
    <nd ref="256267905"/>
    <nd ref="1257698335"/>
    <nd ref="256267906"/>
    <nd ref="1494781728"/>
    <nd ref="1495300282"/>
    <nd ref="256267907"/>
    <nd ref="8237132310"/>
    <nd ref="256267908"/>
    <nd ref="8237132305"/>
    <nd ref="1494781722"/>
    <nd ref="256267909"/>
    <nd ref="1494781718"/>
    <nd ref="256267911"/>
    <nd ref="283476097"/>
    <nd ref="1494781726"/>
    <nd ref="283476098"/>
    <nd ref="1494781721"/>
    <nd ref="283473731"/>
    <nd ref="256267912"/>
    <nd ref="1494781719"/>
    <nd ref="283476099"/>
    <nd ref="256267913"/>
    <nd ref="256267914"/>
    <nd ref="1494778483"/>
    <nd ref="1494778496"/>
    <nd ref="256267915"/>
    <nd ref="1494778448"/>
    <nd ref="1494778500"/>
    <nd ref="256267916"/>
    <nd ref="256267917"/>
    <nd ref="1494778481"/>
    <nd ref="256267918"/>
    <nd ref="280154961"/>
    <tag k="highway" v="unclassified"/>
    <tag k="name" v="Flecknoe Road"/>
    <tag k="source" v="survey"/>
    <tag k="surface" v="asphalt"/>
  </way>
  <way id="25450389" version="11" timestamp="2024-01-22T15:20:16Z" changeset="146558173" uid="384887" user="robw">
    <nd ref="331283257"/>
    <nd ref="6010863850"/>
    <nd ref="11540267501"/>
    <nd ref="2502773459"/>
    <nd ref="333287278"/>
    <nd ref="762516387"/>
    <nd ref="6010863848"/>
    <nd ref="2498352903"/>
    <nd ref="333287280"/>
    <nd ref="6010863823"/>
    <nd ref="6010863824"/>
    <nd ref="2498352904"/>
    <nd ref="6010863822"/>
    <nd ref="6010863821"/>
    <nd ref="333287282"/>
    <tag k="highway" v="tertiary"/>
    <tag k="name" v="Main Street"/>
  </way>
  <way id="30077031" version="9" timestamp="2013-10-20T12:37:34Z" changeset="18450484" uid="9065" user="brianboru">
    <nd ref="256267900"/>
    <nd ref="1491221888"/>
    <nd ref="1491221887"/>
    <nd ref="331283238"/>
    <nd ref="1491223974"/>
    <nd ref="1491223978"/>
    <nd ref="331283240"/>
    <nd ref="1491223971"/>
    <nd ref="1491223969"/>
    <nd ref="1491223975"/>
    <nd ref="331283242"/>
    <nd ref="1491223979"/>
    <nd ref="1495303911"/>
    <nd ref="1491223973"/>
    <nd ref="1491223981"/>
    <nd ref="331283243"/>
    <nd ref="1491223983"/>
    <nd ref="1491223980"/>
    <nd ref="331283269"/>
    <nd ref="1491223985"/>
    <nd ref="1491223984"/>
    <nd ref="2502773185"/>
    <nd ref="331283246"/>
    <nd ref="1491223970"/>
    <nd ref="1498541230"/>
    <nd ref="1491223977"/>
    <nd ref="1491223972"/>
    <nd ref="331283250"/>
    <nd ref="1491223976"/>
    <nd ref="2502773363"/>
    <nd ref="331283252"/>
    <nd ref="1491223982"/>
    <nd ref="881395752"/>
    <nd ref="331283254"/>
    <tag k="highway" v="unclassified"/>
    <tag k="name" v="Grandborough Fields Road"/>
  </way>
  <way id="30252528" version="13" timestamp="2021-10-08T09:43:50Z" changeset="112254406" uid="34867" user="SammyTheSnake">
    <nd ref="333286264"/>
    <nd ref="1495307753"/>
    <nd ref="333286266"/>
    <nd ref="1495307730"/>
    <nd ref="1488925034"/>
    <nd ref="1495307755"/>
    <nd ref="333286268"/>
    <nd ref="1488925027"/>
    <nd ref="1488925005"/>
    <nd ref="1495307756"/>
    <nd ref="1488925048"/>
    <nd ref="1495307769"/>
    <nd ref="1495307738"/>
    <nd ref="8280188409"/>
    <nd ref="1495307743"/>
    <nd ref="1495307732"/>
    <nd ref="1495307741"/>
    <nd ref="8145170036"/>
    <nd ref="333286269"/>
    <nd ref="1495307747"/>
    <nd ref="1495307767"/>
    <nd ref="1495307766"/>
    <nd ref="8451867035"/>
    <nd ref="1495307744"/>
    <nd ref="8451825508"/>
    <nd ref="1495307737"/>
    <nd ref="8451825509"/>
    <nd ref="1495307745"/>
    <nd ref="8451825510"/>
    <nd ref="8451825515"/>
    <nd ref="1495307757"/>
    <nd ref="1495307763"/>
    <nd ref="8451825511"/>
    <nd ref="8451825512"/>
    <nd ref="1495307752"/>
    <nd ref="1495307746"/>
    <nd ref="1495307740"/>
    <nd ref="1495307760"/>
    <nd ref="1495307761"/>
    <nd ref="333286271"/>
    <nd ref="1495307759"/>
    <nd ref="1495307764"/>
    <nd ref="1495307734"/>
    <nd ref="1495307731"/>
    <nd ref="2502773458"/>
    <nd ref="6879747857"/>
    <nd ref="1495307748"/>
    <nd ref="1495307742"/>
    <nd ref="1495307750"/>
    <nd ref="333286273"/>
    <nd ref="1495307754"/>
    <nd ref="1495307758"/>
    <nd ref="1495307771"/>
    <nd ref="333286275"/>
    <nd ref="1495307729"/>
    <nd ref="1495307739"/>
    <nd ref="1495307751"/>
    <nd ref="1495307735"/>
    <nd ref="333286277"/>
    <nd ref="1772440815"/>
    <nd ref="1495307733"/>
    <nd ref="1495307768"/>
    <nd ref="1495307765"/>
    <nd ref="333286279"/>
    <nd ref="1495307770"/>
    <nd ref="1495307749"/>
    <nd ref="1495307736"/>
    <nd ref="331283254"/>
    <tag k="cycleway:both" v="no"/>
    <tag k="highway" v="tertiary"/>
    <tag k="name" v="Hill Road"/>
    <tag k="surface" v="asphalt"/>
  </way>
  <way id="30252571" version="8" timestamp="2021-02-24T12:20:28Z" changeset="99904198" uid="9196103" user="srinatpa">
    <nd ref="333287302"/>
    <nd ref="2498333040"/>
    <nd ref="762516403"/>
    <nd ref="279533966"/>
    <nd ref="279533965"/>
    <nd ref="7187855228"/>
    <nd ref="8454058313"/>
    <nd ref="279534040"/>
    <nd ref="279274957"/>
    <nd ref="1475479862"/>
    <nd ref="279274958"/>
    <nd ref="1475479980"/>
    <nd ref="279274959"/>
    <nd ref="1475480054"/>
    <nd ref="279274960"/>
    <nd ref="279274961"/>
    <nd ref="1470667828"/>
    <nd ref="279274962"/>
    <tag k="highway" v="unclassified"/>
  </way>
  <way id="33525332" version="16" timestamp="2024-04-16T20:27:50Z" changeset="150102111" uid="7463" user="kesterlester">
    <nd ref="11540305651"/>
    <nd ref="762516439"/>
    <nd ref="11540305630"/>
    <nd ref="1474976061"/>
    <nd ref="2501370787"/>
    <nd ref="333287288"/>
    <nd ref="2501370790"/>
    <nd ref="333287290"/>
    <nd ref="2501370797"/>
    <nd ref="1474976052"/>
    <nd ref="333287292"/>
    <nd ref="2501370814"/>
    <nd ref="1474976050"/>
    <nd ref="2498346221"/>
    <nd ref="333287294"/>
    <nd ref="2498346226"/>
    <nd ref="333287295"/>
    <nd ref="11540305649"/>
    <nd ref="2498346231"/>
    <nd ref="1474976067"/>
    <nd ref="333287297"/>
    <nd ref="1474976062"/>
    <nd ref="8813327639"/>
    <nd ref="1474967281"/>
    <nd ref="11540253999"/>
    <nd ref="1474967271"/>
    <nd ref="2498346261"/>
    <nd ref="333287300"/>
    <nd ref="1474967315"/>
    <nd ref="2498333036"/>
    <nd ref="2498333039"/>
    <nd ref="11822911493"/>
    <nd ref="333287302"/>
    <nd ref="2498333041"/>
    <nd ref="2498333045"/>
    <nd ref="2498333046"/>
    <nd ref="2498333047"/>
    <nd ref="2498333050"/>
    <nd ref="11822911492"/>
    <nd ref="11822911491"/>
    <nd ref="279533967"/>
    <nd ref="11822911490"/>
    <nd ref="11822911489"/>
    <nd ref="11822911488"/>
    <nd ref="279533968"/>
    <nd ref="11822911487"/>
    <nd ref="762516442"/>
    <nd ref="279534039"/>
    <nd ref="762516444"/>
    <nd ref="2507975142"/>
    <nd ref="279533970"/>
    <nd ref="2498329867"/>
    <nd ref="279534038"/>
    <nd ref="279534037"/>
    <nd ref="2498329906"/>
    <nd ref="2498329912"/>
    <nd ref="2498329944"/>
    <nd ref="762516448"/>
    <nd ref="279534036"/>
    <nd ref="2498330019"/>
    <nd ref="2498330033"/>
    <nd ref="762516451"/>
    <nd ref="279533974"/>
    <nd ref="2498330067"/>
    <nd ref="2498330073"/>
    <nd ref="2498330084"/>
    <nd ref="2498330109"/>
    <nd ref="762516460"/>
    <nd ref="279534035"/>
    <nd ref="762516462"/>
    <nd ref="2507975178"/>
    <nd ref="2507975179"/>
    <nd ref="279534034"/>
    <nd ref="762516464"/>
    <nd ref="762516465"/>
    <nd ref="1443453307"/>
    <nd ref="2498330261"/>
    <nd ref="5764370487"/>
    <nd ref="279533976"/>
    <tag k="highway" v="tertiary"/>
  </way>
  <way id="33525333" version="10" timestamp="2020-09-24T07:29:15Z" changeset="91413836" uid="11736081" user="ssnjan">
    <nd ref="331283254"/>
    <nd ref="1495307762"/>
    <nd ref="2502773430"/>
    <nd ref="331283255"/>
    <nd ref="2502773421"/>
    <nd ref="2502773406"/>
    <nd ref="331283257"/>
    <nd ref="6010863849"/>
    <nd ref="2354783720"/>
    <nd ref="7936723308"/>
    <nd ref="331283261"/>
    <nd ref="3355510092"/>
    <nd ref="762516374"/>
    <nd ref="2652022776"/>
    <nd ref="762516364"/>
    <nd ref="2502773325"/>
    <nd ref="2502773319"/>
    <nd ref="331283265"/>
    <nd ref="2502773308"/>
    <nd ref="2502773301"/>
    <nd ref="762516540"/>
    <nd ref="762516542"/>
    <nd ref="762516376"/>
    <nd ref="331283266"/>
    <nd ref="331283268"/>
    <nd ref="1578865538"/>
    <nd ref="331284510"/>
    <nd ref="1578865522"/>
    <nd ref="1578865528"/>
    <nd ref="331284513"/>
    <tag k="highway" v="tertiary"/>
    <tag k="name" v="Sawbridge Road"/>
  </way>
  <way id="42739139" version="9" timestamp="2013-10-16T18:27:59Z" changeset="18391283" uid="9065" user="brianboru">
    <nd ref="534436278"/>
    <nd ref="1489017380"/>
    <nd ref="534468956"/>
    <nd ref="534468957"/>
    <nd ref="534468958"/>
    <nd ref="1373147838"/>
    <nd ref="1489017374"/>
    <nd ref="2498709766"/>
    <nd ref="534436286"/>
    <nd ref="1489037036"/>
    <nd ref="1489037002"/>
    <nd ref="850049423"/>
    <nd ref="1489036944"/>
    <nd ref="1489036974"/>
    <nd ref="850049430"/>
    <nd ref="1489036963"/>
    <nd ref="1489036938"/>
    <nd ref="1489037031"/>
    <nd ref="850049486"/>
    <nd ref="850049421"/>
    <nd ref="1368298624"/>
    <nd ref="850049379"/>
    <tag k="highway" v="unclassified"/>
    <tag k="name" v="Calcutt Lane"/>
  </way>
  <way id="42780528" version="14" timestamp="2024-04-16T20:41:03Z" changeset="150102497" uid="7463" user="kesterlester">
    <nd ref="279274962"/>
    <nd ref="279274963"/>
    <nd ref="1475480019"/>
    <nd ref="793708626"/>
    <nd ref="279274964"/>
    <nd ref="2498329699"/>
    <nd ref="761403778"/>
    <nd ref="2498329689"/>
    <nd ref="2498329694"/>
    <nd ref="2498329697"/>
    <nd ref="279274965"/>
    <nd ref="2498329709"/>
    <nd ref="279274966"/>
    <nd ref="2498329713"/>
    <nd ref="279274967"/>
    <nd ref="1473074575"/>
    <nd ref="6010864552"/>
    <nd ref="535989009"/>
    <nd ref="279274968"/>
    <nd ref="6010864554"/>
    <nd ref="6010864553"/>
    <nd ref="2498337591"/>
    <nd ref="7399118397"/>
    <nd ref="6010864020"/>
    <nd ref="535989007"/>
    <nd ref="2470983236"/>
    <nd ref="279274969"/>
    <nd ref="2470983234"/>
    <nd ref="277349490"/>
    <nd ref="761403810"/>
    <nd ref="5764370509"/>
    <nd ref="5764370540"/>
    <tag k="highway" v="unclassified"/>
    <tag k="name" v="Woolscott Road"/>
  </way>
  <way id="42887427" version="8" timestamp="2021-02-22T12:09:37Z" changeset="99745091" uid="10252549" user="kksamhi">
    <nd ref="537001939"/>
    <nd ref="5764370493"/>
    <nd ref="2498330241"/>
    <nd ref="537001945"/>
    <nd ref="537001952"/>
    <nd ref="537001947"/>
    <nd ref="2473578822"/>
    <nd ref="2473578834"/>
    <nd ref="537001970"/>
    <nd ref="804882513"/>
    <nd ref="2473578855"/>
    <nd ref="2473578873"/>
    <nd ref="2473578897"/>
    <nd ref="537001973"/>
    <nd ref="7924845349"/>
    <nd ref="2473578922"/>
    <nd ref="537001987"/>
    <nd ref="2473578961"/>
    <nd ref="537001990"/>
    <nd ref="2473579139"/>
    <nd ref="537001993"/>
    <tag k="highway" v="unclassified"/>
  </way>
  <way id="60914137" version="2" timestamp="2010-08-26T21:30:06Z" changeset="5603038" uid="44659" user="Phil Shipley">
    <nd ref="762516363"/>
    <nd ref="762516364"/>
    <tag k="highway" v="residential"/>
    <tag k="name" v="Hockley Close"/>
  </way>
  <way id="60914138" version="5" timestamp="2018-10-24T19:32:00Z" changeset="63844959" uid="9065" user="brianboru">
    <nd ref="762516368"/>
    <nd ref="762516369"/>
    <nd ref="2502773350"/>
    <nd ref="6010863926"/>
    <nd ref="6010863927"/>
    <nd ref="762516372"/>
    <nd ref="762516374"/>
    <tag k="highway" v="residential"/>
    <tag k="name" v="The Steeples"/>
  </way>
  <way id="60914139" version="6" timestamp="2024-11-02T07:54:54Z" changeset="158647392" uid="17128620" user="Pineajelly">
    <nd ref="762516376"/>
    <nd ref="12306708925"/>
    <nd ref="12306708923"/>
    <nd ref="7936723305"/>
    <nd ref="762516378"/>
    <nd ref="2498352865"/>
    <nd ref="762516379"/>
    <nd ref="762516381"/>
    <nd ref="2498352874"/>
    <nd ref="762516383"/>
    <nd ref="762516384"/>
    <nd ref="6010863891"/>
    <nd ref="762516385"/>
    <nd ref="1474976073"/>
    <nd ref="762516387"/>
    <tag k="highway" v="residential"/>
    <tag k="name" v="Church Road"/>
  </way>
  <way id="60914140" version="4" timestamp="2024-01-22T15:31:22Z" changeset="146558629" uid="384887" user="robw">
    <nd ref="762516388"/>
    <nd ref="1474967243"/>
    <nd ref="762516389"/>
    <nd ref="762516391"/>
    <nd ref="762516392"/>
    <nd ref="762516393"/>
    <nd ref="762516394"/>
    <nd ref="762516395"/>
    <nd ref="11540253998"/>
    <nd ref="762516397"/>
    <nd ref="762516398"/>
    <nd ref="2498333052"/>
    <nd ref="762516400"/>
    <nd ref="2498333043"/>
    <nd ref="762516401"/>
    <nd ref="762516403"/>
    <tag k="highway" v="residential"/>
  </way>
  <way id="60914142" version="8" timestamp="2024-01-22T15:46:13Z" changeset="146559190" uid="384887" user="robw">
    <nd ref="279533968"/>
    <nd ref="762516473"/>
    <nd ref="762516474"/>
    <nd ref="762516476"/>
    <nd ref="762516477"/>
    <nd ref="7121856125"/>
    <nd ref="1475518687"/>
    <nd ref="762516479"/>
    <nd ref="762516480"/>
    <nd ref="1475500606"/>
    <nd ref="762516482"/>
    <nd ref="8403916446"/>
    <nd ref="11540305635"/>
    <nd ref="7937151496"/>
    <nd ref="762516484"/>
    <nd ref="762516485"/>
    <nd ref="762516487"/>
    <nd ref="2507952114"/>
    <nd ref="762516488"/>
    <nd ref="762516490"/>
    <nd ref="762516491"/>
    <nd ref="762516493"/>
    <nd ref="762516494"/>
    <nd ref="2507952098"/>
    <nd ref="762516496"/>
    <nd ref="2507952094"/>
    <nd ref="762516497"/>
    <nd ref="2507952090"/>
    <nd ref="762516499"/>
    <nd ref="2507952088"/>
    <nd ref="2507952087"/>
    <nd ref="762516500"/>
    <nd ref="762516502"/>
    <nd ref="2507952083"/>
    <nd ref="762516504"/>
    <nd ref="2507952081"/>
    <nd ref="2507952078"/>
    <nd ref="2507952076"/>
    <nd ref="11540305653"/>
    <nd ref="762516505"/>
    <nd ref="762516439"/>
    <tag k="highway" v="residential"/>
    <tag k="name" v="Castle Lane"/>
  </way>
  <way id="74596296" version="3" timestamp="2020-12-18T04:13:17Z" changeset="96038192" uid="11734027" user="kukarana">
    <nd ref="881395791"/>
    <nd ref="8239169743"/>
    <nd ref="881395795"/>
    <nd ref="2652024618"/>
    <nd ref="2652024626"/>
    <nd ref="2652024620"/>
    <nd ref="2652024624"/>
    <nd ref="8239169742"/>
    <nd ref="881395797"/>
    <nd ref="2652024622"/>
    <nd ref="2652024613"/>
    <nd ref="881395752"/>
    <tag k="highway" v="residential"/>
    <tag k="name" v="Aikman Green"/>
  </way>
  <way id="131109073" version="2" timestamp="2013-10-16T11:05:42Z" changeset="18384124" uid="9065" user="brianboru">
    <nd ref="1443453126"/>
    <nd ref="1443453124"/>
    <nd ref="2498329973"/>
    <nd ref="1443453127"/>
    <nd ref="1443453128"/>
    <nd ref="1443453037"/>
    <nd ref="2498329984"/>
    <nd ref="1443453198"/>
    <nd ref="57778114"/>
    <tag k="highway" v="residential"/>
    <tag k="name" v="Woolscott Lane"/>
  </way>
  <way id="131109081" version="3" timestamp="2017-08-10T19:53:29Z" changeset="51013668" uid="6202436" user="Gabriel Reynolds">
    <nd ref="1443453056"/>
    <nd ref="1443453083"/>
    <nd ref="1443453071"/>
    <nd ref="1443453066"/>
    <nd ref="2498330195"/>
    <nd ref="2498330204"/>
    <nd ref="1443453354"/>
    <nd ref="1443453065"/>
    <nd ref="1443452991"/>
    <nd ref="1443453209"/>
    <nd ref="2498330237"/>
    <tag k="highway" v="residential"/>
    <tag k="name" v="Lodge Road"/>
  </way>
  <way id="131109083" version="1" timestamp="2011-09-23T20:09:08Z" changeset="9379623" uid="460951" user="tompople">
    <nd ref="1443453208"/>
    <nd ref="1443452997"/>
    <nd ref="1443452999"/>
    <nd ref="1443453203"/>
    <nd ref="1443453307"/>
    <tag k="highway" v="residential"/>
    <tag k="name" v="Tollgate Farm Lane"/>
  </way>
  <way id="145063578" version="2" timestamp="2021-01-24T14:09:23Z" changeset="98058578" uid="63287" user="Chris H">
    <nd ref="1585208181"/>
    <nd ref="1585208174"/>
    <nd ref="1585208176"/>
    <nd ref="1585208197"/>
    <nd ref="1585208181"/>
    <tag k="building" v="yes"/>
    <tag k="name" v="Calcutt Boats"/>
    <tag k="source" v="Bing"/>
  </way>
  <way id="148057572" version="11" timestamp="2024-02-12T14:32:56Z" changeset="147369973" uid="13341565" user="Falsernet">
    <nd ref="1611666636"/>
    <nd ref="1611666635"/>
    <nd ref="1611666634"/>
    <nd ref="1611666633"/>
    <nd ref="1611666632"/>
    <nd ref="1611666631"/>
    <nd ref="1611666630"/>
    <nd ref="1611666629"/>
    <nd ref="1611666628"/>
    <nd ref="5764370494"/>
    <nd ref="1611666627"/>
    <nd ref="5764370495"/>
    <nd ref="1611666626"/>
    <nd ref="1611666625"/>
    <nd ref="57778114"/>
    <nd ref="5764370497"/>
    <nd ref="1611666624"/>
    <nd ref="1611666623"/>
    <nd ref="1611666622"/>
    <nd ref="2498329881"/>
    <nd ref="1475549584"/>
    <nd ref="7399118401"/>
    <nd ref="1611666621"/>
    <nd ref="1611666620"/>
    <nd ref="1611666619"/>
    <nd ref="1611666618"/>
    <nd ref="1611666617"/>
    <nd ref="5764370536"/>
    <tag k="highway" v="trunk"/>
    <tag k="lanes" v="2"/>
    <tag k="maxspeed" v="50 mph"/>
    <tag k="name" v="Daventry Road"/>
    <tag k="ref" v="A45"/>
    <tag k="surface" v="asphalt"/>
  </way>
  <way id="220340873" version="2" timestamp="2013-06-21T13:18:52Z" changeset="16644014" uid="61942" user="SomeoneElse">
    <nd ref="2354783720"/>
    <nd ref="2294710030"/>
    <tag k="highway" v="residential"/>
    <tag k="name" v="Hargrave Close"/>
    <tag k="oneway" v="no"/>
  </way>
  <way id="242343204" version="4" timestamp="2024-08-21T10:07:20Z" changeset="155548787" uid="5589" user="user_5589">
    <nd ref="2498330237"/>
    <nd ref="5027099157"/>
    <nd ref="2498330233"/>
    <nd ref="2498330235"/>
    <nd ref="2498330241"/>
    <tag k="highway" v="trunk_link"/>
    <tag k="lit" v="yes"/>
    <tag k="oneway" v="yes"/>
    <tag k="source" v="bing"/>
    <tag k="surface" v="asphalt"/>
  </way>
  <way id="243372029" version="4" timestamp="2024-01-22T15:20:16Z" changeset="146558173" uid="384887" user="robw">
    <nd ref="2507952046"/>
    <nd ref="2507952047"/>
    <nd ref="2507952043"/>
    <nd ref="2507952044"/>
    <nd ref="2507952040"/>
    <nd ref="2507952039"/>
    <nd ref="2507952035"/>
    <nd ref="2507952034"/>
    <nd ref="2507952037"/>
    <nd ref="2507952036"/>
    <nd ref="11540267491"/>
    <nd ref="2507952041"/>
    <nd ref="2507952042"/>
    <nd ref="2507952046"/>
    <tag k="amenity" v="place_of_worship"/>
    <tag k="building" v="church"/>
    <tag k="denomination" v="anglican"/>
    <tag k="heritage" v="2"/>
    <tag k="heritage:operator" v="Historic England"/>
    <tag k="listed_status" v="Grade II*"/>
    <tag k="name" v="St Peter"/>
    <tag k="religion" v="christian"/>
    <tag k="source" v="bing"/>
    <tag k="wikidata" v="Q17550800"/>
  </way>
  <way id="259750753" version="2" timestamp="2021-01-25T21:50:21Z" changeset="98145712" uid="493595" user="Yorvik Prestigitator">
    <nd ref="2652023791"/>
    <nd ref="8362652232"/>
    <nd ref="2652023792"/>
    <nd ref="2652023794"/>
    <nd ref="2652023796"/>
    <nd ref="8362652229"/>
    <nd ref="2652023798"/>
    <nd ref="2652023800"/>
    <nd ref="2652023791"/>
    <tag k="addr:city" v="Grandborough"/>
    <tag k="addr:street" v="Sawbridge Road"/>
    <tag k="alt_name" v="The Benn Memorial Hall"/>
    <tag k="amenity" v="community_centre"/>
    <tag k="building" v="public"/>
    <tag k="building:levels" v="1"/>
    <tag k="community_centre" v="village_hall"/>
    <tag k="name" v="Grandborough Village Hall"/>
  </way>
  <way id="259751165" version="3" timestamp="2020-05-30T04:06:31Z" changeset="85971928" uid="4948143" user="doublah">
    <nd ref="2652029131"/>
    <nd ref="2652029133"/>
    <nd ref="2652029136"/>
    <nd ref="2652029138"/>
    <nd ref="2652029140"/>
    <nd ref="2652029142"/>
    <nd ref="2652029131"/>
    <tag k="amenity" v="pub"/>
    <tag k="building" v="pub"/>
    <tag k="name" v="Shoulder of Mutton"/>
    <tag k="wikidata" v="Q26286470"/>
  </way>
  <way id="328721779" version="2" timestamp="2018-10-24T19:32:09Z" changeset="63844959" uid="9065" user="brianboru">
    <nd ref="3355510092"/>
    <nd ref="6010863851"/>
    <nd ref="3355511393"/>
    <nd ref="6010863888"/>
    <nd ref="3355511394"/>
    <tag k="highway" v="residential"/>
  </way>
  <way id="464124115" version="5" timestamp="2024-05-06T08:58:57Z" changeset="150953706" uid="5589" user="user_5589">
    <nd ref="4592754023"/>
    <nd ref="1611666650"/>
    <nd ref="4592754022"/>
    <tag k="bridge" v="yes"/>
    <tag k="highway" v="trunk"/>
    <tag k="lanes" v="2"/>
    <tag k="layer" v="1"/>
    <tag k="maxspeed" v="50 mph"/>
    <tag k="maxweight:signed" v="no"/>
    <tag k="name" v="Daventry Road"/>
    <tag k="ref" v="A45"/>
    <tag k="sidewalk" v="right"/>
    <tag k="surface" v="asphalt"/>
  </way>
  <way id="608430593" version="4" timestamp="2024-02-12T14:32:56Z" changeset="147369973" uid="13341565" user="Falsernet">
    <nd ref="5764370486"/>
    <nd ref="279533976"/>
    <tag k="highway" v="trunk"/>
    <tag k="lanes" v="3"/>
    <tag k="lanes:backward" v="1"/>
    <tag k="lanes:forward" v="2"/>
    <tag k="maxspeed" v="50 mph"/>
    <tag k="name" v="Daventry Road"/>
    <tag k="ref" v="A45"/>
    <tag k="sidewalk" v="right"/>
    <tag k="source" v="Warwicks CC Aerial Imagery 2013"/>
    <tag k="surface" v="asphalt"/>
    <tag k="turn:lanes:forward" v="through|right"/>
  </way>
  <way id="608430594" version="4" timestamp="2024-02-12T14:32:56Z" changeset="147369973" uid="13341565" user="Falsernet">
    <nd ref="4592754022"/>
    <nd ref="1611666649"/>
    <nd ref="1611666648"/>
    <nd ref="1611666647"/>
    <nd ref="1611666646"/>
    <nd ref="1611666645"/>
    <nd ref="1611666644"/>
    <nd ref="1611666643"/>
    <nd ref="5764370486"/>
    <tag k="highway" v="trunk"/>
    <tag k="lanes" v="2"/>
    <tag k="maxspeed" v="50 mph"/>
    <tag k="name" v="Daventry Road"/>
    <tag k="ref" v="A45"/>
    <tag k="sidewalk" v="right"/>
    <tag k="source" v="Warwicks CC Aerial Imagery 2013"/>
    <tag k="surface" v="asphalt"/>
  </way>
  <way id="608430595" version="3" timestamp="2024-02-12T14:32:56Z" changeset="147369973" uid="13341565" user="Falsernet">
    <nd ref="1611666636"/>
    <nd ref="3453878413"/>
    <nd ref="537001939"/>
    <tag k="highway" v="trunk"/>
    <tag k="lanes" v="3"/>
    <tag k="lanes:backward" v="2"/>
    <tag k="lanes:forward" v="1"/>
    <tag k="maxspeed" v="50 mph"/>
    <tag k="name" v="Daventry Road"/>
    <tag k="ref" v="A45"/>
    <tag k="surface" v="asphalt"/>
    <tag k="turn:lanes:forward" v="through|right"/>
  </way>
  <way id="608430596" version="4" timestamp="2024-05-06T09:00:08Z" changeset="150953918" uid="5589" user="user_5589">
    <nd ref="279533976"/>
    <nd ref="1443453043"/>
    <nd ref="5764370488"/>
    <nd ref="1611666642"/>
    <nd ref="5764370489"/>
    <nd ref="1611666641"/>
    <nd ref="1611666640"/>
    <nd ref="1611666639"/>
    <nd ref="1611666638"/>
    <nd ref="5764370490"/>
    <nd ref="5764370492"/>
    <nd ref="5764370491"/>
    <nd ref="1611666637"/>
    <nd ref="2498330237"/>
    <nd ref="537001939"/>
    <tag k="highway" v="trunk"/>
    <tag k="lanes" v="2"/>
    <tag k="maxspeed" v="50 mph"/>
    <tag k="name" v="Daventry Road"/>
    <tag k="ref" v="A45"/>
    <tag k="sidewalk" v="right"/>
    <tag k="surface" v="asphalt"/>
  </way>
  <way id="637612576" version="1" timestamp="2018-10-24T19:31:49Z" changeset="63844959" uid="9065" user="brianboru">
    <nd ref="762516369"/>
    <nd ref="6010863925"/>
    <tag k="highway" v="residential"/>
    <tag k="name" v="The Steeples"/>
    <tag k="source" v="Warwicks CC Aerial Imagery 2013"/>
  </way>
  <way id="637612585" version="2" timestamp="2024-01-22T15:20:16Z" changeset="146558173" uid="384887" user="robw">
    <nd ref="1474976073"/>
    <nd ref="11540267490"/>
    <nd ref="6010863848"/>
    <tag k="highway" v="unclassified"/>
    <tag k="name" v="Church Road"/>
    <tag k="source" v="Warwicks CC Aerial Imagery 2013"/>
  </way>
  <way id="850762524" version="2" timestamp="2024-11-02T07:54:54Z" changeset="158647392" uid="17128620" user="Pineajelly">
    <nd ref="7936723298"/>
    <nd ref="7936723299"/>
    <nd ref="7936723302"/>
    <nd ref="7936723303"/>
    <nd ref="7936723304"/>
    <nd ref="7936723305"/>
    <tag k="highway" v="residential"/>
  </way>
  <way id="850762525" version="2" timestamp="2024-11-02T07:50:19Z" changeset="158647310" uid="17128620" user="Pineajelly">
    <nd ref="881395795"/>
    <nd ref="7936723306"/>
    <nd ref="7936723307"/>
    <tag k="highway" v="residential"/>
  </way>
  <way id="886071250" version="2" timestamp="2024-11-02T07:50:19Z" changeset="158647310" uid="17128620" user="Pineajelly">
    <nd ref="8239169735"/>
    <nd ref="8239169736"/>
    <nd ref="8239169737"/>
    <nd ref="8239169738"/>
    <nd ref="12306682472"/>
    <nd ref="8239169739"/>
    <nd ref="8239169740"/>
    <nd ref="8239169741"/>
    <nd ref="8239169742"/>
    <tag k="highway" v="residential"/>
  </way>
  <way id="886071251" version="2" timestamp="2024-11-02T07:50:19Z" changeset="158647310" uid="17128620" user="Pineajelly">
    <nd ref="8239169743"/>
    <nd ref="8239169744"/>
    <nd ref="8239169745"/>
    <nd ref="8239169746"/>
    <nd ref="8239169747"/>
    <tag k="highway" v="residential"/>
  </way>
  <way id="1241973294" version="1" timestamp="2024-01-22T15:46:13Z" changeset="146559190" uid="384887" user="robw">
    <nd ref="333287282"/>
    <nd ref="2498352907"/>
    <nd ref="2498352909"/>
    <nd ref="1474976071"/>
    <nd ref="1474976063"/>
    <nd ref="1474976053"/>
    <nd ref="333287284"/>
    <nd ref="2501370774"/>
    <nd ref="11540305661"/>
    <nd ref="333287286"/>
    <nd ref="11540305652"/>
    <tag k="highway" v="tertiary"/>
  </way>
  <way id="1241973295" version="1" timestamp="2024-01-22T15:46:13Z" changeset="146559190" uid="384887" user="robw">
    <nd ref="11540305652"/>
    <nd ref="11540305651"/>
    <tag k="bridge" v="yes"/>
    <tag k="highway" v="tertiary"/>
    <tag k="layer" v="1"/>
  </way>
  <way id="1330115084" version="1" timestamp="2024-11-02T07:50:19Z" changeset="158647310" uid="17128620" user="Pineajelly">
    <nd ref="12306682421"/>
    <nd ref="12306682422"/>
    <nd ref="12306682423"/>
    <nd ref="12306682424"/>
    <tag k="highway" v="residential"/>
    <tag k="name" v="Grange Farm Close"/>
  </way>
  <way id="1330115085" version="1" timestamp="2024-11-02T07:50:19Z" changeset="158647310" uid="17128620" user="Pineajelly">
    <nd ref="2502773325"/>
    <nd ref="12306682425"/>
    <nd ref="12306682421"/>
    <tag k="highway" v="residential"/>
    <tag k="name" v="Evans Terrace"/>
    <tag k="source" v="bing"/>
  </way>
  <way id="1330115086" version="1" timestamp="2024-11-02T07:50:19Z" changeset="158647310" uid="17128620" user="Pineajelly">
    <nd ref="12306682421"/>
    <nd ref="2502773295"/>
    <tag k="highway" v="residential"/>
    <tag k="name" v="Evans Terrace"/>
    <tag k="source" v="bing"/>
  </way>
  <way id="1330115508" version="1" timestamp="2024-11-02T07:54:54Z" changeset="158647392" uid="17128620" user="Pineajelly">
    <nd ref="12306708923"/>
    <nd ref="12306708924"/>
    <tag k="highway" v="residential"/>
  </way>
  <way id="1330115509" version="1" timestamp="2024-11-02T07:54:54Z" changeset="158647392" uid="17128620" user="Pineajelly">
    <nd ref="12306708929"/>
    <nd ref="12306708924"/>
    <nd ref="12306708930"/>
    <tag k="highway" v="residential"/>
  </way>

</osm>
