<?xml version="1.0" encoding="UTF-8"?>
<osm version="0.6" generator="Overpass API 0.7.62.8 e802775f">
<note>The data included in this document is from www.openstreetmap.org. The data is made available under ODbL.</note>
<meta osm_base="2025-10-23T17:28:33Z" areas="2025-10-23T14:54:58Z"/>

  <node id="249496322" lat="52.1795524" lon="-1.8218379" version="5" timestamp="2021-03-19T19:08:10Z" changeset="101348310" uid="9065" user="brianboru"/>
  <node id="249496344" lat="52.1827569" lon="-1.8348437" version="4" timestamp="2020-08-12T07:37:44Z" changeset="89287258" uid="9065" user="brianboru"/>
  <node id="354560198" lat="52.1839704" lon="-1.8402804" version="2" timestamp="2013-09-12T12:39:36Z" changeset="17798852" uid="9065" user="brianboru"/>
  <node id="400881012" lat="52.1883102" lon="-1.8658167" version="3" timestamp="2013-09-12T12:39:36Z" changeset="17798852" uid="9065" user="brianboru"/>
  <node id="1600349451" lat="52.1961396" lon="-1.8477186" version="2" timestamp="2013-09-01T19:43:48Z" changeset="17624943" uid="9065" user="brianboru"/>
  <node id="1684755969" lat="52.1859127" lon="-1.8318264" version="1" timestamp="2012-03-21T14:50:07Z" changeset="11053015" uid="61216" user="UniEagle"/>
  <node id="2455477149" lat="52.1827708" lon="-1.8348830" version="2" timestamp="2020-08-12T07:37:44Z" changeset="89287258" uid="9065" user="brianboru"/>
  <way id="23109957" version="17" timestamp="2025-01-12T20:44:44Z" changeset="161287141" uid="1782504" user="corgicity">
    <nd ref="249496322"/>
    <nd ref="2578659654"/>
    <nd ref="2578659660"/>
    <nd ref="2578659681"/>
    <nd ref="767435374"/>
    <nd ref="249496341"/>
    <nd ref="8066313770"/>
    <nd ref="12272788084"/>
    <nd ref="249496342"/>
    <nd ref="12272788083"/>
    <nd ref="2457005926"/>
    <nd ref="2457005927"/>
    <nd ref="8086854000"/>
    <nd ref="2323161410"/>
    <nd ref="249496343"/>
    <nd ref="7523086881"/>
    <nd ref="6776661839"/>
    <nd ref="767435375"/>
    <nd ref="2323161436"/>
    <nd ref="767435376"/>
    <nd ref="2323161437"/>
    <nd ref="249496344"/>
    <nd ref="2455477149"/>
    <nd ref="2323161442"/>
    <nd ref="298529679"/>
    <nd ref="2455477158"/>
    <nd ref="298529680"/>
    <nd ref="7987832680"/>
    <nd ref="7987832665"/>
    <nd ref="298529681"/>
    <nd ref="12496812862"/>
    <nd ref="298529682"/>
    <nd ref="2323161450"/>
    <nd ref="354560198"/>
    <tag k="highway" v="unclassified"/>
    <tag k="name" v="Wixford Road"/>
    <tag k="source" v="npe; NPE"/>
    <tag k="source:name" v="OS_OpenData_Locator"/>
  </way>
  <way id="23171384" version="12" timestamp="2023-08-24T19:53:18Z" changeset="140340504" uid="165" user="Richard">
    <nd ref="2455477149"/>
    <nd ref="250535260"/>
    <nd ref="250535261"/>
    <nd ref="2455477124"/>
    <nd ref="250535262"/>
    <nd ref="250535263"/>
    <nd ref="2457005856"/>
    <nd ref="2457005855"/>
    <nd ref="2457005851"/>
    <nd ref="250535264"/>
    <nd ref="2457005839"/>
    <nd ref="2457005835"/>
    <nd ref="2457005832"/>
    <nd ref="250535265"/>
    <nd ref="2457005816"/>
    <nd ref="250535266"/>
    <nd ref="2457005812"/>
    <nd ref="2457005810"/>
    <nd ref="250535267"/>
    <nd ref="250535268"/>
    <nd ref="2457005801"/>
    <nd ref="250535269"/>
    <nd ref="2457005796"/>
    <nd ref="2457005787"/>
    <nd ref="250535270"/>
    <nd ref="2457005776"/>
    <tag k="highway" v="tertiary"/>
    <tag k="name" v="Grafton Lane"/>
  </way>
  <way id="23339018" version="13" timestamp="2025-01-12T20:44:44Z" changeset="161287141" uid="1782504" user="corgicity">
    <nd ref="249496344"/>
    <nd ref="6521265894"/>
    <nd ref="6521265891"/>
    <nd ref="12496812854"/>
    <nd ref="249496345"/>
    <nd ref="6878229259"/>
    <nd ref="1684755961"/>
    <nd ref="1684755963"/>
    <nd ref="1684755965"/>
    <nd ref="1684755967"/>
    <nd ref="249496346"/>
    <nd ref="1684755969"/>
    <nd ref="249496347"/>
    <nd ref="1684755971"/>
    <nd ref="1684755973"/>
    <nd ref="1684755975"/>
    <nd ref="1684755979"/>
    <nd ref="1684755981"/>
    <nd ref="559156954"/>
    <nd ref="559156955"/>
    <nd ref="559156952"/>
    <nd ref="249496348"/>
    <nd ref="1684755985"/>
    <nd ref="1684755988"/>
    <nd ref="1684755992"/>
    <nd ref="1684755995"/>
    <nd ref="684644698"/>
    <nd ref="12496812844"/>
    <nd ref="1684755998"/>
    <nd ref="767435180"/>
    <nd ref="12272798135"/>
    <nd ref="249496349"/>
    <nd ref="6483398142"/>
    <nd ref="767435181"/>
    <nd ref="1684756000"/>
    <nd ref="767435182"/>
    <nd ref="249496350"/>
    <nd ref="767434534"/>
    <nd ref="249496351"/>
    <nd ref="1600349428"/>
    <nd ref="249496327"/>
    <tag k="highway" v="tertiary"/>
    <tag k="source" v="npe"/>
  </way>
  <way id="25650197" version="18" timestamp="2020-10-01T10:43:41Z" changeset="91820660" uid="10221594" user="afurquan">
    <nd ref="400881012"/>
    <nd ref="2455477400"/>
    <nd ref="2455477403"/>
    <nd ref="2455477406"/>
    <nd ref="2441829368"/>
    <nd ref="2455477419"/>
    <nd ref="400881013"/>
    <nd ref="2455477421"/>
    <nd ref="2441829369"/>
    <nd ref="2441829370"/>
    <nd ref="400881014"/>
    <nd ref="2441829371"/>
    <nd ref="2441829372"/>
    <nd ref="400881015"/>
    <nd ref="2441829374"/>
    <nd ref="2677247063"/>
    <nd ref="400881016"/>
    <nd ref="2441829376"/>
    <nd ref="2441829378"/>
    <nd ref="2441829380"/>
    <nd ref="2441829382"/>
    <nd ref="400881017"/>
    <nd ref="2441829384"/>
    <nd ref="279616038"/>
    <nd ref="559156821"/>
    <nd ref="6533332526"/>
    <nd ref="559156819"/>
    <nd ref="7962784507"/>
    <nd ref="559156818"/>
    <nd ref="2441829387"/>
    <nd ref="279616195"/>
    <nd ref="559156826"/>
    <nd ref="400881018"/>
    <nd ref="4019456242"/>
    <nd ref="559156817"/>
    <nd ref="2441829405"/>
    <nd ref="279616194"/>
    <nd ref="279616040"/>
    <nd ref="2441829429"/>
    <nd ref="2441829435"/>
    <nd ref="2441829442"/>
    <nd ref="400881019"/>
    <nd ref="2441829478"/>
    <nd ref="2441829497"/>
    <nd ref="279616084"/>
    <nd ref="2441829521"/>
    <nd ref="2441829519"/>
    <nd ref="618870078"/>
    <nd ref="279616018"/>
    <tag k="highway" v="unclassified"/>
    <tag k="source" v="survey"/>
  </way>
  <way id="191434833" version="7" timestamp="2025-01-12T20:44:44Z" changeset="161287141" uid="1782504" user="corgicity">
    <nd ref="354560198"/>
    <nd ref="298529684"/>
    <nd ref="298529685"/>
    <nd ref="12496812863"/>
    <nd ref="298529686"/>
    <nd ref="2455477222"/>
    <nd ref="298529687"/>
    <nd ref="2455477237"/>
    <nd ref="2455477247"/>
    <nd ref="298529689"/>
    <nd ref="2455477257"/>
    <nd ref="298529690"/>
    <nd ref="298529691"/>
    <nd ref="2455477270"/>
    <nd ref="2627326600"/>
    <nd ref="298529692"/>
    <nd ref="298529693"/>
    <nd ref="298529694"/>
    <nd ref="2455312813"/>
    <nd ref="298529696"/>
    <nd ref="298529697"/>
    <nd ref="298529698"/>
    <nd ref="298529699"/>
    <nd ref="298529700"/>
    <nd ref="298529701"/>
    <nd ref="1402484664"/>
    <nd ref="8544493572"/>
    <nd ref="298529702"/>
    <nd ref="298529704"/>
    <nd ref="298529705"/>
    <nd ref="8874742750"/>
    <nd ref="298529706"/>
    <nd ref="2455477387"/>
    <nd ref="400881012"/>
    <nd ref="1542123511"/>
    <tag k="highway" v="unclassified"/>
    <tag k="source" v="NPE"/>
  </way>
  <way id="237659449" version="5" timestamp="2020-10-16T09:01:07Z" changeset="92570746" uid="281267" user="smb1001">
    <nd ref="2455312925"/>
    <nd ref="2455312928"/>
    <nd ref="4470116284"/>
    <nd ref="2455312926"/>
    <nd ref="2455312923"/>
    <nd ref="2455312921"/>
    <nd ref="2455312919"/>
    <nd ref="2455312922"/>
    <nd ref="2455312920"/>
    <nd ref="2455312925"/>
    <tag k="amenity" v="place_of_worship"/>
    <tag k="building" v="church"/>
    <tag k="denomination" v="anglican"/>
    <tag k="name" v="St. Giles"/>
    <tag k="religion" v="christian"/>
    <tag k="source" v="bing"/>
    <tag k="wikidata" v="Q26587793"/>
  </way>
  <way id="277626384" version="1" timestamp="2014-04-27T16:26:20Z" changeset="21981536" uid="411244" user="RobJN">
    <nd ref="279616018"/>
    <nd ref="2441829499"/>
    <nd ref="1600349451"/>
    <tag k="highway" v="unclassified"/>
    <tag k="source" v="survey"/>
  </way>
  <way id="277626385" version="6" timestamp="2025-01-12T20:44:44Z" changeset="161287141" uid="1782504" user="corgicity">
    <nd ref="1600349451"/>
    <nd ref="618870062"/>
    <nd ref="2441829452"/>
    <nd ref="279615982"/>
    <nd ref="2441829413"/>
    <nd ref="279615983"/>
    <nd ref="2455285070"/>
    <nd ref="8269558671"/>
    <nd ref="2455285066"/>
    <nd ref="2455285061"/>
    <nd ref="2455285059"/>
    <nd ref="279615984"/>
    <nd ref="2455285056"/>
    <nd ref="2455285054"/>
    <nd ref="279615985"/>
    <nd ref="2455285051"/>
    <nd ref="618870090"/>
    <nd ref="279615986"/>
    <nd ref="2441806351"/>
    <nd ref="400881020"/>
    <nd ref="4470117794"/>
    <nd ref="400881021"/>
    <nd ref="400881022"/>
    <nd ref="8538342414"/>
    <nd ref="12496812848"/>
    <nd ref="400881023"/>
    <nd ref="2455477425"/>
    <nd ref="2455477399"/>
    <nd ref="5576866240"/>
    <nd ref="400881024"/>
    <nd ref="2455477310"/>
    <nd ref="400881025"/>
    <nd ref="400881026"/>
    <nd ref="5576866039"/>
    <nd ref="2455477291"/>
    <nd ref="5576866040"/>
    <nd ref="5576866041"/>
    <nd ref="2455477287"/>
    <nd ref="2455477288"/>
    <nd ref="400881027"/>
    <nd ref="2627316164"/>
    <nd ref="2455477297"/>
    <nd ref="559156948"/>
    <nd ref="559156950"/>
    <nd ref="559156951"/>
    <nd ref="249496348"/>
    <tag k="highway" v="unclassified"/>
    <tag k="source" v="survey"/>
  </way>
  <way id="299081064" version="2" timestamp="2018-04-24T17:55:17Z" changeset="58382824" uid="9065" user="brianboru">
    <nd ref="3030273011"/>
    <nd ref="3030273015"/>
    <nd ref="3030273009"/>
    <nd ref="3030273012"/>
    <nd ref="3030273013"/>
    <nd ref="3030273014"/>
    <nd ref="3030273011"/>
    <tag k="addr:postcode" v="B50 4LG"/>
    <tag k="addr:street" v="Wixford Road"/>
    <tag k="amenity" v="pub"/>
    <tag k="building" v="yes"/>
    <tag k="food" v="yes"/>
    <tag k="name" v="The Golden Cross"/>
    <tag k="source" v="survey"/>
  </way>
  <way id="335790988" version="2" timestamp="2017-07-16T17:24:38Z" changeset="50331006" uid="705850" user="Cebderby">
    <nd ref="1684755969"/>
    <nd ref="3429044145"/>
    <nd ref="3429044147"/>
    <nd ref="3429044148"/>
    <nd ref="3429044150"/>
    <tag k="highway" v="residential"/>
    <tag k="name" v="Vauxhall Lane"/>
    <tag k="source" v="bing"/>
    <tag k="source:name" v="OS_Locator"/>
  </way>

</osm>
