<?xml version="1.0" encoding="UTF-8"?>
<osm version="0.6" generator="Overpass API 0.7.62.8 e802775f">
<note>The data included in this document is from www.openstreetmap.org. The data is made available under ODbL.</note>
<meta osm_base="2025-10-23T17:22:30Z" areas="2025-10-23T12:46:58Z"/>

  <node id="56060760" lat="52.1552714" lon="-1.5756207" version="2" timestamp="2013-09-23T13:02:26Z" changeset="17990767" uid="9065" user="brianboru"/>
  <node id="264484036" lat="52.1232624" lon="-1.5305068" version="6" timestamp="2011-11-11T12:34:23Z" changeset="9795901" uid="243152" user="ChinnorBoy"/>
  <node id="312300396" lat="52.1152063" lon="-1.4889079" version="4" timestamp="2022-01-07T17:07:12Z" changeset="115884830" uid="30587" user="IknowJoseph"/>
  <node id="1547225576" lat="52.1286065" lon="-1.5715546" version="2" timestamp="2013-12-04T13:11:45Z" changeset="19271794" uid="9065" user="brianboru"/>
  <node id="1547226075" lat="52.1274286" lon="-1.5732049" version="3" timestamp="2025-03-09T15:45:28Z" changeset="163406208" uid="493595" user="Yorvik Prestigitator"/>
  <node id="2468767293" lat="52.1551352" lon="-1.5757236" version="1" timestamp="2013-09-23T13:02:00Z" changeset="17990767" uid="9065" user="brianboru"/>
  <node id="2561310358" lat="52.1375173" lon="-1.5595996" version="1" timestamp="2013-12-02T14:14:17Z" changeset="19234024" uid="9065" user="brianboru"/>
  <node id="5335278811" lat="52.1460711" lon="-1.5844217" version="1" timestamp="2018-01-12T17:09:16Z" changeset="55385975" uid="6164655" user="Mike Parfitt"/>
  <way id="21015732" version="22" timestamp="2023-10-25T18:30:50Z" changeset="143129620" uid="8355539" user="danthw_">
    <nd ref="1547226075"/>
    <nd ref="11289391150"/>
    <nd ref="2564391832"/>
    <nd ref="2564391842"/>
    <nd ref="1547226080"/>
    <nd ref="2564357747"/>
    <nd ref="256263539"/>
    <nd ref="256263538"/>
    <nd ref="256263537"/>
    <nd ref="8113543858"/>
    <nd ref="2564357753"/>
    <nd ref="6902703983"/>
    <nd ref="256263536"/>
    <nd ref="2564357774"/>
    <nd ref="256263534"/>
    <nd ref="2564357779"/>
    <nd ref="256263533"/>
    <nd ref="2564357786"/>
    <nd ref="256263532"/>
    <nd ref="2564357792"/>
    <nd ref="256263531"/>
    <nd ref="2564357797"/>
    <nd ref="2564357801"/>
    <nd ref="3666812956"/>
    <nd ref="2564357808"/>
    <nd ref="3666812957"/>
    <nd ref="2564357863"/>
    <nd ref="256263530"/>
    <nd ref="2564357942"/>
    <nd ref="2564357991"/>
    <nd ref="2569643634"/>
    <nd ref="9076161792"/>
    <nd ref="11289391144"/>
    <nd ref="11289391142"/>
    <nd ref="732649901"/>
    <nd ref="1274615057"/>
    <nd ref="1274615012"/>
    <nd ref="5335278816"/>
    <nd ref="5335278819"/>
    <nd ref="5335278810"/>
    <nd ref="5335278814"/>
    <nd ref="11289391147"/>
    <nd ref="225923963"/>
    <tag k="highway" v="unclassified"/>
    <tag k="name" v="Walton Road"/>
  </way>
  <way id="24375848" version="14" timestamp="2025-06-01T10:32:09Z" changeset="167044046" uid="1782504" user="corgicity">
    <nd ref="264484036"/>
    <nd ref="11289391152"/>
    <nd ref="2600919238"/>
    <nd ref="2552395514"/>
    <nd ref="2552395529"/>
    <nd ref="264484037"/>
    <nd ref="2552395535"/>
    <nd ref="2561449286"/>
    <nd ref="264484038"/>
    <nd ref="264484039"/>
    <nd ref="2552395539"/>
    <nd ref="264484040"/>
    <nd ref="264484041"/>
    <nd ref="264484042"/>
    <nd ref="12878773128"/>
    <nd ref="264484043"/>
    <nd ref="264484044"/>
    <nd ref="264484045"/>
    <nd ref="264484046"/>
    <nd ref="7817502472"/>
    <nd ref="2552395576"/>
    <nd ref="264484047"/>
    <nd ref="2552395585"/>
    <nd ref="264484048"/>
    <nd ref="264484049"/>
    <nd ref="2549393206"/>
    <nd ref="264484050"/>
    <nd ref="264484051"/>
    <nd ref="7817502462"/>
    <nd ref="264484052"/>
    <nd ref="2552395766"/>
    <nd ref="264484053"/>
    <nd ref="264484054"/>
    <nd ref="9342080043"/>
    <nd ref="264484055"/>
    <nd ref="264484056"/>
    <nd ref="2561449739"/>
    <nd ref="264484057"/>
    <nd ref="264484058"/>
    <nd ref="264484059"/>
    <nd ref="2561449771"/>
    <nd ref="264484060"/>
    <nd ref="2561449806"/>
    <nd ref="264484061"/>
    <nd ref="264484062"/>
    <nd ref="2561449828"/>
    <nd ref="2561449858"/>
    <nd ref="264484063"/>
    <nd ref="264484064"/>
    <nd ref="2561449879"/>
    <nd ref="264484065"/>
    <nd ref="264484066"/>
    <nd ref="2561449930"/>
    <nd ref="2561449942"/>
    <nd ref="2561449951"/>
    <nd ref="264484067"/>
    <nd ref="264484068"/>
    <tag k="highway" v="tertiary"/>
  </way>
  <way id="25504178" version="22" timestamp="2023-10-25T18:30:50Z" changeset="143129620" uid="8355539" user="danthw_">
    <nd ref="264484036"/>
    <nd ref="11289391153"/>
    <nd ref="8266415803"/>
    <nd ref="7412884764"/>
    <nd ref="277911001"/>
    <nd ref="277911002"/>
    <nd ref="6776684029"/>
    <nd ref="277911003"/>
    <nd ref="2600926884"/>
    <nd ref="277911004"/>
    <nd ref="277911005"/>
    <nd ref="2563050744"/>
    <nd ref="2563050724"/>
    <nd ref="277911006"/>
    <nd ref="7113935571"/>
    <nd ref="7113935581"/>
    <nd ref="2600926883"/>
    <nd ref="747829807"/>
    <nd ref="277911007"/>
    <nd ref="6901543268"/>
    <nd ref="2571380059"/>
    <nd ref="6542516787"/>
    <nd ref="277911008"/>
    <nd ref="2571161131"/>
    <nd ref="2571161128"/>
    <nd ref="2571161122"/>
    <nd ref="732649881"/>
    <tag k="highway" v="tertiary"/>
    <tag k="name" v="Kineton Road"/>
  </way>
  <way id="115569072" version="18" timestamp="2025-01-02T18:43:33Z" changeset="160921475" uid="5229644" user="Nathan_A_RF">
    <nd ref="312300396"/>
    <nd ref="15830472"/>
    <nd ref="1498577641"/>
    <nd ref="1498577685"/>
    <nd ref="1498577689"/>
    <nd ref="1498577765"/>
    <nd ref="1498577639"/>
    <nd ref="1498577793"/>
    <nd ref="1498577723"/>
    <nd ref="1498577699"/>
    <nd ref="15830473"/>
    <nd ref="1498577668"/>
    <nd ref="1498577743"/>
    <nd ref="1498577709"/>
    <nd ref="1498577741"/>
    <nd ref="1498577681"/>
    <nd ref="1498577720"/>
    <nd ref="312300204"/>
    <nd ref="1498577781"/>
    <nd ref="1498577758"/>
    <nd ref="1498577678"/>
    <nd ref="1498577712"/>
    <nd ref="1498577722"/>
    <nd ref="1498577683"/>
    <nd ref="1498577770"/>
    <nd ref="15830474"/>
    <nd ref="1498577767"/>
    <nd ref="1498577736"/>
    <nd ref="1498577751"/>
    <nd ref="1498577744"/>
    <nd ref="1498577646"/>
    <nd ref="6905297275"/>
    <nd ref="1498577654"/>
    <nd ref="1498577661"/>
    <nd ref="1498577773"/>
    <nd ref="15830475"/>
    <nd ref="1498577715"/>
    <nd ref="1498577746"/>
    <nd ref="1498577730"/>
    <nd ref="15830476"/>
    <nd ref="1498577796"/>
    <nd ref="1498577697"/>
    <nd ref="6564208615"/>
    <nd ref="1498577643"/>
    <nd ref="8109887732"/>
    <nd ref="1498577704"/>
    <nd ref="15830477"/>
    <nd ref="1498577686"/>
    <nd ref="1498577732"/>
    <nd ref="1498577653"/>
    <nd ref="1498577713"/>
    <nd ref="1498577677"/>
    <nd ref="1498577688"/>
    <nd ref="1498577649"/>
    <nd ref="15830478"/>
    <nd ref="1498577672"/>
    <nd ref="264484036"/>
    <nd ref="1498577663"/>
    <nd ref="1498577757"/>
    <nd ref="1498577655"/>
    <nd ref="1498577776"/>
    <nd ref="1498577687"/>
    <nd ref="15830479"/>
    <nd ref="1498577742"/>
    <nd ref="15830480"/>
    <nd ref="1498577734"/>
    <nd ref="1498577708"/>
    <nd ref="1498577665"/>
    <nd ref="1498577792"/>
    <nd ref="1498577798"/>
    <nd ref="1498577669"/>
    <nd ref="610651399"/>
    <nd ref="1498577664"/>
    <nd ref="1498577711"/>
    <nd ref="1498577673"/>
    <nd ref="1498577666"/>
    <nd ref="610651400"/>
    <nd ref="610651401"/>
    <nd ref="1498577731"/>
    <nd ref="747829789"/>
    <nd ref="1498577721"/>
    <nd ref="1498577656"/>
    <nd ref="1498577784"/>
    <nd ref="15830498"/>
    <nd ref="1498722383"/>
    <nd ref="1498722464"/>
    <nd ref="1498722379"/>
    <nd ref="1498722515"/>
    <nd ref="732649877"/>
    <nd ref="15830497"/>
    <nd ref="1498722485"/>
    <nd ref="1498722489"/>
    <nd ref="1498722433"/>
    <nd ref="1498722385"/>
    <nd ref="2561449229"/>
    <nd ref="15830496"/>
    <nd ref="1498722400"/>
    <nd ref="1498722483"/>
    <nd ref="1498722476"/>
    <nd ref="1498722387"/>
    <nd ref="15830495"/>
    <nd ref="1498722403"/>
    <nd ref="600095428"/>
    <nd ref="1498722521"/>
    <nd ref="1498722498"/>
    <nd ref="1498722502"/>
    <tag k="cycleway:both" v="no"/>
    <tag k="highway" v="primary"/>
    <tag k="lanes" v="2"/>
    <tag k="maxspeed" v="60 mph"/>
    <tag k="maxspeed:type" v="GB:nsl_single"/>
    <tag k="ref" v="A422"/>
    <tag k="shoulder" v="no"/>
    <tag k="surface" v="asphalt"/>
  </way>
  <way id="141336107" version="10" timestamp="2023-10-25T18:30:50Z" changeset="143129620" uid="8355539" user="danthw_">
    <nd ref="1547225791"/>
    <nd ref="11289391141"/>
    <nd ref="2561238127"/>
    <nd ref="2561238129"/>
    <nd ref="2561238132"/>
    <nd ref="2561238135"/>
    <nd ref="732649921"/>
    <nd ref="2561238138"/>
    <nd ref="732649930"/>
    <nd ref="2561238140"/>
    <nd ref="6597308885"/>
    <nd ref="2561238143"/>
    <nd ref="8502270672"/>
    <nd ref="6597286884"/>
    <nd ref="2561238145"/>
    <nd ref="732649937"/>
    <nd ref="2561238148"/>
    <nd ref="2561238151"/>
    <nd ref="6318149116"/>
    <nd ref="3666812941"/>
    <nd ref="6776525392"/>
    <nd ref="732649850"/>
    <nd ref="1274615054"/>
    <nd ref="8266301285"/>
    <nd ref="2561238161"/>
    <nd ref="1274615050"/>
    <nd ref="2564357963"/>
    <nd ref="1274615041"/>
    <nd ref="732649879"/>
    <nd ref="732649883"/>
    <nd ref="1274615029"/>
    <nd ref="732649895"/>
    <nd ref="1274615019"/>
    <nd ref="1274615021"/>
    <nd ref="11289391143"/>
    <nd ref="732649901"/>
    <tag k="highway" v="unclassified"/>
  </way>
  <way id="191357611" version="1" timestamp="2012-11-18T09:01:36Z" changeset="13915350" uid="4951" user="PeterEastern">
    <nd ref="2019434870"/>
    <nd ref="732649930"/>
    <tag k="highway" v="residential"/>
    <tag k="source" v="OS_OpenData_StreetView"/>
  </way>
  <way id="191357613" version="3" timestamp="2013-12-02T14:14:30Z" changeset="19234024" uid="9065" user="brianboru">
    <nd ref="2019434903"/>
    <nd ref="2561310208"/>
    <nd ref="2561310229"/>
    <nd ref="2561310231"/>
    <nd ref="2561310238"/>
    <nd ref="2019434864"/>
    <nd ref="2561238115"/>
    <nd ref="2561310242"/>
    <nd ref="2019434857"/>
    <nd ref="2561310268"/>
    <nd ref="2561238120"/>
    <nd ref="2561310293"/>
    <nd ref="2561310330"/>
    <nd ref="2019434900"/>
    <nd ref="2019434877"/>
    <tag k="highway" v="residential"/>
    <tag k="source" v="OS_OpenData_StreetView"/>
  </way>
  <way id="191357625" version="7" timestamp="2023-10-25T18:30:50Z" changeset="143129620" uid="8355539" user="danthw_">
    <nd ref="2019434886"/>
    <nd ref="2019434874"/>
    <nd ref="2561310181"/>
    <nd ref="2561310184"/>
    <nd ref="2561310186"/>
    <nd ref="2019434880"/>
    <nd ref="2561310188"/>
    <nd ref="7919098231"/>
    <nd ref="2561310192"/>
    <nd ref="2561310190"/>
    <nd ref="7311213239"/>
    <nd ref="7311213229"/>
    <nd ref="2019434883"/>
    <nd ref="2561310194"/>
    <nd ref="2019434903"/>
    <nd ref="2561310198"/>
    <nd ref="2561310202"/>
    <nd ref="7363604193"/>
    <nd ref="2019434906"/>
    <nd ref="2561310210"/>
    <nd ref="2561310217"/>
    <nd ref="2561310221"/>
    <nd ref="2561310227"/>
    <nd ref="2561310233"/>
    <nd ref="2019434860"/>
    <nd ref="2561310260"/>
    <nd ref="2561310264"/>
    <nd ref="2561238123"/>
    <nd ref="11289391139"/>
    <nd ref="1547225764"/>
    <tag k="highway" v="residential"/>
    <tag k="name" v="Oxhill Bridle Road"/>
    <tag k="source" v="OS_OpenData_StreetView"/>
    <tag k="source:name" v="OS_OpenData_Locator"/>
  </way>
  <way id="191357633" version="4" timestamp="2020-04-03T15:54:36Z" changeset="83043520" uid="9065" user="brianboru">
    <nd ref="2019434918"/>
    <nd ref="6892204082"/>
    <nd ref="7363603927"/>
    <nd ref="2561310305"/>
    <nd ref="2019434867"/>
    <nd ref="2561310320"/>
    <nd ref="2561310334"/>
    <nd ref="2019434909"/>
    <nd ref="2561310342"/>
    <nd ref="2561310345"/>
    <nd ref="2561310349"/>
    <nd ref="2561310353"/>
    <nd ref="2019434915"/>
    <tag k="highway" v="residential"/>
    <tag k="name" v="Watery Lane"/>
    <tag k="source" v="OS_OpenData_StreetView"/>
  </way>
  <way id="239061971" version="22" timestamp="2025-01-02T14:57:25Z" changeset="160911038" uid="5229644" user="Nathan_A_RF">
    <nd ref="2468767293"/>
    <nd ref="1248021339"/>
    <nd ref="56061067"/>
    <nd ref="2455072358"/>
    <nd ref="11071056531"/>
    <nd ref="2476629914"/>
    <nd ref="56061069"/>
    <nd ref="2476629892"/>
    <nd ref="2561310508"/>
    <nd ref="9885424987"/>
    <nd ref="15830530"/>
    <nd ref="11071056516"/>
    <nd ref="2476629794"/>
    <nd ref="2953361477"/>
    <nd ref="2476629786"/>
    <nd ref="5335278815"/>
    <nd ref="5335278811"/>
    <nd ref="225923963"/>
    <nd ref="2476629772"/>
    <nd ref="56061298"/>
    <nd ref="2476653984"/>
    <nd ref="15830529"/>
    <nd ref="7249906347"/>
    <nd ref="56061301"/>
    <nd ref="2569643661"/>
    <nd ref="10270060448"/>
    <nd ref="2476653926"/>
    <nd ref="10270060452"/>
    <nd ref="2476653883"/>
    <nd ref="2476653865"/>
    <nd ref="3666812969"/>
    <nd ref="7358718194"/>
    <nd ref="15830491"/>
    <nd ref="7358714395"/>
    <nd ref="7358714394"/>
    <nd ref="7358714391"/>
    <nd ref="15830488"/>
    <tag k="cycleway:both" v="no"/>
    <tag k="highway" v="secondary"/>
    <tag k="lanes" v="2"/>
    <tag k="lit" v="no"/>
    <tag k="maxspeed" v="60 mph"/>
    <tag k="maxspeed:type" v="GB:nsl_single"/>
    <tag k="name" v="Fosse Way"/>
    <tag k="ref" v="B4455"/>
    <tag k="shoulder" v="no"/>
    <tag k="sidewalk" v="no"/>
    <tag k="surface" v="asphalt"/>
  </way>
  <way id="239061972" version="10" timestamp="2025-01-02T14:57:25Z" changeset="160911038" uid="5229644" user="Nathan_A_RF">
    <nd ref="56060760"/>
    <nd ref="2468767293"/>
    <tag k="bridge" v="yes"/>
    <tag k="cycleway:both" v="no"/>
    <tag k="highway" v="secondary"/>
    <tag k="lanes" v="2"/>
    <tag k="layer" v="1"/>
    <tag k="lit" v="no"/>
    <tag k="maxspeed" v="60 mph"/>
    <tag k="maxspeed:type" v="GB:nsl_single"/>
    <tag k="maxweight:signed" v="no"/>
    <tag k="name" v="Fosse Way"/>
    <tag k="ref" v="B4455"/>
    <tag k="shoulder" v="no"/>
    <tag k="sidewalk" v="no"/>
    <tag k="surface" v="asphalt"/>
  </way>
  <way id="249547200" version="2" timestamp="2023-10-25T18:30:50Z" changeset="143129620" uid="8355539" user="danthw_">
    <nd ref="1547225799"/>
    <nd ref="11289391140"/>
    <nd ref="2561238127"/>
    <tag k="highway" v="unclassified"/>
    <tag k="source" v="bing"/>
  </way>
  <way id="249898979" version="4" timestamp="2023-12-01T09:06:34Z" changeset="144654010" uid="504708" user="HillWithSmallFields">
    <nd ref="2564357902"/>
    <nd ref="2564357905"/>
    <nd ref="2564357899"/>
    <nd ref="2564357903"/>
    <nd ref="2564357896"/>
    <nd ref="2564357893"/>
    <nd ref="2564357889"/>
    <nd ref="2564357888"/>
    <nd ref="2564357892"/>
    <nd ref="2564357890"/>
    <nd ref="2564357894"/>
    <nd ref="2564357897"/>
    <nd ref="2564357902"/>
    <tag k="amenity" v="place_of_worship"/>
    <tag k="building" v="church"/>
    <tag k="denomination" v="anglican"/>
    <tag k="heritage" v="2"/>
    <tag k="heritage:operator" v="Historic England"/>
    <tag k="listed_status" v="Grade II*"/>
    <tag k="name" v="St Mary the Virgin"/>
    <tag k="ref:dove" v="16032"/>
    <tag k="religion" v="christian"/>
    <tag k="source" v="bing"/>
    <tag k="wikidata" v="Q17551737"/>
  </way>
  <way id="376145312" version="6" timestamp="2025-03-09T15:45:28Z" changeset="163406208" uid="493595" user="Yorvik Prestigitator">
    <nd ref="1547225576"/>
    <nd ref="1547225593"/>
    <nd ref="1547225305"/>
    <nd ref="11289391151"/>
    <nd ref="1547225601"/>
    <nd ref="1547225605"/>
    <nd ref="12647753869"/>
    <nd ref="1547225609"/>
    <nd ref="1547225627"/>
    <nd ref="1547225633"/>
    <nd ref="1547225636"/>
    <nd ref="1547225641"/>
    <nd ref="9037191550"/>
    <nd ref="1547225661"/>
    <nd ref="1547225281"/>
    <nd ref="1547225131"/>
    <nd ref="1547225678"/>
    <nd ref="9037191559"/>
    <nd ref="1547225692"/>
    <nd ref="1547225694"/>
    <nd ref="1547225699"/>
    <nd ref="1547225701"/>
    <nd ref="1547225704"/>
    <nd ref="1547225707"/>
    <nd ref="1547225726"/>
    <tag k="highway" v="tertiary"/>
    <tag k="lanes" v="2"/>
    <tag k="name" v="Kineton Road"/>
    <tag k="source:name" v="NaPTAN"/>
    <tag k="surface" v="asphalt"/>
  </way>
  <way id="376145313" version="6" timestamp="2023-10-23T18:49:03Z" changeset="143031103" uid="8355539" user="danthw_">
    <nd ref="1547225726"/>
    <nd ref="8093364232"/>
    <nd ref="1547225728"/>
    <nd ref="3656259836"/>
    <nd ref="1547226078"/>
    <nd ref="1547225736"/>
    <nd ref="1547225752"/>
    <nd ref="1547225757"/>
    <nd ref="1547225764"/>
    <nd ref="1547225769"/>
    <nd ref="1547225770"/>
    <nd ref="1547225784"/>
    <nd ref="1547225791"/>
    <nd ref="6597308886"/>
    <nd ref="1547225793"/>
    <nd ref="1547225799"/>
    <nd ref="1547225812"/>
    <nd ref="1547225023"/>
    <nd ref="1547225025"/>
    <nd ref="1547225032"/>
    <nd ref="1547225040"/>
    <nd ref="2019434915"/>
    <nd ref="1547225041"/>
    <nd ref="7334127446"/>
    <nd ref="1547225044"/>
    <nd ref="2019434877"/>
    <nd ref="1547225055"/>
    <nd ref="2561310358"/>
    <tag k="highway" v="tertiary"/>
    <tag k="lanes" v="2"/>
    <tag k="maxspeed" v="30 mph"/>
    <tag k="name" v="Kineton Road"/>
    <tag k="source:name" v="NaPTAN"/>
    <tag k="surface" v="asphalt"/>
  </way>
  <way id="376145314" version="5" timestamp="2023-10-22T20:49:32Z" changeset="142986515" uid="8355539" user="danthw_">
    <nd ref="2561310358"/>
    <nd ref="1547225058"/>
    <nd ref="2561310359"/>
    <nd ref="1547225068"/>
    <nd ref="1547225072"/>
    <nd ref="1547225080"/>
    <nd ref="1547225085"/>
    <nd ref="1547225258"/>
    <nd ref="2561310377"/>
    <nd ref="7370822501"/>
    <nd ref="1547225114"/>
    <nd ref="5862596398"/>
    <nd ref="2455071985"/>
    <nd ref="1547225536"/>
    <nd ref="1547225247"/>
    <nd ref="1547225312"/>
    <nd ref="1547225455"/>
    <nd ref="1547225851"/>
    <nd ref="1547225864"/>
    <nd ref="1547225946"/>
    <nd ref="1547226009"/>
    <nd ref="1547225115"/>
    <nd ref="1689196181"/>
    <nd ref="1547225786"/>
    <nd ref="1547225204"/>
    <nd ref="1547225323"/>
    <nd ref="1547225424"/>
    <nd ref="1547226071"/>
    <nd ref="1547225207"/>
    <nd ref="1547225316"/>
    <nd ref="9931172517"/>
    <nd ref="1547225481"/>
    <nd ref="1547225668"/>
    <tag k="highway" v="tertiary"/>
    <tag k="name" v="Kineton Road"/>
    <tag k="source:name" v="NaPTAN"/>
    <tag k="surface" v="asphalt"/>
  </way>
  <way id="552634578" version="6" timestamp="2024-08-17T22:26:16Z" changeset="155391858" uid="456597" user="4004">
    <nd ref="5335278811"/>
    <nd ref="11289391148"/>
    <nd ref="5335278818"/>
    <nd ref="2476629776"/>
    <nd ref="5335285921"/>
    <nd ref="2953361484"/>
    <nd ref="225925020"/>
    <nd ref="6892724013"/>
    <nd ref="5335278817"/>
    <nd ref="225925021"/>
    <nd ref="5335278812"/>
    <nd ref="225925023"/>
    <nd ref="1274615005"/>
    <nd ref="225925024"/>
    <nd ref="225925027"/>
    <nd ref="5335278820"/>
    <nd ref="5335278813"/>
    <nd ref="225925029"/>
    <nd ref="4075763411"/>
    <nd ref="225925032"/>
    <nd ref="225925034"/>
    <nd ref="2515208321"/>
    <nd ref="2515208357"/>
    <nd ref="225925035"/>
    <nd ref="2515208376"/>
    <nd ref="225925038"/>
    <nd ref="225925041"/>
    <nd ref="225925043"/>
    <nd ref="225925044"/>
    <nd ref="225925045"/>
    <nd ref="2515208481"/>
    <nd ref="225925046"/>
    <nd ref="2515208484"/>
    <nd ref="225925048"/>
    <nd ref="225925050"/>
    <nd ref="225925051"/>
    <nd ref="225925053"/>
    <nd ref="225925055"/>
    <nd ref="225925057"/>
    <nd ref="225925058"/>
    <nd ref="225925059"/>
    <nd ref="225925061"/>
    <nd ref="225925062"/>
    <nd ref="2476629952"/>
    <nd ref="2949590861"/>
    <nd ref="2949590864"/>
    <nd ref="2949590866"/>
    <nd ref="225925063"/>
    <tag k="highway" v="unclassified"/>
    <tag k="maxheight" v="3.8"/>
    <tag k="name" v="Walton Road"/>
    <tag k="surface" v="asphalt"/>
  </way>
  <way id="981194119" version="2" timestamp="2022-07-13T15:19:57Z" changeset="123570241" uid="9065" user="brianboru">
    <nd ref="9885348603"/>
    <nd ref="9076161800"/>
    <nd ref="9076161801"/>
    <nd ref="9076161802"/>
    <nd ref="9076161803"/>
    <nd ref="9076161804"/>
    <nd ref="9076161805"/>
    <nd ref="9076161806"/>
    <nd ref="9885348603"/>
    <tag k="building" v="detached"/>
    <tag k="name" v="Fossebury Farm"/>
  </way>
  <way id="1218349690" version="1" timestamp="2023-10-25T18:30:50Z" changeset="143129620" uid="8355539" user="danthw_">
    <nd ref="11289391143"/>
    <nd ref="11289391146"/>
    <nd ref="11289391145"/>
    <nd ref="11289391144"/>
    <tag k="highway" v="unclassified"/>
  </way>

</osm>
