<?xml version="1.0" encoding="UTF-8"?>
<osm version="0.6" generator="Overpass API 0.7.62.8 e802775f">
<note>The data included in this document is from www.openstreetmap.org. The data is made available under ODbL.</note>
<meta osm_base="2025-10-23T17:25:30Z" areas="2025-10-23T14:54:58Z"/>

  <node id="249499726" lat="52.1469123" lon="-1.7991787" version="3" timestamp="2011-06-12T14:45:26Z" changeset="8416104" uid="213451" user="Richard Phillips"/>
  <node id="254002678" lat="52.1605182" lon="-1.8254251" version="3" timestamp="2013-09-04T09:20:06Z" changeset="17667885" uid="9065" user="brianboru"/>
  <node id="254002733" lat="52.1394300" lon="-1.8075798" version="2" timestamp="2013-09-09T11:39:09Z" changeset="17748492" uid="9065" user="brianboru"/>
  <node id="254002752" lat="52.1337383" lon="-1.7907581" version="4" timestamp="2023-05-27T21:59:54Z" changeset="136639347" uid="411244" user="RobJN"/>
  <node id="12112155815" lat="52.1320915" lon="-1.7854916" version="1" timestamp="2024-08-15T08:20:35Z" changeset="155271413" uid="7819986" user="Howling0"/>
  <way id="23453744" version="16" timestamp="2024-08-15T08:20:35Z" changeset="155271413" uid="7819986" user="Howling0">
    <nd ref="254002678"/>
    <nd ref="11964811743"/>
    <nd ref="11012848866"/>
    <nd ref="254002680"/>
    <nd ref="11012848865"/>
    <nd ref="8256840771"/>
    <nd ref="254002682"/>
    <nd ref="2451077820"/>
    <nd ref="11964519151"/>
    <nd ref="254002683"/>
    <nd ref="254002684"/>
    <nd ref="2451077807"/>
    <nd ref="11964811693"/>
    <nd ref="254002685"/>
    <nd ref="11012848857"/>
    <nd ref="7352584210"/>
    <nd ref="2451077797"/>
    <nd ref="254002686"/>
    <nd ref="11964811703"/>
    <nd ref="254002687"/>
    <nd ref="254002688"/>
    <nd ref="459856036"/>
    <nd ref="254002689"/>
    <nd ref="254002690"/>
    <nd ref="6477158340"/>
    <nd ref="2582255890"/>
    <nd ref="254002691"/>
    <nd ref="1443099301"/>
    <nd ref="254002692"/>
    <nd ref="254002693"/>
    <nd ref="254002694"/>
    <tag k="highway" v="unclassified"/>
    <tag k="name" v="Dorsington Road"/>
  </way>
  <way id="23453750" version="6" timestamp="2023-09-04T21:10:08Z" changeset="140823570" uid="493595" user="Yorvik Prestigitator">
    <nd ref="254002717"/>
    <nd ref="11168097960"/>
    <nd ref="6635505769"/>
    <nd ref="11168097961"/>
    <nd ref="249499720"/>
    <tag k="highway" v="unclassified"/>
    <tag k="source" v="survey"/>
  </way>
  <way id="23453751" version="15" timestamp="2021-03-24T17:30:05Z" changeset="101664808" uid="10219376" user="harinikh">
    <nd ref="254002733"/>
    <nd ref="2451105515"/>
    <nd ref="8557830403"/>
    <nd ref="6420141469"/>
    <nd ref="6420141472"/>
    <nd ref="2451077218"/>
    <nd ref="249499749"/>
    <nd ref="2451077202"/>
    <nd ref="1142479036"/>
    <nd ref="1142478635"/>
    <nd ref="249499750"/>
    <nd ref="2451077195"/>
    <nd ref="1142478903"/>
    <nd ref="8498176266"/>
    <nd ref="1142479029"/>
    <nd ref="249499751"/>
    <nd ref="1142479044"/>
    <nd ref="8256294167"/>
    <nd ref="8256294164"/>
    <nd ref="1142478710"/>
    <nd ref="1142478919"/>
    <nd ref="249499753"/>
    <nd ref="1142478801"/>
    <nd ref="1094020145"/>
    <nd ref="1142478740"/>
    <nd ref="1094020409"/>
    <nd ref="8396406158"/>
    <nd ref="249499760"/>
    <nd ref="1094020666"/>
    <nd ref="2759315757"/>
    <nd ref="1094020066"/>
    <nd ref="2759315749"/>
    <nd ref="249499761"/>
    <tag k="highway" v="unclassified"/>
    <tag k="name" v="Dorsington Road"/>
    <tag k="source" v="npe"/>
  </way>
  <way id="23453755" version="6" timestamp="2024-08-15T08:20:35Z" changeset="155271413" uid="7819986" user="Howling0">
    <nd ref="254002752"/>
    <nd ref="10932474301"/>
    <nd ref="10932474302"/>
    <nd ref="10932474303"/>
    <nd ref="254002753"/>
    <nd ref="10932474304"/>
    <nd ref="10932474305"/>
    <nd ref="10932474306"/>
    <nd ref="12112155815"/>
    <tag k="highway" v="unclassified"/>
    <tag k="name" v="Long Marston Road"/>
    <tag k="source" v="survey"/>
  </way>
  <way id="38779129" version="2" timestamp="2011-09-23T16:57:15Z" changeset="9378208" uid="9065" user="brianboru">
    <nd ref="459948342"/>
    <nd ref="1443099327"/>
    <nd ref="1443099340"/>
    <nd ref="1443099344"/>
    <nd ref="1443099348"/>
    <nd ref="1443099328"/>
    <nd ref="1443099338"/>
    <nd ref="1443099322"/>
    <nd ref="1443099321"/>
    <nd ref="1443099312"/>
    <nd ref="1443099311"/>
    <nd ref="1443099346"/>
    <nd ref="1443099342"/>
    <nd ref="459948343"/>
    <nd ref="459948346"/>
    <nd ref="1443099319"/>
    <nd ref="1443099316"/>
    <nd ref="1443099325"/>
    <nd ref="1443099335"/>
    <nd ref="1443099360"/>
    <nd ref="1443099350"/>
    <nd ref="1443099363"/>
    <nd ref="459948344"/>
    <nd ref="1443099367"/>
    <nd ref="1443099364"/>
    <nd ref="1443099358"/>
    <nd ref="459948342"/>
    <tag k="building" v="yes"/>
    <tag k="name" v="Dorsington Manor"/>
    <tag k="source" v="visual survey;Landsat;estimate"/>
  </way>
  <way id="70192100" version="15" timestamp="2025-04-16T14:57:33Z" changeset="165033057" uid="22685556" user="AH9999">
    <nd ref="254002752"/>
    <nd ref="8871926499"/>
    <nd ref="2451564805"/>
    <nd ref="6907553025"/>
    <nd ref="30039190"/>
    <nd ref="30039191"/>
    <nd ref="30039192"/>
    <nd ref="30039193"/>
    <nd ref="2451564783"/>
    <nd ref="2451564782"/>
    <nd ref="30039194"/>
    <nd ref="30039195"/>
    <nd ref="30039196"/>
    <nd ref="2451564787"/>
    <nd ref="30039197"/>
    <nd ref="30039198"/>
    <nd ref="2451564768"/>
    <nd ref="30039199"/>
    <nd ref="2629774114"/>
    <nd ref="30039200"/>
    <nd ref="972388124"/>
    <nd ref="838113381"/>
    <nd ref="30039202"/>
    <nd ref="30039203"/>
    <tag k="highway" v="unclassified"/>
    <tag k="lanes" v="2"/>
    <tag k="maxspeed" v="60 mph"/>
    <tag k="maxspeed:type" v="GB:nsl_single"/>
    <tag k="name" v="Long Marston Road"/>
    <tag k="source" v="survey"/>
  </way>
  <way id="117368527" version="3" timestamp="2020-10-26T11:28:57Z" changeset="93058410" uid="10252551" user="amanura">
    <nd ref="249499720"/>
    <nd ref="8047095587"/>
    <nd ref="1321976997"/>
    <nd ref="1321977043"/>
    <tag k="highway" v="unclassified"/>
    <tag k="maxspeed" v="30 mph"/>
  </way>
  <way id="117368531" version="9" timestamp="2021-03-10T22:10:07Z" changeset="100803690" uid="12396713" user="Tom Draper">
    <nd ref="254002721"/>
    <nd ref="1321977177"/>
    <nd ref="1321977197"/>
    <nd ref="1321977247"/>
    <nd ref="8265219223"/>
    <nd ref="1321977134"/>
    <nd ref="1321977221"/>
    <nd ref="1321977183"/>
    <nd ref="1321977069"/>
    <nd ref="2759261763"/>
    <tag k="highway" v="unclassified"/>
  </way>
  <way id="131040985" version="4" timestamp="2024-08-15T08:20:35Z" changeset="155271413" uid="7819986" user="Howling0">
    <nd ref="1443036012"/>
    <nd ref="249499723"/>
    <nd ref="1443036004"/>
    <nd ref="1321977029"/>
    <nd ref="249499725"/>
    <nd ref="1321977288"/>
    <nd ref="1478034514"/>
    <nd ref="249499726"/>
    <tag k="highway" v="unclassified"/>
    <tag k="name" v="Braggington Lane"/>
    <tag k="source" v="survey"/>
  </way>
  <way id="131040993" version="9" timestamp="2024-08-15T08:20:35Z" changeset="155271413" uid="7819986" user="Howling0">
    <nd ref="254002721"/>
    <nd ref="1443099128"/>
    <nd ref="8395736266"/>
    <nd ref="8395736260"/>
    <nd ref="8498132987"/>
    <nd ref="1443099126"/>
    <nd ref="8498132835"/>
    <nd ref="1443099108"/>
    <nd ref="8498132836"/>
    <nd ref="8498132837"/>
    <nd ref="2752381725"/>
    <nd ref="2451578342"/>
    <tag k="highway" v="unclassified"/>
    <tag k="maxspeed" v="30 mph"/>
    <tag k="name" v="Dorsington Road"/>
  </way>
  <way id="131040995" version="4" timestamp="2024-08-15T08:20:35Z" changeset="155271413" uid="7819986" user="Howling0">
    <nd ref="1321977043"/>
    <nd ref="254002718"/>
    <nd ref="254002719"/>
    <nd ref="6635505780"/>
    <nd ref="254002720"/>
    <nd ref="254002721"/>
    <tag k="highway" v="unclassified"/>
    <tag k="maxspeed" v="30 mph"/>
    <tag k="name" v="Dorsington Road"/>
  </way>
  <way id="131040999" version="5" timestamp="2024-08-15T08:20:35Z" changeset="155271413" uid="7819986" user="Howling0">
    <nd ref="249499720"/>
    <nd ref="1321977023"/>
    <nd ref="7377491197"/>
    <nd ref="1321977003"/>
    <nd ref="249499721"/>
    <nd ref="1443099213"/>
    <nd ref="8047095586"/>
    <nd ref="1321977222"/>
    <nd ref="1443036021"/>
    <nd ref="1443099227"/>
    <nd ref="249499722"/>
    <nd ref="1443036018"/>
    <nd ref="1443036012"/>
    <tag k="highway" v="unclassified"/>
    <tag k="maxspeed" v="30 mph"/>
    <tag k="name" v="Braggington Lane"/>
    <tag k="source" v="survey"/>
    <tag k="source:maxspeed" v="survey"/>
  </way>
  <way id="131042931" version="3" timestamp="2020-10-05T21:13:11Z" changeset="92007731" uid="364" user="Edward">
    <nd ref="1443099190"/>
    <nd ref="1443099189"/>
    <nd ref="1443099178"/>
    <nd ref="1443099177"/>
    <nd ref="1443099168"/>
    <nd ref="1443099170"/>
    <nd ref="1443099159"/>
    <nd ref="1443099167"/>
    <nd ref="1443099172"/>
    <nd ref="1443099174"/>
    <nd ref="1443099187"/>
    <nd ref="1443099186"/>
    <nd ref="1443099190"/>
    <tag k="amenity" v="place_of_worship"/>
    <tag k="building" v="yes"/>
    <tag k="denomination" v="anglican"/>
    <tag k="heritage" v="2"/>
    <tag k="heritage:operator" v="Historic England"/>
    <tag k="listed_status" v="Grade II*"/>
    <tag k="name" v="St Peter"/>
    <tag k="religion" v="christian"/>
    <tag k="source" v="visual survey;bing"/>
    <tag k="wikidata" v="Q17552048"/>
  </way>
  <way id="144335697" version="7" timestamp="2023-05-27T23:23:20Z" changeset="136640416" uid="411244" user="RobJN">
    <nd ref="249499726"/>
    <nd ref="1478034517"/>
    <nd ref="249499727"/>
    <nd ref="5220102446"/>
    <nd ref="249499728"/>
    <nd ref="6902295242"/>
    <nd ref="2582298865"/>
    <nd ref="249499729"/>
    <nd ref="2582298877"/>
    <nd ref="2582298885"/>
    <nd ref="249499730"/>
    <nd ref="2582298894"/>
    <nd ref="460341551"/>
    <nd ref="2582255821"/>
    <nd ref="460341552"/>
    <nd ref="2582255834"/>
    <nd ref="2582255840"/>
    <nd ref="249499731"/>
    <nd ref="2582255845"/>
    <nd ref="460341553"/>
    <nd ref="2582255858"/>
    <nd ref="249499732"/>
    <nd ref="2582255899"/>
    <nd ref="10932538122"/>
    <nd ref="249499733"/>
    <nd ref="2582255940"/>
    <nd ref="5220102453"/>
    <nd ref="249499734"/>
    <nd ref="2582255963"/>
    <nd ref="8280234369"/>
    <nd ref="249499735"/>
    <nd ref="8280234374"/>
    <nd ref="460341554"/>
    <nd ref="2582256035"/>
    <nd ref="249499736"/>
    <nd ref="2582256114"/>
    <nd ref="249328463"/>
    <tag k="highway" v="unclassified"/>
    <tag k="name" v="Braggington Lane"/>
    <tag k="source" v="survey"/>
  </way>
  <way id="270972538" version="2" timestamp="2016-01-23T13:14:55Z" changeset="36757704" uid="545369" user="bigfatfrog67">
    <nd ref="2759261763"/>
    <nd ref="2759261761"/>
    <tag k="bridge" v="yes"/>
    <tag k="highway" v="unclassified"/>
    <tag k="layer" v="1"/>
  </way>
  <way id="270972539" version="4" timestamp="2021-03-09T22:25:30Z" changeset="100736110" uid="12396713" user="Tom Draper">
    <nd ref="2759261761"/>
    <nd ref="8265285554"/>
    <nd ref="1321977112"/>
    <nd ref="1321976993"/>
    <nd ref="1321977105"/>
    <nd ref="1321977289"/>
    <nd ref="3961446613"/>
    <nd ref="8501494601"/>
    <nd ref="1321977034"/>
    <nd ref="8501565249"/>
    <nd ref="1321977022"/>
    <tag k="highway" v="unclassified"/>
  </way>
  <way id="283271644" version="9" timestamp="2024-08-15T08:20:35Z" changeset="155271413" uid="7819986" user="Howling0">
    <nd ref="254002733"/>
    <nd ref="254002734"/>
    <nd ref="254002735"/>
    <nd ref="254002736"/>
    <nd ref="254002737"/>
    <nd ref="254002738"/>
    <nd ref="8498133026"/>
    <nd ref="254002739"/>
    <nd ref="254002740"/>
    <nd ref="2451545764"/>
    <nd ref="254002741"/>
    <nd ref="254002742"/>
    <nd ref="254002743"/>
    <nd ref="254002744"/>
    <nd ref="254002745"/>
    <nd ref="10933736473"/>
    <nd ref="2451545727"/>
    <nd ref="10933736362"/>
    <nd ref="254002746"/>
    <nd ref="254002747"/>
    <nd ref="254002748"/>
    <nd ref="254002749"/>
    <nd ref="5860606770"/>
    <nd ref="5860606769"/>
    <nd ref="254002750"/>
    <nd ref="7488883725"/>
    <nd ref="254002751"/>
    <nd ref="8871926512"/>
    <nd ref="8871926501"/>
    <nd ref="8019075639"/>
    <nd ref="254002752"/>
    <tag k="highway" v="unclassified"/>
    <tag k="name" v="Long Marston Road"/>
  </way>
  <way id="392957276" version="9" timestamp="2023-08-23T19:23:11Z" changeset="140290402" uid="411244" user="RobJN">
    <nd ref="3961446600"/>
    <nd ref="9966519374"/>
    <nd ref="3961446597"/>
    <nd ref="8509573976"/>
    <nd ref="3961446596"/>
    <nd ref="3961446595"/>
    <nd ref="8501565251"/>
    <nd ref="8501565252"/>
    <nd ref="3961446598"/>
    <nd ref="9966479902"/>
    <nd ref="3961446600"/>
    <tag k="addr:postcode" v="CV37 8AR"/>
    <tag k="building" v="detached"/>
    <tag k="name" v="The Welshman's Barn"/>
  </way>
  <way id="393279328" version="5" timestamp="2024-08-15T08:20:35Z" changeset="155271413" uid="7819986" user="Howling0">
    <nd ref="254002709"/>
    <nd ref="7352562882"/>
    <nd ref="8503485408"/>
    <nd ref="254002710"/>
    <nd ref="254002711"/>
    <nd ref="254002713"/>
    <nd ref="8503485407"/>
    <nd ref="254002714"/>
    <nd ref="254002715"/>
    <nd ref="254002716"/>
    <nd ref="8503485406"/>
    <nd ref="8503485405"/>
    <nd ref="254002717"/>
    <nd ref="1321977276"/>
    <nd ref="6635505768"/>
    <nd ref="1321977043"/>
    <tag k="highway" v="unclassified"/>
    <tag k="name" v="Barton Road"/>
  </way>
  <way id="393279341" version="1" timestamp="2016-01-24T21:31:05Z" changeset="36784930" uid="545369" user="bigfatfrog67">
    <nd ref="254002708"/>
    <nd ref="254002709"/>
    <tag k="bridge" v="yes"/>
    <tag k="highway" v="unclassified"/>
    <tag k="layer" v="1"/>
  </way>
  <way id="539116725" version="1" timestamp="2017-11-08T00:05:39Z" changeset="53596804" uid="545369" user="bigfatfrog67">
    <nd ref="5217191901"/>
    <nd ref="5217191900"/>
    <nd ref="5217191899"/>
    <nd ref="5217191898"/>
    <nd ref="5217191901"/>
    <tag k="building" v="barn"/>
    <tag k="name" v="Giddings Barn"/>
  </way>
  <way id="706191246" version="1" timestamp="2019-07-21T16:12:54Z" changeset="72486274" uid="9065" user="brianboru">
    <nd ref="6635519339"/>
    <nd ref="6635519344"/>
    <nd ref="6635519343"/>
    <nd ref="6635519342"/>
    <nd ref="6635519341"/>
    <nd ref="6635519340"/>
    <nd ref="6635519339"/>
    <tag k="building" v="residential"/>
    <tag k="name" v="Church Farm B&amp;B"/>
    <tag k="source" v="Warwicks CC Aerial Imagery 2013"/>
    <tag k="tourism" v="guest_house"/>
  </way>
  <way id="1307912734" version="1" timestamp="2024-08-15T08:20:35Z" changeset="155271413" uid="7819986" user="Howling0">
    <nd ref="12112155815"/>
    <nd ref="12112155814"/>
    <tag k="bridge" v="yes"/>
    <tag k="highway" v="unclassified"/>
    <tag k="layer" v="1"/>
    <tag k="source" v="survey"/>
  </way>
  <way id="1307912735" version="1" timestamp="2024-08-15T08:20:35Z" changeset="155271413" uid="7819986" user="Howling0">
    <nd ref="2451578342"/>
    <nd ref="2451578337"/>
    <nd ref="2451578331"/>
    <nd ref="2451578329"/>
    <nd ref="2451578319"/>
    <nd ref="1321977019"/>
    <nd ref="2752381684"/>
    <nd ref="2451578317"/>
    <nd ref="2451578315"/>
    <nd ref="254002725"/>
    <nd ref="254002726"/>
    <nd ref="254002727"/>
    <nd ref="2451578298"/>
    <nd ref="254002728"/>
    <nd ref="2451578296"/>
    <nd ref="2451578294"/>
    <nd ref="254002729"/>
    <nd ref="254002730"/>
    <nd ref="254002731"/>
    <nd ref="254002732"/>
    <nd ref="254002733"/>
    <tag k="highway" v="unclassified"/>
    <tag k="name" v="Dorsington Road"/>
  </way>
  <way id="1307912736" version="1" timestamp="2024-08-15T08:20:35Z" changeset="155271413" uid="7819986" user="Howling0">
    <nd ref="254002694"/>
    <nd ref="254002698"/>
    <nd ref="254002699"/>
    <nd ref="254002700"/>
    <nd ref="254002701"/>
    <nd ref="254002702"/>
    <nd ref="254002703"/>
    <nd ref="254002704"/>
    <nd ref="254002705"/>
    <nd ref="254002706"/>
    <nd ref="254002707"/>
    <nd ref="8503485409"/>
    <nd ref="254002708"/>
    <tag k="highway" v="unclassified"/>
    <tag k="name" v="Barton Road"/>
  </way>

</osm>
