<?xml version="1.0" encoding="UTF-8"?>
<osm version="0.6" generator="Overpass API 0.7.62.8 e802775f">
<note>The data included in this document is from www.openstreetmap.org. The data is made available under ODbL.</note>
<meta osm_base="2025-10-23T17:30:41Z" areas="2025-10-23T12:46:58Z"/>

  <node id="267933095" lat="52.3912109" lon="-1.3422036" version="5" timestamp="2015-02-27T18:24:56Z" changeset="29141510" uid="154484" user="PeterP"/>
  <node id="267933111" lat="52.3943571" lon="-1.3373399" version="5" timestamp="2015-02-27T18:24:56Z" changeset="29141510" uid="154484" user="PeterP"/>
  <node id="307824924" lat="52.3894573" lon="-1.3422982" version="3" timestamp="2015-11-25T10:30:56Z" changeset="35567818" uid="154484" user="PeterP"/>
  <node id="321770970" lat="52.4025147" lon="-1.3224331" version="6" timestamp="2013-10-09T22:10:51Z" changeset="18272887" uid="69984" user="richardwest"/>
  <node id="333279751" lat="52.4050888" lon="-1.3599462" version="4" timestamp="2015-02-27T18:25:00Z" changeset="29141510" uid="154484" user="PeterP"/>
  <way id="24649328" version="16" timestamp="2022-12-20T23:03:04Z" changeset="130308823" uid="7463" user="kesterlester">
    <nd ref="267933095"/>
    <nd ref="1385011738"/>
    <nd ref="3375201935"/>
    <nd ref="1374953949"/>
    <nd ref="267933094"/>
    <nd ref="8834305601"/>
    <nd ref="1374953925"/>
    <nd ref="3375201958"/>
    <nd ref="267933093"/>
    <nd ref="3375202302"/>
    <nd ref="3375201970"/>
    <nd ref="1374953947"/>
    <nd ref="890359208"/>
    <nd ref="1374953944"/>
    <nd ref="267933092"/>
    <nd ref="3375201978"/>
    <nd ref="10276768400"/>
    <nd ref="3375201927"/>
    <nd ref="267933091"/>
    <nd ref="890359207"/>
    <nd ref="2481139439"/>
    <nd ref="890359206"/>
    <nd ref="267933090"/>
    <nd ref="3375201983"/>
    <nd ref="1374953933"/>
    <nd ref="3375201966"/>
    <nd ref="2356256600"/>
    <nd ref="890359204"/>
    <nd ref="267933089"/>
    <nd ref="3375201948"/>
    <nd ref="267933088"/>
    <nd ref="3375201991"/>
    <nd ref="3375202304"/>
    <nd ref="267933087"/>
    <nd ref="3375201931"/>
    <nd ref="3375201988"/>
    <nd ref="267933086"/>
    <nd ref="13784079"/>
    <tag k="highway" v="unclassified"/>
    <tag k="name" v="Kings Newnham Lane"/>
    <tag k="not:name" v="Newnham Lane"/>
    <tag k="source" v="survey+gps"/>
    <tag k="source:name" v="survey"/>
  </way>
  <way id="27958882" version="11" timestamp="2020-04-09T14:11:50Z" changeset="83313823" uid="9196089" user="hemasvn">
    <nd ref="307824911"/>
    <nd ref="7385717479"/>
    <nd ref="1671754435"/>
    <nd ref="307824908"/>
    <nd ref="307824905"/>
    <tag k="highway" v="unclassified"/>
    <tag k="name" v="Kings Newnham Road"/>
  </way>
  <way id="30078001" version="12" timestamp="2021-06-08T06:31:31Z" changeset="106011580" uid="10252551" user="amanura">
    <nd ref="307824905"/>
    <nd ref="267933097"/>
    <nd ref="1671754437"/>
    <nd ref="1671754434"/>
    <nd ref="267933098"/>
    <nd ref="267933099"/>
    <nd ref="2485190853"/>
    <nd ref="267933100"/>
    <nd ref="267933101"/>
    <nd ref="6905430707"/>
    <nd ref="2485190848"/>
    <nd ref="6905430697"/>
    <nd ref="267933102"/>
    <nd ref="2485190857"/>
    <nd ref="267933103"/>
    <nd ref="7617016640"/>
    <nd ref="267933104"/>
    <nd ref="267933105"/>
    <nd ref="2485190890"/>
    <nd ref="267933106"/>
    <nd ref="3375202308"/>
    <nd ref="8813717675"/>
    <nd ref="267933107"/>
    <nd ref="8813717676"/>
    <nd ref="267933108"/>
    <nd ref="267933109"/>
    <nd ref="3375202299"/>
    <nd ref="267933110"/>
    <nd ref="267933111"/>
    <tag k="highway" v="unclassified"/>
    <tag k="name" v="Kings Newnham Lane"/>
    <tag k="not:name" v="Newnham Lane"/>
    <tag k="source" v="survey+gps"/>
    <tag k="source:name" v="survey"/>
  </way>
  <way id="30252276" version="11" timestamp="2022-12-20T23:21:39Z" changeset="130309197" uid="7463" user="kesterlester">
    <nd ref="333279751"/>
    <nd ref="333279753"/>
    <nd ref="333279756"/>
    <nd ref="6886452857"/>
    <nd ref="333279760"/>
    <nd ref="333279762"/>
    <nd ref="2481180828"/>
    <nd ref="2481180826"/>
    <nd ref="333279764"/>
    <nd ref="2481180824"/>
    <nd ref="3375201930"/>
    <nd ref="333279766"/>
    <nd ref="333279768"/>
    <nd ref="333279770"/>
    <nd ref="333279772"/>
    <nd ref="3375201946"/>
    <nd ref="890359222"/>
    <nd ref="3375201974"/>
    <nd ref="3375202297"/>
    <nd ref="333279775"/>
    <nd ref="890359225"/>
    <nd ref="3375201920"/>
    <nd ref="890359227"/>
    <nd ref="333279776"/>
    <nd ref="3375201986"/>
    <nd ref="333279778"/>
    <nd ref="3375201926"/>
    <nd ref="333279780"/>
    <nd ref="3375201933"/>
    <nd ref="3375201929"/>
    <nd ref="890359228"/>
    <nd ref="333279782"/>
    <nd ref="333279796"/>
    <nd ref="333279784"/>
    <nd ref="3375201950"/>
    <nd ref="333279799"/>
    <nd ref="2485191010"/>
    <nd ref="2485191008"/>
    <nd ref="333279792"/>
    <nd ref="2485191004"/>
    <nd ref="2485191003"/>
    <nd ref="333279794"/>
    <nd ref="2481181418"/>
    <nd ref="267933111"/>
    <tag k="highway" v="unclassified"/>
  </way>
  <way id="31436227" version="29" timestamp="2025-01-28T12:39:48Z" changeset="161856340" uid="1782504" user="corgicity">
    <nd ref="267933111"/>
    <nd ref="3375202298"/>
    <nd ref="2485190978"/>
    <nd ref="2481180678"/>
    <nd ref="2481181417"/>
    <nd ref="267933112"/>
    <nd ref="2481180682"/>
    <nd ref="267933113"/>
    <nd ref="2481180681"/>
    <nd ref="2481180680"/>
    <nd ref="267933114"/>
    <nd ref="267933115"/>
    <nd ref="267933116"/>
    <nd ref="267933117"/>
    <nd ref="267933118"/>
    <nd ref="607974804"/>
    <nd ref="267933119"/>
    <nd ref="267933120"/>
    <nd ref="267933121"/>
    <nd ref="267933122"/>
    <nd ref="12539032136"/>
    <nd ref="6967281445"/>
    <nd ref="267933123"/>
    <nd ref="2485217736"/>
    <nd ref="267933124"/>
    <nd ref="267933125"/>
    <nd ref="6967281446"/>
    <nd ref="7653232094"/>
    <nd ref="6967281447"/>
    <nd ref="2487627385"/>
    <nd ref="267933126"/>
    <nd ref="8813202941"/>
    <nd ref="607974820"/>
    <nd ref="267933127"/>
    <nd ref="2485413875"/>
    <nd ref="2162829416"/>
    <nd ref="2485413852"/>
    <nd ref="8943951305"/>
    <nd ref="267933128"/>
    <nd ref="2487627353"/>
    <nd ref="1223255936"/>
    <nd ref="2487627356"/>
    <nd ref="267933129"/>
    <nd ref="1223255949"/>
    <nd ref="2487627380"/>
    <nd ref="267933130"/>
    <nd ref="2487627387"/>
    <nd ref="1223255933"/>
    <nd ref="1223255971"/>
    <nd ref="267933131"/>
    <nd ref="2487627398"/>
    <nd ref="267933132"/>
    <nd ref="2485217707"/>
    <nd ref="267933133"/>
    <nd ref="2485217713"/>
    <nd ref="2485217738"/>
    <nd ref="267933134"/>
    <nd ref="2485217739"/>
    <nd ref="267933135"/>
    <nd ref="2485217729"/>
    <nd ref="267933136"/>
    <nd ref="2633509657"/>
    <nd ref="2485217725"/>
    <nd ref="2485217724"/>
    <nd ref="2633509655"/>
    <nd ref="267933137"/>
    <nd ref="1686157088"/>
    <nd ref="12216140867"/>
    <nd ref="267933138"/>
    <nd ref="2485413992"/>
    <nd ref="267933139"/>
    <nd ref="2485413990"/>
    <nd ref="2485413981"/>
    <nd ref="267933140"/>
    <nd ref="2485413980"/>
    <nd ref="8399221078"/>
    <nd ref="2485413989"/>
    <nd ref="804817718"/>
    <nd ref="267933141"/>
    <nd ref="2371171828"/>
    <nd ref="267933142"/>
    <nd ref="12216140946"/>
    <nd ref="12216140986"/>
    <nd ref="8793851101"/>
    <nd ref="267933147"/>
    <nd ref="267933149"/>
    <nd ref="2487640527"/>
    <nd ref="2487640522"/>
    <nd ref="267933150"/>
    <nd ref="2487640520"/>
    <nd ref="2642274513"/>
    <nd ref="267933151"/>
    <tag k="highway" v="unclassified"/>
    <tag k="name" v="Little Lawford Lane"/>
    <tag k="source" v="survey"/>
  </way>
  <way id="123237752" version="4" timestamp="2015-11-25T10:30:59Z" changeset="35567818" uid="154484" user="PeterP">
    <nd ref="307824911"/>
    <nd ref="307824914"/>
    <nd ref="307824916"/>
    <nd ref="307824919"/>
    <nd ref="307824921"/>
    <nd ref="3858635390"/>
    <nd ref="307824924"/>
    <tag k="highway" v="unclassified"/>
    <tag k="name" v="Kings Newnham Road"/>
    <tag k="source" v="survey+gps"/>
  </way>
  <way id="124424942" version="3" timestamp="2012-01-24T11:19:16Z" changeset="10483435" uid="112997" user="sobbomapper">
    <nd ref="307824905"/>
    <nd ref="267933096"/>
    <nd ref="1385011720"/>
    <nd ref="267933095"/>
    <tag k="highway" v="unclassified"/>
    <tag k="name" v="Kings Newnham Lane"/>
    <tag k="source" v="survey"/>
  </way>
  <way id="169863870" version="4" timestamp="2025-08-30T22:20:18Z" changeset="171247650" uid="13247722" user="TheCanMan">
    <nd ref="321770970"/>
    <nd ref="321770972"/>
    <nd ref="705005333"/>
    <nd ref="705005334"/>
    <nd ref="1810217256"/>
    <nd ref="321770976"/>
    <nd ref="705005335"/>
    <nd ref="1223263423"/>
    <nd ref="1223270624"/>
    <nd ref="10276908058"/>
    <nd ref="321770978"/>
    <nd ref="10276908059"/>
    <nd ref="321770980"/>
    <nd ref="10276908060"/>
    <nd ref="10276908061"/>
    <nd ref="1223263420"/>
    <nd ref="1223270623"/>
    <nd ref="1223270626"/>
    <nd ref="321770981"/>
    <nd ref="321771000"/>
    <nd ref="321770998"/>
    <nd ref="321771004"/>
    <nd ref="385347621"/>
    <nd ref="321771003"/>
    <nd ref="321770986"/>
    <nd ref="321770989"/>
    <nd ref="2894053447"/>
    <nd ref="321770991"/>
    <nd ref="1224118126"/>
    <nd ref="321770993"/>
    <nd ref="321770996"/>
    <nd ref="321770997"/>
    <nd ref="13109326077"/>
    <tag k="highway" v="unclassified"/>
    <tag k="maxspeed" v="50 mph"/>
    <tag k="name" v="Cathiron Lane"/>
    <tag k="source" v="survey;gps"/>
  </way>
  <way id="240375821" version="1" timestamp="2013-10-03T13:12:25Z" changeset="18161104" uid="9065" user="brianboru">
    <nd ref="2481181418"/>
    <nd ref="2481181414"/>
    <nd ref="2481181413"/>
    <nd ref="2481180678"/>
    <tag k="highway" v="unclassified"/>
    <tag k="source" v="bing"/>
  </way>
  <way id="382646305" version="3" timestamp="2017-04-29T16:32:45Z" changeset="48258464" uid="1778799" user="SomeoneElse_Revert">
    <nd ref="307824924"/>
    <nd ref="3858635391"/>
    <tag k="bridge" v="yes"/>
    <tag k="highway" v="unclassified"/>
    <tag k="name" v="Kings Newnham Road"/>
    <tag k="source" v="survey+gps"/>
  </way>

</osm>
