<?xml version="1.0" encoding="UTF-8"?>
<osm version="0.6" generator="Overpass API 0.7.62.8 e802775f">
<note>The data included in this document is from www.openstreetmap.org. The data is made available under ODbL.</note>
<meta osm_base="2025-10-23T17:30:41Z" areas="2025-10-23T14:54:58Z"/>

  <node id="412616519" lat="52.0800985" lon="-1.6104290" version="3" timestamp="2013-12-09T17:05:53Z" changeset="19362308" uid="9065" user="brianboru"/>
  <node id="1546097799" lat="52.0801811" lon="-1.5539696" version="2" timestamp="2013-12-01T13:39:30Z" changeset="19210487" uid="9065" user="brianboru"/>
  <node id="1682413921" lat="52.1009474" lon="-1.5893662" version="1" timestamp="2012-03-19T22:37:17Z" changeset="11035916" uid="84263" user="Robert Whittaker"/>
  <node id="2571412803" lat="52.1044406" lon="-1.6017344" version="2" timestamp="2021-11-02T14:47:45Z" changeset="113288400" uid="9065" user="brianboru"/>
  <way id="25504263" version="11" timestamp="2013-12-09T15:30:07Z" changeset="19360681" uid="9065" user="brianboru">
    <nd ref="277911689"/>
    <nd ref="1681574680"/>
    <nd ref="1681574602"/>
    <nd ref="1681574802"/>
    <nd ref="1681574762"/>
    <nd ref="1681574776"/>
    <nd ref="1681574555"/>
    <nd ref="1681574522"/>
    <nd ref="1681574525"/>
    <nd ref="277911690"/>
    <nd ref="2573180850"/>
    <nd ref="277911691"/>
    <nd ref="1682413814"/>
    <nd ref="277911692"/>
    <tag k="highway" v="unclassified"/>
    <tag k="name" v="Halford Road"/>
    <tag k="source:name" v="naptan"/>
  </way>
  <way id="26436832" version="4" timestamp="2012-03-19T22:37:23Z" changeset="11035916" uid="84263" user="Robert Whittaker">
    <nd ref="277911692"/>
    <nd ref="1682413927"/>
    <nd ref="1682413921"/>
    <tag k="highway" v="unclassified"/>
    <tag k="source" v="NPE"/>
  </way>
  <way id="26436851" version="9" timestamp="2019-08-29T08:14:11Z" changeset="73870213" uid="10221594" user="afurquan">
    <nd ref="1546097799"/>
    <nd ref="1546110216"/>
    <nd ref="2563009254"/>
    <nd ref="1546110213"/>
    <nd ref="289686367"/>
    <nd ref="2562945131"/>
    <nd ref="289686368"/>
    <nd ref="289686369"/>
    <nd ref="6755508057"/>
    <nd ref="2559826795"/>
    <nd ref="289686370"/>
    <nd ref="289686371"/>
    <nd ref="289686372"/>
    <nd ref="2559826826"/>
    <nd ref="289686373"/>
    <nd ref="2559826829"/>
    <nd ref="289686374"/>
    <nd ref="289686375"/>
    <nd ref="289686376"/>
    <nd ref="2559826833"/>
    <nd ref="2559826835"/>
    <nd ref="289686377"/>
    <nd ref="289686378"/>
    <nd ref="289686379"/>
    <nd ref="2559826842"/>
    <nd ref="289686381"/>
    <nd ref="289686382"/>
    <nd ref="2559826848"/>
    <nd ref="2559826850"/>
    <nd ref="2559826852"/>
    <nd ref="289686383"/>
    <nd ref="671826228"/>
    <tag k="highway" v="residential"/>
    <tag k="name" v="Brailes Road"/>
  </way>
  <way id="41760656" version="10" timestamp="2014-12-31T17:40:57Z" changeset="27828110" uid="2540407" user="JC49">
    <nd ref="277911692"/>
    <nd ref="1682413895"/>
    <nd ref="1682413889"/>
    <nd ref="1682413843"/>
    <nd ref="277911693"/>
    <nd ref="1681563697"/>
    <nd ref="277911694"/>
    <nd ref="277911695"/>
    <nd ref="1681563886"/>
    <nd ref="3262165048"/>
    <nd ref="1681563911"/>
    <nd ref="1681563923"/>
    <nd ref="277911696"/>
    <nd ref="277911697"/>
    <nd ref="1681563711"/>
    <nd ref="277911698"/>
    <nd ref="1681563727"/>
    <nd ref="277911699"/>
    <nd ref="1681563752"/>
    <nd ref="1681563775"/>
    <nd ref="277911700"/>
    <nd ref="277911701"/>
    <nd ref="1681563773"/>
    <nd ref="1681563809"/>
    <nd ref="1681563822"/>
    <nd ref="277911702"/>
    <nd ref="1681563702"/>
    <nd ref="277911703"/>
    <nd ref="277911704"/>
    <nd ref="277911705"/>
    <nd ref="277911706"/>
    <nd ref="2571412803"/>
    <tag k="highway" v="unclassified"/>
    <tag k="name" v="Idlicote Road"/>
    <tag k="source" v="Bing"/>
    <tag k="source:name" v="OS_OpenData_Locator"/>
  </way>
  <way id="141194013" version="12" timestamp="2020-12-24T10:55:04Z" changeset="96379468" uid="10455625" user="bmmundad">
    <nd ref="412616519"/>
    <nd ref="1598984482"/>
    <nd ref="1598984484"/>
    <nd ref="1545693590"/>
    <nd ref="1545693457"/>
    <nd ref="1545693464"/>
    <nd ref="1545693461"/>
    <nd ref="1545693542"/>
    <nd ref="8257310150"/>
    <nd ref="1545693587"/>
    <nd ref="5802207953"/>
    <nd ref="1545693475"/>
    <nd ref="1545693481"/>
    <nd ref="1545693489"/>
    <nd ref="1545693491"/>
    <nd ref="1545693503"/>
    <nd ref="1545693515"/>
    <nd ref="1545693517"/>
    <nd ref="1545693525"/>
    <nd ref="2573186223"/>
    <nd ref="1545693584"/>
    <nd ref="2573186225"/>
    <nd ref="1545693536"/>
    <nd ref="1545693539"/>
    <nd ref="2573186230"/>
    <nd ref="1545693570"/>
    <nd ref="1545693530"/>
    <nd ref="2573186237"/>
    <nd ref="2573186242"/>
    <nd ref="1545693533"/>
    <nd ref="2642246964"/>
    <nd ref="1545693545"/>
    <nd ref="1545693549"/>
    <nd ref="2347803511"/>
    <nd ref="1545693551"/>
    <nd ref="1786167481"/>
    <nd ref="1545693555"/>
    <nd ref="2347803518"/>
    <nd ref="2347803520"/>
    <nd ref="1545693558"/>
    <nd ref="2347803522"/>
    <nd ref="2347803524"/>
    <nd ref="1545693564"/>
    <nd ref="1545693567"/>
    <nd ref="1545693581"/>
    <nd ref="2563009367"/>
    <nd ref="1545693592"/>
    <nd ref="2563009370"/>
    <nd ref="1545693595"/>
    <nd ref="2563009375"/>
    <nd ref="2563009377"/>
    <nd ref="1545693598"/>
    <nd ref="1545693600"/>
    <nd ref="1545693602"/>
    <nd ref="1545693604"/>
    <nd ref="2573180569"/>
    <nd ref="1545693609"/>
    <nd ref="2563009409"/>
    <nd ref="1681574523"/>
    <nd ref="1681574667"/>
    <nd ref="1545693473"/>
    <nd ref="1681574723"/>
    <nd ref="755839416"/>
    <nd ref="277911689"/>
    <nd ref="1545693477"/>
    <nd ref="1545693479"/>
    <nd ref="1545693483"/>
    <nd ref="1545693486"/>
    <nd ref="1545693574"/>
    <nd ref="1545693499"/>
    <nd ref="1545693507"/>
    <nd ref="1545693501"/>
    <nd ref="1545693505"/>
    <nd ref="1545693511"/>
    <nd ref="1545693513"/>
    <nd ref="1545693523"/>
    <nd ref="1545693527"/>
    <tag k="highway" v="tertiary"/>
  </way>
  <way id="155795296" version="2" timestamp="2014-12-31T17:40:56Z" changeset="27828110" uid="2540407" user="JC49">
    <nd ref="1681574560"/>
    <nd ref="1681574787"/>
    <nd ref="3262165037"/>
    <nd ref="1681574737"/>
    <nd ref="1681574738"/>
    <nd ref="1681574515"/>
    <nd ref="1681574733"/>
    <nd ref="1681574679"/>
    <nd ref="1681574724"/>
    <nd ref="1681574722"/>
    <nd ref="1681574807"/>
    <nd ref="1681574776"/>
    <tag k="highway" v="residential"/>
  </way>
  <way id="155795298" version="1" timestamp="2012-03-19T13:44:09Z" changeset="11029653" uid="84263" user="Robert Whittaker">
    <nd ref="1681574722"/>
    <nd ref="1681574551"/>
    <nd ref="1681574555"/>
    <tag k="highway" v="residential"/>
  </way>
  <way id="155888173" version="5" timestamp="2016-07-05T11:10:15Z" changeset="40497144" uid="705850" user="Cebderby">
    <nd ref="1682413921"/>
    <nd ref="1682413929"/>
    <nd ref="1682413819"/>
    <nd ref="1682413877"/>
    <nd ref="1682413856"/>
    <nd ref="1682413893"/>
    <nd ref="1682413890"/>
    <nd ref="289686265"/>
    <nd ref="1682413891"/>
    <nd ref="289686266"/>
    <nd ref="1682413937"/>
    <nd ref="1682413923"/>
    <nd ref="289686267"/>
    <nd ref="1682413823"/>
    <nd ref="289686268"/>
    <nd ref="2571412766"/>
    <nd ref="2571412769"/>
    <nd ref="289686269"/>
    <nd ref="289686270"/>
    <nd ref="289686271"/>
    <nd ref="289686272"/>
    <nd ref="1602274410"/>
    <nd ref="289686273"/>
    <nd ref="289686274"/>
    <nd ref="2571459600"/>
    <nd ref="289686275"/>
    <nd ref="2627288096"/>
    <tag k="highway" v="unclassified"/>
    <tag k="maxwidth" v="6'6&quot;"/>
    <tag k="source" v="Bing"/>
  </way>
  <way id="155888179" version="1" timestamp="2012-03-19T22:37:21Z" changeset="11035916" uid="84263" user="Robert Whittaker">
    <nd ref="1682413814"/>
    <nd ref="1682413852"/>
    <nd ref="1682413892"/>
    <nd ref="1682413921"/>
    <tag k="highway" v="unclassified"/>
    <tag k="source" v="NPE"/>
  </way>
  <way id="250766882" version="1" timestamp="2013-12-08T13:52:15Z" changeset="19340815" uid="9065" user="brianboru">
    <nd ref="2571412803"/>
    <nd ref="2571412804"/>
    <tag k="bridge" v="yes"/>
    <tag k="highway" v="unclassified"/>
    <tag k="layer" v="1"/>
    <tag k="name" v="Idlicote Road"/>
    <tag k="source" v="Bing"/>
    <tag k="source:name" v="OS_OpenData_Locator"/>
  </way>
  <way id="251018409" version="2" timestamp="2019-07-01T20:40:34Z" changeset="71799179" uid="9065" user="brianboru">
    <nd ref="2573180651"/>
    <nd ref="2573180622"/>
    <nd ref="2573180616"/>
    <nd ref="2573180633"/>
    <nd ref="2573180636"/>
    <nd ref="2573180643"/>
    <nd ref="2573180651"/>
    <tag k="building" v="residential"/>
    <tag k="heritage" v="2"/>
    <tag k="heritage:operator" v="Historic England"/>
    <tag k="listed_status" v="Grade II"/>
    <tag k="name" v="Idlicote House"/>
    <tag k="source" v="Warwicks CC Aerial Imagery 2013"/>
    <tag k="source:name" v="OS_OpenData_StreetView"/>
  </way>
  <way id="251018410" version="4" timestamp="2020-10-13T08:50:12Z" changeset="92401177" uid="281267" user="smb1001">
    <nd ref="2573180632"/>
    <nd ref="2573180638"/>
    <nd ref="2573180627"/>
    <nd ref="2573180621"/>
    <nd ref="2573180629"/>
    <nd ref="2573180625"/>
    <nd ref="2573180632"/>
    <tag k="amenity" v="place_of_worship"/>
    <tag k="building" v="church"/>
    <tag k="denomination" v="anglican"/>
    <tag k="heritage" v="2"/>
    <tag k="heritage:operator" v="Historic England"/>
    <tag k="listed_status" v="Grade II*"/>
    <tag k="name" v="St James the Great"/>
    <tag k="religion" v="christian"/>
    <tag k="source" v="bing"/>
    <tag k="wikidata" v="Q17551079"/>
  </way>

</osm>
