<?xml version="1.0" encoding="UTF-8"?>
<osm version="0.6" generator="Overpass API 0.7.62.8 e802775f">
<note>The data included in this document is from www.openstreetmap.org. The data is made available under ODbL.</note>
<meta osm_base="2025-10-23T17:22:30Z" areas="2025-10-23T14:54:58Z"/>

  <node id="10577412" lat="52.5589394" lon="-1.4844363" version="5" timestamp="2025-01-11T14:12:12Z" changeset="161240682" uid="5229644" user="Nathan_A_RF"/>
  <node id="271827728" lat="52.5577465" lon="-1.4800944" version="6" timestamp="2022-11-29T11:03:47Z" changeset="129515872" uid="705850" user="Cebderby"/>
  <node id="281844309" lat="52.5404560" lon="-1.4934808" version="5" timestamp="2013-08-28T10:18:27Z" changeset="17551897" uid="69984" user="richardwest"/>
  <node id="297799000" lat="52.5643904" lon="-1.5028213" version="4" timestamp="2024-08-11T20:16:36Z" changeset="155120473" uid="5008136" user="JayTurnr"/>
  <node id="2322032394" lat="52.5570549" lon="-1.4813390" version="2" timestamp="2016-06-07T18:27:10Z" changeset="39868048" uid="9065" user="brianboru"/>
  <node id="3400643101" lat="52.5585983" lon="-1.4833908" version="4" timestamp="2022-11-29T11:03:47Z" changeset="129515872" uid="705850" user="Cebderby"/>
  <node id="3400643103" lat="52.5580906" lon="-1.4812883" version="5" timestamp="2022-11-29T11:03:47Z" changeset="129515872" uid="705850" user="Cebderby"/>
  <node id="3655576106" lat="52.5522479" lon="-1.4621818" version="3" timestamp="2025-01-11T14:12:12Z" changeset="161240682" uid="5229644" user="Nathan_A_RF"/>
  <node id="4420537585" lat="52.5587854" lon="-1.4834493" version="3" timestamp="2022-11-29T11:03:47Z" changeset="129515872" uid="705850" user="Cebderby"/>
  <node id="5067142591" lat="52.5530765" lon="-1.4642327" version="2" timestamp="2024-08-11T20:27:46Z" changeset="155120852" uid="5008136" user="JayTurnr"/>
  <way id="4048233" version="18" timestamp="2025-03-08T10:09:13Z" changeset="163356918" uid="5589" user="user_5589">
    <nd ref="21449847"/>
    <nd ref="4230646250"/>
    <nd ref="271827722"/>
    <nd ref="7428187872"/>
    <nd ref="12104987270"/>
    <nd ref="4420537571"/>
    <tag k="highway" v="trunk"/>
    <tag k="lanes" v="1"/>
    <tag k="maxspeed" v="50 mph"/>
    <tag k="name" v="Weddington Lane"/>
    <tag k="oneway" v="yes"/>
    <tag k="ref" v="A444"/>
  </way>
  <way id="4048240" version="16" timestamp="2025-01-11T14:12:12Z" changeset="161240682" uid="5229644" user="Nathan_A_RF">
    <nd ref="10577412"/>
    <nd ref="12492361457"/>
    <nd ref="21450866"/>
    <nd ref="4420537566"/>
    <nd ref="4420537587"/>
    <nd ref="4420537585"/>
    <tag k="highway" v="trunk"/>
    <tag k="lanes" v="2"/>
    <tag k="maxspeed" v="50 mph"/>
    <tag k="name" v="Watling Street"/>
    <tag k="national_highways:area" v="9"/>
    <tag k="oneway" v="yes"/>
    <tag k="operator" v="National Highways"/>
    <tag k="operator:wikidata" v="Q5760006"/>
    <tag k="ref" v="A5"/>
    <tag k="source:maxspeed" v="survey"/>
  </way>
  <way id="25004918" version="16" timestamp="2024-08-11T20:27:46Z" changeset="155120852" uid="5008136" user="JayTurnr">
    <nd ref="271827728"/>
    <nd ref="21450869"/>
    <nd ref="21450870"/>
    <nd ref="21450871"/>
    <nd ref="4230646241"/>
    <nd ref="271827713"/>
    <nd ref="5067142615"/>
    <nd ref="5067142606"/>
    <nd ref="21450874"/>
    <nd ref="5067142590"/>
    <nd ref="12104954882"/>
    <nd ref="12104954883"/>
    <nd ref="5067142592"/>
    <nd ref="5067142591"/>
    <tag k="highway" v="trunk"/>
    <tag k="lanes" v="2"/>
    <tag k="maxspeed" v="50 mph"/>
    <tag k="name" v="Watling Street"/>
    <tag k="national_highways:area" v="9"/>
    <tag k="oneway" v="yes"/>
    <tag k="operator" v="National Highways"/>
    <tag k="operator:wikidata" v="Q5760006"/>
    <tag k="ref" v="A5"/>
    <tag k="source:maxspeed" v="survey"/>
  </way>
  <way id="29485117" version="7" timestamp="2025-07-01T17:48:18Z" changeset="168364828" uid="23051332" user="Shaun_e">
    <nd ref="325033103"/>
    <nd ref="325033105"/>
    <nd ref="325033106"/>
    <nd ref="325033108"/>
    <nd ref="325033110"/>
    <nd ref="325033112"/>
    <nd ref="325033117"/>
    <nd ref="325033114"/>
    <nd ref="325033119"/>
    <nd ref="325033118"/>
    <nd ref="325033122"/>
    <nd ref="325033120"/>
    <nd ref="325033125"/>
    <nd ref="325033124"/>
    <nd ref="325033129"/>
    <nd ref="325033127"/>
    <nd ref="325033137"/>
    <nd ref="325033132"/>
    <tag k="highway" v="unclassified"/>
    <tag k="lanes" v="1"/>
    <tag k="maxspeed" v="30 mph"/>
    <tag k="name" v="Caldecote Lane"/>
    <tag k="surface" v="gravel"/>
  </way>
  <way id="33706220" version="2" timestamp="2025-07-01T17:48:18Z" changeset="168364828" uid="23051332" user="Shaun_e">
    <nd ref="281844309"/>
    <nd ref="325007572"/>
    <nd ref="325033103"/>
    <tag k="highway" v="unclassified"/>
    <tag k="lanes" v="1"/>
    <tag k="maxspeed" v="30 mph"/>
    <tag k="name" v="Caldecote Lane"/>
    <tag k="source" v="gpx"/>
  </way>
  <way id="117741871" version="15" timestamp="2025-01-11T14:12:12Z" changeset="161240682" uid="5229644" user="Nathan_A_RF">
    <nd ref="297799000"/>
    <nd ref="1614315011"/>
    <nd ref="1614315008"/>
    <nd ref="293414"/>
    <nd ref="4230646285"/>
    <nd ref="1672043018"/>
    <nd ref="4751427772"/>
    <nd ref="2322174160"/>
    <nd ref="271827815"/>
    <nd ref="12492361456"/>
    <nd ref="12492361458"/>
    <tag k="highway" v="trunk"/>
    <tag k="lanes" v="2"/>
    <tag k="maxspeed" v="50 mph"/>
    <tag k="name" v="Watling Street"/>
    <tag k="national_highways:area" v="9"/>
    <tag k="operator" v="National Highways"/>
    <tag k="operator:wikidata" v="Q5760006"/>
    <tag k="ref" v="A5"/>
  </way>
  <way id="125552267" version="6" timestamp="2020-05-12T07:16:04Z" changeset="85067253" uid="10219386" user="bathines">
    <nd ref="1394158931"/>
    <nd ref="1394158793"/>
    <nd ref="2353634411"/>
    <nd ref="1394158757"/>
    <nd ref="1394158953"/>
    <nd ref="2768185180"/>
    <nd ref="1394158857"/>
    <nd ref="1394158831"/>
    <nd ref="7509759647"/>
    <nd ref="6407910418"/>
    <nd ref="1394158908"/>
    <nd ref="6407910417"/>
    <nd ref="1394158912"/>
    <nd ref="1394158759"/>
    <nd ref="1394158863"/>
    <tag k="highway" v="unclassified"/>
  </way>
  <way id="185833724" version="15" timestamp="2025-02-27T02:07:27Z" changeset="162994522" uid="493595" user="Yorvik Prestigitator">
    <nd ref="2322032394"/>
    <nd ref="6865947197"/>
    <nd ref="293398"/>
    <nd ref="6865947198"/>
    <nd ref="2322032389"/>
    <nd ref="293392"/>
    <nd ref="2322032387"/>
    <nd ref="2322032385"/>
    <nd ref="293391"/>
    <nd ref="2322032381"/>
    <nd ref="293390"/>
    <nd ref="293389"/>
    <nd ref="1394158931"/>
    <nd ref="12621777583"/>
    <nd ref="293388"/>
    <nd ref="2353634399"/>
    <nd ref="293379"/>
    <nd ref="2353634389"/>
    <nd ref="12621777587"/>
    <nd ref="293378"/>
    <nd ref="2353634366"/>
    <nd ref="293377"/>
    <nd ref="12621777589"/>
    <nd ref="293376"/>
    <nd ref="6561135734"/>
    <nd ref="293375"/>
    <nd ref="2353634344"/>
    <nd ref="6561135736"/>
    <nd ref="2353634335"/>
    <nd ref="293374"/>
    <nd ref="293373"/>
    <nd ref="2353634299"/>
    <nd ref="6561135738"/>
    <nd ref="293372"/>
    <nd ref="293371"/>
    <nd ref="10012152445"/>
    <nd ref="2768185157"/>
    <nd ref="293367"/>
    <nd ref="2768185146"/>
    <nd ref="293317"/>
    <nd ref="6561575703"/>
    <nd ref="2267414236"/>
    <nd ref="6900833529"/>
    <tag k="highway" v="trunk"/>
    <tag k="lanes" v="2"/>
    <tag k="maxspeed" v="50 mph"/>
    <tag k="name" v="Weddington Lane"/>
    <tag k="ref" v="A444"/>
  </way>
  <way id="226588247" version="5" timestamp="2025-07-13T00:05:10Z" changeset="168855407" uid="8857" user="philipcullen">
    <nd ref="2353634424"/>
    <nd ref="2353634420"/>
    <nd ref="2353634414"/>
    <nd ref="2353634419"/>
    <nd ref="2353634424"/>
    <tag k="addr:city" v="Caldecote"/>
    <tag k="addr:postcode" v="CV10 0TS"/>
    <tag k="addr:street" v="Weddington Lane"/>
    <tag k="amenity" v="community_centre"/>
    <tag k="building" v="public"/>
    <tag k="community_centre" v="village_hall"/>
    <tag k="name" v="Caldecote Village Hall"/>
    <tag k="ref:GB:uprn" v="100071398972"/>
  </way>
  <way id="226588248" version="4" timestamp="2025-07-13T00:05:10Z" changeset="168855407" uid="8857" user="philipcullen">
    <nd ref="2353634403"/>
    <nd ref="2353634407"/>
    <nd ref="2353634404"/>
    <nd ref="2353634401"/>
    <nd ref="2353634403"/>
    <tag k="amenity" v="place_of_worship"/>
    <tag k="building" v="church"/>
    <tag k="heritage" v="2"/>
    <tag k="heritage:operator" v="Historic England"/>
    <tag k="listed_status" v="Grade II*"/>
    <tag k="name" v="St Theobald &amp; St Chad"/>
    <tag k="ref:GB:uprn" v="10001173003"/>
    <tag k="religion" v="christian"/>
    <tag k="source" v="bing"/>
    <tag k="wikidata" v="Q17550504"/>
  </way>
  <way id="361025664" version="9" timestamp="2025-09-25T16:25:50Z" changeset="172448195" uid="13078383" user="Keith Barnett">
    <nd ref="3656857591"/>
    <nd ref="3655544211"/>
    <nd ref="3656857588"/>
    <nd ref="3655576108"/>
    <nd ref="3656857589"/>
    <tag k="highway" v="trunk"/>
    <tag k="junction" v="roundabout"/>
    <tag k="lanes" v="2"/>
    <tag k="maxspeed" v="50 mph"/>
    <tag k="maxspeed:type" v="sign"/>
    <tag k="national_highways:area" v="9"/>
    <tag k="oneway" v="yes"/>
    <tag k="operator" v="National Highways"/>
    <tag k="operator:wikidata" v="Q5760006"/>
  </way>
  <way id="361026195" version="9" timestamp="2024-08-11T20:27:46Z" changeset="155120852" uid="5008136" user="JayTurnr">
    <nd ref="3656857589"/>
    <nd ref="12104954885"/>
    <nd ref="5067142593"/>
    <nd ref="605405"/>
    <tag k="bicycle" v="no"/>
    <tag k="foot" v="no"/>
    <tag k="highway" v="trunk"/>
    <tag k="horse" v="no"/>
    <tag k="lanes" v="2"/>
    <tag k="maxspeed" v="50 mph"/>
    <tag k="name" v="Watling Street"/>
    <tag k="national_highways:area" v="9"/>
    <tag k="oneway" v="yes"/>
    <tag k="operator" v="National Highways"/>
    <tag k="operator:wikidata" v="Q5760006"/>
    <tag k="ref" v="A5"/>
    <tag k="source:maxspeed" v="survey"/>
  </way>
  <way id="361031613" version="8" timestamp="2025-01-11T14:12:12Z" changeset="161240682" uid="5229644" user="Nathan_A_RF">
    <nd ref="3655576106"/>
    <nd ref="12492361463"/>
    <nd ref="271827708"/>
    <tag k="highway" v="trunk"/>
    <tag k="lanes" v="2"/>
    <tag k="maxspeed" v="50 mph"/>
    <tag k="name" v="Watling Street"/>
    <tag k="national_highways:area" v="9"/>
    <tag k="operator" v="National Highways"/>
    <tag k="operator:wikidata" v="Q5760006"/>
    <tag k="ref" v="A5"/>
    <tag k="source:maxspeed" v="survey"/>
  </way>
  <way id="361031619" version="11" timestamp="2024-03-10T19:58:24Z" changeset="148477869" uid="16169153" user="ArjanJager">
    <nd ref="605405"/>
    <nd ref="605402"/>
    <nd ref="4230646243"/>
    <nd ref="293402"/>
    <nd ref="2322032395"/>
    <nd ref="293403"/>
    <nd ref="10225434947"/>
    <tag k="bicycle" v="yes"/>
    <tag k="foot" v="yes"/>
    <tag k="highway" v="trunk"/>
    <tag k="horse" v="yes"/>
    <tag k="lanes" v="1"/>
    <tag k="maxspeed" v="50 mph"/>
    <tag k="name" v="Watling Street"/>
    <tag k="national_highways:area" v="9"/>
    <tag k="oneway" v="yes"/>
    <tag k="operator" v="National Highways"/>
    <tag k="operator:wikidata" v="Q5760006"/>
    <tag k="ref" v="A5"/>
    <tag k="source:maxspeed" v="survey"/>
  </way>
  <way id="361031622" version="8" timestamp="2025-01-11T14:12:12Z" changeset="161240682" uid="5229644" user="Nathan_A_RF">
    <nd ref="12492361459"/>
    <nd ref="3655576110"/>
    <nd ref="12492361460"/>
    <nd ref="3655576106"/>
    <tag k="highway" v="trunk"/>
    <tag k="lanes" v="1"/>
    <tag k="maxspeed" v="50 mph"/>
    <tag k="name" v="Watling Street"/>
    <tag k="national_highways:area" v="9"/>
    <tag k="oneway" v="yes"/>
    <tag k="operator" v="National Highways"/>
    <tag k="operator:wikidata" v="Q5760006"/>
    <tag k="ref" v="A5"/>
    <tag k="source:maxspeed" v="survey"/>
  </way>
  <way id="361031624" version="11" timestamp="2025-01-11T14:12:12Z" changeset="161240682" uid="5229644" user="Nathan_A_RF">
    <nd ref="3655576106"/>
    <nd ref="5067142599"/>
    <nd ref="12492361461"/>
    <nd ref="12492361462"/>
    <nd ref="5067142589"/>
    <nd ref="3656857591"/>
    <tag k="bicycle" v="yes"/>
    <tag k="foot" v="yes"/>
    <tag k="highway" v="trunk"/>
    <tag k="horse" v="yes"/>
    <tag k="lanes" v="2"/>
    <tag k="maxspeed" v="50 mph"/>
    <tag k="name" v="Watling Street"/>
    <tag k="national_highways:area" v="9"/>
    <tag k="oneway" v="yes"/>
    <tag k="operator" v="National Highways"/>
    <tag k="operator:wikidata" v="Q5760006"/>
    <tag k="ref" v="A5"/>
    <tag k="source:maxspeed" v="survey"/>
  </way>
  <way id="444588229" version="6" timestamp="2025-04-01T17:29:42Z" changeset="164386028" uid="5229644" user="Nathan_A_RF">
    <nd ref="4420537585"/>
    <nd ref="4420537581"/>
    <nd ref="4420537561"/>
    <nd ref="10225434942"/>
    <nd ref="4420537551"/>
    <nd ref="4420537556"/>
    <nd ref="4420537555"/>
    <nd ref="4420537580"/>
    <nd ref="4420537588"/>
    <tag k="highway" v="trunk"/>
    <tag k="junction" v="roundabout"/>
    <tag k="lanes" v="2"/>
    <tag k="maxspeed" v="50 mph"/>
    <tag k="maxspeed:type" v="sign"/>
    <tag k="name" v="Watling Street"/>
    <tag k="national_highways:area" v="9"/>
    <tag k="operator" v="National Highways"/>
    <tag k="operator:wikidata" v="Q5760006"/>
    <tag k="ref" v="A5"/>
  </way>
  <way id="444588230" version="6" timestamp="2025-03-08T10:09:04Z" changeset="163356918" uid="5589" user="user_5589">
    <nd ref="4420537583"/>
    <nd ref="4845856504"/>
    <nd ref="4230646252"/>
    <nd ref="271827716"/>
    <nd ref="21449847"/>
    <tag k="highway" v="trunk"/>
    <tag k="lanes" v="1"/>
    <tag k="maxspeed" v="50 mph"/>
    <tag k="name" v="Weddington Lane"/>
    <tag k="oneway" v="yes"/>
    <tag k="ref" v="A444"/>
  </way>
  <way id="444588232" version="9" timestamp="2025-04-01T17:29:42Z" changeset="164386028" uid="5229644" user="Nathan_A_RF">
    <nd ref="4420537571"/>
    <nd ref="4420537573"/>
    <nd ref="4420537554"/>
    <nd ref="4420537558"/>
    <nd ref="4420537560"/>
    <nd ref="3400643101"/>
    <tag k="highway" v="trunk"/>
    <tag k="junction" v="roundabout"/>
    <tag k="lanes" v="2"/>
    <tag k="maxspeed" v="50 mph"/>
    <tag k="maxspeed:type" v="sign"/>
    <tag k="name" v="Watling Street"/>
    <tag k="national_highways:area" v="9"/>
    <tag k="operator" v="National Highways"/>
    <tag k="operator:wikidata" v="Q5760006"/>
    <tag k="ref" v="A5"/>
    <tag k="source:maxspeed" v="survey"/>
    <tag k="turn:lanes" v="through|right"/>
  </way>
  <way id="444588233" version="9" timestamp="2025-04-01T17:29:42Z" changeset="164386028" uid="5229644" user="Nathan_A_RF">
    <nd ref="4420537588"/>
    <nd ref="271827731"/>
    <nd ref="3400643103"/>
    <tag k="highway" v="trunk"/>
    <tag k="junction" v="roundabout"/>
    <tag k="lanes" v="2"/>
    <tag k="maxspeed" v="50 mph"/>
    <tag k="maxspeed:type" v="sign"/>
    <tag k="name" v="Watling Street"/>
    <tag k="national_highways:area" v="9"/>
    <tag k="operator" v="National Highways"/>
    <tag k="operator:wikidata" v="Q5760006"/>
    <tag k="ref" v="A5"/>
    <tag k="source:maxspeed" v="survey"/>
  </way>
  <way id="444588235" version="6" timestamp="2025-04-01T17:29:42Z" changeset="164386028" uid="5229644" user="Nathan_A_RF">
    <nd ref="3400643103"/>
    <nd ref="4420537574"/>
    <nd ref="4420537575"/>
    <nd ref="4420537577"/>
    <nd ref="4420537553"/>
    <nd ref="4420537557"/>
    <tag k="highway" v="trunk"/>
    <tag k="junction" v="roundabout"/>
    <tag k="lanes" v="1"/>
    <tag k="maxspeed" v="50 mph"/>
    <tag k="maxspeed:type" v="sign"/>
    <tag k="name" v="Watling Street"/>
    <tag k="national_highways:area" v="9"/>
    <tag k="operator" v="National Highways"/>
    <tag k="operator:wikidata" v="Q5760006"/>
    <tag k="ref" v="A5"/>
  </way>
  <way id="444588236" version="7" timestamp="2025-01-11T14:12:12Z" changeset="161240682" uid="5229644" user="Nathan_A_RF">
    <nd ref="4230646280"/>
    <nd ref="12492361455"/>
    <nd ref="10577412"/>
    <tag k="highway" v="trunk"/>
    <tag k="lanes" v="1"/>
    <tag k="maxspeed" v="50 mph"/>
    <tag k="name" v="Watling Street"/>
    <tag k="national_highways:area" v="9"/>
    <tag k="oneway" v="yes"/>
    <tag k="operator" v="National Highways"/>
    <tag k="operator:wikidata" v="Q5760006"/>
    <tag k="ref" v="A5"/>
    <tag k="source:maxspeed" v="survey"/>
  </way>
  <way id="1101455341" version="3" timestamp="2022-11-29T11:03:47Z" changeset="129515872" uid="705850" user="Cebderby">
    <nd ref="3400643101"/>
    <nd ref="10225434944"/>
    <nd ref="4230646280"/>
    <tag k="highway" v="trunk"/>
    <tag k="lanes" v="1"/>
    <tag k="maxspeed" v="50 mph"/>
    <tag k="name" v="Watling Street"/>
    <tag k="national_highways:area" v="9"/>
    <tag k="oneway" v="yes"/>
    <tag k="operator" v="National Highways"/>
    <tag k="operator:wikidata" v="Q5760006"/>
    <tag k="ref" v="A5"/>
    <tag k="source:maxspeed" v="survey"/>
  </way>
  <way id="1101455343" version="2" timestamp="2025-01-14T10:33:27Z" changeset="161339626" uid="13078383" user="Keith Barnett">
    <nd ref="21449847"/>
    <nd ref="2322032394"/>
    <tag k="highway" v="trunk"/>
    <tag k="lanes" v="2"/>
    <tag k="maxspeed" v="50 mph"/>
    <tag k="name" v="Weddington Lane"/>
    <tag k="ref" v="A444"/>
  </way>
  <way id="1101455344" version="5" timestamp="2025-04-01T17:29:42Z" changeset="164386028" uid="5229644" user="Nathan_A_RF">
    <nd ref="4420537557"/>
    <nd ref="4420537583"/>
    <nd ref="4420537582"/>
    <nd ref="10225434943"/>
    <nd ref="4420537562"/>
    <nd ref="4420537571"/>
    <tag k="highway" v="trunk"/>
    <tag k="junction" v="roundabout"/>
    <tag k="lanes" v="2"/>
    <tag k="maxspeed" v="50 mph"/>
    <tag k="maxspeed:type" v="sign"/>
    <tag k="name" v="Watling Street"/>
    <tag k="national_highways:area" v="9"/>
    <tag k="operator" v="National Highways"/>
    <tag k="operator:wikidata" v="Q5760006"/>
    <tag k="ref" v="A5"/>
  </way>
  <way id="1101455345" version="3" timestamp="2022-11-29T11:03:47Z" changeset="129515872" uid="705850" user="Cebderby">
    <nd ref="3400643103"/>
    <nd ref="10225434945"/>
    <nd ref="10225434946"/>
    <nd ref="10225434948"/>
    <nd ref="271827728"/>
    <tag k="highway" v="trunk"/>
    <tag k="lanes" v="1"/>
    <tag k="maxspeed" v="50 mph"/>
    <tag k="name" v="Watling Street"/>
    <tag k="national_highways:area" v="9"/>
    <tag k="oneway" v="yes"/>
    <tag k="operator" v="National Highways"/>
    <tag k="operator:wikidata" v="Q5760006"/>
    <tag k="ref" v="A5"/>
    <tag k="source:maxspeed" v="survey"/>
  </way>
  <way id="1118037292" version="3" timestamp="2024-08-03T14:08:09Z" changeset="154775668" uid="141442" user="CycleStreets">
    <nd ref="10225434947"/>
    <nd ref="4230646248"/>
    <nd ref="4420537584"/>
    <nd ref="12090451281"/>
    <nd ref="4420537578"/>
    <nd ref="4420537557"/>
    <tag k="bicycle" v="yes"/>
    <tag k="foot" v="yes"/>
    <tag k="highway" v="trunk"/>
    <tag k="horse" v="yes"/>
    <tag k="lanes" v="2"/>
    <tag k="maxspeed" v="50 mph"/>
    <tag k="name" v="Watling Street"/>
    <tag k="national_highways:area" v="9"/>
    <tag k="oneway" v="yes"/>
    <tag k="operator" v="National Highways"/>
    <tag k="operator:wikidata" v="Q5760006"/>
    <tag k="ref" v="A5"/>
    <tag k="source:maxspeed" v="survey"/>
  </way>
  <way id="1307113683" version="3" timestamp="2025-04-01T17:29:42Z" changeset="164386028" uid="5229644" user="Nathan_A_RF">
    <nd ref="3400643101"/>
    <nd ref="4420537579"/>
    <nd ref="4420537567"/>
    <nd ref="4420537576"/>
    <nd ref="4420537570"/>
    <nd ref="4420537585"/>
    <tag k="highway" v="trunk"/>
    <tag k="junction" v="roundabout"/>
    <tag k="lanes" v="1"/>
    <tag k="maxspeed" v="50 mph"/>
    <tag k="maxspeed:type" v="sign"/>
    <tag k="name" v="Watling Street"/>
    <tag k="national_highways:area" v="9"/>
    <tag k="operator" v="National Highways"/>
    <tag k="operator:wikidata" v="Q5760006"/>
    <tag k="ref" v="A5"/>
  </way>
  <way id="1307115772" version="3" timestamp="2025-09-25T16:25:46Z" changeset="172448195" uid="13078383" user="Keith Barnett">
    <nd ref="5067142591"/>
    <nd ref="12104954884"/>
    <nd ref="3656857584"/>
    <nd ref="5067142595"/>
    <nd ref="3656857587"/>
    <nd ref="3656896342"/>
    <nd ref="12492361476"/>
    <nd ref="3655544208"/>
    <nd ref="3656857586"/>
    <tag k="highway" v="trunk"/>
    <tag k="junction" v="roundabout"/>
    <tag k="lanes" v="2"/>
    <tag k="maxspeed" v="50 mph"/>
    <tag k="maxspeed:type" v="sign"/>
    <tag k="national_highways:area" v="9"/>
    <tag k="oneway" v="yes"/>
    <tag k="operator" v="National Highways"/>
    <tag k="operator:wikidata" v="Q5760006"/>
  </way>
  <way id="1307115773" version="3" timestamp="2025-09-25T16:25:41Z" changeset="172448195" uid="13078383" user="Keith Barnett">
    <nd ref="3656857586"/>
    <nd ref="3655544209"/>
    <nd ref="3656857585"/>
    <nd ref="3655576109"/>
    <nd ref="3656857591"/>
    <tag k="highway" v="trunk"/>
    <tag k="junction" v="roundabout"/>
    <tag k="lanes" v="1"/>
    <tag k="maxspeed" v="50 mph"/>
    <tag k="maxspeed:type" v="sign"/>
    <tag k="national_highways:area" v="9"/>
    <tag k="oneway" v="yes"/>
    <tag k="operator" v="National Highways"/>
    <tag k="operator:wikidata" v="Q5760006"/>
  </way>
  <way id="1307115774" version="3" timestamp="2025-09-25T16:25:36Z" changeset="172448195" uid="13078383" user="Keith Barnett">
    <nd ref="3656857589"/>
    <nd ref="3655565229"/>
    <nd ref="3656857590"/>
    <nd ref="404644"/>
    <nd ref="5067142591"/>
    <tag k="highway" v="trunk"/>
    <tag k="junction" v="roundabout"/>
    <tag k="lanes" v="1"/>
    <tag k="maxspeed" v="50 mph"/>
    <tag k="maxspeed:type" v="sign"/>
    <tag k="national_highways:area" v="9"/>
    <tag k="oneway" v="yes"/>
    <tag k="operator" v="National Highways"/>
    <tag k="operator:wikidata" v="Q5760006"/>
  </way>
  <way id="1350368812" version="1" timestamp="2025-01-11T14:12:12Z" changeset="161240682" uid="5229644" user="Nathan_A_RF">
    <nd ref="12492361458"/>
    <nd ref="10577412"/>
    <tag k="highway" v="trunk"/>
    <tag k="lanes" v="3"/>
    <tag k="maxspeed" v="50 mph"/>
    <tag k="name" v="Watling Street"/>
    <tag k="national_highways:area" v="9"/>
    <tag k="operator" v="National Highways"/>
    <tag k="operator:wikidata" v="Q5760006"/>
    <tag k="ref" v="A5"/>
  </way>
  <way id="1350368813" version="1" timestamp="2025-01-11T14:12:12Z" changeset="161240682" uid="5229644" user="Nathan_A_RF">
    <nd ref="3656857586"/>
    <nd ref="5067142598"/>
    <nd ref="12492361459"/>
    <tag k="highway" v="trunk"/>
    <tag k="lanes" v="2"/>
    <tag k="maxspeed" v="50 mph"/>
    <tag k="name" v="Watling Street"/>
    <tag k="national_highways:area" v="9"/>
    <tag k="oneway" v="yes"/>
    <tag k="operator" v="National Highways"/>
    <tag k="operator:wikidata" v="Q5760006"/>
    <tag k="ref" v="A5"/>
    <tag k="source:maxspeed" v="survey"/>
  </way>
  <relation id="2079922" version="2" timestamp="2017-04-09T15:42:00Z" changeset="47596178" uid="133272" user="wongataa">
    <member type="way" ref="154710486" role="inner"/>
    <member type="way" ref="154710485" role="outer"/>
    <tag k="building" v="residential"/>
    <tag k="name" v="Caldecote Hall"/>
    <tag k="type" v="multipolygon"/>
  </relation>

</osm>
