<?xml version="1.0" encoding="UTF-8"?>
<osm version="0.6" generator="Overpass API 0.7.62.8 e802775f">
<note>The data included in this document is from www.openstreetmap.org. The data is made available under ODbL.</note>
<meta osm_base="2025-10-23T17:42:00Z" areas="2025-10-23T12:46:58Z"/>

  <node id="26622269" lat="52.0498497" lon="-1.7089864" version="2" timestamp="2009-07-12T13:04:59Z" changeset="1806370" uid="24614" user="Alex McKee"/>
  <node id="279130169" lat="52.0558226" lon="-1.6743804" version="3" timestamp="2011-11-13T17:29:47Z" changeset="9816682" uid="9065" user="brianboru"/>
  <node id="279130979" lat="52.0443411" lon="-1.6812577" version="2" timestamp="2011-11-13T17:35:01Z" changeset="9816741" uid="9065" user="brianboru"/>
  <node id="1538285775" lat="52.0430037" lon="-1.6214518" version="3" timestamp="2019-07-25T09:43:05Z" changeset="72635535" uid="9065" user="brianboru"/>
  <node id="1538285824" lat="52.0563295" lon="-1.6605502" version="3" timestamp="2025-02-02T14:18:02Z" changeset="162048337" uid="19756269" user="RyanBush"/>
  <node id="12117579632" lat="52.0363623" lon="-1.6748775" version="1" timestamp="2024-08-17T22:26:16Z" changeset="155391858" uid="456597" user="4004"/>
  <node id="12246120700" lat="52.0589273" lon="-1.6588039" version="2" timestamp="2025-02-02T14:18:02Z" changeset="162048337" uid="19756269" user="RyanBush"/>
  <way id="25609545" version="4" timestamp="2013-09-29T15:48:05Z" changeset="18095029" uid="9065" user="brianboru">
    <nd ref="279130169"/>
    <nd ref="279130714"/>
    <nd ref="279130715"/>
    <nd ref="2476674218"/>
    <nd ref="279130716"/>
    <nd ref="2476674225"/>
    <nd ref="279130717"/>
    <nd ref="2476674285"/>
    <nd ref="279130718"/>
    <nd ref="2476674337"/>
    <nd ref="279130719"/>
    <nd ref="279130720"/>
    <nd ref="2476674351"/>
    <nd ref="2476674355"/>
    <nd ref="279130721"/>
    <nd ref="279130722"/>
    <nd ref="279130723"/>
    <nd ref="279130724"/>
    <nd ref="279130725"/>
    <nd ref="279130726"/>
    <nd ref="2476674418"/>
    <nd ref="279130727"/>
    <nd ref="2476674426"/>
    <nd ref="279130728"/>
    <nd ref="2476674431"/>
    <nd ref="2476674432"/>
    <nd ref="437379593"/>
    <nd ref="2476674436"/>
    <nd ref="2476674438"/>
    <nd ref="2476674441"/>
    <nd ref="279130729"/>
    <nd ref="2476674443"/>
    <nd ref="279130730"/>
    <nd ref="279130731"/>
    <tag k="highway" v="unclassified"/>
    <tag k="source" v="survey"/>
  </way>
  <way id="25609601" version="6" timestamp="2024-06-29T20:47:17Z" changeset="153347414" uid="493595" user="Yorvik Prestigitator">
    <nd ref="279130661"/>
    <nd ref="279130975"/>
    <nd ref="12021054592"/>
    <nd ref="1501736245"/>
    <nd ref="7988099534"/>
    <nd ref="12021054607"/>
    <nd ref="279130976"/>
    <nd ref="279130977"/>
    <nd ref="279130978"/>
    <nd ref="1501736234"/>
    <nd ref="4825604690"/>
    <nd ref="1501736221"/>
    <nd ref="1501736235"/>
    <nd ref="1621334347"/>
    <nd ref="279130979"/>
    <tag k="highway" v="unclassified"/>
    <tag k="source" v="NPE"/>
  </way>
  <way id="37593953" version="15" timestamp="2025-01-02T22:54:43Z" changeset="160929028" uid="5229644" user="Nathan_A_RF">
    <nd ref="26622269"/>
    <nd ref="27231844"/>
    <nd ref="6454874883"/>
    <nd ref="6454874884"/>
    <nd ref="6454875888"/>
    <nd ref="26622271"/>
    <nd ref="279130989"/>
    <nd ref="26622273"/>
    <nd ref="2465441406"/>
    <nd ref="2465441408"/>
    <nd ref="26622275"/>
    <nd ref="2465441411"/>
    <nd ref="26622277"/>
    <nd ref="26622279"/>
    <nd ref="6323563923"/>
    <nd ref="6323563937"/>
    <nd ref="12469855774"/>
    <nd ref="26622280"/>
    <nd ref="2456555013"/>
    <nd ref="1501728577"/>
    <nd ref="440698199"/>
    <nd ref="26622282"/>
    <nd ref="1501730447"/>
    <nd ref="26622284"/>
    <nd ref="1501730449"/>
    <nd ref="26622285"/>
    <nd ref="26622267"/>
    <nd ref="11191202527"/>
    <nd ref="2278320895"/>
    <nd ref="1501730452"/>
    <nd ref="1501730454"/>
    <nd ref="1501730466"/>
    <nd ref="26622265"/>
    <nd ref="1501730467"/>
    <nd ref="26622263"/>
    <nd ref="1501730461"/>
    <nd ref="1501730456"/>
    <nd ref="1501730458"/>
    <nd ref="2521434004"/>
    <nd ref="11191202502"/>
    <nd ref="1501730464"/>
    <nd ref="26622261"/>
    <nd ref="1501730474"/>
    <nd ref="26622260"/>
    <nd ref="8553585703"/>
    <nd ref="1501730476"/>
    <nd ref="279130169"/>
    <nd ref="26622258"/>
    <nd ref="1501730478"/>
    <nd ref="1469135557"/>
    <nd ref="1611594224"/>
    <tag k="cycleway:both" v="no"/>
    <tag k="highway" v="secondary"/>
    <tag k="lanes" v="2"/>
    <tag k="maxspeed" v="60 mph"/>
    <tag k="maxspeed:type" v="GB:nsl_single"/>
    <tag k="ref" v="B4035"/>
    <tag k="shoulder" v="no"/>
    <tag k="source" v="survey"/>
    <tag k="source:maxspeed" v="survey"/>
    <tag k="surface" v="asphalt"/>
  </way>
  <way id="65688084" version="10" timestamp="2024-08-17T22:26:16Z" changeset="155391858" uid="456597" user="4004">
    <nd ref="1538269267"/>
    <nd ref="12117579611"/>
    <nd ref="11191202540"/>
    <nd ref="1474099963"/>
    <nd ref="1474099964"/>
    <nd ref="1538269273"/>
    <nd ref="279130651"/>
    <nd ref="2465382252"/>
    <nd ref="2465382255"/>
    <nd ref="800664239"/>
    <nd ref="1501736082"/>
    <nd ref="1501736087"/>
    <nd ref="6506371287"/>
    <nd ref="800664242"/>
    <nd ref="6506371286"/>
    <nd ref="800664243"/>
    <nd ref="1501736159"/>
    <nd ref="6506371285"/>
    <nd ref="6506959636"/>
    <nd ref="800664245"/>
    <nd ref="6506339584"/>
    <nd ref="1501736182"/>
    <nd ref="1501736193"/>
    <nd ref="6506959646"/>
    <nd ref="1621334294"/>
    <nd ref="11191202537"/>
    <nd ref="800664247"/>
    <nd ref="1501736250"/>
    <nd ref="1501736269"/>
    <nd ref="800664249"/>
    <nd ref="279130661"/>
    <tag k="highway" v="unclassified"/>
    <tag k="name" v="Main Street"/>
    <tag k="source" v="NPE"/>
    <tag k="surface" v="asphalt"/>
  </way>
  <way id="133285789" version="19" timestamp="2025-02-02T14:18:02Z" changeset="162048337" uid="19756269" user="RyanBush">
    <nd ref="7988095307"/>
    <nd ref="12551286404"/>
    <nd ref="4825604719"/>
    <nd ref="4825604715"/>
    <nd ref="12551286405"/>
    <nd ref="12551286406"/>
    <nd ref="25290062"/>
    <nd ref="12551286407"/>
    <nd ref="1474099966"/>
    <nd ref="12551286408"/>
    <nd ref="25290063"/>
    <nd ref="12551286409"/>
    <nd ref="1474099967"/>
    <nd ref="12551286410"/>
    <nd ref="25290064"/>
    <nd ref="12551286411"/>
    <nd ref="25290065"/>
    <nd ref="12551286412"/>
    <nd ref="12551286413"/>
    <nd ref="1474099968"/>
    <nd ref="12551286414"/>
    <nd ref="11191202531"/>
    <nd ref="1611560999"/>
    <nd ref="12551286415"/>
    <nd ref="1611560928"/>
    <nd ref="12551286416"/>
    <nd ref="25290066"/>
    <nd ref="12551286417"/>
    <nd ref="1611560976"/>
    <nd ref="12551286418"/>
    <nd ref="25290067"/>
    <nd ref="6454993581"/>
    <tag k="cycleway:both" v="no"/>
    <tag k="highway" v="trunk"/>
    <tag k="lanes" v="2"/>
    <tag k="lit" v="no"/>
    <tag k="maxspeed" v="60 mph"/>
    <tag k="maxspeed:type" v="GB:nsl_single"/>
    <tag k="name" v="Fosse Way"/>
    <tag k="ref" v="A429"/>
    <tag k="restriction" v="no_stopping"/>
    <tag k="shoulder" v="no"/>
    <tag k="sidewalk" v="no"/>
    <tag k="source" v="survey"/>
    <tag k="source:maxspeed" v="survey"/>
    <tag k="surface" v="asphalt"/>
  </way>
  <way id="133968152" version="10" timestamp="2025-02-02T14:18:02Z" changeset="162048337" uid="19756269" user="RyanBush">
    <nd ref="1474099974"/>
    <nd ref="12551286428"/>
    <nd ref="7687884851"/>
    <nd ref="13797212"/>
    <tag k="cycleway:both" v="no"/>
    <tag k="highway" v="trunk"/>
    <tag k="lanes" v="3"/>
    <tag k="lanes:forward" v="2"/>
    <tag k="lit" v="yes"/>
    <tag k="maxspeed" v="50 mph"/>
    <tag k="maxspeed:type" v="sign"/>
    <tag k="name" v="Fosse Way"/>
    <tag k="ref" v="A429"/>
    <tag k="restriction" v="no_stopping"/>
    <tag k="shoulder" v="no"/>
    <tag k="sidewalk" v="no"/>
    <tag k="source" v="survey"/>
    <tag k="source:maxspeed" v="survey"/>
    <tag k="surface" v="asphalt"/>
    <tag k="turn:lanes:forward" v="left;through|right"/>
  </way>
  <way id="133968154" version="12" timestamp="2025-02-02T14:18:02Z" changeset="162048337" uid="19756269" user="RyanBush">
    <nd ref="1611594305"/>
    <nd ref="1474099978"/>
    <nd ref="12551286429"/>
    <nd ref="1474099977"/>
    <nd ref="7687884852"/>
    <nd ref="13797212"/>
    <tag k="cycleway:both" v="no"/>
    <tag k="highway" v="trunk"/>
    <tag k="lanes" v="3"/>
    <tag k="lanes:forward" v="2"/>
    <tag k="lit" v="yes"/>
    <tag k="maxspeed" v="50 mph"/>
    <tag k="maxspeed:type" v="sign"/>
    <tag k="name" v="Fosse Way"/>
    <tag k="ref" v="A429"/>
    <tag k="restriction" v="no_stopping"/>
    <tag k="shoulder" v="no"/>
    <tag k="sidewalk" v="no"/>
    <tag k="source" v="survey"/>
    <tag k="source:maxspeed" v="survey"/>
    <tag k="surface" v="asphalt"/>
    <tag k="turn:lanes:forward" v="left;through|right"/>
  </way>
  <way id="136885364" version="3" timestamp="2019-05-28T19:06:27Z" changeset="70708562" uid="9065" user="brianboru">
    <nd ref="800664242"/>
    <nd ref="6506978800"/>
    <nd ref="1501736093"/>
    <nd ref="6506978799"/>
    <nd ref="1501736116"/>
    <nd ref="1501736119"/>
    <nd ref="279130658"/>
    <tag k="highway" v="unclassified"/>
    <tag k="name" v="School Lane"/>
    <tag k="source" v="bing"/>
  </way>
  <way id="140396312" version="22" timestamp="2025-01-02T12:07:59Z" changeset="160904126" uid="5229644" user="Nathan_A_RF">
    <nd ref="1538285824"/>
    <nd ref="1538285825"/>
    <nd ref="1538285827"/>
    <nd ref="1538285828"/>
    <nd ref="1538285848"/>
    <nd ref="1538285736"/>
    <nd ref="1538285846"/>
    <nd ref="1538285850"/>
    <nd ref="1538285852"/>
    <nd ref="1538285831"/>
    <nd ref="1538285832"/>
    <nd ref="1538285857"/>
    <nd ref="1538285859"/>
    <nd ref="1538285891"/>
    <nd ref="1538285693"/>
    <nd ref="1538285738"/>
    <nd ref="1538285768"/>
    <nd ref="1538285781"/>
    <nd ref="1538285834"/>
    <nd ref="1538285741"/>
    <nd ref="1538285695"/>
    <nd ref="1538285788"/>
    <nd ref="1538285701"/>
    <nd ref="1538285829"/>
    <nd ref="1538285844"/>
    <nd ref="1538285871"/>
    <nd ref="1538285872"/>
    <nd ref="1538285883"/>
    <nd ref="1538285885"/>
    <nd ref="1538285750"/>
    <nd ref="6327730351"/>
    <nd ref="1538285862"/>
    <nd ref="1538285865"/>
    <nd ref="1538285874"/>
    <nd ref="1538285886"/>
    <nd ref="1538285894"/>
    <nd ref="1538285821"/>
    <nd ref="6908028186"/>
    <nd ref="6327730353"/>
    <nd ref="8563862939"/>
    <nd ref="8563958984"/>
    <nd ref="1538285873"/>
    <nd ref="1538285747"/>
    <nd ref="1609492495"/>
    <nd ref="1538285895"/>
    <nd ref="1538285897"/>
    <nd ref="1609492764"/>
    <nd ref="1538285686"/>
    <nd ref="1538285696"/>
    <nd ref="1538285698"/>
    <nd ref="1538285707"/>
    <nd ref="1538285732"/>
    <nd ref="1538285743"/>
    <nd ref="1538285867"/>
    <nd ref="9620414691"/>
    <nd ref="1538285752"/>
    <nd ref="1538285898"/>
    <nd ref="1538285715"/>
    <nd ref="1538285754"/>
    <tag k="cycleway:both" v="no"/>
    <tag k="highway" v="secondary"/>
    <tag k="lanes" v="2"/>
    <tag k="maxspeed" v="50 mph"/>
    <tag k="maxspeed:type" v="sign"/>
    <tag k="name" v="Campden Road"/>
    <tag k="ref" v="B4035"/>
    <tag k="shoulder" v="no"/>
    <tag k="surface" v="asphalt"/>
  </way>
  <way id="141693589" version="5" timestamp="2021-03-22T09:26:30Z" changeset="101489381" uid="9065" user="brianboru">
    <nd ref="1538285775"/>
    <nd ref="8548443470"/>
    <nd ref="1550995463"/>
    <nd ref="1611742361"/>
    <nd ref="1611744145"/>
    <nd ref="1550995027"/>
    <nd ref="1550995568"/>
    <nd ref="1550995569"/>
    <nd ref="1550995780"/>
    <nd ref="1550995497"/>
    <nd ref="1550995000"/>
    <nd ref="1550994924"/>
    <nd ref="1550995035"/>
    <nd ref="1550995905"/>
    <nd ref="1550995783"/>
    <nd ref="1550995521"/>
    <nd ref="1550995454"/>
    <nd ref="1550994888"/>
    <nd ref="1550995113"/>
    <nd ref="1550995668"/>
    <nd ref="1550995736"/>
    <nd ref="1550995058"/>
    <nd ref="1550994949"/>
    <nd ref="1550995796"/>
    <nd ref="1474506502"/>
    <nd ref="1550994966"/>
    <nd ref="1550995652"/>
    <nd ref="1550995403"/>
    <nd ref="1550994905"/>
    <nd ref="1550994986"/>
    <nd ref="1550995632"/>
    <nd ref="1550995582"/>
    <nd ref="1550995564"/>
    <nd ref="1550994914"/>
    <nd ref="1550995750"/>
    <nd ref="1550995075"/>
    <nd ref="1550995017"/>
    <nd ref="1550994991"/>
    <nd ref="1550994993"/>
    <nd ref="1550994892"/>
    <nd ref="1550994922"/>
    <nd ref="1550995698"/>
    <nd ref="1550995824"/>
    <nd ref="1550995894"/>
    <nd ref="1550995375"/>
    <nd ref="1231537421"/>
    <nd ref="1611534358"/>
    <nd ref="1550994984"/>
    <nd ref="1522410633"/>
    <tag k="highway" v="unclassified"/>
  </way>
  <way id="148046673" version="10" timestamp="2024-05-12T03:16:09Z" changeset="151208161" uid="493595" user="Yorvik Prestigitator">
    <nd ref="1611568016"/>
    <nd ref="1611568035"/>
    <nd ref="1611568024"/>
    <nd ref="1611568033"/>
    <nd ref="1611568016"/>
    <tag k="addr:city" v="Moreton-in-Marsh"/>
    <tag k="addr:postcode" v="GL56 9RE"/>
    <tag k="amenity" v="fuel"/>
    <tag k="brand" v="Shell"/>
    <tag k="brand:wikidata" v="Q110716465"/>
    <tag k="brand:wikipedia" v="en:Royal Dutch Shell"/>
    <tag k="building" v="roof"/>
    <tag k="compressed_air" v="yes"/>
    <tag k="name" v="Rowborough Filling Station"/>
    <tag k="opening_hours" v="Mo-Su 06:00-21:00"/>
    <tag k="phone" v="+44 1608 663298"/>
    <tag k="ref:navads" v="NVDS353_10019750"/>
    <tag k="website" v="https://find.shell.com/gb/fuel/10019750-rowborough-filling-station"/>
    <tag k="wheelchair" v="yes"/>
  </way>
  <way id="149109435" version="4" timestamp="2024-06-29T20:47:17Z" changeset="153347414" uid="493595" user="Yorvik Prestigitator">
    <nd ref="279130658"/>
    <nd ref="6506978797"/>
    <nd ref="2465419612"/>
    <nd ref="6506978796"/>
    <nd ref="1501736120"/>
    <nd ref="279130659"/>
    <nd ref="2465419617"/>
    <nd ref="1501736126"/>
    <nd ref="1501736151"/>
    <nd ref="2465419634"/>
    <nd ref="6506959637"/>
    <nd ref="279130660"/>
    <nd ref="12021054604"/>
    <nd ref="279130661"/>
    <tag k="highway" v="unclassified"/>
    <tag k="name" v="Belcony"/>
    <tag k="source" v="NPE"/>
  </way>
  <way id="149109440" version="2" timestamp="2019-05-28T19:06:27Z" changeset="70708562" uid="9065" user="brianboru">
    <nd ref="1621334198"/>
    <nd ref="1621334324"/>
    <nd ref="6506959647"/>
    <nd ref="279130660"/>
    <tag k="highway" v="residential"/>
    <tag k="name" v="Carson Close"/>
  </way>
  <way id="149109442" version="1" timestamp="2012-02-07T09:34:08Z" changeset="10610388" uid="508" user="Welshie">
    <nd ref="1621334305"/>
    <nd ref="1621334320"/>
    <tag k="highway" v="residential"/>
    <tag k="name" v="Cottage Farm Court"/>
  </way>
  <way id="149109443" version="8" timestamp="2024-06-29T20:47:17Z" changeset="153347414" uid="493595" user="Yorvik Prestigitator">
    <nd ref="279130661"/>
    <nd ref="12021054603"/>
    <nd ref="12021054605"/>
    <nd ref="1621334320"/>
    <nd ref="1501736338"/>
    <nd ref="2465070211"/>
    <nd ref="4825610632"/>
    <nd ref="279130662"/>
    <nd ref="1501736340"/>
    <nd ref="2465070222"/>
    <nd ref="1501736342"/>
    <nd ref="279130663"/>
    <nd ref="11191202506"/>
    <nd ref="279130665"/>
    <nd ref="279130666"/>
    <nd ref="279130667"/>
    <nd ref="279130668"/>
    <nd ref="279130669"/>
    <nd ref="279130670"/>
    <nd ref="2476674195"/>
    <nd ref="8553585710"/>
    <nd ref="2476674199"/>
    <nd ref="279130169"/>
    <tag k="highway" v="unclassified"/>
    <tag k="name" v="Old Gated Lane"/>
    <tag k="source" v="NPE"/>
  </way>
  <way id="149109445" version="2" timestamp="2019-05-28T19:06:27Z" changeset="70708562" uid="9065" user="brianboru">
    <nd ref="1621334247"/>
    <nd ref="6506979120"/>
    <nd ref="1621334347"/>
    <tag k="highway" v="residential"/>
    <tag k="name" v="Harold's Orchard"/>
  </way>
  <way id="149109450" version="1" timestamp="2012-02-07T09:34:09Z" changeset="10610388" uid="508" user="Welshie">
    <nd ref="1621334268"/>
    <nd ref="1621334294"/>
    <tag k="highway" v="residential"/>
    <tag k="name" v="Chapel Gardens"/>
  </way>
  <way id="149109452" version="8" timestamp="2021-03-24T06:58:42Z" changeset="101620225" uid="10205154" user="mundlk">
    <nd ref="279130979"/>
    <nd ref="1501736253"/>
    <nd ref="7988099530"/>
    <nd ref="279130980"/>
    <nd ref="1501736285"/>
    <nd ref="4825604684"/>
    <nd ref="279130981"/>
    <nd ref="8256265371"/>
    <nd ref="2465419666"/>
    <nd ref="2465441306"/>
    <nd ref="8556078361"/>
    <nd ref="279130982"/>
    <nd ref="6569183203"/>
    <nd ref="279130983"/>
    <nd ref="279130984"/>
    <nd ref="279130985"/>
    <nd ref="4825604698"/>
    <nd ref="1621334264"/>
    <tag k="highway" v="unclassified"/>
    <tag k="name" v="Tankards Hill"/>
    <tag k="source" v="NPE"/>
  </way>
  <way id="153171536" version="4" timestamp="2024-12-27T15:22:27Z" changeset="160680923" uid="21226027" user="DorneyLake123">
    <nd ref="1658886725"/>
    <nd ref="1658886719"/>
    <nd ref="1658886721"/>
    <nd ref="1658886722"/>
    <nd ref="1658886718"/>
    <nd ref="1658886724"/>
    <nd ref="1658886725"/>
    <tag k="addr:postcode" v="GL56 9QX"/>
    <tag k="amenity" v="pub"/>
    <tag k="building" v="yes"/>
    <tag k="fhrs:id" v="503053"/>
    <tag k="name" v="The Plough Inn"/>
  </way>
  <way id="153172130" version="4" timestamp="2024-06-29T20:47:17Z" changeset="153347414" uid="493595" user="Yorvik Prestigitator">
    <nd ref="1658887995"/>
    <nd ref="1658887992"/>
    <nd ref="1658887991"/>
    <nd ref="1658887990"/>
    <nd ref="1658887996"/>
    <nd ref="1658887994"/>
    <nd ref="1658887993"/>
    <nd ref="1658887998"/>
    <nd ref="4228344089"/>
    <nd ref="12021054601"/>
    <nd ref="1658887997"/>
    <nd ref="1658887999"/>
    <nd ref="1658887995"/>
    <tag k="amenity" v="community_centre"/>
    <tag k="building" v="public"/>
    <tag k="community_centre" v="village_hall"/>
    <tag k="name" v="Stretton-on-Fosse Village Hall"/>
  </way>
  <way id="153173230" version="4" timestamp="2023-05-30T17:18:25Z" changeset="136756034" uid="3557624" user="loveshack">
    <nd ref="1658891511"/>
    <nd ref="1658891515"/>
    <nd ref="1658891513"/>
    <nd ref="1658891507"/>
    <nd ref="1658891506"/>
    <nd ref="1658891509"/>
    <nd ref="1658891510"/>
    <nd ref="1658891512"/>
    <nd ref="4827826541"/>
    <nd ref="1658891511"/>
    <tag k="addr:city" v="Moreton-in-Marsh"/>
    <tag k="addr:postcode" v="GL56 9SL"/>
    <tag k="addr:street" v="Main Street"/>
    <tag k="addr:suburb" v="Stretton on Fosse"/>
    <tag k="amenity" v="place_of_worship"/>
    <tag k="building" v="church"/>
    <tag k="denomination" v="anglican"/>
    <tag k="name" v="St Peter's"/>
    <tag k="religion" v="christian"/>
    <tag k="wikidata" v="Q26275033"/>
  </way>
  <way id="238739337" version="1" timestamp="2013-09-20T12:23:01Z" changeset="17939521" uid="9065" user="brianboru">
    <nd ref="2465382255"/>
    <nd ref="279130652"/>
    <tag k="highway" v="unclassified"/>
    <tag k="source" v="bing"/>
  </way>
  <way id="336770513" version="1" timestamp="2015-04-05T05:15:11Z" changeset="29985215" uid="9065" user="brianboru">
    <nd ref="1612025582"/>
    <nd ref="1612025604"/>
    <nd ref="1612025565"/>
    <nd ref="1612025594"/>
    <nd ref="3438522468"/>
    <nd ref="1612025582"/>
    <tag k="building" v="brewery"/>
    <tag k="craft" v="brewery"/>
    <tag k="name" v="North Cotswold Brewery"/>
  </way>
  <way id="490411632" version="2" timestamp="2019-05-28T19:06:27Z" changeset="70708562" uid="9065" user="brianboru">
    <nd ref="4825604695"/>
    <nd ref="4825604696"/>
    <nd ref="4825604697"/>
    <nd ref="6506978795"/>
    <nd ref="1501736120"/>
    <tag k="highway" v="unclassified"/>
  </way>
  <way id="490490555" version="3" timestamp="2021-08-24T05:42:23Z" changeset="110148167" uid="10208976" user="vchndl">
    <nd ref="279130651"/>
    <nd ref="6506954256"/>
    <nd ref="279130652"/>
    <nd ref="2465382238"/>
    <nd ref="4825604708"/>
    <nd ref="279130653"/>
    <nd ref="279130654"/>
    <nd ref="279130655"/>
    <nd ref="6506954259"/>
    <nd ref="1501736049"/>
    <nd ref="279130656"/>
    <nd ref="279130657"/>
    <nd ref="6506978794"/>
    <nd ref="9030999569"/>
    <nd ref="6506978798"/>
    <nd ref="279130658"/>
    <tag k="highway" v="unclassified"/>
    <tag k="name" v="Manor Road"/>
    <tag k="source" v="NPE"/>
  </way>
  <way id="688386505" version="9" timestamp="2025-02-02T14:18:02Z" changeset="162048337" uid="19756269" user="RyanBush">
    <nd ref="6454993574"/>
    <nd ref="1474099969"/>
    <nd ref="12551286419"/>
    <nd ref="25290068"/>
    <nd ref="12551286420"/>
    <nd ref="25290069"/>
    <nd ref="12551286421"/>
    <nd ref="1474099970"/>
    <nd ref="12551286422"/>
    <nd ref="25290070"/>
    <nd ref="12551286423"/>
    <nd ref="25290071"/>
    <nd ref="12551286424"/>
    <nd ref="12246148002"/>
    <tag k="cycleway:both" v="no"/>
    <tag k="highway" v="trunk"/>
    <tag k="lanes" v="2"/>
    <tag k="lit" v="no"/>
    <tag k="maxspeed" v="60 mph"/>
    <tag k="maxspeed:type" v="GB:nsl_single"/>
    <tag k="name" v="Fosse Way"/>
    <tag k="ref" v="A429"/>
    <tag k="restriction" v="no_stopping"/>
    <tag k="shoulder" v="no"/>
    <tag k="sidewalk" v="no"/>
    <tag k="source" v="survey"/>
    <tag k="source:maxspeed" v="survey"/>
    <tag k="surface" v="asphalt"/>
  </way>
  <way id="688386506" version="5" timestamp="2025-01-02T12:07:59Z" changeset="160904126" uid="5229644" user="Nathan_A_RF">
    <nd ref="6454993581"/>
    <nd ref="6454993574"/>
    <tag k="cycleway:both" v="no"/>
    <tag k="highway" v="trunk"/>
    <tag k="lanes" v="2"/>
    <tag k="maxspeed" v="60 mph"/>
    <tag k="maxspeed:type" v="GB:nsl_single"/>
    <tag k="name" v="Fosse Way"/>
    <tag k="ref" v="A429"/>
    <tag k="restriction" v="no_stopping"/>
    <tag k="sidewalk" v="no"/>
    <tag k="source" v="survey"/>
    <tag k="source:maxspeed" v="survey"/>
    <tag k="surface" v="asphalt"/>
  </way>
  <way id="693079263" version="1" timestamp="2019-05-28T19:06:26Z" changeset="70708562" uid="9065" user="brianboru">
    <nd ref="6506978794"/>
    <nd ref="6506978793"/>
    <nd ref="2465419612"/>
    <tag k="highway" v="unclassified"/>
    <tag k="source" v="Warwicks CC Aerial Imagery 2013"/>
  </way>
  <way id="1087443860" version="7" timestamp="2025-02-02T14:18:02Z" changeset="162048337" uid="19756269" user="RyanBush">
    <nd ref="25290053"/>
    <nd ref="12551286365"/>
    <nd ref="25290054"/>
    <nd ref="12551286366"/>
    <nd ref="25290055"/>
    <nd ref="12551286367"/>
    <nd ref="12551286368"/>
    <nd ref="25290056"/>
    <nd ref="12551286369"/>
    <nd ref="1474099961"/>
    <nd ref="12551286370"/>
    <nd ref="25290057"/>
    <nd ref="6518789242"/>
    <nd ref="12551286371"/>
    <nd ref="25290058"/>
    <nd ref="12551286372"/>
    <nd ref="12551286373"/>
    <nd ref="25290059"/>
    <nd ref="12551286374"/>
    <nd ref="25290060"/>
    <nd ref="12551286375"/>
    <nd ref="25290061"/>
    <nd ref="12551286397"/>
    <nd ref="4825604711"/>
    <nd ref="1538269267"/>
    <tag k="cycleway:both" v="no"/>
    <tag k="highway" v="trunk"/>
    <tag k="lanes" v="2"/>
    <tag k="lit" v="no"/>
    <tag k="maxspeed" v="60 mph"/>
    <tag k="maxspeed:type" v="GB:nsl_single"/>
    <tag k="name" v="Fosse Way"/>
    <tag k="ref" v="A429"/>
    <tag k="restriction" v="no_stopping"/>
    <tag k="shoulder" v="no"/>
    <tag k="sidewalk" v="no"/>
    <tag k="source" v="survey"/>
    <tag k="source:maxspeed" v="survey"/>
    <tag k="surface" v="asphalt"/>
  </way>
  <way id="1098400046" version="2" timestamp="2025-01-02T12:07:59Z" changeset="160904126" uid="5229644" user="Nathan_A_RF">
    <nd ref="13797212"/>
    <nd ref="7687884849"/>
    <nd ref="1538285824"/>
    <tag k="cycleway:both" v="no"/>
    <tag k="highway" v="secondary"/>
    <tag k="lanes" v="2"/>
    <tag k="maxspeed" v="50 mph"/>
    <tag k="maxspeed:type" v="sign"/>
    <tag k="name" v="Campden Road"/>
    <tag k="ref" v="B4035"/>
    <tag k="shoulder" v="no"/>
    <tag k="surface" v="asphalt"/>
  </way>
  <way id="1098400047" version="4" timestamp="2025-01-02T12:07:59Z" changeset="160904126" uid="5229644" user="Nathan_A_RF">
    <nd ref="1474099979"/>
    <nd ref="1611594305"/>
    <tag k="cycleway:both" v="no"/>
    <tag k="highway" v="trunk"/>
    <tag k="lanes" v="3"/>
    <tag k="lanes:forward" v="2"/>
    <tag k="maxspeed" v="50 mph"/>
    <tag k="maxspeed:type" v="sign"/>
    <tag k="name" v="Fosse Way"/>
    <tag k="ref" v="A429"/>
    <tag k="restriction" v="no_stopping"/>
    <tag k="shoulder" v="no"/>
    <tag k="sidewalk" v="no"/>
    <tag k="source" v="survey"/>
    <tag k="source:maxspeed" v="survey"/>
    <tag k="surface" v="asphalt"/>
  </way>
  <way id="1098400048" version="4" timestamp="2025-01-02T22:54:43Z" changeset="160929028" uid="5229644" user="Nathan_A_RF">
    <nd ref="1501730479"/>
    <nd ref="1474099976"/>
    <nd ref="1474099975"/>
    <nd ref="375484"/>
    <nd ref="7687884850"/>
    <nd ref="13797212"/>
    <tag k="cycleway:both" v="no"/>
    <tag k="highway" v="secondary"/>
    <tag k="lanes" v="2"/>
    <tag k="maxspeed" v="50 mph"/>
    <tag k="maxspeed:type" v="sign"/>
    <tag k="ref" v="B4035"/>
    <tag k="shoulder" v="no"/>
    <tag k="source" v="survey"/>
    <tag k="source:maxspeed" v="survey"/>
    <tag k="surface" v="asphalt"/>
  </way>
  <way id="1102615831" version="8" timestamp="2025-02-02T14:35:16Z" changeset="162049032" uid="19756269" user="RyanBush">
    <nd ref="12246120700"/>
    <nd ref="12551230286"/>
    <nd ref="12551230287"/>
    <nd ref="12551230288"/>
    <nd ref="1474099982"/>
    <nd ref="12551230289"/>
    <nd ref="12551230290"/>
    <nd ref="1474099983"/>
    <nd ref="12551230291"/>
    <nd ref="12551230292"/>
    <nd ref="1474099984"/>
    <nd ref="12551230295"/>
    <nd ref="1474099985"/>
    <nd ref="2476674257"/>
    <nd ref="12551230296"/>
    <nd ref="12551230297"/>
    <nd ref="12551230298"/>
    <nd ref="375482"/>
    <nd ref="12551230299"/>
    <nd ref="12551230300"/>
    <nd ref="279130453"/>
    <nd ref="12551306103"/>
    <nd ref="12551306104"/>
    <nd ref="12551306105"/>
    <nd ref="1474099988"/>
    <nd ref="12551306106"/>
    <nd ref="12551306107"/>
    <nd ref="12551306115"/>
    <nd ref="375481"/>
    <nd ref="12551306116"/>
    <nd ref="12551306117"/>
    <nd ref="1474099989"/>
    <nd ref="12551306118"/>
    <nd ref="1474099990"/>
    <nd ref="12551306119"/>
    <nd ref="12551306120"/>
    <nd ref="1474099991"/>
    <nd ref="12551306121"/>
    <nd ref="12551306122"/>
    <nd ref="12551306123"/>
    <nd ref="25290042"/>
    <nd ref="12551306124"/>
    <nd ref="12117579609"/>
    <nd ref="1474099992"/>
    <nd ref="12551306125"/>
    <nd ref="5896476744"/>
    <nd ref="12551306126"/>
    <nd ref="12551306127"/>
    <nd ref="1474099993"/>
    <nd ref="12551306128"/>
    <nd ref="386576"/>
    <nd ref="10089709492"/>
    <tag k="cycleway:both" v="no"/>
    <tag k="highway" v="trunk"/>
    <tag k="lanes" v="2"/>
    <tag k="lit" v="no"/>
    <tag k="maxspeed" v="60 mph"/>
    <tag k="maxspeed:type" v="GB:nsl_single"/>
    <tag k="name" v="Fosse Way"/>
    <tag k="ref" v="A429"/>
    <tag k="restriction" v="no_stopping"/>
    <tag k="shoulder" v="no"/>
    <tag k="sidewalk" v="no"/>
    <tag k="source" v="survey"/>
    <tag k="source:maxspeed" v="survey"/>
    <tag k="surface" v="asphalt"/>
  </way>
  <way id="1160455311" version="7" timestamp="2025-02-02T14:18:02Z" changeset="162048337" uid="19756269" user="RyanBush">
    <nd ref="1538269267"/>
    <nd ref="7985498307"/>
    <nd ref="12551286398"/>
    <nd ref="375506"/>
    <nd ref="12551286399"/>
    <nd ref="12551286400"/>
    <nd ref="12551286401"/>
    <nd ref="1474099965"/>
    <nd ref="12551286402"/>
    <nd ref="11191202532"/>
    <nd ref="12551286403"/>
    <nd ref="7988095307"/>
    <tag k="cycleway:both" v="no"/>
    <tag k="highway" v="trunk"/>
    <tag k="lanes" v="2"/>
    <tag k="lit" v="no"/>
    <tag k="maxspeed" v="60 mph"/>
    <tag k="maxspeed:type" v="GB:nsl_single"/>
    <tag k="name" v="Fosse Way"/>
    <tag k="ref" v="A429"/>
    <tag k="restriction" v="no_stopping"/>
    <tag k="shoulder" v="no"/>
    <tag k="sidewalk" v="left"/>
    <tag k="sidewalk:left:surface" v="asphalt"/>
    <tag k="source" v="survey"/>
    <tag k="source:maxspeed" v="survey"/>
    <tag k="surface" v="asphalt"/>
  </way>
  <way id="1308514963" version="2" timestamp="2025-01-02T12:07:59Z" changeset="160904126" uid="5229644" user="Nathan_A_RF">
    <nd ref="12117579631"/>
    <nd ref="2465381794"/>
    <nd ref="25290052"/>
    <nd ref="25290053"/>
    <tag k="cycleway:both" v="no"/>
    <tag k="highway" v="trunk"/>
    <tag k="lanes" v="2"/>
    <tag k="lit" v="no"/>
    <tag k="maxspeed" v="60 mph"/>
    <tag k="maxspeed:type" v="GB:nsl_single"/>
    <tag k="name" v="Fosse Way"/>
    <tag k="ref" v="A429"/>
    <tag k="shoulder" v="no"/>
    <tag k="sidewalk" v="no"/>
    <tag k="source" v="survey"/>
    <tag k="source:maxspeed" v="survey"/>
    <tag k="surface" v="asphalt"/>
  </way>
  <way id="1308514964" version="3" timestamp="2025-03-18T15:57:35Z" changeset="163781658" uid="5589" user="user_5589">
    <nd ref="12117579632"/>
    <nd ref="12117579631"/>
    <tag k="bridge" v="yes"/>
    <tag k="cycleway:both" v="no"/>
    <tag k="highway" v="trunk"/>
    <tag k="lanes" v="2"/>
    <tag k="layer" v="1"/>
    <tag k="lit" v="no"/>
    <tag k="maxspeed" v="60 mph"/>
    <tag k="maxspeed:type" v="GB:nsl_single"/>
    <tag k="maxweight:signed" v="no"/>
    <tag k="name" v="Fosse Way"/>
    <tag k="ref" v="A429"/>
    <tag k="shoulder" v="no"/>
    <tag k="sidewalk" v="no"/>
    <tag k="source" v="survey"/>
    <tag k="source:maxspeed" v="survey"/>
    <tag k="surface" v="asphalt"/>
  </way>
  <way id="1323398059" version="3" timestamp="2025-02-02T14:18:02Z" changeset="162048337" uid="19756269" user="RyanBush">
    <nd ref="1474099979"/>
    <nd ref="1474099980"/>
    <nd ref="12551286430"/>
    <nd ref="375483"/>
    <nd ref="12551286431"/>
    <nd ref="12551286432"/>
    <nd ref="1474099981"/>
    <nd ref="12246120700"/>
    <tag k="cycleway:both" v="no"/>
    <tag k="highway" v="trunk"/>
    <tag k="lanes" v="2"/>
    <tag k="lit" v="no"/>
    <tag k="maxspeed" v="50 mph"/>
    <tag k="maxspeed:type" v="sign"/>
    <tag k="name" v="Fosse Way"/>
    <tag k="ref" v="A429"/>
    <tag k="restriction" v="no_stopping"/>
    <tag k="shoulder" v="no"/>
    <tag k="sidewalk" v="no"/>
    <tag k="source" v="survey"/>
    <tag k="source:maxspeed" v="survey"/>
    <tag k="surface" v="asphalt"/>
  </way>
  <way id="1323398060" version="2" timestamp="2025-01-02T22:54:43Z" changeset="160929028" uid="5229644" user="Nathan_A_RF">
    <nd ref="1611594224"/>
    <nd ref="1501730479"/>
    <tag k="cycleway:both" v="no"/>
    <tag k="highway" v="secondary"/>
    <tag k="lanes" v="2"/>
    <tag k="maxspeed" v="60 mph"/>
    <tag k="maxspeed:type" v="GB:nsl_single"/>
    <tag k="ref" v="B4035"/>
    <tag k="shoulder" v="no"/>
    <tag k="source" v="survey"/>
    <tag k="source:maxspeed" v="survey"/>
    <tag k="surface" v="asphalt"/>
  </way>
  <way id="1323398061" version="3" timestamp="2025-02-02T14:18:02Z" changeset="162048337" uid="19756269" user="RyanBush">
    <nd ref="12246148002"/>
    <nd ref="375485"/>
    <nd ref="25290072"/>
    <nd ref="12551286425"/>
    <nd ref="25290073"/>
    <nd ref="12551286426"/>
    <nd ref="1474099972"/>
    <nd ref="12551286427"/>
    <nd ref="1474099974"/>
    <tag k="cycleway:both" v="no"/>
    <tag k="highway" v="trunk"/>
    <tag k="lanes" v="2"/>
    <tag k="lit" v="no"/>
    <tag k="maxspeed" v="50 mph"/>
    <tag k="maxspeed:type" v="sign"/>
    <tag k="name" v="Fosse Way"/>
    <tag k="ref" v="A429"/>
    <tag k="restriction" v="no_stopping"/>
    <tag k="shoulder" v="no"/>
    <tag k="sidewalk" v="no"/>
    <tag k="source" v="survey"/>
    <tag k="source:maxspeed" v="survey"/>
    <tag k="surface" v="asphalt"/>
  </way>

</osm>
