<?xml version="1.0" encoding="UTF-8"?>
<osm version="0.6" generator="Overpass API 0.7.62.8 e802775f">
<note>The data included in this document is from www.openstreetmap.org. The data is made available under ODbL.</note>
<meta osm_base="2025-10-23T17:46:02Z" areas="2025-10-23T12:46:58Z"/>

  <node id="337654" lat="52.4632441" lon="-1.4116789" version="5" timestamp="2014-03-29T23:16:34Z" changeset="21392121" uid="411244" user="RobJN"/>
  <node id="404496" lat="52.5151300" lon="-1.3632502" version="3" timestamp="2017-12-20T16:54:17Z" changeset="54792139" uid="9065" user="brianboru"/>
  <node id="404499" lat="52.5140911" lon="-1.3641779" version="3" timestamp="2017-12-20T16:54:17Z" changeset="54792139" uid="9065" user="brianboru"/>
  <node id="404502" lat="52.5139266" lon="-1.3589500" version="5" timestamp="2022-07-28T12:05:14Z" changeset="124183511" uid="705850" user="Cebderby"/>
  <node id="404509" lat="52.5134070" lon="-1.3674235" version="4" timestamp="2013-05-25T16:46:25Z" changeset="16281774" uid="9065" user="brianboru"/>
  <node id="13785261" lat="52.4725534" lon="-1.3782466" version="2" timestamp="2025-01-10T18:40:45Z" changeset="161216392" uid="5229644" user="Nathan_A_RF"/>
  <node id="13785346" lat="52.4758490" lon="-1.4163216" version="7" timestamp="2025-05-23T17:48:09Z" changeset="166667669" uid="15363444" user="osmscstuff">
    <tag k="direction" v="clockwise"/>
    <tag k="highway" v="mini_roundabout"/>
  </node>
  <node id="19747480" lat="52.5144918" lon="-1.3635284" version="4" timestamp="2014-03-29T23:16:31Z" changeset="21392121" uid="411244" user="RobJN"/>
  <node id="19747494" lat="52.5135055" lon="-1.3676058" version="7" timestamp="2024-11-28T22:03:47Z" changeset="159720970" uid="5229644" user="Nathan_A_RF">
    <tag k="highway" v="motorway_junction"/>
    <tag k="name" v="Stretton Baskerville"/>
    <tag k="ref" v="1"/>
  </node>
  <node id="32637672" lat="52.5113907" lon="-1.3667563" version="4" timestamp="2022-12-17T11:21:52Z" changeset="130182821" uid="7463" user="kesterlester"/>
  <node id="32637686" lat="52.5031607" lon="-1.3647873" version="4" timestamp="2022-12-17T11:03:42Z" changeset="130182467" uid="7463" user="kesterlester"/>
  <node id="256128548" lat="52.4775552" lon="-1.4104636" version="3" timestamp="2013-07-12T13:30:10Z" changeset="16926084" uid="9065" user="brianboru"/>
  <node id="260273961" lat="52.4965704" lon="-1.4020296" version="2" timestamp="2013-07-12T11:59:16Z" changeset="16925143" uid="9065" user="brianboru"/>
  <node id="260877666" lat="52.4899476" lon="-1.3478239" version="3" timestamp="2024-01-24T12:41:15Z" changeset="146628161" uid="20892810" user="milhousefan"/>
  <node id="523290790" lat="52.5148741" lon="-1.3596700" version="4" timestamp="2022-10-11T06:43:44Z" changeset="127338734" uid="9026132" user="PulisakZ"/>
  <node id="793133934" lat="52.4897919" lon="-1.3888305" version="1" timestamp="2010-06-27T17:15:10Z" changeset="5091081" uid="10983" user="Guy"/>
  <node id="793134837" lat="52.4916789" lon="-1.3924287" version="2" timestamp="2018-08-29T04:00:34Z" changeset="62090449" uid="8407159" user="datbrahm"/>
  <node id="1390699970" lat="52.4594164" lon="-1.4024999" version="7" timestamp="2025-08-26T07:44:29Z" changeset="171012587" uid="12943226" user="Inkle">
    <tag k="crossing" v="informal"/>
  </node>
  <node id="1523285554" lat="52.5148698" lon="-1.3626168" version="4" timestamp="2014-03-29T23:16:30Z" changeset="21392121" uid="411244" user="RobJN"/>
  <node id="1560352881" lat="52.5153813" lon="-1.3600819" version="2" timestamp="2014-03-29T23:16:31Z" changeset="21392121" uid="411244" user="RobJN"/>
  <node id="6022840165" lat="52.4943724" lon="-1.3665325" version="4" timestamp="2024-03-31T08:41:51Z" changeset="149380040" uid="705850" user="Cebderby"/>
  <node id="6538819213" lat="52.5039330" lon="-1.3339093" version="1" timestamp="2019-06-11T05:45:05Z" changeset="71126724" uid="9259465" user="alivelis"/>
  <way id="3868841" version="16" timestamp="2024-11-28T22:03:47Z" changeset="159720970" uid="5229644" user="Nathan_A_RF">
    <nd ref="19747494"/>
    <nd ref="19747495"/>
    <nd ref="16182724"/>
    <nd ref="1560352868"/>
    <tag k="active_traffic_management" v="no"/>
    <tag k="carriageway_ref" v="J"/>
    <tag k="destination" v="Nuneaton;Tamworth"/>
    <tag k="destination:ref" v="A5 North"/>
    <tag k="highway" v="motorway_link"/>
    <tag k="lanes" v="1"/>
    <tag k="lit" v="no"/>
    <tag k="maxspeed" v="70 mph"/>
    <tag k="maxspeed:type" v="GB:motorway"/>
    <tag k="maxspeed:variable" v="no"/>
    <tag k="national_highways:area" v="9"/>
    <tag k="oneway" v="yes"/>
    <tag k="operator" v="National Highways"/>
    <tag k="operator:wikidata" v="Q5760006"/>
    <tag k="ref" v="M69"/>
    <tag k="source:maxspeed" v="Stats19"/>
  </way>
  <way id="3868842" version="17" timestamp="2024-11-28T22:03:47Z" changeset="159720970" uid="5229644" user="Nathan_A_RF">
    <nd ref="404494"/>
    <nd ref="5296021750"/>
    <nd ref="1523283891"/>
    <nd ref="404498"/>
    <nd ref="404499"/>
    <tag k="active_traffic_management" v="no"/>
    <tag k="carriageway_ref" v="M"/>
    <tag k="destination" v="Birmingham;Coventry"/>
    <tag k="destination:ref" v="M69"/>
    <tag k="highway" v="motorway_link"/>
    <tag k="lanes" v="1"/>
    <tag k="lit" v="yes"/>
    <tag k="maxspeed" v="70 mph"/>
    <tag k="maxspeed:type" v="GB:motorway"/>
    <tag k="maxspeed:variable" v="no"/>
    <tag k="national_highways:area" v="9"/>
    <tag k="oneway" v="yes"/>
    <tag k="operator" v="National Highways"/>
    <tag k="operator:wikidata" v="Q5760006"/>
    <tag k="ref" v="M69"/>
    <tag k="source:maxspeed" v="Stats19"/>
  </way>
  <way id="5208454" version="11" timestamp="2024-05-30T17:30:06Z" changeset="152047295" uid="229347" user="RossA">
    <nd ref="36430500"/>
    <nd ref="2322144015"/>
    <nd ref="2322144017"/>
    <nd ref="32637714"/>
    <nd ref="8257287128"/>
    <nd ref="32637709"/>
    <nd ref="32637708"/>
    <nd ref="32637707"/>
    <nd ref="32637706"/>
    <nd ref="32637705"/>
    <nd ref="11775053144"/>
    <nd ref="11766709445"/>
    <tag k="cycleway:both" v="no"/>
    <tag k="highway" v="secondary"/>
    <tag k="lanes" v="2"/>
    <tag k="maxspeed" v="50"/>
    <tag k="name" v="Temple Hill"/>
    <tag k="ref" v="B4109"/>
    <tag k="surface" v="asphalt"/>
  </way>
  <way id="5208466" version="5" timestamp="2021-08-14T09:25:15Z" changeset="109661982" uid="5589" user="user_5589">
    <nd ref="36430499"/>
    <nd ref="32637714"/>
    <tag k="cycleway:left" v="no"/>
    <tag k="highway" v="secondary"/>
    <tag k="lanes" v="1"/>
    <tag k="oneway" v="yes"/>
    <tag k="ref" v="B4109"/>
    <tag k="surface" v="asphalt"/>
  </way>
  <way id="5208467" version="18" timestamp="2024-05-30T17:30:06Z" changeset="152047295" uid="229347" user="RossA">
    <nd ref="13785261"/>
    <nd ref="32637737"/>
    <nd ref="8384436976"/>
    <nd ref="6557222214"/>
    <nd ref="32637736"/>
    <nd ref="2409224618"/>
    <nd ref="5624655524"/>
    <nd ref="32637735"/>
    <nd ref="8034753143"/>
    <nd ref="32637734"/>
    <nd ref="6503526707"/>
    <nd ref="8814166289"/>
    <nd ref="8814166288"/>
    <nd ref="32637733"/>
    <nd ref="32637732"/>
    <tag k="highway" v="secondary"/>
    <tag k="lanes" v="2"/>
    <tag k="maxspeed" v="50 mph"/>
    <tag k="name" v="Coventry Road"/>
    <tag k="ref" v="B4065"/>
    <tag k="source" v="OS_OpenData_StreetView"/>
    <tag k="surface" v="asphalt"/>
  </way>
  <way id="5208468" version="10" timestamp="2021-07-19T09:44:17Z" changeset="108238987" uid="10455633" user="tnayini">
    <nd ref="36430500"/>
    <nd ref="2322144014"/>
    <nd ref="2412857426"/>
    <nd ref="36430557"/>
    <nd ref="6935254837"/>
    <nd ref="2412857436"/>
    <nd ref="2322144019"/>
    <nd ref="256128607"/>
    <nd ref="2322144024"/>
    <nd ref="256128608"/>
    <nd ref="2322144023"/>
    <nd ref="256128609"/>
    <nd ref="2322144034"/>
    <nd ref="8445454680"/>
    <nd ref="256128610"/>
    <nd ref="256128611"/>
    <nd ref="2322144046"/>
    <nd ref="2322144049"/>
    <nd ref="6457087303"/>
    <nd ref="256128612"/>
    <nd ref="262732728"/>
    <nd ref="256128613"/>
    <nd ref="2322144062"/>
    <nd ref="8932564157"/>
    <nd ref="2322144065"/>
    <nd ref="1352440909"/>
    <nd ref="256128614"/>
    <nd ref="256128588"/>
    <tag k="highway" v="tertiary"/>
    <tag k="name" v="Leicester Road"/>
  </way>
  <way id="5208469" version="13" timestamp="2024-05-30T17:30:06Z" changeset="152047295" uid="229347" user="RossA">
    <nd ref="32637725"/>
    <nd ref="260877652"/>
    <nd ref="5993356922"/>
    <nd ref="32637723"/>
    <nd ref="1352433619"/>
    <nd ref="32637722"/>
    <nd ref="32637721"/>
    <nd ref="2322144009"/>
    <nd ref="32637720"/>
    <nd ref="32637719"/>
    <nd ref="2331574511"/>
    <nd ref="32637718"/>
    <nd ref="2412857366"/>
    <nd ref="32637717"/>
    <nd ref="36430499"/>
    <nd ref="2322144011"/>
    <nd ref="2322144013"/>
    <nd ref="36430500"/>
    <tag k="cycleway:both" v="no"/>
    <tag k="highway" v="secondary"/>
    <tag k="lanes" v="2"/>
    <tag k="maxspeed" v="30 mph"/>
    <tag k="name" v="Church Hill"/>
    <tag k="ref" v="B4109"/>
    <tag k="surface" v="asphalt"/>
  </way>
  <way id="23642203" version="8" timestamp="2024-05-30T17:30:06Z" changeset="152047295" uid="229347" user="RossA">
    <nd ref="256128556"/>
    <nd ref="256128557"/>
    <nd ref="2406772072"/>
    <nd ref="2406772074"/>
    <nd ref="256128558"/>
    <nd ref="256128559"/>
    <nd ref="2406772078"/>
    <nd ref="2406772081"/>
    <nd ref="256128560"/>
    <nd ref="793133874"/>
    <tag k="highway" v="secondary"/>
    <tag k="lanes" v="2"/>
    <tag k="maxspeed" v="50 mph"/>
    <tag k="name" v="Bulkington Road"/>
    <tag k="ref" v="B4109"/>
    <tag k="surface" v="asphalt"/>
  </way>
  <way id="23642205" version="5" timestamp="2019-05-08T05:41:50Z" changeset="70007699" uid="9065" user="brianboru">
    <nd ref="256128577"/>
    <nd ref="2296877735"/>
    <nd ref="256128580"/>
    <nd ref="2296877733"/>
    <nd ref="256128581"/>
    <nd ref="2296877726"/>
    <nd ref="2296877723"/>
    <nd ref="256128582"/>
    <nd ref="2296877719"/>
    <nd ref="256128583"/>
    <nd ref="6457087492"/>
    <nd ref="2296877721"/>
    <nd ref="6457087491"/>
    <nd ref="256128584"/>
    <nd ref="1910596860"/>
    <nd ref="6457087493"/>
    <nd ref="2296877732"/>
    <nd ref="256128571"/>
    <nd ref="256128585"/>
    <nd ref="2296877736"/>
    <nd ref="256128586"/>
    <nd ref="256128587"/>
    <nd ref="256128577"/>
    <tag k="highway" v="secondary"/>
    <tag k="junction" v="roundabout"/>
    <tag k="oneway" v="yes"/>
    <tag k="ref" v="B4114"/>
  </way>
  <way id="23642206" version="4" timestamp="2015-09-23T19:10:27Z" changeset="34212810" uid="133272" user="wongataa">
    <nd ref="256128588"/>
    <nd ref="2296877716"/>
    <nd ref="256128584"/>
    <tag k="highway" v="tertiary"/>
    <tag k="name" v="Leicester Road"/>
    <tag k="oneway" v="yes"/>
  </way>
  <way id="23642208" version="10" timestamp="2022-12-17T11:03:42Z" changeset="130182467" uid="7463" user="kesterlester">
    <nd ref="32637685"/>
    <nd ref="2296877888"/>
    <nd ref="8922152392"/>
    <nd ref="8760989030"/>
    <nd ref="256128590"/>
    <nd ref="8922152401"/>
    <nd ref="256128591"/>
    <tag k="highway" v="tertiary"/>
    <tag k="name" v="Gipsy Lane"/>
    <tag k="note" v="This wide country road has a &quot;pecked&quot; white line along its centre. However if someone feels it is not Tertiary please amend with a note as to why they consider it otherwise."/>
    <tag k="source" v="OS_OpenData_StreetView"/>
    <tag k="surface" v="asphalt"/>
  </way>
  <way id="23642209" version="7" timestamp="2022-03-15T13:37:22Z" changeset="118508742" uid="34867" user="SammyTheSnake">
    <nd ref="256128585"/>
    <nd ref="2296877739"/>
    <nd ref="256128591"/>
    <tag k="highway" v="tertiary"/>
    <tag k="name" v="Gipsy Lane"/>
    <tag k="note" v="This wide country road has a &quot;pecked&quot; white line along its centre. However if someone feels it is not Tertiary please amend with a note as to why they consider it otherwise."/>
    <tag k="oneway" v="yes"/>
    <tag k="surface" v="asphalt"/>
  </way>
  <way id="23642210" version="4" timestamp="2022-03-15T13:37:12Z" changeset="118508742" uid="34867" user="SammyTheSnake">
    <nd ref="256128577"/>
    <nd ref="256128592"/>
    <tag k="highway" v="secondary"/>
    <tag k="name" v="Smockington Lane"/>
    <tag k="oneway" v="yes"/>
    <tag k="ref" v="B4114"/>
    <tag k="surface" v="asphalt"/>
  </way>
  <way id="23642211" version="16" timestamp="2024-01-24T12:31:22Z" changeset="146627878" uid="20892810" user="milhousefan">
    <nd ref="256128592"/>
    <nd ref="2296877754"/>
    <nd ref="256128593"/>
    <nd ref="256128594"/>
    <nd ref="2296877765"/>
    <nd ref="256128595"/>
    <nd ref="2296877772"/>
    <nd ref="256128596"/>
    <nd ref="256128597"/>
    <nd ref="2296877800"/>
    <nd ref="2296877806"/>
    <nd ref="2296877809"/>
    <nd ref="256128598"/>
    <nd ref="2296877813"/>
    <nd ref="2296877814"/>
    <nd ref="2296721508"/>
    <nd ref="8454482112"/>
    <nd ref="256128599"/>
    <nd ref="11545890624"/>
    <nd ref="11545916956"/>
    <nd ref="256128600"/>
    <nd ref="2296877826"/>
    <nd ref="2296877829"/>
    <nd ref="256128601"/>
    <nd ref="2296877874"/>
    <nd ref="256128602"/>
    <nd ref="2296877991"/>
    <nd ref="256128603"/>
    <nd ref="6538819213"/>
    <tag k="cycleway:both" v="no"/>
    <tag k="highway" v="secondary"/>
    <tag k="lanes" v="2"/>
    <tag k="name" v="Smockington Lane"/>
    <tag k="ref" v="B4114"/>
    <tag k="surface" v="asphalt"/>
  </way>
  <way id="23646306" version="9" timestamp="2025-05-23T18:01:17Z" changeset="166668138" uid="15363444" user="osmscstuff">
    <nd ref="13785346"/>
    <nd ref="13785331"/>
    <nd ref="1682189476"/>
    <nd ref="13785342"/>
    <nd ref="2410609960"/>
    <nd ref="13785327"/>
    <nd ref="13785323"/>
    <nd ref="13785321"/>
    <nd ref="2382395094"/>
    <nd ref="13785322"/>
    <nd ref="13785320"/>
    <nd ref="6208302044"/>
    <nd ref="13785319"/>
    <nd ref="13785317"/>
    <nd ref="1560352898"/>
    <tag k="highway" v="secondary"/>
    <tag k="name" v="Withybrook Road"/>
    <tag k="ref" v="B4112"/>
    <tag k="source:ref" v="NPE"/>
  </way>
  <way id="23646307" version="16" timestamp="2025-01-10T18:40:45Z" changeset="161216392" uid="5229644" user="Nathan_A_RF">
    <nd ref="13785261"/>
    <nd ref="13785281"/>
    <nd ref="13785277"/>
    <nd ref="13785278"/>
    <nd ref="13785276"/>
    <nd ref="13785275"/>
    <nd ref="13785274"/>
    <nd ref="8810862206"/>
    <nd ref="1390789691"/>
    <nd ref="7997136880"/>
    <nd ref="13785273"/>
    <nd ref="8259608467"/>
    <nd ref="1390779913"/>
    <nd ref="6612791384"/>
    <nd ref="13785268"/>
    <nd ref="13785269"/>
    <nd ref="13785266"/>
    <nd ref="13785270"/>
    <nd ref="13785271"/>
    <nd ref="13785265"/>
    <nd ref="13785272"/>
    <nd ref="13785264"/>
    <nd ref="2412832732"/>
    <nd ref="2412832724"/>
    <nd ref="13785263"/>
    <nd ref="2412832715"/>
    <nd ref="13785262"/>
    <nd ref="2412832648"/>
    <nd ref="2415641829"/>
    <nd ref="7100709449"/>
    <nd ref="2412832642"/>
    <nd ref="13784298"/>
    <nd ref="8813737910"/>
    <nd ref="2412832609"/>
    <nd ref="7540107145"/>
    <nd ref="13785009"/>
    <nd ref="13785010"/>
    <nd ref="1390813799"/>
    <nd ref="2412832587"/>
    <nd ref="13784996"/>
    <nd ref="13784997"/>
    <nd ref="13785000"/>
    <nd ref="6557600650"/>
    <nd ref="13784999"/>
    <tag k="highway" v="secondary"/>
    <tag k="name" v="Rugby Road"/>
    <tag k="ref" v="B4112"/>
    <tag k="source:ref" v="NPE"/>
  </way>
  <way id="24021983" version="9" timestamp="2024-08-11T22:10:28Z" changeset="155123457" uid="5008136" user="JayTurnr">
    <nd ref="32637661"/>
    <nd ref="5296021752"/>
    <nd ref="260519410"/>
    <nd ref="1523283897"/>
    <nd ref="5296021751"/>
    <nd ref="260519409"/>
    <nd ref="260519407"/>
    <nd ref="1523283883"/>
    <nd ref="260519405"/>
    <nd ref="260519403"/>
    <nd ref="12105252586"/>
    <nd ref="260519401"/>
    <tag k="cycleway:left" v="no"/>
    <tag k="highway" v="secondary"/>
    <tag k="lanes" v="2"/>
    <tag k="maxspeed" v="70 mph"/>
    <tag k="maxspeed:type" v="GB:nsl_dual"/>
    <tag k="name" v="Hinckley Road"/>
    <tag k="oneway" v="yes"/>
    <tag k="ref" v="B4109"/>
    <tag k="surface" v="asphalt"/>
  </way>
  <way id="24021984" version="7" timestamp="2022-09-29T00:21:31Z" changeset="126758896" uid="13341565" user="Falsernet">
    <nd ref="404493"/>
    <nd ref="1523283877"/>
    <nd ref="32637656"/>
    <nd ref="260519412"/>
    <nd ref="32637657"/>
    <nd ref="32637658"/>
    <nd ref="1523283910"/>
    <nd ref="32637660"/>
    <nd ref="32637659"/>
    <nd ref="32637661"/>
    <tag k="cycleway:left" v="no"/>
    <tag k="highway" v="secondary"/>
    <tag k="lanes" v="1"/>
    <tag k="maxspeed" v="70 mph"/>
    <tag k="maxspeed:type" v="GB:nsl_dual"/>
    <tag k="name" v="Hinckley Road"/>
    <tag k="oneway" v="yes"/>
    <tag k="ref" v="B4109"/>
    <tag k="surface" v="asphalt"/>
  </way>
  <way id="24052187" version="7" timestamp="2022-03-15T13:37:19Z" changeset="118508742" uid="34867" user="SammyTheSnake">
    <nd ref="256128581"/>
    <nd ref="2296877725"/>
    <nd ref="2296877722"/>
    <nd ref="260877654"/>
    <tag k="highway" v="tertiary"/>
    <tag k="name" v="Cloudsley Bush Lane"/>
    <tag k="note" v="This wide country road has a &quot;pecked&quot; white line along its centre. However if someone feels it is not Tertiary please amend with a note as to why they consider it otherwise."/>
    <tag k="oneway" v="yes"/>
    <tag k="surface" v="asphalt"/>
  </way>
  <way id="24052188" version="8" timestamp="2024-01-24T12:41:15Z" changeset="146628161" uid="20892810" user="milhousefan">
    <nd ref="260877654"/>
    <nd ref="11546016408"/>
    <nd ref="2296877715"/>
    <nd ref="2296877718"/>
    <nd ref="11546016409"/>
    <nd ref="256128582"/>
    <tag k="highway" v="tertiary"/>
    <tag k="name" v="Cloudsley Bush Lane"/>
    <tag k="note" v="This wide country road has a &quot;pecked&quot; white line along its centre. However if someone feels it is not Tertiary please amend with a note as to why they consider it otherwise."/>
    <tag k="oneway" v="yes"/>
    <tag k="surface" v="asphalt"/>
  </way>
  <way id="24052189" version="8" timestamp="2024-01-24T12:41:15Z" changeset="146628161" uid="20892810" user="milhousefan">
    <nd ref="260877654"/>
    <nd ref="11546016407"/>
    <nd ref="260877655"/>
    <nd ref="260877657"/>
    <nd ref="260877658"/>
    <nd ref="260877659"/>
    <nd ref="260877660"/>
    <nd ref="262732730"/>
    <nd ref="260877661"/>
    <nd ref="260877662"/>
    <nd ref="260877664"/>
    <nd ref="11546016406"/>
    <nd ref="260877666"/>
    <tag k="highway" v="tertiary"/>
    <tag k="name" v="Cloudsley Bush Lane"/>
    <tag k="note" v="This wide country road has a &quot;pecked&quot; white line along its centre. However if someone feels it is not Tertiary please amend with a note as to why they consider it otherwise."/>
    <tag k="source" v="OS_OpenData_StreetView"/>
  </way>
  <way id="24267109" version="4" timestamp="2025-01-07T04:10:54Z" changeset="161081772" uid="493595" user="Yorvik Prestigitator">
    <nd ref="260877652"/>
    <nd ref="262730757"/>
    <nd ref="12479775081"/>
    <nd ref="262730758"/>
    <nd ref="12479775071"/>
    <nd ref="8752474138"/>
    <nd ref="262730760"/>
    <nd ref="262730761"/>
    <tag k="highway" v="residential"/>
    <tag k="name" v="The Square"/>
  </way>
  <way id="24267110" version="7" timestamp="2025-01-10T18:40:45Z" changeset="161216392" uid="5229644" user="Nathan_A_RF">
    <nd ref="13785277"/>
    <nd ref="262730802"/>
    <nd ref="8835986262"/>
    <nd ref="262730804"/>
    <nd ref="5993340718"/>
    <nd ref="262730805"/>
    <nd ref="7996647463"/>
    <nd ref="6907803524"/>
    <nd ref="262730806"/>
    <nd ref="262730807"/>
    <nd ref="262730809"/>
    <tag k="highway" v="unclassified"/>
    <tag k="name" v="Coalpit Lane"/>
  </way>
  <way id="24267238" version="5" timestamp="2020-12-03T09:46:58Z" changeset="95213911" uid="11734151" user="aniaswin">
    <nd ref="262732728"/>
    <nd ref="8190030155"/>
    <nd ref="262732729"/>
    <nd ref="8013758033"/>
    <nd ref="1910596900"/>
    <nd ref="262732730"/>
    <tag k="highway" v="unclassified"/>
    <tag k="name" v="Mill Lane"/>
  </way>
  <way id="24267314" version="9" timestamp="2020-06-11T10:15:23Z" changeset="86511204" uid="9065" user="brianboru">
    <nd ref="260877666"/>
    <nd ref="260877667"/>
    <nd ref="260877668"/>
    <nd ref="2294323006"/>
    <nd ref="260877669"/>
    <nd ref="2294323002"/>
    <nd ref="260877670"/>
    <nd ref="2294322998"/>
    <nd ref="2294322996"/>
    <nd ref="2294322994"/>
    <nd ref="260877671"/>
    <nd ref="260877672"/>
    <nd ref="2294322991"/>
    <nd ref="260877673"/>
    <nd ref="260877675"/>
    <nd ref="260877676"/>
    <nd ref="5787704120"/>
    <nd ref="260877677"/>
    <nd ref="260877678"/>
    <nd ref="260877679"/>
    <nd ref="260877680"/>
    <nd ref="260877681"/>
    <nd ref="5769787977"/>
    <nd ref="260877682"/>
    <nd ref="260877684"/>
    <nd ref="260877685"/>
    <nd ref="260877686"/>
    <nd ref="260877687"/>
    <nd ref="2413097921"/>
    <nd ref="2294322949"/>
    <nd ref="260877688"/>
    <nd ref="260877689"/>
    <nd ref="260877690"/>
    <nd ref="260877691"/>
    <nd ref="260877693"/>
    <tag k="highway" v="tertiary"/>
    <tag k="lanes" v="2"/>
    <tag k="name" v="Mere Lane"/>
    <tag k="note" v="This wide country road has a &quot;pecked&quot; white line along its centre. However if someone feels it is not Tertiary please amend with a note as to why they consider it otherwise."/>
    <tag k="source" v="OS_OpenData_StreetView"/>
  </way>
  <way id="24267315" version="3" timestamp="2021-06-04T13:50:16Z" changeset="105843254" uid="10252558" user="prddym">
    <nd ref="262732729"/>
    <nd ref="8013758027"/>
    <nd ref="8804317638"/>
    <nd ref="8804317644"/>
    <nd ref="262733364"/>
    <tag k="highway" v="residential"/>
    <tag k="name" v="Mill Row"/>
  </way>
  <way id="24267316" version="9" timestamp="2021-06-15T10:59:17Z" changeset="106395324" uid="10252551" user="amanura">
    <nd ref="262730761"/>
    <nd ref="262730762"/>
    <nd ref="262730764"/>
    <nd ref="1352433625"/>
    <nd ref="262730765"/>
    <nd ref="262730766"/>
    <nd ref="6930236044"/>
    <nd ref="262730767"/>
    <nd ref="262730769"/>
    <nd ref="262730770"/>
    <nd ref="262730771"/>
    <nd ref="262730772"/>
    <nd ref="262730774"/>
    <nd ref="262730775"/>
    <nd ref="262730776"/>
    <nd ref="262730777"/>
    <nd ref="6935234737"/>
    <nd ref="262730779"/>
    <nd ref="6276751558"/>
    <nd ref="262730780"/>
    <nd ref="262730781"/>
    <nd ref="6935234734"/>
    <nd ref="262730782"/>
    <nd ref="2412857292"/>
    <nd ref="262730784"/>
    <nd ref="4358114224"/>
    <nd ref="6935234732"/>
    <nd ref="262730785"/>
    <nd ref="262730786"/>
    <nd ref="262730787"/>
    <nd ref="262730789"/>
    <nd ref="262730790"/>
    <nd ref="262730791"/>
    <nd ref="262730793"/>
    <nd ref="262730794"/>
    <nd ref="262730795"/>
    <nd ref="262730796"/>
    <nd ref="262730797"/>
    <nd ref="262730799"/>
    <nd ref="262730800"/>
    <nd ref="8835662677"/>
    <nd ref="8451675573"/>
    <nd ref="262730801"/>
    <tag k="highway" v="unclassified"/>
    <tag k="name" v="Wolds Lane"/>
  </way>
  <way id="24360103" version="6" timestamp="2024-01-24T12:41:15Z" changeset="146628161" uid="20892810" user="milhousefan">
    <nd ref="260877666"/>
    <nd ref="11546016402"/>
    <nd ref="10279092556"/>
    <nd ref="264266702"/>
    <nd ref="10279092557"/>
    <nd ref="10279092558"/>
    <nd ref="264266703"/>
    <nd ref="10279092559"/>
    <nd ref="1910596945"/>
    <nd ref="10279092560"/>
    <nd ref="10279092561"/>
    <nd ref="264266704"/>
    <nd ref="10279092562"/>
    <nd ref="10279092563"/>
    <nd ref="10279092564"/>
    <nd ref="264266705"/>
    <nd ref="264266706"/>
    <nd ref="264266707"/>
    <nd ref="10279092565"/>
    <nd ref="10279092566"/>
    <nd ref="264266708"/>
    <nd ref="264266709"/>
    <nd ref="264266710"/>
    <nd ref="264266711"/>
    <nd ref="264266712"/>
    <nd ref="264266713"/>
    <nd ref="264266714"/>
    <nd ref="264266715"/>
    <nd ref="264266716"/>
    <nd ref="7222539473"/>
    <nd ref="264266717"/>
    <nd ref="264266719"/>
    <nd ref="264266720"/>
    <nd ref="264266721"/>
    <tag k="highway" v="unclassified"/>
    <tag k="name" v="Copston Lane"/>
    <tag k="source" v="OS_OpenData_StreetView"/>
  </way>
  <way id="24360814" version="3" timestamp="2019-10-30T12:01:00Z" changeset="76390538" uid="9065" user="brianboru">
    <nd ref="264274168"/>
    <nd ref="6930181014"/>
    <nd ref="264274169"/>
    <nd ref="1352433609"/>
    <nd ref="1352433610"/>
    <nd ref="1352433635"/>
    <nd ref="6930181016"/>
    <nd ref="6930181015"/>
    <nd ref="1352433620"/>
    <nd ref="1352433648"/>
    <nd ref="6930235792"/>
    <nd ref="1352433633"/>
    <tag k="highway" v="residential"/>
    <tag k="name" v="Pipers End"/>
    <tag k="source" v="OS_OpenData_StreetView"/>
  </way>
  <way id="42832976" version="5" timestamp="2015-09-23T19:10:24Z" changeset="34212810" uid="133272" user="wongataa">
    <nd ref="256128591"/>
    <nd ref="2296877741"/>
    <nd ref="256128586"/>
    <tag k="highway" v="tertiary"/>
    <tag k="name" v="Gipsy Lane"/>
    <tag k="note" v="This wide country road has a &quot;pecked&quot; white line along its centre. However if someone feels it is not Tertiary please amend with a note as to why they consider it otherwise."/>
    <tag k="oneway" v="yes"/>
  </way>
  <way id="42832977" version="4" timestamp="2022-03-15T13:37:08Z" changeset="118508742" uid="34867" user="SammyTheSnake">
    <nd ref="256128592"/>
    <nd ref="2296877738"/>
    <nd ref="256128580"/>
    <tag k="highway" v="secondary"/>
    <tag k="name" v="Smockington Lane"/>
    <tag k="oneway" v="yes"/>
    <tag k="ref" v="B4114"/>
    <tag k="surface" v="asphalt"/>
  </way>
  <way id="42832978" version="4" timestamp="2022-03-15T13:37:29Z" changeset="118508742" uid="34867" user="SammyTheSnake">
    <nd ref="256128583"/>
    <nd ref="2296877713"/>
    <nd ref="256128588"/>
    <tag k="highway" v="tertiary"/>
    <tag k="name" v="Leicester Road"/>
    <tag k="oneway" v="yes"/>
    <tag k="surface" v="asphalt"/>
  </way>
  <way id="48843785" version="17" timestamp="2024-11-28T22:03:47Z" changeset="159720970" uid="5229644" user="Nathan_A_RF">
    <nd ref="16182723"/>
    <nd ref="1523285554"/>
    <tag k="active_traffic_management" v="no"/>
    <tag k="bridge" v="yes"/>
    <tag k="carriageway_ref" v="A"/>
    <tag k="highway" v="motorway"/>
    <tag k="lanes" v="3"/>
    <tag k="layer" v="1"/>
    <tag k="lit" v="no"/>
    <tag k="maxspeed" v="70 mph"/>
    <tag k="maxspeed:type" v="GB:motorway"/>
    <tag k="maxspeed:variable" v="no"/>
    <tag k="national_highways:area" v="7"/>
    <tag k="oneway" v="yes"/>
    <tag k="operator" v="National Highways"/>
    <tag k="operator:wikidata" v="Q5760006"/>
    <tag k="ref" v="M69"/>
    <tag k="surface" v="asphalt"/>
  </way>
  <way id="48843786" version="21" timestamp="2024-11-28T22:03:47Z" changeset="159720970" uid="5229644" user="Nathan_A_RF">
    <nd ref="19747480"/>
    <nd ref="2319765434"/>
    <nd ref="404509"/>
    <tag k="active_traffic_management" v="no"/>
    <tag k="carriageway_ref" v="B"/>
    <tag k="highway" v="motorway"/>
    <tag k="lanes" v="3"/>
    <tag k="lit" v="no"/>
    <tag k="maxspeed" v="70 mph"/>
    <tag k="maxspeed:type" v="GB:motorway"/>
    <tag k="maxspeed:variable" v="no"/>
    <tag k="national_highways:area" v="9"/>
    <tag k="oneway" v="yes"/>
    <tag k="operator" v="National Highways"/>
    <tag k="operator:wikidata" v="Q5760006"/>
    <tag k="ref" v="M69"/>
    <tag k="surface" v="asphalt"/>
  </way>
  <way id="64503682" version="9" timestamp="2020-10-22T11:26:28Z" changeset="92892465" uid="10305810" user="peddil">
    <nd ref="793133874"/>
    <nd ref="2406772089"/>
    <nd ref="793133880"/>
    <nd ref="7992457905"/>
    <nd ref="793133885"/>
    <nd ref="793133892"/>
    <nd ref="793133900"/>
    <nd ref="793133911"/>
    <nd ref="793133919"/>
    <nd ref="8035908077"/>
    <nd ref="6869529399"/>
    <nd ref="793133926"/>
    <tag k="highway" v="unclassified"/>
    <tag k="maxspeed" v="50 mph"/>
    <tag k="name" v="Bazzard Road"/>
    <tag k="source" v="OS_OpenData_StreetView"/>
  </way>
  <way id="64503683" version="3" timestamp="2019-02-16T21:58:44Z" changeset="67264433" uid="346039" user="fitzsimons">
    <nd ref="793134837"/>
    <nd ref="793134839"/>
    <nd ref="793134842"/>
    <nd ref="793134847"/>
    <nd ref="793134850"/>
    <nd ref="793134853"/>
    <nd ref="793134856"/>
    <nd ref="793134866"/>
    <nd ref="793134869"/>
    <nd ref="793134872"/>
    <nd ref="793134875"/>
    <nd ref="2405796539"/>
    <nd ref="793134220"/>
    <tag k="highway" v="unclassified"/>
    <tag k="maxspeed" v="50 mph"/>
    <tag k="name" v="Thompson Lane"/>
    <tag k="source" v="OS_OpenData_StreetView"/>
  </way>
  <way id="78209298" version="20" timestamp="2024-11-28T22:03:47Z" changeset="159720970" uid="5229644" user="Nathan_A_RF">
    <nd ref="337654"/>
    <nd ref="1560338745"/>
    <nd ref="2752854938"/>
    <nd ref="337663"/>
    <nd ref="1560338743"/>
    <nd ref="337665"/>
    <nd ref="2752854940"/>
    <nd ref="2752854942"/>
    <nd ref="258749775"/>
    <nd ref="337706"/>
    <nd ref="337690"/>
    <nd ref="2752854944"/>
    <nd ref="1560352884"/>
    <nd ref="337731"/>
    <nd ref="1560352886"/>
    <nd ref="2752854947"/>
    <nd ref="337732"/>
    <nd ref="2405790371"/>
    <nd ref="337734"/>
    <nd ref="2752854950"/>
    <nd ref="337736"/>
    <nd ref="2752854951"/>
    <nd ref="258749758"/>
    <nd ref="2752854953"/>
    <nd ref="337740"/>
    <nd ref="1560352887"/>
    <nd ref="337741"/>
    <nd ref="2752854954"/>
    <nd ref="337742"/>
    <nd ref="2752854956"/>
    <nd ref="258749756"/>
    <nd ref="1560352901"/>
    <nd ref="337746"/>
    <nd ref="337745"/>
    <nd ref="2379998867"/>
    <nd ref="337750"/>
    <nd ref="2752854958"/>
    <nd ref="337749"/>
    <nd ref="2752854960"/>
    <nd ref="2752854961"/>
    <nd ref="337758"/>
    <nd ref="2752854964"/>
    <nd ref="337757"/>
    <nd ref="2319765321"/>
    <nd ref="337756"/>
    <nd ref="337755"/>
    <nd ref="2752854969"/>
    <nd ref="19747477"/>
    <nd ref="2319765409"/>
    <nd ref="1523285552"/>
    <nd ref="1523285548"/>
    <nd ref="19747494"/>
    <tag k="active_traffic_management" v="no"/>
    <tag k="carriageway_ref" v="A"/>
    <tag k="highway" v="motorway"/>
    <tag k="lanes" v="3"/>
    <tag k="lit" v="no"/>
    <tag k="maxheight" v="default"/>
    <tag k="maxspeed" v="70 mph"/>
    <tag k="maxspeed:type" v="GB:motorway"/>
    <tag k="maxspeed:variable" v="no"/>
    <tag k="national_highways:area" v="9"/>
    <tag k="oneway" v="yes"/>
    <tag k="operator" v="National Highways"/>
    <tag k="operator:wikidata" v="Q5760006"/>
    <tag k="ref" v="M69"/>
    <tag k="surface" v="asphalt"/>
  </way>
  <way id="120666671" version="2" timestamp="2019-10-30T12:01:00Z" changeset="76390538" uid="9065" user="brianboru">
    <nd ref="1352433628"/>
    <nd ref="1352433605"/>
    <nd ref="1352433621"/>
    <nd ref="1352433603"/>
    <nd ref="1352433632"/>
    <nd ref="1352433641"/>
    <nd ref="1352433650"/>
    <nd ref="1352433615"/>
    <nd ref="6930235795"/>
    <nd ref="6930235794"/>
    <nd ref="1352433601"/>
    <nd ref="6930235793"/>
    <nd ref="1352433633"/>
    <nd ref="1352433618"/>
    <tag k="highway" v="residential"/>
    <tag k="name" v="Fern Hill Way"/>
    <tag k="source" v="OS_OpenData_StreetView"/>
  </way>
  <way id="120666672" version="2" timestamp="2019-10-30T12:01:00Z" changeset="76390538" uid="9065" user="brianboru">
    <nd ref="262730762"/>
    <nd ref="6930236205"/>
    <nd ref="1352433626"/>
    <nd ref="1352433613"/>
    <nd ref="1352433607"/>
    <nd ref="6930187473"/>
    <nd ref="1352433612"/>
    <nd ref="1352433629"/>
    <nd ref="1352433630"/>
    <tag k="highway" v="residential"/>
    <tag k="name" v="Croft Close"/>
    <tag k="source" v="OS_OpenData_StreetView"/>
  </way>
  <way id="120666673" version="2" timestamp="2011-08-11T11:24:37Z" changeset="8984578" uid="112997" user="sobbomapper">
    <nd ref="1352433614"/>
    <nd ref="1352433615"/>
    <tag k="highway" v="residential"/>
    <tag k="name" v="Meadow Close"/>
    <tag k="source" v="OS_OpenData_StreetView"/>
    <tag k="source:name" v="OS_Opendata_Locator"/>
  </way>
  <way id="120666674" version="4" timestamp="2021-07-06T11:44:02Z" changeset="107494783" uid="10126622" user="hvannere">
    <nd ref="1352433646"/>
    <nd ref="6022840018"/>
    <nd ref="1352433643"/>
    <nd ref="4513924076"/>
    <nd ref="1352433640"/>
    <nd ref="8897982099"/>
    <nd ref="1352433649"/>
    <nd ref="1352433634"/>
    <nd ref="1352433639"/>
    <nd ref="1352433652"/>
    <nd ref="1352433624"/>
    <nd ref="260877652"/>
    <tag k="highway" v="residential"/>
    <tag k="name" v="Hall Road"/>
    <tag k="source" v="OS_OpenData_StreetView"/>
  </way>
  <way id="120666675" version="1" timestamp="2011-07-07T10:59:30Z" changeset="8656268" uid="112997" user="sobbomapper">
    <nd ref="1352433644"/>
    <nd ref="1352433627"/>
    <nd ref="1352433623"/>
    <nd ref="1352433625"/>
    <tag k="highway" v="residential"/>
    <tag k="name" v="School Lane"/>
    <tag k="source" v="OS_OpenData_StreetView"/>
  </way>
  <way id="120666676" version="3" timestamp="2021-06-24T15:43:24Z" changeset="106909880" uid="10126622" user="hvannere">
    <nd ref="1352433638"/>
    <nd ref="8863493464"/>
    <nd ref="1352433627"/>
    <tag k="highway" v="residential"/>
    <tag k="name" v="Church Close"/>
    <tag k="source" v="OS_OpenData_StreetView"/>
    <tag k="source:name" v="OS_Opendata_Locator"/>
  </way>
  <way id="120666677" version="2" timestamp="2011-08-11T11:24:37Z" changeset="8984578" uid="112997" user="sobbomapper">
    <nd ref="1352433637"/>
    <nd ref="1352433608"/>
    <nd ref="1352433619"/>
    <tag k="highway" v="residential"/>
    <tag k="name" v="Church Hill Close"/>
    <tag k="source" v="OS_OpenData_StreetView"/>
    <tag k="source:name" v="OS_Opendata_Locator"/>
  </way>
  <way id="120666678" version="4" timestamp="2021-08-11T13:12:22Z" changeset="109518423" uid="10170572" user="paravag">
    <nd ref="1352433645"/>
    <nd ref="6937006197"/>
    <nd ref="1352433647"/>
    <nd ref="1352433642"/>
    <nd ref="1352433602"/>
    <nd ref="1352433636"/>
    <nd ref="8998726341"/>
    <nd ref="1352433622"/>
    <nd ref="6022840019"/>
    <nd ref="1352433646"/>
    <nd ref="1352433606"/>
    <nd ref="1352433611"/>
    <nd ref="1352433604"/>
    <nd ref="1352433651"/>
    <tag k="highway" v="residential"/>
    <tag k="name" v="Hall Lane"/>
    <tag k="source" v="OS_OpenData_StreetView"/>
  </way>
  <way id="120666679" version="3" timestamp="2018-10-29T17:18:42Z" changeset="63985311" uid="9065" user="brianboru">
    <nd ref="1352433631"/>
    <nd ref="6022839702"/>
    <nd ref="1352433603"/>
    <tag k="highway" v="residential"/>
    <tag k="name" v="Orchard Close"/>
    <tag k="source" v="OS_OpenData_StreetView"/>
    <tag k="source:name" v="OS_Opendata_Locator"/>
  </way>
  <way id="120666709" version="1" timestamp="2011-07-07T11:01:22Z" changeset="8656268" uid="112997" user="sobbomapper">
    <nd ref="1352434071"/>
    <nd ref="1352434065"/>
    <tag k="highway" v="residential"/>
    <tag k="source" v="OS_OpenData_StreetView"/>
  </way>
  <way id="120666710" version="3" timestamp="2019-10-31T15:39:15Z" changeset="76457171" uid="9065" user="brianboru">
    <nd ref="1352434064"/>
    <nd ref="1352434065"/>
    <nd ref="6935229606"/>
    <nd ref="1352434078"/>
    <nd ref="1352434084"/>
    <nd ref="6935229607"/>
    <nd ref="1352434092"/>
    <nd ref="6935261107"/>
    <nd ref="1352433641"/>
    <tag k="highway" v="residential"/>
    <tag k="name" v="Bracken Drive"/>
    <tag k="source" v="OS_OpenData_StreetView"/>
  </way>
  <way id="120666712" version="1" timestamp="2011-07-07T11:01:23Z" changeset="8656268" uid="112997" user="sobbomapper">
    <nd ref="1352434073"/>
    <nd ref="1352434082"/>
    <tag k="highway" v="residential"/>
    <tag k="source" v="OS_OpenData_StreetView"/>
  </way>
  <way id="120666776" version="4" timestamp="2024-05-31T07:08:18Z" changeset="152065301" uid="229347" user="RossA">
    <nd ref="1352436553"/>
    <nd ref="1352436532"/>
    <nd ref="1352436548"/>
    <nd ref="1352436570"/>
    <nd ref="1352436549"/>
    <nd ref="2322150030"/>
    <nd ref="2322150035"/>
    <nd ref="6022839701"/>
    <nd ref="1352436547"/>
    <tag k="covered" v="no"/>
    <tag k="highway" v="residential"/>
    <tag k="lanes" v="2"/>
    <tag k="maxspeed" v="30 mph"/>
    <tag k="name" v="Bulkington Road Estate"/>
    <tag k="oneway" v="no"/>
    <tag k="source" v="OS_OpenData_StreetView"/>
    <tag k="surface" v="asphalt"/>
  </way>
  <way id="120666777" version="2" timestamp="2024-05-31T07:08:18Z" changeset="152065301" uid="229347" user="RossA">
    <nd ref="1352436571"/>
    <nd ref="1352436555"/>
    <nd ref="1352436545"/>
    <nd ref="1352436547"/>
    <nd ref="1352436557"/>
    <nd ref="1352436572"/>
    <nd ref="1352436551"/>
    <tag k="covered" v="no"/>
    <tag k="highway" v="residential"/>
    <tag k="lanes" v="2"/>
    <tag k="maxspeed" v="30 mph"/>
    <tag k="name" v="Bulkington Road Estate"/>
    <tag k="oneway" v="no"/>
    <tag k="source" v="OS_OpenData_StreetView"/>
    <tag k="surface" v="asphalt"/>
  </way>
  <way id="120666899" version="3" timestamp="2019-10-14T08:06:30Z" changeset="75648433" uid="10170577" user="malpans">
    <nd ref="1352440897"/>
    <nd ref="1352440911"/>
    <nd ref="6877334973"/>
    <nd ref="1352440905"/>
    <nd ref="1352440906"/>
    <nd ref="1352440910"/>
    <nd ref="6457087404"/>
    <nd ref="6457087405"/>
    <nd ref="1352440908"/>
    <nd ref="1352440909"/>
    <tag k="highway" v="residential"/>
    <tag k="name" v="Moat Lane"/>
    <tag k="source" v="OS_OpenData_StreetView"/>
  </way>
  <way id="125152040" version="11" timestamp="2025-08-26T07:44:14Z" changeset="171010472" uid="12943226" user="Inkle">
    <nd ref="1390699970"/>
    <nd ref="1390699895"/>
    <nd ref="32637751"/>
    <nd ref="32637750"/>
    <nd ref="32637749"/>
    <nd ref="1390789726"/>
    <nd ref="32637747"/>
    <nd ref="8804234009"/>
    <nd ref="32637746"/>
    <nd ref="1390789733"/>
    <nd ref="8036295576"/>
    <nd ref="32637745"/>
    <nd ref="32637744"/>
    <nd ref="32637742"/>
    <nd ref="2412832940"/>
    <nd ref="32637741"/>
    <nd ref="12488817871"/>
    <nd ref="32637739"/>
    <nd ref="32637738"/>
    <nd ref="12488817872"/>
    <nd ref="13785261"/>
    <tag k="highway" v="secondary"/>
    <tag k="lanes" v="2"/>
    <tag k="maxspeed" v="60 mph"/>
    <tag k="maxspeed:type" v="GB:nsl_single"/>
    <tag k="name" v="Leicester Road"/>
    <tag k="ref" v="B4065"/>
    <tag k="surface" v="asphalt"/>
  </way>
  <way id="142580399" version="2" timestamp="2025-01-11T10:53:53Z" changeset="161234267" uid="5589" user="user_5589">
    <nd ref="793133926"/>
    <nd ref="793133934"/>
    <tag k="bridge" v="yes"/>
    <tag k="highway" v="unclassified"/>
    <tag k="layer" v="1"/>
    <tag k="maxweight:signed" v="no"/>
    <tag k="name" v="Bazzard Road"/>
    <tag k="source" v="OS_OpenData_StreetView"/>
  </way>
  <way id="142580400" version="3" timestamp="2025-01-11T10:52:40Z" changeset="161234267" uid="5589" user="user_5589">
    <nd ref="256128550"/>
    <nd ref="1560352900"/>
    <tag k="bridge" v="yes"/>
    <tag k="highway" v="secondary"/>
    <tag k="layer" v="1"/>
    <tag k="maxspeed" v="50 mph"/>
    <tag k="maxweight:signed" v="no"/>
    <tag k="name" v="Wolvey Road"/>
    <tag k="ref" v="B4109"/>
  </way>
  <way id="142580401" version="12" timestamp="2024-11-28T22:03:47Z" changeset="159720970" uid="5229644" user="Nathan_A_RF">
    <nd ref="1560352889"/>
    <nd ref="19747480"/>
    <tag k="active_traffic_management" v="no"/>
    <tag k="bridge" v="yes"/>
    <tag k="carriageway_ref" v="B"/>
    <tag k="highway" v="motorway"/>
    <tag k="lanes" v="3"/>
    <tag k="layer" v="1"/>
    <tag k="lit" v="no"/>
    <tag k="maxspeed" v="70 mph"/>
    <tag k="maxspeed:type" v="GB:motorway"/>
    <tag k="maxspeed:variable" v="no"/>
    <tag k="national_highways:area" v="7"/>
    <tag k="oneway" v="yes"/>
    <tag k="operator" v="National Highways"/>
    <tag k="operator:wikidata" v="Q5760006"/>
    <tag k="ref" v="M69"/>
    <tag k="surface" v="asphalt"/>
  </way>
  <way id="142580402" version="13" timestamp="2024-11-28T22:03:47Z" changeset="159720970" uid="5229644" user="Nathan_A_RF">
    <nd ref="1523285554"/>
    <nd ref="2296895389"/>
    <nd ref="1523285550"/>
    <tag k="active_traffic_management" v="no"/>
    <tag k="carriageway_ref" v="A"/>
    <tag k="highway" v="motorway"/>
    <tag k="lanes" v="3"/>
    <tag k="lit" v="no"/>
    <tag k="maxspeed" v="70 mph"/>
    <tag k="maxspeed:type" v="GB:motorway"/>
    <tag k="maxspeed:variable" v="no"/>
    <tag k="national_highways:area" v="7"/>
    <tag k="oneway" v="yes"/>
    <tag k="operator" v="National Highways"/>
    <tag k="operator:wikidata" v="Q5760006"/>
    <tag k="ref" v="M69"/>
    <tag k="surface" v="asphalt"/>
  </way>
  <way id="142580403" version="4" timestamp="2020-09-11T04:35:27Z" changeset="90731829" uid="10192134" user="mathpras">
    <nd ref="793133934"/>
    <nd ref="7324955041"/>
    <nd ref="793133942"/>
    <nd ref="793133948"/>
    <nd ref="793133958"/>
    <nd ref="793134837"/>
    <nd ref="5864699629"/>
    <nd ref="793133966"/>
    <nd ref="793133973"/>
    <nd ref="793133976"/>
    <nd ref="793133981"/>
    <nd ref="793133984"/>
    <nd ref="1382891934"/>
    <nd ref="793133992"/>
    <nd ref="7895667418"/>
    <nd ref="793134000"/>
    <nd ref="793134006"/>
    <nd ref="793134015"/>
    <nd ref="793134022"/>
    <nd ref="793134031"/>
    <nd ref="793134042"/>
    <nd ref="793134049"/>
    <nd ref="260273961"/>
    <tag k="highway" v="unclassified"/>
    <tag k="name" v="Bazzard Road"/>
    <tag k="source" v="OS_OpenData_StreetView"/>
  </way>
  <way id="142580404" version="14" timestamp="2024-11-28T22:03:47Z" changeset="159720970" uid="5229644" user="Nathan_A_RF">
    <nd ref="1560352868"/>
    <nd ref="16182725"/>
    <nd ref="16182726"/>
    <nd ref="4309768266"/>
    <nd ref="1523285549"/>
    <nd ref="404496"/>
    <tag k="active_traffic_management" v="no"/>
    <tag k="carriageway_ref" v="J"/>
    <tag k="destination" v="Nuneaton;Tamworth"/>
    <tag k="destination:ref" v="A5 North"/>
    <tag k="highway" v="motorway_link"/>
    <tag k="lanes" v="3"/>
    <tag k="lit" v="yes"/>
    <tag k="maxspeed" v="70 mph"/>
    <tag k="maxspeed:type" v="GB:motorway"/>
    <tag k="maxspeed:variable" v="no"/>
    <tag k="national_highways:area" v="9"/>
    <tag k="oneway" v="yes"/>
    <tag k="operator" v="National Highways"/>
    <tag k="operator:wikidata" v="Q5760006"/>
    <tag k="ref" v="M69"/>
    <tag k="source:maxspeed" v="Stats19"/>
  </way>
  <way id="142580405" version="8" timestamp="2025-01-10T18:40:45Z" changeset="161216392" uid="5229644" user="Nathan_A_RF">
    <nd ref="1560352883"/>
    <nd ref="13785313"/>
    <nd ref="6208304572"/>
    <nd ref="13785315"/>
    <nd ref="8831005785"/>
    <nd ref="13785309"/>
    <nd ref="13785304"/>
    <nd ref="2411695243"/>
    <nd ref="13785303"/>
    <nd ref="13785298"/>
    <nd ref="8973604241"/>
    <nd ref="13785297"/>
    <nd ref="6902834257"/>
    <nd ref="13785288"/>
    <nd ref="6901620204"/>
    <nd ref="13785284"/>
    <nd ref="12488817873"/>
    <nd ref="12488817872"/>
    <tag k="highway" v="secondary"/>
    <tag k="name" v="Withybrook Road"/>
    <tag k="ref" v="B4112"/>
    <tag k="source:ref" v="NPE"/>
  </way>
  <way id="142580406" version="8" timestamp="2024-05-30T17:30:06Z" changeset="152047295" uid="229347" user="RossA">
    <nd ref="1560352900"/>
    <nd ref="8269612686"/>
    <nd ref="256128551"/>
    <nd ref="2409197342"/>
    <nd ref="256128552"/>
    <nd ref="7066133863"/>
    <nd ref="256128553"/>
    <nd ref="2409197383"/>
    <nd ref="2409224840"/>
    <nd ref="256128554"/>
    <nd ref="256128555"/>
    <nd ref="2406772065"/>
    <nd ref="2406772068"/>
    <nd ref="256128556"/>
    <tag k="highway" v="secondary"/>
    <tag k="lanes" v="2"/>
    <tag k="maxspeed" v="50 mph"/>
    <tag k="name" v="Wolvey Road"/>
    <tag k="ref" v="B4109"/>
    <tag k="surface" v="asphalt"/>
  </way>
  <way id="142580407" version="12" timestamp="2024-11-28T22:03:47Z" changeset="159720970" uid="5229644" user="Nathan_A_RF">
    <nd ref="1560352881"/>
    <nd ref="1560352889"/>
    <tag k="active_traffic_management" v="no"/>
    <tag k="carriageway_ref" v="B"/>
    <tag k="highway" v="motorway"/>
    <tag k="lanes" v="3"/>
    <tag k="lit" v="no"/>
    <tag k="maxspeed" v="70 mph"/>
    <tag k="maxspeed:type" v="GB:motorway"/>
    <tag k="maxspeed:variable" v="no"/>
    <tag k="national_highways:area" v="7"/>
    <tag k="oneway" v="yes"/>
    <tag k="operator" v="National Highways"/>
    <tag k="operator:wikidata" v="Q5760006"/>
    <tag k="ref" v="M69"/>
    <tag k="surface" v="asphalt"/>
  </way>
  <way id="142580408" version="14" timestamp="2024-11-28T22:03:47Z" changeset="159720970" uid="5229644" user="Nathan_A_RF">
    <nd ref="404499"/>
    <nd ref="404500"/>
    <nd ref="337765"/>
    <nd ref="1523283860"/>
    <nd ref="404509"/>
    <tag k="active_traffic_management" v="no"/>
    <tag k="carriageway_ref" v="M"/>
    <tag k="destination" v="Birmingham;Coventry"/>
    <tag k="destination:ref" v="M69"/>
    <tag k="highway" v="motorway_link"/>
    <tag k="lanes" v="1"/>
    <tag k="lit" v="no"/>
    <tag k="maxspeed" v="70 mph"/>
    <tag k="maxspeed:type" v="GB:motorway"/>
    <tag k="maxspeed:variable" v="no"/>
    <tag k="national_highways:area" v="9"/>
    <tag k="oneway" v="yes"/>
    <tag k="operator" v="National Highways"/>
    <tag k="operator:wikidata" v="Q5760006"/>
    <tag k="ref" v="M69"/>
    <tag k="source:maxspeed" v="Stats19"/>
  </way>
  <way id="142580409" version="5" timestamp="2025-03-08T09:55:49Z" changeset="163356413" uid="5589" user="user_5589">
    <nd ref="1560352898"/>
    <nd ref="1560352883"/>
    <tag k="bridge" v="yes"/>
    <tag k="highway" v="secondary"/>
    <tag k="layer" v="1"/>
    <tag k="maxweight:signed" v="no"/>
    <tag k="name" v="Withybrook Road"/>
    <tag k="ref" v="B4112"/>
    <tag k="source:ref" v="NPE"/>
    <tag k="surface" v="asphalt"/>
  </way>
  <way id="166168206" version="12" timestamp="2022-03-15T13:51:42Z" changeset="118508647" uid="34867" user="SammyTheSnake">
    <nd ref="260273961"/>
    <nd ref="2382269175"/>
    <nd ref="260273962"/>
    <nd ref="1382891907"/>
    <nd ref="260273963"/>
    <nd ref="260273964"/>
    <nd ref="260273965"/>
    <nd ref="260273966"/>
    <nd ref="2405790488"/>
    <nd ref="1560693504"/>
    <nd ref="260273969"/>
    <nd ref="1797721663"/>
    <tag k="cycleway:both" v="no"/>
    <tag k="highway" v="secondary"/>
    <tag k="lanes" v="2"/>
    <tag k="maxspeed" v="50 mph"/>
    <tag k="name" v="Lutterworth Road"/>
    <tag k="ref" v="B4114"/>
    <tag k="shoulder" v="no"/>
    <tag k="surface" v="asphalt"/>
  </way>
  <way id="166168219" version="10" timestamp="2024-05-30T17:30:06Z" changeset="152047295" uid="229347" user="RossA">
    <nd ref="793133874"/>
    <nd ref="256128561"/>
    <nd ref="2406772097"/>
    <nd ref="2406772107"/>
    <nd ref="256128562"/>
    <nd ref="7992448381"/>
    <nd ref="256128563"/>
    <nd ref="2322150011"/>
    <nd ref="2322150012"/>
    <nd ref="256128564"/>
    <nd ref="2322150013"/>
    <nd ref="7287872882"/>
    <nd ref="2322150017"/>
    <nd ref="8384331036"/>
    <nd ref="1352436551"/>
    <tag k="highway" v="secondary"/>
    <tag k="lanes" v="2"/>
    <tag k="maxspeed" v="50 mph"/>
    <tag k="name" v="Bulkington Road"/>
    <tag k="ref" v="B4109"/>
    <tag k="surface" v="asphalt"/>
  </way>
  <way id="180624586" version="3" timestamp="2022-03-15T13:37:33Z" changeset="118508742" uid="34867" user="SammyTheSnake">
    <nd ref="1910596860"/>
    <nd ref="2296877728"/>
    <nd ref="2296877729"/>
    <nd ref="2296877730"/>
    <nd ref="1910596864"/>
    <tag k="highway" v="secondary"/>
    <tag k="name" v="Lutterworth Road"/>
    <tag k="oneway" v="yes"/>
    <tag k="ref" v="B4114"/>
    <tag k="surface" v="asphalt"/>
  </way>
  <way id="180624601" version="2" timestamp="2020-10-20T10:23:12Z" changeset="92760422" uid="10170576" user="sabodige">
    <nd ref="1910596864"/>
    <nd ref="8024818452"/>
    <nd ref="256128571"/>
    <tag k="highway" v="secondary"/>
    <tag k="name" v="Lutterworth Road"/>
    <tag k="oneway" v="yes"/>
    <tag k="ref" v="B4114"/>
  </way>
  <way id="308393126" version="14" timestamp="2025-05-16T15:50:44Z" changeset="166357865" uid="133272" user="wongataa">
    <nd ref="404493"/>
    <nd ref="5296021757"/>
    <nd ref="1523283829"/>
    <nd ref="1523283856"/>
    <nd ref="260519401"/>
    <nd ref="1523283801"/>
    <nd ref="404494"/>
    <tag k="highway" v="trunk"/>
    <tag k="junction" v="roundabout"/>
    <tag k="lanes" v="4"/>
    <tag k="lit" v="yes"/>
    <tag k="maxspeed" v="60 mph"/>
    <tag k="maxspeed:type" v="GB:nsl_single"/>
    <tag k="name" v="Stretton Baskerville Interchange"/>
    <tag k="national_highways:area" v="7"/>
    <tag k="oneway" v="yes"/>
    <tag k="operator" v="National Highways"/>
    <tag k="operator:wikidata" v="Q5760006"/>
    <tag k="sidewalk" v="no"/>
    <tag k="source:maxspeed" v="Stats19"/>
  </way>
  <way id="308393129" version="8" timestamp="2024-11-28T22:03:47Z" changeset="159720970" uid="5229644" user="Nathan_A_RF">
    <nd ref="19747494"/>
    <nd ref="337767"/>
    <nd ref="16182723"/>
    <tag k="active_traffic_management" v="no"/>
    <tag k="carriageway_ref" v="A"/>
    <tag k="highway" v="motorway"/>
    <tag k="lanes" v="3"/>
    <tag k="lit" v="no"/>
    <tag k="maxspeed" v="70 mph"/>
    <tag k="maxspeed:type" v="GB:motorway"/>
    <tag k="maxspeed:variable" v="no"/>
    <tag k="national_highways:area" v="9"/>
    <tag k="oneway" v="yes"/>
    <tag k="operator" v="National Highways"/>
    <tag k="operator:wikidata" v="Q5760006"/>
    <tag k="ref" v="M69"/>
    <tag k="surface" v="asphalt"/>
  </way>
  <way id="308393131" version="9" timestamp="2024-11-28T22:03:47Z" changeset="159720970" uid="5229644" user="Nathan_A_RF">
    <nd ref="404509"/>
    <nd ref="1523283858"/>
    <nd ref="19747479"/>
    <nd ref="2319765400"/>
    <nd ref="2752854967"/>
    <nd ref="337754"/>
    <nd ref="337753"/>
    <nd ref="2319765320"/>
    <nd ref="337752"/>
    <nd ref="2752854966"/>
    <nd ref="2752854963"/>
    <nd ref="337751"/>
    <nd ref="2752854962"/>
    <nd ref="2752854959"/>
    <nd ref="337748"/>
    <nd ref="2752854957"/>
    <nd ref="337747"/>
    <nd ref="2379998866"/>
    <nd ref="337744"/>
    <nd ref="2379998702"/>
    <nd ref="337743"/>
    <nd ref="1560352865"/>
    <nd ref="258749757"/>
    <nd ref="2752854955"/>
    <nd ref="337739"/>
    <nd ref="1560352871"/>
    <nd ref="337738"/>
    <nd ref="1560352878"/>
    <nd ref="337737"/>
    <nd ref="2752854952"/>
    <nd ref="258749759"/>
    <nd ref="337735"/>
    <nd ref="2752854949"/>
    <nd ref="337733"/>
    <nd ref="2752854948"/>
    <nd ref="2405790360"/>
    <nd ref="337708"/>
    <nd ref="2752854946"/>
    <nd ref="2752854945"/>
    <nd ref="337707"/>
    <nd ref="2405790243"/>
    <nd ref="2752854943"/>
    <nd ref="337691"/>
    <nd ref="337705"/>
    <nd ref="258749776"/>
    <nd ref="2752854941"/>
    <nd ref="2752854939"/>
    <nd ref="337664"/>
    <nd ref="1560338778"/>
    <nd ref="337662"/>
    <nd ref="2752854937"/>
    <nd ref="1560338783"/>
    <nd ref="337653"/>
    <tag k="active_traffic_management" v="no"/>
    <tag k="carriageway_ref" v="B"/>
    <tag k="highway" v="motorway"/>
    <tag k="lanes" v="3"/>
    <tag k="lit" v="no"/>
    <tag k="maxheight" v="default"/>
    <tag k="maxspeed" v="70 mph"/>
    <tag k="maxspeed:type" v="GB:motorway"/>
    <tag k="maxspeed:variable" v="no"/>
    <tag k="national_highways:area" v="9"/>
    <tag k="oneway" v="yes"/>
    <tag k="operator" v="National Highways"/>
    <tag k="operator:wikidata" v="Q5760006"/>
    <tag k="ref" v="M69"/>
    <tag k="surface" v="asphalt"/>
  </way>
  <way id="415857160" version="2" timestamp="2023-10-17T07:50:46Z" changeset="142699233" uid="9451067" user="b-jazz-bot">
    <nd ref="4168028300"/>
    <nd ref="4168028288"/>
    <nd ref="4168028289"/>
    <nd ref="4168028290"/>
    <nd ref="4168028291"/>
    <nd ref="4168028293"/>
    <nd ref="4168028292"/>
    <nd ref="4168028294"/>
    <nd ref="4168028295"/>
    <nd ref="4168028307"/>
    <nd ref="4168028306"/>
    <nd ref="4168028303"/>
    <nd ref="4168028301"/>
    <nd ref="4168028305"/>
    <nd ref="4168028304"/>
    <nd ref="4168028299"/>
    <nd ref="4168028298"/>
    <nd ref="4168028302"/>
    <nd ref="4168028300"/>
    <tag k="amenity" v="restaurant"/>
    <tag k="building" v="yes"/>
    <tag k="cuisine" v="fish"/>
    <tag k="name" v="Barnacles"/>
    <tag k="website" v="https://barnacles-restaurant.co.uk/"/>
  </way>
  <way id="415857163" version="2" timestamp="2025-07-19T15:48:16Z" changeset="169156583" uid="8857" user="philipcullen">
    <nd ref="4168028311"/>
    <nd ref="4168028308"/>
    <nd ref="4168028309"/>
    <nd ref="4168028312"/>
    <nd ref="4168028311"/>
    <tag k="building" v="yes"/>
    <tag k="name" v="Lumenautica"/>
    <tag k="ref:GB:uprn" v="10094754674"/>
  </way>
  <way id="420021852" version="3" timestamp="2025-07-19T15:48:16Z" changeset="169156583" uid="8857" user="philipcullen">
    <nd ref="4200094592"/>
    <nd ref="12479775069"/>
    <nd ref="4200094593"/>
    <nd ref="4200094591"/>
    <nd ref="12479775070"/>
    <nd ref="4200094590"/>
    <nd ref="4200094589"/>
    <nd ref="4200094592"/>
    <tag k="addr:city" v="Wolvey"/>
    <tag k="addr:street" v="The Square"/>
    <tag k="amenity" v="community_centre"/>
    <tag k="building" v="public"/>
    <tag k="community_centre" v="village_hall"/>
    <tag k="name" v="Wolvey Village Hall"/>
    <tag k="ref:GB:uprn" v="100071399477"/>
  </way>
  <way id="454907597" version="4" timestamp="2020-06-17T11:16:18Z" changeset="86769518" uid="11300674" user="XYsoldier">
    <nd ref="4513924078"/>
    <nd ref="4513924077"/>
    <nd ref="6937006170"/>
    <nd ref="4513924080"/>
    <nd ref="4513924079"/>
    <nd ref="6022840019"/>
    <tag k="highway" v="residential"/>
    <tag k="name" v="Wolvey Hall Farm Close"/>
    <tag k="source" v="OS_OpenData_StreetView"/>
    <tag k="source:name" v="OS_OpenData_Locator"/>
    <tag k="surface" v="asphalt"/>
  </way>
  <way id="483285009" version="10" timestamp="2024-04-08T20:31:09Z" changeset="149751956" uid="122844" user="Casey_boy">
    <nd ref="32637672"/>
    <nd ref="10269293950"/>
    <nd ref="32637671"/>
    <nd ref="32637670"/>
    <nd ref="2296878485"/>
    <nd ref="32637669"/>
    <nd ref="2296878494"/>
    <nd ref="32637668"/>
    <nd ref="32637667"/>
    <nd ref="2296878503"/>
    <nd ref="32637666"/>
    <nd ref="32637665"/>
    <nd ref="11802872756"/>
    <nd ref="32637664"/>
    <tag k="cycleway:both" v="no"/>
    <tag k="highway" v="secondary"/>
    <tag k="lanes" v="2"/>
    <tag k="maxspeed" v="60 mph"/>
    <tag k="maxspeed:type" v="GB:nsl_single"/>
    <tag k="name" v="Hinckley Road"/>
    <tag k="ref" v="B4109"/>
    <tag k="shoulder" v="no"/>
    <tag k="surface" v="asphalt"/>
  </way>
  <way id="548182203" version="9" timestamp="2025-05-16T15:50:44Z" changeset="166357865" uid="133272" user="wongataa">
    <nd ref="404494"/>
    <nd ref="5296021754"/>
    <nd ref="1523283866"/>
    <nd ref="404495"/>
    <nd ref="1523283895"/>
    <nd ref="4309768265"/>
    <nd ref="1523283843"/>
    <nd ref="404496"/>
    <tag k="highway" v="trunk"/>
    <tag k="junction" v="roundabout"/>
    <tag k="lanes" v="3"/>
    <tag k="lit" v="yes"/>
    <tag k="maxheight" v="default"/>
    <tag k="maxheight:signed" v="no"/>
    <tag k="maxspeed" v="60 mph"/>
    <tag k="maxspeed:type" v="GB:nsl_single"/>
    <tag k="name" v="Stretton Baskerville Interchange"/>
    <tag k="national_highways:area" v="7"/>
    <tag k="oneway" v="yes"/>
    <tag k="operator" v="National Highways"/>
    <tag k="operator:wikidata" v="Q5760006"/>
    <tag k="source:maxspeed" v="Stats19"/>
  </way>
  <way id="557950054" version="6" timestamp="2025-07-19T15:48:16Z" changeset="169156583" uid="8857" user="philipcullen">
    <nd ref="2331574512"/>
    <nd ref="6457107537"/>
    <nd ref="6457107538"/>
    <nd ref="6457107539"/>
    <nd ref="6457107540"/>
    <nd ref="5380376279"/>
    <nd ref="6457107534"/>
    <nd ref="6457107533"/>
    <nd ref="5380376286"/>
    <nd ref="5380376281"/>
    <nd ref="6457107535"/>
    <nd ref="6457107536"/>
    <nd ref="2331574512"/>
    <tag k="amenity" v="place_of_worship"/>
    <tag k="building" v="church"/>
    <tag k="denomination" v="anglican"/>
    <tag k="heritage" v="2"/>
    <tag k="heritage:operator" v="Historic England"/>
    <tag k="listed_status" v="Grade II*"/>
    <tag k="name" v="St John Baptist"/>
    <tag k="ref:GB:uprn" v="10010510733"/>
    <tag k="ref:dove" v="11837"/>
    <tag k="religion" v="christian"/>
    <tag k="source" v="OS_OpenData_StreetView"/>
    <tag k="wikidata" v="Q17550847"/>
  </way>
  <way id="607786314" version="4" timestamp="2022-10-28T19:15:46Z" changeset="128188221" uid="13666626" user="RedAuburn">
    <nd ref="404502"/>
    <nd ref="1523283816"/>
    <nd ref="404492"/>
    <tag k="highway" v="trunk"/>
    <tag k="lanes" v="3"/>
    <tag k="maxspeed" v="70 mph"/>
    <tag k="maxspeed:type" v="GB:nsl_dual"/>
    <tag k="name" v="Watling Street"/>
    <tag k="national_highways:area" v="7"/>
    <tag k="oneway" v="yes"/>
    <tag k="operator" v="National Highways"/>
    <tag k="operator:wikidata" v="Q5760006"/>
    <tag k="ref" v="A5"/>
    <tag k="source" v="survey"/>
    <tag k="source:maxspeed" v="Stats19"/>
  </way>
  <way id="609139402" version="1" timestamp="2018-07-19T07:44:33Z" changeset="60859968" uid="9065" user="brianboru">
    <nd ref="2412857106"/>
    <nd ref="262730809"/>
    <tag k="highway" v="unclassified"/>
    <tag k="source" v="bing"/>
  </way>
  <way id="639131920" version="1" timestamp="2018-10-29T17:18:20Z" changeset="63985311" uid="9065" user="brianboru">
    <nd ref="1352433637"/>
    <nd ref="6022837031"/>
    <tag k="highway" v="residential"/>
    <tag k="name" v="Church Hill Close"/>
    <tag k="source" v="Warwicks CC Aerial Imagery 2013"/>
  </way>
  <way id="639131921" version="2" timestamp="2019-10-30T12:01:00Z" changeset="76390538" uid="9065" user="brianboru">
    <nd ref="6022837032"/>
    <nd ref="1352433637"/>
    <tag k="highway" v="residential"/>
    <tag k="name" v="Church Hill Close"/>
    <tag k="source" v="Warwicks CC Aerial Imagery 2013"/>
  </way>
  <way id="639131962" version="3" timestamp="2025-07-19T15:48:16Z" changeset="169156583" uid="8857" user="philipcullen">
    <nd ref="6022839960"/>
    <nd ref="6022839959"/>
    <nd ref="6022839958"/>
    <nd ref="6022839963"/>
    <nd ref="6022839964"/>
    <nd ref="6022839957"/>
    <nd ref="6022839956"/>
    <nd ref="6022839960"/>
    <tag k="amenity" v="pub"/>
    <tag k="building" v="public"/>
    <tag k="name" v="The Blue Pig"/>
    <tag k="ref:GB:uprn" v="10010516819"/>
    <tag k="source" v="Warwicks CC Aerial Imagery 2013"/>
  </way>
  <way id="639131968" version="2" timestamp="2025-01-07T04:16:35Z" changeset="161081880" uid="493595" user="Yorvik Prestigitator">
    <nd ref="6022839995"/>
    <nd ref="6022839994"/>
    <nd ref="6022839993"/>
    <nd ref="6022839992"/>
    <nd ref="6022839995"/>
    <tag k="building" v="yes"/>
    <tag k="name" v="Wolvey Bowling Club"/>
    <tag k="source" v="Warwicks CC Aerial Imagery 2013"/>
  </way>
  <way id="639131972" version="3" timestamp="2025-07-19T15:48:16Z" changeset="169156583" uid="8857" user="philipcullen">
    <nd ref="6022840017"/>
    <nd ref="6022840016"/>
    <nd ref="6022840015"/>
    <nd ref="6022840014"/>
    <nd ref="6022840013"/>
    <nd ref="6022840012"/>
    <nd ref="6022840017"/>
    <tag k="amenity" v="doctors"/>
    <tag k="building" v="yes"/>
    <tag k="healthcare" v="doctor"/>
    <tag k="name" v="Wolvey Surgery"/>
    <tag k="ref:GB:uprn" v="100070175654"/>
    <tag k="source" v="Warwicks CC Aerial Imagery 2013"/>
  </way>
  <way id="639131982" version="2" timestamp="2019-05-08T05:52:09Z" changeset="70008299" uid="9065" user="brianboru">
    <nd ref="6022840188"/>
    <nd ref="6022840187"/>
    <nd ref="6022840186"/>
    <nd ref="6022840185"/>
    <nd ref="6022840084"/>
    <nd ref="6022840083"/>
    <nd ref="6022840082"/>
    <nd ref="6022840081"/>
    <nd ref="6022840080"/>
    <nd ref="6022840079"/>
    <nd ref="6022840078"/>
    <nd ref="6022840077"/>
    <nd ref="6022840076"/>
    <nd ref="6022840075"/>
    <nd ref="6022840074"/>
    <nd ref="6022840188"/>
    <tag k="amenity" v="pub"/>
    <tag k="building" v="yes"/>
    <tag k="name" v="The Bulls Head"/>
    <tag k="source" v="Warwicks CC Aerial Imagery 2013"/>
  </way>
  <way id="639132008" version="5" timestamp="2025-09-19T12:40:03Z" changeset="172160895" uid="242345" user="confusedbuffalo">
    <nd ref="6022840436"/>
    <nd ref="6022840435"/>
    <nd ref="6022840434"/>
    <nd ref="6022840433"/>
    <nd ref="10082601078"/>
    <nd ref="10082601077"/>
    <nd ref="6022840436"/>
    <tag k="addr:housename" v="Hinckley Rd, Wolvey, Hinckley"/>
    <tag k="addr:postcode" v="LE10 3HQ"/>
    <tag k="building" v="farm_auxiliary"/>
    <tag k="contact:phone" v="+44 1455 220322"/>
    <tag k="name" v="Abbey Farm"/>
    <tag k="source" v="Warwicks CC Aerial Imagery 2013"/>
    <tag k="website" v="https://www.abbeyfarm.org.uk/"/>
  </way>
  <way id="639132032" version="2" timestamp="2024-07-11T21:45:01Z" changeset="153830782" uid="9451067" user="b-jazz-bot">
    <nd ref="6022840098"/>
    <nd ref="6022840097"/>
    <nd ref="6022840096"/>
    <nd ref="6022840095"/>
    <nd ref="6022840094"/>
    <nd ref="6022840581"/>
    <nd ref="6022840580"/>
    <nd ref="6022840579"/>
    <nd ref="6022840578"/>
    <nd ref="6022840098"/>
    <tag k="addr:city" v="Wolvey"/>
    <tag k="addr:postcode" v="LE10 3HG"/>
    <tag k="addr:street" v="Five Ways"/>
    <tag k="amenity" v="pub"/>
    <tag k="building" v="yes"/>
    <tag k="name" v="Pesto at the Axe &amp; Compass"/>
    <tag k="opening_hours" v="Mo-Th 12:00-22:30; Fr,Sa 12:00-23:00; Su 12:00-22:30"/>
    <tag k="source" v="Warwicks CC Aerial Imagery 2013"/>
    <tag k="website" v="https://www.pestorestaurants.co.uk/location/axe-and-compass/"/>
  </way>
  <way id="670987735" version="1" timestamp="2019-02-16T21:58:44Z" changeset="67264433" uid="346039" user="fitzsimons">
    <nd ref="256128548"/>
    <nd ref="2382414981"/>
    <nd ref="2405790247"/>
    <nd ref="256128549"/>
    <nd ref="878170523"/>
    <nd ref="256128550"/>
    <tag k="highway" v="secondary"/>
    <tag k="maxspeed" v="50 mph"/>
    <tag k="name" v="Wolvey Road"/>
    <tag k="ref" v="B4109"/>
  </way>
  <way id="698957936" version="9" timestamp="2025-05-16T15:50:44Z" changeset="166357865" uid="133272" user="wongataa">
    <nd ref="404496"/>
    <nd ref="1523283847"/>
    <nd ref="1523283912"/>
    <tag k="highway" v="trunk"/>
    <tag k="junction" v="roundabout"/>
    <tag k="lanes" v="4"/>
    <tag k="lit" v="yes"/>
    <tag k="maxspeed" v="60 mph"/>
    <tag k="maxspeed:type" v="GB:nsl_single"/>
    <tag k="name" v="Stretton Baskerville Interchange"/>
    <tag k="national_highways:area" v="7"/>
    <tag k="oneway" v="yes"/>
    <tag k="operator" v="National Highways"/>
    <tag k="operator:wikidata" v="Q5760006"/>
    <tag k="sidewalk" v="no"/>
    <tag k="source:maxspeed" v="Stats19"/>
  </way>
  <way id="698957939" version="8" timestamp="2025-05-16T15:50:44Z" changeset="166357865" uid="133272" user="wongataa">
    <nd ref="404492"/>
    <nd ref="404493"/>
    <tag k="highway" v="trunk"/>
    <tag k="junction" v="roundabout"/>
    <tag k="lanes" v="4"/>
    <tag k="lit" v="yes"/>
    <tag k="maxspeed" v="60 mph"/>
    <tag k="maxspeed:type" v="GB:nsl_single"/>
    <tag k="name" v="Stretton Baskerville Interchange"/>
    <tag k="national_highways:area" v="7"/>
    <tag k="oneway" v="yes"/>
    <tag k="operator" v="National Highways"/>
    <tag k="operator:wikidata" v="Q5760006"/>
    <tag k="source:maxspeed" v="Stats19"/>
  </way>
  <way id="698957940" version="8" timestamp="2025-05-16T15:50:44Z" changeset="166357865" uid="133272" user="wongataa">
    <nd ref="523290790"/>
    <nd ref="404491"/>
    <nd ref="5759314412"/>
    <nd ref="1523283814"/>
    <nd ref="4309768264"/>
    <nd ref="404492"/>
    <tag k="highway" v="trunk"/>
    <tag k="junction" v="roundabout"/>
    <tag k="lanes" v="4"/>
    <tag k="lit" v="yes"/>
    <tag k="maxspeed" v="60 mph"/>
    <tag k="maxspeed:type" v="GB:nsl_single"/>
    <tag k="name" v="Stretton Baskerville Interchange"/>
    <tag k="national_highways:area" v="7"/>
    <tag k="oneway" v="yes"/>
    <tag k="operator" v="National Highways"/>
    <tag k="operator:wikidata" v="Q5760006"/>
    <tag k="sidewalk" v="no"/>
    <tag k="source:maxspeed" v="Stats19"/>
  </way>
  <way id="740182243" version="1" timestamp="2019-10-30T12:01:00Z" changeset="76390538" uid="9065" user="brianboru">
    <nd ref="6930187472"/>
    <nd ref="1352433630"/>
    <nd ref="6930187471"/>
    <tag k="highway" v="residential"/>
    <tag k="name" v="Croft Close"/>
    <tag k="source" v="Warwicks CC Aerial Imagery 2013"/>
  </way>
  <way id="740750316" version="1" timestamp="2019-10-31T15:22:04Z" changeset="76456519" uid="9065" user="brianboru">
    <nd ref="6935229605"/>
    <nd ref="1352434071"/>
    <nd ref="6935229604"/>
    <tag k="highway" v="residential"/>
    <tag k="source" v="Warwicks CC Aerial Imagery 2013"/>
  </way>
  <way id="740754517" version="1" timestamp="2019-10-31T15:39:15Z" changeset="76457171" uid="9065" user="brianboru">
    <nd ref="6935260928"/>
    <nd ref="1352434088"/>
    <nd ref="1352434082"/>
    <nd ref="6935260927"/>
    <nd ref="6935260926"/>
    <nd ref="6935260925"/>
    <nd ref="6935260924"/>
    <nd ref="6935260923"/>
    <nd ref="1352434092"/>
    <tag k="highway" v="residential"/>
    <tag k="name" v="Brookfield Drive"/>
    <tag k="source" v="Warwicks CC Aerial Imagery 2013"/>
  </way>
  <way id="740754525" version="1" timestamp="2019-10-31T15:39:15Z" changeset="76457171" uid="9065" user="brianboru">
    <nd ref="1352434067"/>
    <nd ref="1352434091"/>
    <nd ref="1352434069"/>
    <nd ref="1352434088"/>
    <tag k="highway" v="residential"/>
    <tag k="name" v="Brookfield Drive"/>
    <tag k="source" v="OS_OpenData_StreetView"/>
  </way>
  <way id="740754537" version="1" timestamp="2019-10-31T15:39:15Z" changeset="76457171" uid="9065" user="brianboru">
    <nd ref="6935261109"/>
    <nd ref="1352434073"/>
    <nd ref="6935261108"/>
    <tag k="highway" v="residential"/>
    <tag k="source" v="Warwicks CC Aerial Imagery 2013"/>
  </way>
  <way id="740946242" version="1" timestamp="2019-11-01T11:24:56Z" changeset="76490295" uid="9065" user="brianboru">
    <nd ref="6937006197"/>
    <nd ref="6937006196"/>
    <tag k="highway" v="residential"/>
    <tag k="name" v="Hall Lane"/>
    <tag k="source" v="Warwicks CC Aerial Imagery 2013"/>
  </way>
  <way id="1040533579" version="7" timestamp="2025-01-10T18:41:55Z" changeset="161216433" uid="5229644" user="Nathan_A_RF">
    <nd ref="32637686"/>
    <nd ref="10269281638"/>
    <nd ref="32637687"/>
    <nd ref="2296877996"/>
    <nd ref="32637688"/>
    <nd ref="32637689"/>
    <nd ref="2296878038"/>
    <nd ref="32637684"/>
    <nd ref="32637683"/>
    <nd ref="2296878045"/>
    <nd ref="32637682"/>
    <nd ref="2296878075"/>
    <nd ref="32637681"/>
    <nd ref="2296878101"/>
    <nd ref="2296894983"/>
    <nd ref="32637680"/>
    <nd ref="32637679"/>
    <nd ref="32637678"/>
    <nd ref="32637677"/>
    <nd ref="32637676"/>
    <nd ref="32637675"/>
    <nd ref="32637674"/>
    <nd ref="10269293949"/>
    <nd ref="32637673"/>
    <nd ref="32637672"/>
    <tag k="cycleway:both" v="no"/>
    <tag k="highway" v="secondary"/>
    <tag k="lanes" v="2"/>
    <tag k="maxspeed" v="60 mph"/>
    <tag k="maxspeed:type" v="GB:nsl_single"/>
    <tag k="name" v="Hinckley Road"/>
    <tag k="ref" v="B4109"/>
    <tag k="surface" v="asphalt"/>
  </way>
  <way id="1102783672" version="2" timestamp="2025-01-10T17:28:51Z" changeset="161214411" uid="5229644" user="Nathan_A_RF">
    <nd ref="6538819213"/>
    <nd ref="1523283884"/>
    <nd ref="2265909583"/>
    <nd ref="1523283893"/>
    <nd ref="12488768812"/>
    <nd ref="256128604"/>
    <tag k="cycleway:both" v="no"/>
    <tag k="highway" v="secondary"/>
    <tag k="lanes" v="2"/>
    <tag k="name" v="Smockington Lane"/>
    <tag k="ref" v="B4114"/>
    <tag k="surface" v="asphalt"/>
  </way>
  <way id="1102789186" version="1" timestamp="2022-10-11T06:43:44Z" changeset="127338734" uid="9026132" user="PulisakZ">
    <nd ref="32637664"/>
    <nd ref="32637663"/>
    <nd ref="32637662"/>
    <nd ref="32637661"/>
    <tag k="cycleway:both" v="no"/>
    <tag k="highway" v="secondary"/>
    <tag k="lanes" v="2"/>
    <tag k="maxspeed" v="60 mph"/>
    <tag k="maxspeed:type" v="GB:nsl_single"/>
    <tag k="name" v="Hinckley Road"/>
    <tag k="ref" v="B4109"/>
    <tag k="shoulder" v="no"/>
    <tag k="surface" v="asphalt"/>
  </way>
  <way id="1266855859" version="1" timestamp="2024-03-27T18:33:51Z" changeset="149238709" uid="6095563" user="Don Dapper">
    <nd ref="11766709444"/>
    <nd ref="6022840166"/>
    <nd ref="1910596921"/>
    <nd ref="1910596922"/>
    <nd ref="2380002939"/>
    <nd ref="8775750749"/>
    <nd ref="256128570"/>
    <nd ref="8983831145"/>
    <nd ref="2380002945"/>
    <nd ref="11357546678"/>
    <nd ref="1910596864"/>
    <tag k="highway" v="secondary"/>
    <tag k="name" v="Lutterworth Road"/>
    <tag k="ref" v="B4114"/>
    <tag k="surface" v="asphalt"/>
  </way>
  <way id="1266855860" version="3" timestamp="2024-03-31T08:41:51Z" changeset="149380040" uid="705850" user="Cebderby">
    <nd ref="6022840165"/>
    <nd ref="11775053113"/>
    <nd ref="260519342"/>
    <nd ref="8258879163"/>
    <nd ref="260519343"/>
    <nd ref="2331574539"/>
    <nd ref="260519344"/>
    <nd ref="260519345"/>
    <nd ref="260519346"/>
    <nd ref="260519347"/>
    <nd ref="260519348"/>
    <nd ref="260519349"/>
    <nd ref="260519350"/>
    <nd ref="260519351"/>
    <nd ref="260519352"/>
    <nd ref="260519353"/>
    <nd ref="260519354"/>
    <nd ref="260519355"/>
    <nd ref="260519356"/>
    <nd ref="260519357"/>
    <nd ref="260519358"/>
    <nd ref="2379998670"/>
    <nd ref="2379998668"/>
    <nd ref="260519359"/>
    <nd ref="260519360"/>
    <nd ref="260519361"/>
    <nd ref="260519362"/>
    <nd ref="8737447759"/>
    <nd ref="260519363"/>
    <nd ref="260519364"/>
    <nd ref="2331574455"/>
    <nd ref="260519365"/>
    <tag k="cycleway:both" v="no"/>
    <tag k="highway" v="secondary"/>
    <tag k="lanes" v="2"/>
    <tag k="maxspeed" v="50 mph"/>
    <tag k="maxspeed:type" v="sign"/>
    <tag k="name" v="Lutterworth Road"/>
    <tag k="ref" v="B4114"/>
    <tag k="shoulder" v="no"/>
    <tag k="surface" v="asphalt"/>
  </way>
  <way id="1266855862" version="3" timestamp="2024-03-31T08:41:51Z" changeset="149380040" uid="705850" user="Cebderby">
    <nd ref="11766709445"/>
    <nd ref="11766709440"/>
    <nd ref="11766709441"/>
    <nd ref="11766709432"/>
    <nd ref="11766709435"/>
    <nd ref="6022840165"/>
    <tag k="cycleway" v="no"/>
    <tag k="highway" v="secondary"/>
    <tag k="junction" v="roundabout"/>
    <tag k="surface" v="asphalt"/>
  </way>
  <way id="1266855863" version="2" timestamp="2024-03-31T08:41:51Z" changeset="149380040" uid="705850" user="Cebderby">
    <nd ref="11766709433"/>
    <nd ref="11775053142"/>
    <nd ref="32637703"/>
    <nd ref="6022840167"/>
    <nd ref="11775053143"/>
    <nd ref="32637702"/>
    <nd ref="2380002946"/>
    <nd ref="32637701"/>
    <nd ref="32637700"/>
    <nd ref="11775053130"/>
    <nd ref="32637699"/>
    <nd ref="32637698"/>
    <nd ref="8239132079"/>
    <nd ref="8448714832"/>
    <nd ref="32637697"/>
    <nd ref="32637696"/>
    <nd ref="2380002976"/>
    <nd ref="32637695"/>
    <nd ref="32637694"/>
    <nd ref="8922152395"/>
    <nd ref="32637693"/>
    <nd ref="32637692"/>
    <nd ref="32637691"/>
    <nd ref="10269281639"/>
    <nd ref="32637685"/>
    <nd ref="32637686"/>
    <tag k="cycleway:both" v="no"/>
    <tag k="highway" v="secondary"/>
    <tag k="lanes" v="2"/>
    <tag k="name" v="Hinckley Road"/>
    <tag k="ref" v="B4109"/>
    <tag k="surface" v="asphalt"/>
  </way>
  <way id="1267634235" version="2" timestamp="2024-03-31T08:41:51Z" changeset="149380040" uid="705850" user="Cebderby">
    <nd ref="6022840165"/>
    <nd ref="11766709438"/>
    <nd ref="11775053112"/>
    <nd ref="11766709442"/>
    <nd ref="11766709436"/>
    <nd ref="11766709433"/>
    <tag k="cycleway" v="no"/>
    <tag k="highway" v="secondary"/>
    <tag k="junction" v="roundabout"/>
    <tag k="surface" v="asphalt"/>
  </way>
  <way id="1267634236" version="2" timestamp="2024-03-31T08:41:51Z" changeset="149380040" uid="705850" user="Cebderby">
    <nd ref="11766709433"/>
    <nd ref="11766709434"/>
    <nd ref="11766709443"/>
    <nd ref="11766709437"/>
    <nd ref="11766709444"/>
    <nd ref="11766709446"/>
    <nd ref="11766709439"/>
    <nd ref="11766709430"/>
    <nd ref="11766709431"/>
    <nd ref="11766709445"/>
    <tag k="cycleway" v="no"/>
    <tag k="highway" v="secondary"/>
    <tag k="junction" v="roundabout"/>
    <tag k="surface" v="asphalt"/>
  </way>
  <way id="1287079102" version="4" timestamp="2025-07-19T22:01:23Z" changeset="169172091" uid="8857" user="philipcullen">
    <nd ref="11937207474"/>
    <nd ref="11937207496"/>
    <nd ref="11937207491"/>
    <nd ref="11937180751"/>
    <nd ref="11937207474"/>
    <tag k="amenity" v="school"/>
    <tag k="building" v="school"/>
    <tag k="building:levels" v="2"/>
    <tag k="name" v="Lakehaven School"/>
    <tag k="ref:GB:uprn" v="10010513479"/>
    <tag k="ref:edubase" v="149580"/>
  </way>
  <way id="1287079105" version="1" timestamp="2024-05-27T13:40:34Z" changeset="151900591" uid="229347" user="RossA">
    <nd ref="11937207479"/>
    <nd ref="11937207506"/>
    <nd ref="11937180754"/>
    <nd ref="11937180752"/>
    <nd ref="11937207479"/>
    <tag k="building" v="yes"/>
    <tag k="name" v="Makins Fishery Campsite"/>
    <tag k="shop" v="fishing"/>
  </way>
  <way id="1288118980" version="1" timestamp="2024-05-30T17:30:06Z" changeset="152047295" uid="229347" user="RossA">
    <nd ref="1352436551"/>
    <nd ref="256128565"/>
    <nd ref="6930171698"/>
    <nd ref="256128566"/>
    <nd ref="7986855609"/>
    <nd ref="7146395938"/>
    <nd ref="256128567"/>
    <nd ref="1352433651"/>
    <nd ref="1352433628"/>
    <nd ref="256128568"/>
    <nd ref="32637725"/>
    <tag k="highway" v="secondary"/>
    <tag k="lanes" v="2"/>
    <tag k="maxspeed" v="30 mph"/>
    <tag k="name" v="Bulkington Road"/>
    <tag k="ref" v="B4109"/>
    <tag k="surface" v="asphalt"/>
  </way>
  <way id="1288118981" version="3" timestamp="2025-01-07T04:16:35Z" changeset="161081880" uid="493595" user="Yorvik Prestigitator">
    <nd ref="32637732"/>
    <nd ref="11945635907"/>
    <nd ref="5993337389"/>
    <nd ref="32637731"/>
    <nd ref="8037308482"/>
    <nd ref="6930181054"/>
    <nd ref="32637730"/>
    <nd ref="264274168"/>
    <nd ref="32637729"/>
    <nd ref="12479751798"/>
    <nd ref="32637728"/>
    <nd ref="4513927710"/>
    <nd ref="12479751788"/>
    <nd ref="32637727"/>
    <nd ref="2322150008"/>
    <nd ref="12479775077"/>
    <nd ref="32637726"/>
    <nd ref="32637725"/>
    <tag k="highway" v="secondary"/>
    <tag k="lanes" v="2"/>
    <tag k="maxspeed" v="30 mph"/>
    <tag k="name" v="Coventry Road"/>
    <tag k="ref" v="B4065"/>
    <tag k="source" v="OS_OpenData_StreetView"/>
    <tag k="surface" v="asphalt"/>
  </way>
  <way id="1435542123" version="1" timestamp="2025-10-04T22:36:36Z" changeset="172848589" uid="3432400" user="GinaroZ">
    <nd ref="2412857436"/>
    <nd ref="13194651539"/>
    <nd ref="13194651540"/>
    <nd ref="13194651541"/>
    <nd ref="13194651542"/>
    <nd ref="13194651543"/>
    <tag k="highway" v="residential"/>
    <tag k="name" v="Outfield Way"/>
  </way>
  <way id="1435542124" version="1" timestamp="2025-10-04T22:36:36Z" changeset="172848589" uid="3432400" user="GinaroZ">
    <nd ref="13194651542"/>
    <nd ref="13194651544"/>
    <nd ref="13194651545"/>
    <nd ref="13194651546"/>
    <tag k="highway" v="residential"/>
  </way>

</osm>
