<?xml version="1.0" encoding="UTF-8"?>
<osm version="0.6" generator="Overpass API 0.7.62.8 e802775f">
<note>The data included in this document is from www.openstreetmap.org. The data is made available under ODbL.</note>
<meta osm_base="2025-10-23T17:24:30Z" areas="2025-10-23T12:46:58Z"/>

  <node id="56060760" lat="52.1552714" lon="-1.5756207" version="2" timestamp="2013-09-23T13:02:26Z" changeset="17990767" uid="9065" user="brianboru"/>
  <node id="250854395" lat="52.1700050" lon="-1.5433368" version="3" timestamp="2019-10-17T14:21:45Z" changeset="75845268" uid="9065" user="brianboru"/>
  <node id="250854399" lat="52.1665846" lon="-1.5329883" version="2" timestamp="2013-03-20T11:08:19Z" changeset="15430145" uid="108511" user="Troon"/>
  <node id="412605589" lat="52.1661812" lon="-1.5645266" version="3" timestamp="2024-02-07T03:26:56Z" changeset="147158804" uid="563773" user="mrpacmanmap"/>
  <node id="412605635" lat="52.1619083" lon="-1.5548738" version="3" timestamp="2020-10-22T15:17:52Z" changeset="92905241" uid="9065" user="brianboru"/>
  <node id="2203152440" lat="52.1707966" lon="-1.5466875" version="3" timestamp="2013-03-20T11:08:20Z" changeset="15430145" uid="108511" user="Troon"/>
  <node id="2211146400" lat="52.1624629" lon="-1.5284774" version="2" timestamp="2019-12-05T14:19:37Z" changeset="78001916" uid="9065" user="brianboru"/>
  <node id="10289878505" lat="52.1736265" lon="-1.5570372" version="1" timestamp="2022-12-27T16:56:28Z" changeset="130561260" uid="5589" user="user_5589"/>
  <way id="35176987" version="7" timestamp="2024-08-17T22:26:16Z" changeset="155391858" uid="456597" user="4004">
    <nd ref="412605589"/>
    <nd ref="412605607"/>
    <nd ref="2559858741"/>
    <nd ref="412605610"/>
    <nd ref="412605612"/>
    <nd ref="412605619"/>
    <nd ref="412605622"/>
    <nd ref="412605625"/>
    <nd ref="412605627"/>
    <nd ref="6888107897"/>
    <nd ref="412605629"/>
    <nd ref="1248021165"/>
    <nd ref="412605633"/>
    <nd ref="2559858498"/>
    <nd ref="8037476982"/>
    <nd ref="412605635"/>
    <tag k="hgv" v="destination"/>
    <tag k="highway" v="unclassified"/>
    <tag k="source" v="NPE"/>
    <tag k="surface" v="asphalt"/>
  </way>
  <way id="108857324" version="3" timestamp="2020-10-22T15:17:52Z" changeset="92905241" uid="9065" user="brianboru">
    <nd ref="1248021168"/>
    <nd ref="2559858511"/>
    <nd ref="2559858509"/>
    <nd ref="8037476983"/>
    <nd ref="1248021165"/>
    <tag k="highway" v="residential"/>
  </way>
  <way id="108857326" version="6" timestamp="2024-04-10T10:03:31Z" changeset="149811932" uid="18869198" user="TB-E">
    <nd ref="1248021097"/>
    <nd ref="6892853386"/>
    <nd ref="1248021168"/>
    <nd ref="11806821047"/>
    <nd ref="2559858496"/>
    <nd ref="8037476982"/>
    <tag k="highway" v="residential"/>
    <tag k="lanes" v="1"/>
    <tag k="name" v="Spring Lane"/>
    <tag k="source" v="OS Streetview"/>
    <tag k="surface" v="asphalt"/>
  </way>
  <way id="108857328" version="6" timestamp="2023-10-05T09:17:42Z" changeset="142179975" uid="18869198" user="TB-E">
    <nd ref="1248021178"/>
    <nd ref="2500842639"/>
    <nd ref="1248021116"/>
    <nd ref="2559858657"/>
    <nd ref="6892853527"/>
    <nd ref="1248020986"/>
    <nd ref="2559858650"/>
    <nd ref="2559858635"/>
    <nd ref="1248021184"/>
    <nd ref="2559858614"/>
    <nd ref="2559858601"/>
    <nd ref="2559858546"/>
    <nd ref="1248021181"/>
    <tag k="highway" v="residential"/>
    <tag k="name" v="School Lane"/>
    <tag k="surface" v="asphalt"/>
  </way>
  <way id="191358313" version="7" timestamp="2025-08-26T23:14:46Z" changeset="171053695" uid="13247722" user="TheCanMan">
    <nd ref="250854395"/>
    <nd ref="2019441668"/>
    <nd ref="2211146393"/>
    <nd ref="2211146397"/>
    <nd ref="2211146399"/>
    <nd ref="250854396"/>
    <nd ref="2211146387"/>
    <nd ref="2211146382"/>
    <nd ref="2211146388"/>
    <nd ref="2211146391"/>
    <nd ref="250854398"/>
    <tag k="highway" v="secondary"/>
    <tag k="maxspeed" v="60 mph"/>
    <tag k="name" v="Spring Hill"/>
    <tag k="ref" v="B4086"/>
    <tag k="source" v="NPE"/>
    <tag k="source:name" v="OS_OpenData_Locator"/>
    <tag k="surface" v="asphalt"/>
  </way>
  <way id="191358314" version="12" timestamp="2024-04-10T10:03:31Z" changeset="149811932" uid="18869198" user="TB-E">
    <nd ref="412605635"/>
    <nd ref="2559858484"/>
    <nd ref="2559858483"/>
    <nd ref="2559858475"/>
    <nd ref="412605638"/>
    <nd ref="2559858468"/>
    <nd ref="412605642"/>
    <nd ref="7543123196"/>
    <nd ref="412605645"/>
    <nd ref="11806821049"/>
    <nd ref="6888107901"/>
    <nd ref="2559858494"/>
    <nd ref="412605649"/>
    <nd ref="2559858522"/>
    <nd ref="1248021181"/>
    <nd ref="412605653"/>
    <nd ref="412605656"/>
    <nd ref="2549706550"/>
    <nd ref="2549761975"/>
    <nd ref="2549761985"/>
    <nd ref="412605662"/>
    <nd ref="2559858553"/>
    <nd ref="2559964225"/>
    <nd ref="2559858566"/>
    <nd ref="412605665"/>
    <nd ref="2559964227"/>
    <nd ref="2559858610"/>
    <nd ref="412605667"/>
    <nd ref="2559858646"/>
    <nd ref="412605670"/>
    <nd ref="2559964235"/>
    <nd ref="412605673"/>
    <nd ref="6892853532"/>
    <nd ref="412605677"/>
    <nd ref="2559964245"/>
    <nd ref="412605680"/>
    <nd ref="2559964250"/>
    <nd ref="2559964253"/>
    <nd ref="412605683"/>
    <nd ref="2559964258"/>
    <nd ref="412605686"/>
    <nd ref="412605699"/>
    <nd ref="2559964247"/>
    <nd ref="6892828983"/>
    <nd ref="412605702"/>
    <nd ref="6892828984"/>
    <nd ref="412605705"/>
    <nd ref="2554335298"/>
    <nd ref="412605709"/>
    <nd ref="2554335286"/>
    <nd ref="2554335283"/>
    <nd ref="2554335280"/>
    <nd ref="412605712"/>
    <nd ref="412605714"/>
    <nd ref="412605717"/>
    <nd ref="2554335262"/>
    <nd ref="412605719"/>
    <nd ref="2554335263"/>
    <nd ref="412605722"/>
    <nd ref="2549330006"/>
    <nd ref="2554335291"/>
    <nd ref="2554335306"/>
    <nd ref="412605724"/>
    <nd ref="2554335316"/>
    <nd ref="412605727"/>
    <nd ref="2554335342"/>
    <nd ref="2554335346"/>
    <nd ref="2554335353"/>
    <nd ref="2554335356"/>
    <nd ref="250854398"/>
    <tag k="highway" v="unclassified"/>
    <tag k="lanes" v="1"/>
    <tag k="maxspeed" v="30 mph"/>
    <tag k="name" v="Church Hill"/>
    <tag k="source" v="NPE"/>
    <tag k="source:name" v="OS_OpenData_Locator"/>
    <tag k="surface" v="asphalt"/>
  </way>
  <way id="211108285" version="7" timestamp="2024-11-29T22:36:16Z" changeset="159758879" uid="5229644" user="Nathan_A_RF">
    <nd ref="2203152440"/>
    <nd ref="2211142855"/>
    <tag k="bridge" v="yes"/>
    <tag k="cycleway:both" v="no"/>
    <tag k="highway" v="secondary"/>
    <tag k="lanes" v="2"/>
    <tag k="layer" v="1"/>
    <tag k="maxspeed" v="60 mph"/>
    <tag k="maxspeed:type" v="GB:nsl_single"/>
    <tag k="maxweight:signed" v="no"/>
    <tag k="ref" v="B4086"/>
    <tag k="source" v="NPE"/>
    <tag k="surface" v="asphalt"/>
  </way>
  <way id="211108286" version="8" timestamp="2024-11-29T22:36:16Z" changeset="159758879" uid="5229644" user="Nathan_A_RF">
    <nd ref="2211142855"/>
    <nd ref="6892798188"/>
    <nd ref="1248052277"/>
    <nd ref="2211146386"/>
    <nd ref="2211146392"/>
    <nd ref="6892798192"/>
    <nd ref="250854395"/>
    <tag k="cycleway:both" v="no"/>
    <tag k="highway" v="secondary"/>
    <tag k="maxspeed" v="60 mph"/>
    <tag k="maxspeed:type" v="GB:nsl_single"/>
    <tag k="ref" v="B4086"/>
    <tag k="source" v="NPE"/>
    <tag k="surface" v="asphalt"/>
  </way>
  <way id="239061972" version="10" timestamp="2025-01-02T14:57:25Z" changeset="160911038" uid="5229644" user="Nathan_A_RF">
    <nd ref="56060760"/>
    <nd ref="2468767293"/>
    <tag k="bridge" v="yes"/>
    <tag k="cycleway:both" v="no"/>
    <tag k="highway" v="secondary"/>
    <tag k="lanes" v="2"/>
    <tag k="layer" v="1"/>
    <tag k="lit" v="no"/>
    <tag k="maxspeed" v="60 mph"/>
    <tag k="maxspeed:type" v="GB:nsl_single"/>
    <tag k="maxweight:signed" v="no"/>
    <tag k="name" v="Fosse Way"/>
    <tag k="ref" v="B4455"/>
    <tag k="shoulder" v="no"/>
    <tag k="sidewalk" v="no"/>
    <tag k="surface" v="asphalt"/>
  </way>
  <way id="249376095" version="3" timestamp="2020-10-05T21:15:21Z" changeset="92007731" uid="364" user="Edward">
    <nd ref="2559858594"/>
    <nd ref="2559858587"/>
    <nd ref="2559858591"/>
    <nd ref="2559858575"/>
    <nd ref="2559858571"/>
    <nd ref="2559858564"/>
    <nd ref="2559858548"/>
    <nd ref="2559858573"/>
    <nd ref="2559858584"/>
    <nd ref="2559858589"/>
    <nd ref="2559858594"/>
    <tag k="addr:city" v="Combrook"/>
    <tag k="amenity" v="place_of_worship"/>
    <tag k="building" v="church"/>
    <tag k="denomination" v="anglican"/>
    <tag k="name" v="St Mary &amp; St Margaret"/>
    <tag k="religion" v="christian"/>
    <tag k="source" v="bing"/>
    <tag k="wikidata" v="Q26661932"/>
  </way>
  <way id="735412094" version="2" timestamp="2023-10-05T09:17:42Z" changeset="142179975" uid="18869198" user="TB-E">
    <nd ref="6888107897"/>
    <nd ref="6888107898"/>
    <nd ref="6888107899"/>
    <nd ref="6888107900"/>
    <tag k="highway" v="residential"/>
    <tag k="name" v="Compton Fields"/>
  </way>
  <way id="736247072" version="2" timestamp="2023-10-05T09:17:42Z" changeset="142179975" uid="18869198" user="TB-E">
    <nd ref="6892848438"/>
    <nd ref="6892848437"/>
    <nd ref="6892848436"/>
    <nd ref="6892848435"/>
    <nd ref="6892853474"/>
    <nd ref="6892853473"/>
    <nd ref="6892853472"/>
    <nd ref="6892853471"/>
    <nd ref="6892853470"/>
    <nd ref="6892853469"/>
    <nd ref="6892848438"/>
    <tag k="addr:city" v="Combrook"/>
    <tag k="addr:housename" v="Hill Cottage"/>
    <tag k="addr:housenumber" v="21-22"/>
    <tag k="addr:postcode" v="CV35 9HP"/>
    <tag k="addr:street" v="School Lane"/>
    <tag k="building" v="residential"/>
    <tag k="source" v="Warwicks CC Aerial Imagery 2013"/>
  </way>
  <way id="736247073" version="2" timestamp="2023-10-05T09:17:42Z" changeset="142179975" uid="18869198" user="TB-E">
    <nd ref="11240727432"/>
    <nd ref="2559858596"/>
    <nd ref="6892848439"/>
    <nd ref="11240727430"/>
    <nd ref="11240727432"/>
    <tag k="addr:city" v="Combrook"/>
    <tag k="addr:housenumber" v="18"/>
    <tag k="addr:postcode" v="CV35 9HP"/>
    <tag k="addr:street" v="School Lane"/>
    <tag k="building" v="residential"/>
    <tag k="source" v="Warwicks CC Aerial Imagery 2013"/>
  </way>
  <way id="736247077" version="6" timestamp="2025-04-10T18:49:37Z" changeset="164783316" uid="493595" user="Yorvik Prestigitator">
    <nd ref="6892848475"/>
    <nd ref="6892848474"/>
    <nd ref="6892848473"/>
    <nd ref="7713817125"/>
    <nd ref="6892848472"/>
    <nd ref="6892848471"/>
    <nd ref="6892848470"/>
    <nd ref="6892848469"/>
    <nd ref="9365644144"/>
    <nd ref="6892848468"/>
    <nd ref="9365644145"/>
    <nd ref="6892848467"/>
    <nd ref="6892848466"/>
    <nd ref="6892848475"/>
    <tag k="addr:city" v="Combrook"/>
    <tag k="addr:postcode" v="CV35 9HP"/>
    <tag k="addr:street" v="School Lane"/>
    <tag k="amenity" v="community_centre"/>
    <tag k="building" v="public"/>
    <tag k="community_centre" v="village_hall"/>
    <tag k="listed_status" v="Grade II"/>
    <tag k="name" v="Combrook Village Hall"/>
    <tag k="source" v="Warwicks CC Aerial Imagery 2013"/>
    <tag k="wikidata" v="Q26661942"/>
  </way>
  <way id="862758332" version="2" timestamp="2023-10-05T09:17:42Z" changeset="142179975" uid="18869198" user="TB-E">
    <nd ref="8037476784"/>
    <nd ref="8037476783"/>
    <nd ref="8037476782"/>
    <nd ref="8037476781"/>
    <nd ref="8037476784"/>
    <tag k="addr:city" v="Combrook"/>
    <tag k="addr:housename" v="Oak House"/>
    <tag k="addr:housenumber" v="37"/>
    <tag k="addr:postcode" v="CV35 9HN"/>
    <tag k="addr:street" v="Spring Lane"/>
    <tag k="building" v="residential"/>
    <tag k="source" v="bing"/>
  </way>
  <way id="1184336915" version="2" timestamp="2025-08-26T23:14:46Z" changeset="171053695" uid="13247722" user="TheCanMan">
    <nd ref="250854399"/>
    <nd ref="2211146394"/>
    <nd ref="2211146383"/>
    <nd ref="2211146398"/>
    <nd ref="2211146390"/>
    <nd ref="250854400"/>
    <nd ref="2211146385"/>
    <nd ref="2559982498"/>
    <nd ref="2211146400"/>
    <tag k="highway" v="secondary"/>
    <tag k="lanes" v="2"/>
    <tag k="maxspeed" v="60 mph"/>
    <tag k="ref" v="B4086"/>
    <tag k="source" v="NPE"/>
    <tag k="surface" v="asphalt"/>
  </way>
  <way id="1213252659" version="1" timestamp="2023-10-05T09:17:42Z" changeset="142179975" uid="18869198" user="TB-E">
    <nd ref="11240727428"/>
    <nd ref="11240727427"/>
    <nd ref="11240727431"/>
    <nd ref="11240727429"/>
    <nd ref="11240727428"/>
    <tag k="addr:city" v="Combrook"/>
    <tag k="addr:housenumber" v="20"/>
    <tag k="addr:postcode" v="CV35 9HP"/>
    <tag k="addr:street" v="School Lane"/>
    <tag k="building" v="residential"/>
  </way>
  <way id="1213252660" version="1" timestamp="2023-10-05T09:17:42Z" changeset="142179975" uid="18869198" user="TB-E">
    <nd ref="11240727427"/>
    <nd ref="11240727430"/>
    <nd ref="11240727432"/>
    <nd ref="11240727435"/>
    <nd ref="11240727434"/>
    <nd ref="11240727436"/>
    <nd ref="11240727433"/>
    <nd ref="11240727431"/>
    <nd ref="11240727427"/>
    <tag k="addr:city" v="Combrook"/>
    <tag k="addr:housenumber" v="19"/>
    <tag k="addr:postcode" v="CV35 9HP"/>
    <tag k="addr:street" v="School Lane"/>
    <tag k="building" v="residential"/>
  </way>
  <way id="1423868615" version="1" timestamp="2025-08-21T11:50:32Z" changeset="170775105" uid="11273192" user="bayer83373">
    <nd ref="10289878505"/>
    <nd ref="59998126"/>
    <nd ref="59998127"/>
    <nd ref="7432954118"/>
    <nd ref="56060749"/>
    <nd ref="15830532"/>
    <nd ref="412605589"/>
    <tag k="cycleway:both" v="no"/>
    <tag k="highway" v="secondary"/>
    <tag k="lanes" v="2"/>
    <tag k="lit" v="no"/>
    <tag k="maxspeed" v="60 mph"/>
    <tag k="maxspeed:type" v="GB:nsl_single"/>
    <tag k="name" v="Fosse Way"/>
    <tag k="ref" v="B4455"/>
    <tag k="shoulder" v="no"/>
    <tag k="sidewalk" v="no"/>
    <tag k="surface" v="asphalt"/>
  </way>
  <way id="1425102660" version="1" timestamp="2025-08-26T23:14:46Z" changeset="171053695" uid="13247722" user="TheCanMan">
    <nd ref="2211146400"/>
    <nd ref="7617976034"/>
    <nd ref="250854402"/>
    <nd ref="1627132432"/>
    <nd ref="11656205535"/>
    <nd ref="6527755133"/>
    <nd ref="13099197787"/>
    <tag k="highway" v="secondary"/>
    <tag k="lanes" v="2"/>
    <tag k="maxspeed" v="60 mph"/>
    <tag k="ref" v="B4086"/>
    <tag k="source" v="NPE"/>
    <tag k="surface" v="asphalt"/>
  </way>

</osm>
