<?xml version="1.0" encoding="UTF-8"?>
<osm version="0.6" generator="Overpass API 0.7.62.8 e802775f">
<note>The data included in this document is from www.openstreetmap.org. The data is made available under ODbL.</note>
<meta osm_base="2025-10-23T17:43:00Z" areas="2025-10-23T12:46:58Z"/>

  <node id="21132123" lat="52.2605911" lon="-1.4542055" version="3" timestamp="2015-04-05T19:44:42Z" changeset="29999878" uid="9065" user="brianboru"/>
  <node id="25258973" lat="52.2435388" lon="-1.4467735" version="4" timestamp="2013-04-22T09:46:56Z" changeset="15821981" uid="9065" user="brianboru"/>
  <node id="271926253" lat="52.2638875" lon="-1.4191480" version="2" timestamp="2009-10-06T03:23:08Z" changeset="2756738" uid="22445" user="PhilH"/>
  <node id="539109846" lat="52.2547862" lon="-1.4340378" version="2" timestamp="2013-04-18T20:43:30Z" changeset="15778448" uid="411244" user="RobJN"/>
  <node id="1834099526" lat="52.2512602" lon="-1.4124834" version="2" timestamp="2012-07-31T08:10:16Z" changeset="12557960" uid="441436" user="Ben1979"/>
  <way id="4232754" version="9" timestamp="2025-07-15T08:56:28Z" changeset="168952336" uid="10974821" user="Marting77">
    <nd ref="25258973"/>
    <nd ref="25259056"/>
    <nd ref="25259055"/>
    <nd ref="25259054"/>
    <nd ref="676758981"/>
    <nd ref="25259003"/>
    <nd ref="25259052"/>
    <nd ref="25259053"/>
    <nd ref="25259051"/>
    <nd ref="25259047"/>
    <nd ref="25259049"/>
    <nd ref="25259046"/>
    <nd ref="25259002"/>
    <nd ref="25259045"/>
    <nd ref="5079678287"/>
    <nd ref="25259044"/>
    <nd ref="25259043"/>
    <nd ref="25259042"/>
    <nd ref="25259039"/>
    <nd ref="25259040"/>
    <nd ref="25259001"/>
    <nd ref="25259038"/>
    <nd ref="25259037"/>
    <nd ref="25259036"/>
    <nd ref="25259000"/>
    <nd ref="25259035"/>
    <nd ref="25259034"/>
    <nd ref="25259031"/>
    <nd ref="25259033"/>
    <nd ref="25259032"/>
    <nd ref="25259030"/>
    <nd ref="25259029"/>
    <tag k="highway" v="unclassified"/>
    <tag k="lanes" v="1"/>
    <tag k="maxspeed" v="60 mph"/>
    <tag k="maxspeed:type" v="GB:nsl_single"/>
    <tag k="motor_vehicle" v="discouraged"/>
    <tag k="name" v="Ufton Fields"/>
  </way>
  <way id="25013483" version="15" timestamp="2025-08-17T19:15:24Z" changeset="170583360" uid="13247722" user="TheCanMan">
    <nd ref="271926253"/>
    <nd ref="271926254"/>
    <nd ref="271926255"/>
    <nd ref="2475032985"/>
    <nd ref="271926256"/>
    <nd ref="2435150297"/>
    <nd ref="2435150291"/>
    <nd ref="2435150285"/>
    <nd ref="2435150280"/>
    <nd ref="271926257"/>
    <nd ref="2020530121"/>
    <nd ref="2275727332"/>
    <nd ref="271926258"/>
    <nd ref="2275727323"/>
    <nd ref="2275727319"/>
    <nd ref="2275727309"/>
    <nd ref="2275727300"/>
    <nd ref="271926259"/>
    <nd ref="2275727298"/>
    <nd ref="2275727295"/>
    <nd ref="2275727294"/>
    <nd ref="2273001620"/>
    <nd ref="2275727289"/>
    <nd ref="2273001606"/>
    <nd ref="2275727275"/>
    <nd ref="2273001600"/>
    <nd ref="2273001585"/>
    <nd ref="2273001573"/>
    <nd ref="271926260"/>
    <nd ref="2273001520"/>
    <nd ref="2273001518"/>
    <nd ref="2273001515"/>
    <nd ref="2273001511"/>
    <nd ref="2273001500"/>
    <nd ref="2273001482"/>
    <nd ref="2273001476"/>
    <nd ref="8266107937"/>
    <nd ref="271926261"/>
    <nd ref="8266107942"/>
    <nd ref="271926262"/>
    <nd ref="2272066397"/>
    <nd ref="271927019"/>
    <tag k="highway" v="unclassified"/>
    <tag k="maxspeed" v="40 mph"/>
  </way>
  <way id="25013630" version="10" timestamp="2025-04-07T14:33:35Z" changeset="164637722" uid="5589" user="user_5589">
    <nd ref="539109846"/>
    <nd ref="271927726"/>
    <nd ref="271927727"/>
    <nd ref="271927728"/>
    <nd ref="2276758528"/>
    <nd ref="2276758527"/>
    <nd ref="271927729"/>
    <nd ref="271927730"/>
    <nd ref="2276757631"/>
    <nd ref="271927731"/>
    <nd ref="2276757630"/>
    <nd ref="758833441"/>
    <nd ref="2276757629"/>
    <nd ref="271927732"/>
    <nd ref="2276757627"/>
    <nd ref="2276757623"/>
    <nd ref="271927733"/>
    <nd ref="2276757617"/>
    <nd ref="271927734"/>
    <nd ref="2276757611"/>
    <nd ref="25258973"/>
    <tag k="highway" v="secondary"/>
    <tag k="maxspeed" v="50 mph"/>
    <tag k="ref" v="B4452"/>
    <tag k="surface" v="asphalt"/>
  </way>
  <way id="25706125" version="9" timestamp="2015-03-20T09:00:06Z" changeset="29609322" uid="84263" user="Robert Whittaker">
    <nd ref="528902421"/>
    <nd ref="2271052568"/>
    <nd ref="2271052569"/>
    <nd ref="2271052570"/>
    <nd ref="2271052572"/>
    <nd ref="2272092461"/>
    <nd ref="2272092462"/>
    <nd ref="2272092463"/>
    <nd ref="2272092465"/>
    <nd ref="2272092466"/>
    <nd ref="2272092467"/>
    <nd ref="2272092468"/>
    <nd ref="752922136"/>
    <nd ref="2272092470"/>
    <nd ref="2272092471"/>
    <nd ref="2272092472"/>
    <nd ref="2272092473"/>
    <nd ref="2272092475"/>
    <nd ref="752922138"/>
    <nd ref="2272092476"/>
    <nd ref="2272092477"/>
    <nd ref="280272422"/>
    <nd ref="2272092479"/>
    <nd ref="280272423"/>
    <tag k="designation" v="unclassified_county_road"/>
    <tag k="highway" v="unclassified"/>
    <tag k="name" v="Ridgeway Lane"/>
    <tag k="source" v="survey"/>
  </way>
  <way id="42057811" version="11" timestamp="2025-08-17T19:15:24Z" changeset="170583360" uid="13247722" user="TheCanMan">
    <nd ref="271926253"/>
    <nd ref="278578351"/>
    <nd ref="4362600432"/>
    <nd ref="278578348"/>
    <nd ref="278578346"/>
    <nd ref="2276752969"/>
    <nd ref="2276752975"/>
    <nd ref="278578344"/>
    <nd ref="2276752977"/>
    <nd ref="2276752983"/>
    <nd ref="1384388076"/>
    <nd ref="278578342"/>
    <nd ref="2475033136"/>
    <nd ref="278578338"/>
    <nd ref="2276753019"/>
    <nd ref="1384388112"/>
    <nd ref="2276753024"/>
    <nd ref="2276753026"/>
    <nd ref="278578336"/>
    <nd ref="2276753022"/>
    <nd ref="2276753005"/>
    <nd ref="278578334"/>
    <nd ref="2276752999"/>
    <nd ref="2276752997"/>
    <nd ref="8524713345"/>
    <nd ref="2276752995"/>
    <nd ref="278578332"/>
    <nd ref="278578330"/>
    <nd ref="2276753009"/>
    <nd ref="2276753010"/>
    <nd ref="2276753013"/>
    <nd ref="278578328"/>
    <nd ref="2276753028"/>
    <nd ref="278578326"/>
    <nd ref="278578323"/>
    <nd ref="2310451570"/>
    <nd ref="2310451571"/>
    <nd ref="2276753047"/>
    <nd ref="278578321"/>
    <nd ref="2310451573"/>
    <nd ref="2310451574"/>
    <nd ref="2276753048"/>
    <nd ref="382608733"/>
    <tag k="highway" v="tertiary"/>
    <tag k="maxspeed" v="50 mph"/>
    <tag k="name" v="Welsh Road"/>
    <tag k="sidewalk" v="no"/>
  </way>
  <way id="53569422" version="5" timestamp="2019-10-22T09:57:03Z" changeset="76039867" uid="10252544" user="uttarann">
    <nd ref="21132140"/>
    <nd ref="2271052460"/>
    <nd ref="676742895"/>
    <nd ref="2271052481"/>
    <nd ref="2271052492"/>
    <nd ref="2271052496"/>
    <nd ref="2271052498"/>
    <nd ref="6905151204"/>
    <nd ref="676742910"/>
    <tag k="highway" v="residential"/>
    <tag k="name" v="White Hart Lane"/>
    <tag k="source" v="survey"/>
  </way>
  <way id="53569423" version="5" timestamp="2025-01-08T17:48:32Z" changeset="161142763" uid="5229644" user="Nathan_A_RF">
    <nd ref="676742884"/>
    <nd ref="1528279069"/>
    <nd ref="1528279066"/>
    <nd ref="676742887"/>
    <nd ref="21132142"/>
    <tag k="highway" v="primary"/>
    <tag k="junction" v="circular"/>
    <tag k="maxspeed" v="30 mph"/>
    <tag k="oneway" v="yes"/>
    <tag k="surface" v="asphalt"/>
  </way>
  <way id="53569426" version="9" timestamp="2025-01-08T17:48:32Z" changeset="161142763" uid="5229644" user="Nathan_A_RF">
    <nd ref="21132143"/>
    <nd ref="1528279096"/>
    <nd ref="1528279038"/>
    <nd ref="21132142"/>
    <tag k="cycleway:left" v="no"/>
    <tag k="highway" v="primary"/>
    <tag k="maxspeed" v="30 mph"/>
    <tag k="name" v="Southam Road"/>
    <tag k="oneway" v="yes"/>
    <tag k="ref" v="A425"/>
    <tag k="surface" v="asphalt"/>
  </way>
  <way id="53571267" version="2" timestamp="2019-03-22T20:21:40Z" changeset="68426497" uid="9065" user="brianboru">
    <nd ref="676766222"/>
    <nd ref="6355297967"/>
    <nd ref="676766224"/>
    <nd ref="6355297966"/>
    <tag k="highway" v="residential"/>
    <tag k="name" v="Field Close"/>
    <tag k="postal_code" v="CV33"/>
    <tag k="source" v="visual survey;estimate"/>
  </way>
  <way id="53572016" version="4" timestamp="2025-01-08T17:48:32Z" changeset="161142763" uid="5229644" user="Nathan_A_RF">
    <nd ref="25259029"/>
    <nd ref="25258998"/>
    <nd ref="25259028"/>
    <nd ref="25259027"/>
    <nd ref="25259016"/>
    <nd ref="25259025"/>
    <nd ref="25259026"/>
    <nd ref="25259019"/>
    <nd ref="25259024"/>
    <nd ref="25259020"/>
    <nd ref="25259023"/>
    <nd ref="25259017"/>
    <nd ref="25259022"/>
    <nd ref="25259021"/>
    <tag k="highway" v="unclassified"/>
    <tag k="lanes" v="1"/>
    <tag k="maxspeed" v="60 mph"/>
    <tag k="maxspeed:type" v="GB:nsl_single"/>
    <tag k="name" v="Ufton Fields"/>
  </way>
  <way id="53572018" version="8" timestamp="2024-08-16T23:01:13Z" changeset="155347442" uid="5589" user="user_5589">
    <nd ref="676743344"/>
    <nd ref="2271052419"/>
    <nd ref="21132148"/>
    <nd ref="2271052420"/>
    <nd ref="21132147"/>
    <nd ref="2271052421"/>
    <nd ref="2271052423"/>
    <nd ref="21132146"/>
    <nd ref="21132140"/>
    <tag k="cycleway:both" v="no"/>
    <tag k="highway" v="primary"/>
    <tag k="lanes" v="2"/>
    <tag k="lit" v="yes"/>
    <tag k="maxspeed" v="30 mph"/>
    <tag k="name" v="Southam Road"/>
    <tag k="ref" v="A425"/>
    <tag k="surface" v="asphalt"/>
  </way>
  <way id="53572019" version="6" timestamp="2024-08-16T23:01:06Z" changeset="155347442" uid="5589" user="user_5589">
    <nd ref="21132140"/>
    <nd ref="21132145"/>
    <tag k="cycleway:both" v="no"/>
    <tag k="highway" v="primary"/>
    <tag k="maxspeed" v="30 mph"/>
    <tag k="name" v="Southam Road"/>
    <tag k="ref" v="A425"/>
    <tag k="surface" v="asphalt"/>
  </way>
  <way id="53572020" version="2" timestamp="2013-04-17T19:58:06Z" changeset="15766556" uid="411244" user="RobJN">
    <nd ref="676742910"/>
    <nd ref="2271052502"/>
    <nd ref="2271052506"/>
    <nd ref="676742912"/>
    <tag k="highway" v="residential"/>
    <tag k="name" v="White Hart Lane"/>
    <tag k="source" v="survey"/>
  </way>
  <way id="53572021" version="4" timestamp="2020-12-28T07:30:58Z" changeset="96516917" uid="10170582" user="priymose">
    <nd ref="25259021"/>
    <nd ref="25259018"/>
    <nd ref="25258997"/>
    <nd ref="25259015"/>
    <nd ref="25259014"/>
    <nd ref="676766222"/>
    <nd ref="25258990"/>
    <nd ref="25258991"/>
    <nd ref="2271110046"/>
    <nd ref="25258996"/>
    <nd ref="758820827"/>
    <nd ref="25258992"/>
    <nd ref="2271110097"/>
    <nd ref="25258995"/>
    <nd ref="2271110100"/>
    <nd ref="2271110101"/>
    <nd ref="25258994"/>
    <nd ref="2271110103"/>
    <nd ref="2271110112"/>
    <nd ref="758820831"/>
    <nd ref="25258989"/>
    <nd ref="8266086933"/>
    <nd ref="758820829"/>
    <nd ref="25258988"/>
    <nd ref="25258987"/>
    <nd ref="25258985"/>
    <nd ref="21132144"/>
    <tag k="highway" v="unclassified"/>
    <tag k="name" v="Ufton Fields"/>
    <tag k="postal_code" v="CV33"/>
  </way>
  <way id="60443440" version="13" timestamp="2024-08-16T22:58:28Z" changeset="155347442" uid="5589" user="user_5589">
    <nd ref="528902421"/>
    <nd ref="2271052571"/>
    <nd ref="2271052573"/>
    <nd ref="21132132"/>
    <nd ref="2271052574"/>
    <nd ref="2271052576"/>
    <nd ref="21132131"/>
    <nd ref="280272421"/>
    <nd ref="7547289837"/>
    <nd ref="21132126"/>
    <nd ref="21132130"/>
    <nd ref="21132129"/>
    <nd ref="21132127"/>
    <nd ref="21132128"/>
    <nd ref="21132124"/>
    <nd ref="21132125"/>
    <nd ref="21132123"/>
    <tag k="cycleway:both" v="no"/>
    <tag k="highway" v="primary"/>
    <tag k="lanes" v="2"/>
    <tag k="maxspeed" v="50 mph"/>
    <tag k="name" v="Ufton Hill"/>
    <tag k="oneway" v="no"/>
    <tag k="ref" v="A425"/>
    <tag k="source:name" v="OS_OpenData_Locator"/>
    <tag k="surface" v="asphalt"/>
  </way>
  <way id="60443441" version="10" timestamp="2025-01-08T17:48:32Z" changeset="161142763" uid="5229644" user="Nathan_A_RF">
    <nd ref="676742914"/>
    <nd ref="21132139"/>
    <nd ref="21132138"/>
    <nd ref="21132137"/>
    <nd ref="2271052562"/>
    <nd ref="21132136"/>
    <nd ref="5008074974"/>
    <tag k="cycleway:both" v="no"/>
    <tag k="highway" v="primary"/>
    <tag k="lanes" v="2"/>
    <tag k="maxspeed" v="30 mph"/>
    <tag k="name" v="Ufton Hill"/>
    <tag k="ref" v="A425"/>
    <tag k="source:name" v="OS_OpenData_Locator"/>
    <tag k="surface" v="asphalt"/>
  </way>
  <way id="60640747" version="3" timestamp="2021-08-31T10:00:54Z" changeset="110504248" uid="84681" user="SK53">
    <nd ref="2271052405"/>
    <nd ref="2271052389"/>
    <nd ref="9050394512"/>
    <nd ref="758820830"/>
    <nd ref="758820836"/>
    <nd ref="2271052380"/>
    <nd ref="2271052371"/>
    <nd ref="2271052367"/>
    <nd ref="758820817"/>
    <nd ref="2271052354"/>
    <nd ref="2271052357"/>
    <nd ref="2271052359"/>
    <nd ref="2271052365"/>
    <nd ref="758820826"/>
    <nd ref="2271052369"/>
    <nd ref="2271052376"/>
    <nd ref="2271052381"/>
    <nd ref="2271052382"/>
    <nd ref="758820813"/>
    <nd ref="2271052383"/>
    <nd ref="758820822"/>
    <nd ref="2271052384"/>
    <nd ref="2271052385"/>
    <nd ref="758820831"/>
    <tag k="highway" v="residential"/>
    <tag k="name" v="St Michaels Close"/>
    <tag k="source" v="OS_OpenData_StreetView"/>
  </way>
  <way id="60640748" version="2" timestamp="2013-04-17T19:58:06Z" changeset="15766556" uid="411244" user="RobJN">
    <nd ref="758820835"/>
    <nd ref="758820810"/>
    <nd ref="2271052540"/>
    <nd ref="2271052535"/>
    <nd ref="2271052530"/>
    <nd ref="2271052537"/>
    <nd ref="2271052536"/>
    <nd ref="2271052547"/>
    <nd ref="758820820"/>
    <nd ref="2271052533"/>
    <nd ref="2271052531"/>
    <nd ref="758820828"/>
    <nd ref="2271052524"/>
    <nd ref="758820835"/>
    <tag k="amenity" v="pub"/>
    <tag k="building" v="yes"/>
    <tag k="name" v="White Hart"/>
    <tag k="source" v="survey"/>
  </way>
  <way id="60640749" version="3" timestamp="2013-04-17T20:54:46Z" changeset="15767203" uid="411244" user="RobJN">
    <nd ref="2271110052"/>
    <nd ref="2271110067"/>
    <nd ref="2271110069"/>
    <nd ref="2271110079"/>
    <nd ref="758820832"/>
    <nd ref="758820809"/>
    <nd ref="758820819"/>
    <nd ref="758820827"/>
    <tag k="highway" v="residential"/>
    <tag k="name" v="Broad Close"/>
    <tag k="source" v="OS_OpenData_StreetView"/>
  </way>
  <way id="60640750" version="4" timestamp="2022-10-23T22:54:37Z" changeset="127975630" uid="508" user="Welshie">
    <nd ref="758820814"/>
    <nd ref="758820815"/>
    <nd ref="758820824"/>
    <nd ref="758820812"/>
    <nd ref="758820814"/>
    <tag k="building" v="yes"/>
    <tag k="man_made" v="pumping_station"/>
    <tag k="name" v="Ufton Fields"/>
    <tag k="site_id" v="37 438 02"/>
    <tag k="utility" v="water"/>
  </way>
  <way id="60640752" version="4" timestamp="2013-04-17T20:54:46Z" changeset="15767203" uid="411244" user="RobJN">
    <nd ref="2271052478"/>
    <nd ref="2271110115"/>
    <nd ref="2271052470"/>
    <nd ref="2271052462"/>
    <nd ref="758820818"/>
    <nd ref="758820811"/>
    <nd ref="758820821"/>
    <nd ref="758820829"/>
    <tag k="highway" v="residential"/>
    <tag k="name" v="Reeds Park"/>
    <tag k="source" v="OS_OpenData_StreetView"/>
  </way>
  <way id="75127100" version="17" timestamp="2025-08-17T18:42:18Z" changeset="170581986" uid="13247722" user="TheCanMan">
    <nd ref="1834099526"/>
    <nd ref="21132183"/>
    <nd ref="2435282031"/>
    <nd ref="21132182"/>
    <nd ref="21132181"/>
    <nd ref="11176400347"/>
    <nd ref="10819687723"/>
    <nd ref="10819687721"/>
    <nd ref="10819687720"/>
    <nd ref="8131978200"/>
    <nd ref="10819687719"/>
    <nd ref="10819687718"/>
    <nd ref="10819687717"/>
    <nd ref="10819687716"/>
    <nd ref="2435282364"/>
    <nd ref="10819687715"/>
    <nd ref="10819687714"/>
    <nd ref="10819687713"/>
    <nd ref="21132171"/>
    <nd ref="21132170"/>
    <tag k="cycleway:both" v="no"/>
    <tag k="highway" v="primary"/>
    <tag k="lanes" v="2"/>
    <tag k="maxspeed" v="30 mph"/>
    <tag k="maxspeed:type" v="sign"/>
    <tag k="name" v="Southam Road"/>
    <tag k="postal_code" v="CV33"/>
    <tag k="ref" v="A425"/>
    <tag k="sidewalk" v="no"/>
    <tag k="source" v="survey"/>
    <tag k="surface" v="asphalt"/>
  </way>
  <way id="139388152" version="7" timestamp="2025-08-16T17:21:52Z" changeset="170534045" uid="5589" user="user_5589">
    <nd ref="676742897"/>
    <nd ref="1528279047"/>
    <nd ref="1528279064"/>
    <nd ref="1528279067"/>
    <nd ref="1528279070"/>
    <tag k="cycleway:left" v="no"/>
    <tag k="highway" v="primary"/>
    <tag k="junction" v="circular"/>
    <tag k="lanes" v="1"/>
    <tag k="maxspeed" v="30 mph"/>
    <tag k="oneway" v="yes"/>
    <tag k="surface" v="asphalt"/>
  </way>
  <way id="139388153" version="5" timestamp="2025-01-08T17:48:32Z" changeset="161142763" uid="5229644" user="Nathan_A_RF">
    <nd ref="21132143"/>
    <nd ref="21132134"/>
    <nd ref="1528279042"/>
    <nd ref="1528279063"/>
    <nd ref="676742914"/>
    <tag k="cycleway:both" v="no"/>
    <tag k="highway" v="primary"/>
    <tag k="lanes" v="2"/>
    <tag k="maxspeed" v="30 mph"/>
    <tag k="name" v="Southam Road"/>
    <tag k="ref" v="A425"/>
    <tag k="source" v="survey"/>
    <tag k="surface" v="asphalt"/>
  </way>
  <way id="139388156" version="10" timestamp="2025-08-16T17:21:47Z" changeset="170534045" uid="5589" user="user_5589">
    <nd ref="21132145"/>
    <nd ref="21132141"/>
    <nd ref="676742891"/>
    <nd ref="2271052471"/>
    <nd ref="1528279070"/>
    <tag k="cycleway:left" v="no"/>
    <tag k="highway" v="primary"/>
    <tag k="lanes" v="1"/>
    <tag k="maxspeed" v="30 mph"/>
    <tag k="name" v="Southam Road"/>
    <tag k="oneway" v="yes"/>
    <tag k="ref" v="A425"/>
    <tag k="surface" v="asphalt"/>
  </way>
  <way id="140067689" version="7" timestamp="2025-04-07T17:31:14Z" changeset="164645679" uid="5589" user="user_5589">
    <nd ref="676742884"/>
    <nd ref="1528279058"/>
    <nd ref="21132143"/>
    <tag k="cycleway:left" v="no"/>
    <tag k="highway" v="primary"/>
    <tag k="lanes" v="1"/>
    <tag k="maxspeed" v="30 mph"/>
    <tag k="name" v="Southam Road"/>
    <tag k="oneway" v="yes"/>
    <tag k="ref" v="A425"/>
    <tag k="surface" v="asphalt"/>
  </way>
  <way id="140067690" version="7" timestamp="2025-08-16T17:21:59Z" changeset="170534045" uid="5589" user="user_5589">
    <nd ref="21132144"/>
    <nd ref="1528279092"/>
    <nd ref="676742884"/>
    <tag k="cycleway:left" v="no"/>
    <tag k="highway" v="primary"/>
    <tag k="junction" v="circular"/>
    <tag k="lanes" v="1"/>
    <tag k="maxspeed" v="30 mph"/>
    <tag k="oneway" v="yes"/>
    <tag k="surface" v="asphalt"/>
  </way>
  <way id="140067691" version="7" timestamp="2025-04-07T17:31:18Z" changeset="164645679" uid="5589" user="user_5589">
    <nd ref="676742897"/>
    <nd ref="676742899"/>
    <nd ref="676742901"/>
    <nd ref="676742903"/>
    <nd ref="1528279094"/>
    <nd ref="21132145"/>
    <tag k="cycleway:left" v="no"/>
    <tag k="highway" v="primary"/>
    <tag k="lanes" v="1"/>
    <tag k="maxspeed" v="30 mph"/>
    <tag k="name" v="Southam Road"/>
    <tag k="oneway" v="yes"/>
    <tag k="ref" v="A425"/>
    <tag k="surface" v="asphalt"/>
  </way>
  <way id="217800005" version="1" timestamp="2013-04-17T19:57:55Z" changeset="15766556" uid="411244" user="RobJN">
    <nd ref="676742912"/>
    <nd ref="2271052519"/>
    <nd ref="2271052521"/>
    <nd ref="676742914"/>
    <tag k="highway" v="residential"/>
    <tag k="name" v="White Hart Lane"/>
    <tag k="oneway" v="yes"/>
    <tag k="source" v="survey"/>
  </way>
  <way id="217800006" version="3" timestamp="2021-08-12T09:15:20Z" changeset="109560145" uid="5589" user="user_5589">
    <nd ref="2271052423"/>
    <nd ref="2271052429"/>
    <nd ref="2271052433"/>
    <nd ref="2271052442"/>
    <nd ref="2271052448"/>
    <nd ref="2271052455"/>
    <nd ref="2271052456"/>
    <nd ref="2271052454"/>
    <nd ref="2271052447"/>
    <nd ref="2271052439"/>
    <nd ref="2271052436"/>
    <nd ref="2271052431"/>
    <nd ref="2271052428"/>
    <nd ref="2271052425"/>
    <nd ref="2271052419"/>
    <tag k="highway" v="residential"/>
    <tag k="lit" v="yes"/>
    <tag k="surface" v="asphalt"/>
  </way>
  <way id="217803097" version="5" timestamp="2025-04-07T14:30:36Z" changeset="164637983" uid="5589" user="user_5589">
    <nd ref="2271088363"/>
    <nd ref="2271088359"/>
    <nd ref="2271088360"/>
    <nd ref="2271088355"/>
    <nd ref="2271088356"/>
    <nd ref="2271088352"/>
    <nd ref="2271088353"/>
    <nd ref="2271088354"/>
    <nd ref="2271088357"/>
    <nd ref="2271088358"/>
    <nd ref="2271088361"/>
    <nd ref="2271088362"/>
    <nd ref="2271088366"/>
    <nd ref="2271088365"/>
    <nd ref="2271088368"/>
    <nd ref="2271088367"/>
    <nd ref="2271088364"/>
    <nd ref="2271088363"/>
    <tag k="amenity" v="place_of_worship"/>
    <tag k="building" v="church"/>
    <tag k="check_date" v="2025-04-07"/>
    <tag k="denomination" v="anglican"/>
    <tag k="heritage" v="2"/>
    <tag k="heritage:operator" v="Historic England"/>
    <tag k="listed_status" v="Grade II*"/>
    <tag k="name" v="St Michael &amp; All Angels"/>
    <tag k="religion" v="christian"/>
    <tag k="source" v="survey"/>
    <tag k="wikidata" v="Q17551293"/>
  </way>
  <way id="217806437" version="1" timestamp="2013-04-17T20:54:46Z" changeset="15767203" uid="411244" user="RobJN">
    <nd ref="2271110062"/>
    <nd ref="2271110052"/>
    <nd ref="2271110048"/>
    <tag k="highway" v="residential"/>
    <tag k="name" v="Broad Close"/>
    <tag k="source" v="OS_OpenData_StreetView"/>
  </way>
  <way id="336894278" version="8" timestamp="2024-08-16T22:51:03Z" changeset="155347442" uid="5589" user="user_5589">
    <nd ref="21132123"/>
    <nd ref="6605092488"/>
    <nd ref="21132122"/>
    <nd ref="21132121"/>
    <nd ref="21132120"/>
    <nd ref="21132119"/>
    <nd ref="21132118"/>
    <nd ref="21132117"/>
    <nd ref="21132116"/>
    <nd ref="21132107"/>
    <nd ref="21132109"/>
    <nd ref="21132108"/>
    <nd ref="21132114"/>
    <nd ref="21132115"/>
    <nd ref="21132113"/>
    <nd ref="21132110"/>
    <nd ref="21132112"/>
    <nd ref="6905140463"/>
    <nd ref="21132106"/>
    <nd ref="21132111"/>
    <nd ref="9029275212"/>
    <nd ref="21132103"/>
    <nd ref="9029275211"/>
    <nd ref="21132105"/>
    <nd ref="21132104"/>
    <nd ref="21132098"/>
    <nd ref="21132099"/>
    <nd ref="21132101"/>
    <nd ref="2306038176"/>
    <nd ref="21132100"/>
    <nd ref="21132102"/>
    <nd ref="21132097"/>
    <nd ref="21132096"/>
    <nd ref="10693716762"/>
    <tag k="highway" v="primary"/>
    <tag k="lanes" v="2"/>
    <tag k="lanes:backward" v="1"/>
    <tag k="lanes:forward" v="1"/>
    <tag k="maxspeed" v="50 mph"/>
    <tag k="oneway" v="no"/>
    <tag k="ref" v="A425"/>
    <tag k="source" v="survey"/>
    <tag k="surface" v="asphalt"/>
  </way>
  <way id="512135513" version="5" timestamp="2024-08-16T22:58:35Z" changeset="155347442" uid="5589" user="user_5589">
    <nd ref="5008074974"/>
    <nd ref="2271052566"/>
    <nd ref="2271052567"/>
    <nd ref="21132133"/>
    <nd ref="528902421"/>
    <tag k="cycleway:both" v="no"/>
    <tag k="highway" v="primary"/>
    <tag k="lanes" v="2"/>
    <tag k="maxspeed" v="50 mph"/>
    <tag k="name" v="Ufton Hill"/>
    <tag k="oneway" v="no"/>
    <tag k="ref" v="A425"/>
    <tag k="source:name" v="OS_OpenData_Locator"/>
    <tag k="surface" v="asphalt"/>
  </way>
  <way id="512135514" version="5" timestamp="2024-08-16T23:01:23Z" changeset="155347442" uid="5589" user="user_5589">
    <nd ref="5008074975"/>
    <nd ref="2271052396"/>
    <nd ref="2271052411"/>
    <nd ref="2271052413"/>
    <nd ref="2271052417"/>
    <nd ref="2271052418"/>
    <nd ref="676743344"/>
    <tag k="cycleway:both" v="no"/>
    <tag k="highway" v="primary"/>
    <tag k="lanes" v="2"/>
    <tag k="maxspeed" v="30 mph"/>
    <tag k="name" v="Southam Road"/>
    <tag k="ref" v="A425"/>
    <tag k="source" v="survey"/>
    <tag k="surface" v="asphalt"/>
  </way>
  <way id="613515726" version="2" timestamp="2020-10-31T12:08:47Z" changeset="93335516" uid="346039" user="fitzsimons">
    <nd ref="5804906479"/>
    <nd ref="5804906478"/>
    <nd ref="5804906477"/>
    <nd ref="5804906476"/>
    <nd ref="5804906475"/>
    <nd ref="5804906479"/>
    <tag k="addr:city" v="Ufton"/>
    <tag k="addr:postcode" v="CV33 9PF"/>
    <tag k="addr:street" v="Southam Road"/>
    <tag k="amenity" v="fast_food"/>
    <tag k="building" v="yes"/>
    <tag k="cuisine" v="sandwich"/>
    <tag k="fhrs:id" v="1266891"/>
    <tag k="name" v="The Sandwich Co"/>
    <tag k="source" v="Warwicks CC Aerial Imagery 2013"/>
  </way>
  <way id="613515732" version="3" timestamp="2025-02-17T21:53:30Z" changeset="162636706" uid="493595" user="Yorvik Prestigitator">
    <nd ref="5804906488"/>
    <nd ref="8068630428"/>
    <nd ref="5804906487"/>
    <nd ref="12596685219"/>
    <nd ref="2271052392"/>
    <nd ref="5804906486"/>
    <nd ref="5804906488"/>
    <tag k="addr:city" v="Ufton"/>
    <tag k="addr:street" v="Southam Road"/>
    <tag k="amenity" v="community_centre"/>
    <tag k="building" v="public"/>
    <tag k="community_centre" v="village_hall"/>
    <tag k="name" v="Ufton Village Hall"/>
  </way>
  <way id="678740194" version="1" timestamp="2019-03-22T20:21:37Z" changeset="68426497" uid="9065" user="brianboru">
    <nd ref="2271110116"/>
    <nd ref="2271110115"/>
    <tag k="highway" v="residential"/>
    <tag k="name" v="Reeds Park"/>
    <tag k="source" v="Warwicks CC Aerial Imagery 2013"/>
  </way>
  <way id="866027172" version="4" timestamp="2025-04-07T17:30:36Z" changeset="164645679" uid="5589" user="user_5589">
    <nd ref="539109846"/>
    <nd ref="21132162"/>
    <nd ref="21132150"/>
    <nd ref="2272066398"/>
    <nd ref="21132161"/>
    <nd ref="2272066399"/>
    <nd ref="2272066400"/>
    <nd ref="21132160"/>
    <nd ref="2272066405"/>
    <nd ref="2272066406"/>
    <nd ref="2272066407"/>
    <nd ref="21132159"/>
    <nd ref="21132158"/>
    <nd ref="2272066403"/>
    <nd ref="2272066401"/>
    <nd ref="2272066402"/>
    <nd ref="2272066404"/>
    <nd ref="21132157"/>
    <nd ref="21132156"/>
    <nd ref="2272066408"/>
    <nd ref="21132155"/>
    <nd ref="21132151"/>
    <nd ref="21132149"/>
    <nd ref="2271052390"/>
    <nd ref="5008074975"/>
    <tag k="highway" v="primary"/>
    <tag k="lanes" v="2"/>
    <tag k="lanes:backward" v="1"/>
    <tag k="lanes:forward" v="1"/>
    <tag k="maxspeed" v="50 mph"/>
    <tag k="name" v="Southam Road"/>
    <tag k="postal_code" v="CV33"/>
    <tag k="ref" v="A425"/>
    <tag k="source" v="survey"/>
    <tag k="surface" v="asphalt"/>
  </way>
  <way id="978097402" version="1" timestamp="2021-08-31T10:00:54Z" changeset="110504248" uid="84681" user="SK53">
    <nd ref="9050394513"/>
    <nd ref="9050394512"/>
    <tag k="highway" v="residential"/>
    <tag k="name" v="St Michaels Close"/>
    <tag k="source" v="OS_OpenData_StreetView"/>
  </way>
  <way id="1349595792" version="1" timestamp="2025-01-08T17:48:32Z" changeset="161142763" uid="5229644" user="Nathan_A_RF">
    <nd ref="21132142"/>
    <nd ref="676742889"/>
    <nd ref="676742897"/>
    <tag k="cycleway:left" v="no"/>
    <tag k="highway" v="primary"/>
    <tag k="junction" v="circular"/>
    <tag k="maxspeed" v="30 mph"/>
    <tag k="oneway" v="yes"/>
    <tag k="surface" v="asphalt"/>
  </way>
  <way id="1349595793" version="2" timestamp="2025-08-16T17:21:57Z" changeset="170534045" uid="5589" user="user_5589">
    <nd ref="1528279070"/>
    <nd ref="1528279072"/>
    <nd ref="676742893"/>
    <nd ref="21132144"/>
    <tag k="cycleway:left" v="no"/>
    <tag k="highway" v="primary"/>
    <tag k="junction" v="circular"/>
    <tag k="lanes" v="1"/>
    <tag k="maxspeed" v="30 mph"/>
    <tag k="oneway" v="yes"/>
    <tag k="surface" v="asphalt"/>
  </way>
  <way id="1362703635" version="1" timestamp="2025-02-24T22:11:39Z" changeset="162910619" uid="9090299" user="AdamLWilliams">
    <nd ref="21132170"/>
    <nd ref="21132169"/>
    <nd ref="21132168"/>
    <nd ref="6877937695"/>
    <nd ref="21132167"/>
    <nd ref="21132166"/>
    <nd ref="21132165"/>
    <nd ref="21132164"/>
    <nd ref="21132163"/>
    <nd ref="271927019"/>
    <nd ref="539109846"/>
    <tag k="cycleway:both" v="no"/>
    <tag k="highway" v="primary"/>
    <tag k="lanes" v="2"/>
    <tag k="maxspeed" v="50 mph"/>
    <tag k="name" v="Southam Road"/>
    <tag k="postal_code" v="CV33"/>
    <tag k="ref" v="A425"/>
    <tag k="sidewalk" v="no"/>
    <tag k="source" v="survey"/>
    <tag k="surface" v="asphalt"/>
  </way>

</osm>
