<?xml version="1.0" encoding="UTF-8"?>
<osm version="0.6" generator="Overpass API 0.7.62.8 e802775f">
<note>The data included in this document is from www.openstreetmap.org. The data is made available under ODbL.</note>
<meta osm_base="2025-10-23T17:44:01Z" areas="2025-10-23T12:46:58Z"/>

  <node id="412616519" lat="52.0800985" lon="-1.6104290" version="3" timestamp="2013-12-09T17:05:53Z" changeset="19362308" uid="9065" user="brianboru"/>
  <node id="1545705612" lat="52.1136758" lon="-1.5863137" version="2" timestamp="2012-01-23T14:51:07Z" changeset="10475956" uid="9065" user="brianboru"/>
  <node id="1545705616" lat="52.1073837" lon="-1.5473507" version="3" timestamp="2013-12-08T13:22:46Z" changeset="19340432" uid="9065" user="brianboru"/>
  <node id="1546097799" lat="52.0801811" lon="-1.5539696" version="2" timestamp="2013-12-01T13:39:30Z" changeset="19210487" uid="9065" user="brianboru"/>
  <way id="26436851" version="9" timestamp="2019-08-29T08:14:11Z" changeset="73870213" uid="10221594" user="afurquan">
    <nd ref="1546097799"/>
    <nd ref="1546110216"/>
    <nd ref="2563009254"/>
    <nd ref="1546110213"/>
    <nd ref="289686367"/>
    <nd ref="2562945131"/>
    <nd ref="289686368"/>
    <nd ref="289686369"/>
    <nd ref="6755508057"/>
    <nd ref="2559826795"/>
    <nd ref="289686370"/>
    <nd ref="289686371"/>
    <nd ref="289686372"/>
    <nd ref="2559826826"/>
    <nd ref="289686373"/>
    <nd ref="2559826829"/>
    <nd ref="289686374"/>
    <nd ref="289686375"/>
    <nd ref="289686376"/>
    <nd ref="2559826833"/>
    <nd ref="2559826835"/>
    <nd ref="289686377"/>
    <nd ref="289686378"/>
    <nd ref="289686379"/>
    <nd ref="2559826842"/>
    <nd ref="289686381"/>
    <nd ref="289686382"/>
    <nd ref="2559826848"/>
    <nd ref="2559826850"/>
    <nd ref="2559826852"/>
    <nd ref="289686383"/>
    <nd ref="671826228"/>
    <tag k="highway" v="residential"/>
    <tag k="name" v="Brailes Road"/>
  </way>
  <way id="53053475" version="4" timestamp="2015-06-18T15:05:04Z" changeset="32052950" uid="154484" user="PeterP">
    <nd ref="671826227"/>
    <nd ref="1692521419"/>
    <nd ref="671826222"/>
    <tag k="highway" v="residential"/>
    <tag k="name" v="Church lane"/>
    <tag k="source" v="visual survey;OS_OpenData_StreetView"/>
  </way>
  <way id="53053476" version="2" timestamp="2011-12-14T12:38:45Z" changeset="10115461" uid="165" user="Richard">
    <nd ref="671826228"/>
    <nd ref="289686384"/>
    <nd ref="1545705652"/>
    <tag k="highway" v="unclassified"/>
    <tag k="source" v="NPE"/>
  </way>
  <way id="53053477" version="3" timestamp="2015-06-18T15:05:04Z" changeset="32052950" uid="154484" user="PeterP">
    <nd ref="1692521358"/>
    <nd ref="671826228"/>
    <tag k="highway" v="residential"/>
  </way>
  <way id="60541716" version="2" timestamp="2012-03-26T22:31:23Z" changeset="11111530" uid="84263" user="Robert Whittaker">
    <nd ref="1692521374"/>
    <nd ref="1692521438"/>
    <nd ref="1692521437"/>
    <nd ref="1692521397"/>
    <nd ref="1692521377"/>
    <nd ref="1692521420"/>
    <nd ref="755836511"/>
    <nd ref="1692521398"/>
    <nd ref="1692521431"/>
    <nd ref="755836517"/>
    <nd ref="1692521401"/>
    <nd ref="1692521432"/>
    <nd ref="755836506"/>
    <nd ref="1692521399"/>
    <nd ref="755836498"/>
    <nd ref="1692521402"/>
    <nd ref="1692521376"/>
    <nd ref="671826222"/>
    <tag k="highway" v="residential"/>
    <tag k="name" v="Church Lane"/>
    <tag k="source" v="OS_OpenData_StreetView"/>
  </way>
  <way id="60542773" version="3" timestamp="2013-12-03T14:50:02Z" changeset="19252883" uid="9065" user="brianboru">
    <nd ref="755859717"/>
    <nd ref="755859745"/>
    <nd ref="2562945276"/>
    <nd ref="755859874"/>
    <nd ref="755859669"/>
    <tag k="highway" v="residential"/>
    <tag k="name" v="The Orchard"/>
    <tag k="source" v="OS_OpenData_StreetView"/>
    <tag k="source:name" v="OS_OpenData_Locator"/>
  </way>
  <way id="60542775" version="4" timestamp="2020-10-22T07:50:29Z" changeset="92876644" uid="10252562" user="puppalg">
    <nd ref="755859756"/>
    <nd ref="8035166463"/>
    <nd ref="8035166464"/>
    <nd ref="8035166465"/>
    <nd ref="8035166469"/>
    <nd ref="8035166462"/>
    <nd ref="8035166468"/>
    <nd ref="8035166461"/>
    <nd ref="8035166467"/>
    <nd ref="8035166460"/>
    <nd ref="8035166466"/>
    <nd ref="8035166457"/>
    <nd ref="755859756"/>
    <nd ref="8035166458"/>
    <nd ref="8035166459"/>
    <nd ref="755859869"/>
    <nd ref="1692521412"/>
    <nd ref="1692521393"/>
    <nd ref="1692521390"/>
    <nd ref="755859994"/>
    <nd ref="1692521414"/>
    <nd ref="1692521385"/>
    <nd ref="1545705649"/>
    <tag k="highway" v="residential"/>
    <tag k="name" v="Rectory Lane"/>
    <tag k="source" v="OS_OpenData_StreetView"/>
  </way>
  <way id="60542776" version="5" timestamp="2023-12-01T09:06:34Z" changeset="144654010" uid="504708" user="HillWithSmallFields">
    <nd ref="755859988"/>
    <nd ref="1692521354"/>
    <nd ref="1692521427"/>
    <nd ref="1692521367"/>
    <nd ref="755859687"/>
    <nd ref="1692521360"/>
    <nd ref="755859823"/>
    <nd ref="1692521362"/>
    <nd ref="1692521418"/>
    <nd ref="1692521383"/>
    <nd ref="1692521384"/>
    <nd ref="1692521403"/>
    <nd ref="1692521434"/>
    <nd ref="755859933"/>
    <nd ref="1692521426"/>
    <nd ref="1692521413"/>
    <nd ref="755859988"/>
    <tag k="amenity" v="place_of_worship"/>
    <tag k="building" v="yes"/>
    <tag k="denomination" v="anglican"/>
    <tag k="heritage" v="2"/>
    <tag k="heritage:operator" v="Historic England"/>
    <tag k="listed_status" v="Grade II*"/>
    <tag k="name" v="St Peter"/>
    <tag k="ref:dove" v="16983"/>
    <tag k="religion" v="christian"/>
    <tag k="source" v="visual survey;OS_OpenData_StreetView;Bing"/>
    <tag k="wikidata" v="Q17551086"/>
  </way>
  <way id="141194013" version="12" timestamp="2020-12-24T10:55:04Z" changeset="96379468" uid="10455625" user="bmmundad">
    <nd ref="412616519"/>
    <nd ref="1598984482"/>
    <nd ref="1598984484"/>
    <nd ref="1545693590"/>
    <nd ref="1545693457"/>
    <nd ref="1545693464"/>
    <nd ref="1545693461"/>
    <nd ref="1545693542"/>
    <nd ref="8257310150"/>
    <nd ref="1545693587"/>
    <nd ref="5802207953"/>
    <nd ref="1545693475"/>
    <nd ref="1545693481"/>
    <nd ref="1545693489"/>
    <nd ref="1545693491"/>
    <nd ref="1545693503"/>
    <nd ref="1545693515"/>
    <nd ref="1545693517"/>
    <nd ref="1545693525"/>
    <nd ref="2573186223"/>
    <nd ref="1545693584"/>
    <nd ref="2573186225"/>
    <nd ref="1545693536"/>
    <nd ref="1545693539"/>
    <nd ref="2573186230"/>
    <nd ref="1545693570"/>
    <nd ref="1545693530"/>
    <nd ref="2573186237"/>
    <nd ref="2573186242"/>
    <nd ref="1545693533"/>
    <nd ref="2642246964"/>
    <nd ref="1545693545"/>
    <nd ref="1545693549"/>
    <nd ref="2347803511"/>
    <nd ref="1545693551"/>
    <nd ref="1786167481"/>
    <nd ref="1545693555"/>
    <nd ref="2347803518"/>
    <nd ref="2347803520"/>
    <nd ref="1545693558"/>
    <nd ref="2347803522"/>
    <nd ref="2347803524"/>
    <nd ref="1545693564"/>
    <nd ref="1545693567"/>
    <nd ref="1545693581"/>
    <nd ref="2563009367"/>
    <nd ref="1545693592"/>
    <nd ref="2563009370"/>
    <nd ref="1545693595"/>
    <nd ref="2563009375"/>
    <nd ref="2563009377"/>
    <nd ref="1545693598"/>
    <nd ref="1545693600"/>
    <nd ref="1545693602"/>
    <nd ref="1545693604"/>
    <nd ref="2573180569"/>
    <nd ref="1545693609"/>
    <nd ref="2563009409"/>
    <nd ref="1681574523"/>
    <nd ref="1681574667"/>
    <nd ref="1545693473"/>
    <nd ref="1681574723"/>
    <nd ref="755839416"/>
    <nd ref="277911689"/>
    <nd ref="1545693477"/>
    <nd ref="1545693479"/>
    <nd ref="1545693483"/>
    <nd ref="1545693486"/>
    <nd ref="1545693574"/>
    <nd ref="1545693499"/>
    <nd ref="1545693507"/>
    <nd ref="1545693501"/>
    <nd ref="1545693505"/>
    <nd ref="1545693511"/>
    <nd ref="1545693513"/>
    <nd ref="1545693523"/>
    <nd ref="1545693527"/>
    <tag k="highway" v="tertiary"/>
  </way>
  <way id="141196914" version="8" timestamp="2020-02-28T10:03:22Z" changeset="81584146" uid="10455625" user="bmmundad">
    <nd ref="1545705616"/>
    <nd ref="2571379800"/>
    <nd ref="1545705615"/>
    <nd ref="1545705608"/>
    <nd ref="2569662879"/>
    <nd ref="6538927262"/>
    <nd ref="1545705607"/>
    <nd ref="1545705606"/>
    <nd ref="1545705605"/>
    <nd ref="1545705604"/>
    <nd ref="1545705603"/>
    <nd ref="1545705602"/>
    <nd ref="7249620873"/>
    <nd ref="1545705601"/>
    <nd ref="6905764103"/>
    <nd ref="1545705600"/>
    <nd ref="1545705599"/>
    <nd ref="755859669"/>
    <nd ref="5823195201"/>
    <nd ref="5802206552"/>
    <nd ref="5802206551"/>
    <nd ref="1545705652"/>
    <tag k="highway" v="tertiary"/>
  </way>
  <way id="141196916" version="5" timestamp="2018-08-01T19:39:54Z" changeset="61274368" uid="9065" user="brianboru">
    <nd ref="1545705612"/>
    <nd ref="1545705609"/>
    <nd ref="1545705610"/>
    <nd ref="1545705611"/>
    <nd ref="1545705643"/>
    <nd ref="1545705644"/>
    <nd ref="1545705645"/>
    <nd ref="1545705646"/>
    <nd ref="1545705647"/>
    <nd ref="1545705648"/>
    <nd ref="2569662946"/>
    <nd ref="2571412889"/>
    <nd ref="2571412775"/>
    <nd ref="2569662872"/>
    <nd ref="1545693527"/>
    <nd ref="1692521394"/>
    <nd ref="1545705649"/>
    <nd ref="5802206549"/>
    <nd ref="5802206550"/>
    <nd ref="1545705638"/>
    <nd ref="1692521387"/>
    <nd ref="671826227"/>
    <tag k="highway" v="tertiary"/>
  </way>
  <way id="141196918" version="4" timestamp="2020-10-06T14:45:53Z" changeset="92056493" uid="10457692" user="pravallg">
    <nd ref="1545705652"/>
    <nd ref="1692521380"/>
    <nd ref="6906088504"/>
    <nd ref="1545705651"/>
    <nd ref="1545705650"/>
    <nd ref="7981654896"/>
    <nd ref="671826227"/>
    <tag k="highway" v="tertiary"/>
  </way>
  <way id="157023525" version="1" timestamp="2012-03-26T22:31:17Z" changeset="11111530" uid="84263" user="Robert Whittaker">
    <nd ref="1692521429"/>
    <nd ref="1692521358"/>
    <nd ref="1692521404"/>
    <tag k="highway" v="residential"/>
  </way>
  <way id="613117803" version="3" timestamp="2024-12-12T04:15:35Z" changeset="160192257" uid="21226027" user="DorneyLake123">
    <nd ref="5802206548"/>
    <nd ref="5802206547"/>
    <nd ref="5802206546"/>
    <nd ref="5802206545"/>
    <nd ref="5802206544"/>
    <nd ref="5802206543"/>
    <nd ref="5802206548"/>
    <tag k="amenity" v="pub"/>
    <tag k="building" v="yes"/>
    <tag k="fhrs:id" v="503051"/>
    <tag k="name" v="Royal Oak"/>
    <tag k="source" v="Warwicks Aerial Imagery OGLv2"/>
    <tag k="wikidata" v="Q26481353"/>
  </way>

</osm>
