<?xml version="1.0" encoding="UTF-8"?>
<osm version="0.6" generator="Overpass API 0.7.62.8 e802775f">
<note>The data included in this document is from www.openstreetmap.org. The data is made available under ODbL.</note>
<meta osm_base="2025-10-23T17:31:43Z" areas="2025-10-23T14:54:58Z"/>

  <node id="98204798" lat="52.2832781" lon="-1.3587039" version="5" timestamp="2011-11-01T21:37:19Z" changeset="9717241" uid="185805" user="Jon Iles"/>
  <node id="255398608" lat="52.2700610" lon="-1.3553076" version="5" timestamp="2019-08-07T07:26:21Z" changeset="73096226" uid="9065" user="brianboru"/>
  <node id="256267883" lat="52.2993785" lon="-1.3311514" version="6" timestamp="2013-10-29T13:07:31Z" changeset="18601212" uid="9065" user="brianboru"/>
  <node id="274767275" lat="52.3099364" lon="-1.3666510" version="4" timestamp="2013-10-29T12:27:53Z" changeset="18600512" uid="9065" user="brianboru"/>
  <node id="274767292" lat="52.2833625" lon="-1.3586044" version="6" timestamp="2013-10-28T11:36:06Z" changeset="18582690" uid="9065" user="brianboru"/>
  <node id="281470549" lat="52.2922389" lon="-1.3472495" version="6" timestamp="2013-10-28T11:36:06Z" changeset="18582690" uid="9065" user="brianboru"/>
  <node id="333286264" lat="52.3001698" lon="-1.3238333" version="5" timestamp="2013-10-23T05:54:59Z" changeset="18496979" uid="9065" user="brianboru"/>
  <node id="534436278" lat="52.2746580" lon="-1.3367016" version="3" timestamp="2011-11-01T21:45:48Z" changeset="9717333" uid="185805" user="Jon Iles"/>
  <node id="899514925" lat="52.3112030" lon="-1.3135347" version="4" timestamp="2016-07-23T18:29:11Z" changeset="40977064" uid="608760" user="gregrs"/>
  <node id="11355718251" lat="52.2775641" lon="-1.3456082" version="1" timestamp="2023-11-16T13:52:51Z" changeset="144097682" uid="165" user="Richard"/>
  <way id="23654006" version="27" timestamp="2025-04-26T13:49:02Z" changeset="165466767" uid="119838" user="n1dom">
    <nd ref="256267883"/>
    <nd ref="256267884"/>
    <nd ref="256267885"/>
    <nd ref="1488925002"/>
    <nd ref="2503503011"/>
    <nd ref="256267886"/>
    <nd ref="2503503005"/>
    <nd ref="256267887"/>
    <nd ref="1488925041"/>
    <nd ref="256267888"/>
    <nd ref="1490296810"/>
    <nd ref="256267889"/>
    <nd ref="2498696280"/>
    <nd ref="8835892987"/>
    <nd ref="256267890"/>
    <nd ref="8835892986"/>
    <nd ref="256267891"/>
    <nd ref="1490296827"/>
    <nd ref="256267892"/>
    <nd ref="1490296874"/>
    <nd ref="1490296901"/>
    <nd ref="1490296807"/>
    <nd ref="256267893"/>
    <nd ref="1490296878"/>
    <nd ref="256267894"/>
    <nd ref="1490296832"/>
    <nd ref="2502773126"/>
    <nd ref="1490296885"/>
    <nd ref="256267895"/>
    <nd ref="1490296939"/>
    <nd ref="1490296862"/>
    <nd ref="1490296896"/>
    <nd ref="256267896"/>
    <nd ref="256267897"/>
    <nd ref="256267898"/>
    <nd ref="1490296800"/>
    <nd ref="1490296917"/>
    <nd ref="8239412638"/>
    <nd ref="1490296879"/>
    <nd ref="256267899"/>
    <nd ref="1491221889"/>
    <nd ref="1257698376"/>
    <nd ref="256267900"/>
    <nd ref="256267901"/>
    <nd ref="3163605096"/>
    <nd ref="256267902"/>
    <nd ref="1491261347"/>
    <nd ref="2498740328"/>
    <nd ref="1491261349"/>
    <nd ref="256267903"/>
    <nd ref="256267904"/>
    <nd ref="256267905"/>
    <nd ref="1257698335"/>
    <nd ref="256267906"/>
    <nd ref="1494781728"/>
    <nd ref="1495300282"/>
    <nd ref="256267907"/>
    <nd ref="8237132310"/>
    <nd ref="256267908"/>
    <nd ref="8237132305"/>
    <nd ref="1494781722"/>
    <nd ref="256267909"/>
    <nd ref="1494781718"/>
    <nd ref="256267911"/>
    <nd ref="283476097"/>
    <nd ref="1494781726"/>
    <nd ref="283476098"/>
    <nd ref="1494781721"/>
    <nd ref="283473731"/>
    <nd ref="256267912"/>
    <nd ref="1494781719"/>
    <nd ref="283476099"/>
    <nd ref="256267913"/>
    <nd ref="256267914"/>
    <nd ref="1494778483"/>
    <nd ref="1494778496"/>
    <nd ref="256267915"/>
    <nd ref="1494778448"/>
    <nd ref="1494778500"/>
    <nd ref="256267916"/>
    <nd ref="256267917"/>
    <nd ref="1494778481"/>
    <nd ref="256267918"/>
    <nd ref="280154961"/>
    <tag k="highway" v="unclassified"/>
    <tag k="name" v="Flecknoe Road"/>
    <tag k="source" v="survey"/>
    <tag k="surface" v="asphalt"/>
  </way>
  <way id="25200954" version="37" timestamp="2021-09-28T09:56:47Z" changeset="111809396" uid="34867" user="SammyTheSnake">
    <nd ref="98204798"/>
    <nd ref="274767292"/>
    <nd ref="1488996076"/>
    <nd ref="25881068"/>
    <nd ref="6375401426"/>
    <nd ref="6375394566"/>
    <nd ref="281470549"/>
    <nd ref="1488925036"/>
    <nd ref="1488925017"/>
    <nd ref="1488925030"/>
    <nd ref="25881070"/>
    <nd ref="1488925010"/>
    <nd ref="1488963666"/>
    <nd ref="1488925050"/>
    <nd ref="1488925038"/>
    <nd ref="1488925042"/>
    <nd ref="899514889"/>
    <nd ref="25881069"/>
    <nd ref="899514151"/>
    <nd ref="333285897"/>
    <nd ref="1488925007"/>
    <nd ref="2503503027"/>
    <nd ref="25881085"/>
    <nd ref="2503503031"/>
    <nd ref="25881086"/>
    <nd ref="2512743758"/>
    <nd ref="256267883"/>
    <nd ref="2512743760"/>
    <nd ref="2512743762"/>
    <nd ref="1488925013"/>
    <nd ref="899514906"/>
    <nd ref="1488925015"/>
    <nd ref="6550767826"/>
    <nd ref="25881087"/>
    <nd ref="333286264"/>
    <nd ref="25881072"/>
    <nd ref="1488925051"/>
    <nd ref="25881088"/>
    <nd ref="25881089"/>
    <nd ref="1487384214"/>
    <nd ref="1487384230"/>
    <nd ref="1487384225"/>
    <nd ref="1487384222"/>
    <nd ref="1487384213"/>
    <nd ref="25881090"/>
    <nd ref="1487384239"/>
    <nd ref="1487384240"/>
    <nd ref="25881091"/>
    <nd ref="1487384220"/>
    <nd ref="25881092"/>
    <nd ref="1487384226"/>
    <nd ref="25881073"/>
    <nd ref="1487384227"/>
    <nd ref="7999496606"/>
    <nd ref="1487384223"/>
    <nd ref="25881094"/>
    <nd ref="1487384229"/>
    <nd ref="25881095"/>
    <nd ref="25881093"/>
    <nd ref="6544352377"/>
    <nd ref="1443453079"/>
    <nd ref="1443453315"/>
    <nd ref="4317377708"/>
    <nd ref="4317377710"/>
    <nd ref="2505539351"/>
    <nd ref="1443453318"/>
    <nd ref="899514923"/>
    <nd ref="4317460779"/>
    <nd ref="899514925"/>
    <tag k="cycleway:both" v="no"/>
    <tag k="highway" v="primary"/>
    <tag k="lanes" v="2"/>
    <tag k="maxspeed" v="50 mph"/>
    <tag k="ref" v="A426"/>
    <tag k="surface" v="asphalt"/>
  </way>
  <way id="25805027" version="8" timestamp="2022-12-17T21:53:52Z" changeset="130197781" uid="13001300" user="simonc11">
    <nd ref="281470549"/>
    <nd ref="2511374697"/>
    <nd ref="2511374699"/>
    <nd ref="281470730"/>
    <nd ref="6375394561"/>
    <nd ref="2511374695"/>
    <nd ref="281470731"/>
    <nd ref="2511374700"/>
    <nd ref="281470732"/>
    <nd ref="2511374703"/>
    <nd ref="2511374704"/>
    <nd ref="281470733"/>
    <nd ref="281470734"/>
    <nd ref="281470735"/>
    <nd ref="2511374719"/>
    <nd ref="8070062259"/>
    <nd ref="2511374725"/>
    <nd ref="281470736"/>
    <nd ref="2511374729"/>
    <nd ref="2511374731"/>
    <nd ref="281470737"/>
    <nd ref="2512701849"/>
    <nd ref="2511374747"/>
    <nd ref="2511374752"/>
    <nd ref="2511374760"/>
    <nd ref="2511374764"/>
    <nd ref="281470739"/>
    <nd ref="2511374762"/>
    <nd ref="281470740"/>
    <nd ref="2511374745"/>
    <nd ref="2511374733"/>
    <nd ref="281470741"/>
    <nd ref="2511374716"/>
    <nd ref="2511374714"/>
    <nd ref="10270292314"/>
    <nd ref="281470154"/>
    <tag k="highway" v="unclassified"/>
  </way>
  <way id="25805054" version="13" timestamp="2025-01-08T17:02:11Z" changeset="161141289" uid="5229644" user="Nathan_A_RF">
    <nd ref="256267886"/>
    <nd ref="2503503004"/>
    <nd ref="281470931"/>
    <nd ref="2503502998"/>
    <nd ref="281470932"/>
    <nd ref="2503502977"/>
    <nd ref="281470933"/>
    <nd ref="281470934"/>
    <nd ref="281470935"/>
    <tag k="highway" v="unclassified"/>
    <tag k="maxspeed" v="60 mph"/>
    <tag k="maxspeed:type" v="GB:nsl_single"/>
    <tag k="name" v="Hayway Lane"/>
    <tag k="source" v="survey"/>
  </way>
  <way id="25914488" version="4" timestamp="2025-01-08T17:02:11Z" changeset="161141289" uid="5229644" user="Nathan_A_RF">
    <nd ref="281470549"/>
    <nd ref="12484783903"/>
    <nd ref="281470957"/>
    <nd ref="12484783904"/>
    <nd ref="1488963674"/>
    <nd ref="283473546"/>
    <nd ref="1488963680"/>
    <nd ref="283473547"/>
    <nd ref="1488963657"/>
    <nd ref="283473548"/>
    <nd ref="283473549"/>
    <nd ref="1488963638"/>
    <nd ref="283473516"/>
    <nd ref="1488977555"/>
    <nd ref="283473517"/>
    <nd ref="1488977489"/>
    <nd ref="283473550"/>
    <nd ref="1488977539"/>
    <nd ref="283473519"/>
    <nd ref="2505006839"/>
    <nd ref="2505006833"/>
    <nd ref="2505006832"/>
    <nd ref="2505006834"/>
    <nd ref="2673990205"/>
    <nd ref="1489017361"/>
    <nd ref="1489017358"/>
    <nd ref="1489017352"/>
    <nd ref="1489017371"/>
    <nd ref="1489017377"/>
    <tag k="highway" v="unclassified"/>
    <tag k="maxspeed" v="50 mph"/>
    <tag k="maxspeed:type" v="sign"/>
  </way>
  <way id="30252510" version="7" timestamp="2019-03-28T20:36:27Z" changeset="68642986" uid="2540407" user="JC49">
    <nd ref="274767275"/>
    <nd ref="333285840"/>
    <nd ref="333285846"/>
    <nd ref="333285848"/>
    <nd ref="2512702850"/>
    <nd ref="333285851"/>
    <nd ref="333285853"/>
    <nd ref="2512702837"/>
    <nd ref="6368901473"/>
    <nd ref="2329806029"/>
    <nd ref="333285855"/>
    <tag k="highway" v="tertiary"/>
    <tag k="name" v="Leamington Hastings Road"/>
  </way>
  <way id="30252528" version="13" timestamp="2021-10-08T09:43:50Z" changeset="112254406" uid="34867" user="SammyTheSnake">
    <nd ref="333286264"/>
    <nd ref="1495307753"/>
    <nd ref="333286266"/>
    <nd ref="1495307730"/>
    <nd ref="1488925034"/>
    <nd ref="1495307755"/>
    <nd ref="333286268"/>
    <nd ref="1488925027"/>
    <nd ref="1488925005"/>
    <nd ref="1495307756"/>
    <nd ref="1488925048"/>
    <nd ref="1495307769"/>
    <nd ref="1495307738"/>
    <nd ref="8280188409"/>
    <nd ref="1495307743"/>
    <nd ref="1495307732"/>
    <nd ref="1495307741"/>
    <nd ref="8145170036"/>
    <nd ref="333286269"/>
    <nd ref="1495307747"/>
    <nd ref="1495307767"/>
    <nd ref="1495307766"/>
    <nd ref="8451867035"/>
    <nd ref="1495307744"/>
    <nd ref="8451825508"/>
    <nd ref="1495307737"/>
    <nd ref="8451825509"/>
    <nd ref="1495307745"/>
    <nd ref="8451825510"/>
    <nd ref="8451825515"/>
    <nd ref="1495307757"/>
    <nd ref="1495307763"/>
    <nd ref="8451825511"/>
    <nd ref="8451825512"/>
    <nd ref="1495307752"/>
    <nd ref="1495307746"/>
    <nd ref="1495307740"/>
    <nd ref="1495307760"/>
    <nd ref="1495307761"/>
    <nd ref="333286271"/>
    <nd ref="1495307759"/>
    <nd ref="1495307764"/>
    <nd ref="1495307734"/>
    <nd ref="1495307731"/>
    <nd ref="2502773458"/>
    <nd ref="6879747857"/>
    <nd ref="1495307748"/>
    <nd ref="1495307742"/>
    <nd ref="1495307750"/>
    <nd ref="333286273"/>
    <nd ref="1495307754"/>
    <nd ref="1495307758"/>
    <nd ref="1495307771"/>
    <nd ref="333286275"/>
    <nd ref="1495307729"/>
    <nd ref="1495307739"/>
    <nd ref="1495307751"/>
    <nd ref="1495307735"/>
    <nd ref="333286277"/>
    <nd ref="1772440815"/>
    <nd ref="1495307733"/>
    <nd ref="1495307768"/>
    <nd ref="1495307765"/>
    <nd ref="333286279"/>
    <nd ref="1495307770"/>
    <nd ref="1495307749"/>
    <nd ref="1495307736"/>
    <nd ref="331283254"/>
    <tag k="cycleway:both" v="no"/>
    <tag k="highway" v="tertiary"/>
    <tag k="name" v="Hill Road"/>
    <tag k="surface" v="asphalt"/>
  </way>
  <way id="32681547" version="11" timestamp="2020-03-10T15:22:19Z" changeset="82013813" uid="10170580" user="wellasus">
    <nd ref="333285855"/>
    <nd ref="899513963"/>
    <nd ref="1443453042"/>
    <nd ref="333285858"/>
    <nd ref="333285860"/>
    <nd ref="333285862"/>
    <nd ref="2512702691"/>
    <nd ref="333285865"/>
    <nd ref="7282665529"/>
    <nd ref="333285868"/>
    <nd ref="875215260"/>
    <nd ref="2512702605"/>
    <nd ref="6251797121"/>
    <nd ref="333285870"/>
    <nd ref="2512702595"/>
    <nd ref="2512702582"/>
    <nd ref="2512702572"/>
    <nd ref="333285872"/>
    <tag k="highway" v="tertiary"/>
    <tag k="name" v="Birdingbury Road"/>
    <tag k="source" v="OS_OpenData_StreetView"/>
  </way>
  <way id="33534853" version="11" timestamp="2023-04-02T08:53:16Z" changeset="134405208" uid="13001300" user="simonc11">
    <nd ref="1489017377"/>
    <nd ref="283473521"/>
    <tag k="bridge" v="yes"/>
    <tag k="bridge:name" v="Gibraltar Bridge"/>
    <tag k="bridge:ref" v="20"/>
    <tag k="highway" v="unclassified"/>
    <tag k="layer" v="1"/>
    <tag k="maxweight" v="13"/>
  </way>
  <way id="33534854" version="14" timestamp="2023-11-16T13:52:51Z" changeset="144097682" uid="165" user="Richard">
    <nd ref="283473521"/>
    <nd ref="8257674164"/>
    <nd ref="1489036994"/>
    <nd ref="11355718254"/>
    <tag k="highway" v="unclassified"/>
  </way>
  <way id="39333804" version="6" timestamp="2022-12-04T11:26:54Z" changeset="129701318" uid="13001300" user="simonc11">
    <nd ref="534436278"/>
    <nd ref="471235846"/>
    <tag k="bridge" v="yes"/>
    <tag k="bridge_ref" v="19"/>
    <tag k="highway" v="unclassified"/>
    <tag k="layer" v="1"/>
    <tag k="name" v="Daventry Road Bridge"/>
  </way>
  <way id="41201283" version="6" timestamp="2022-12-17T23:26:31Z" changeset="130199116" uid="13001300" user="simonc11">
    <nd ref="255398608"/>
    <nd ref="10270358443"/>
    <nd ref="528864696"/>
    <nd ref="503368698"/>
    <nd ref="2501384111"/>
    <nd ref="2501384113"/>
    <nd ref="528864688"/>
    <nd ref="2502806237"/>
    <nd ref="528864690"/>
    <nd ref="528864692"/>
    <nd ref="528864694"/>
    <tag k="highway" v="unclassified"/>
    <tag k="name" v="Station Road"/>
  </way>
  <way id="42739138" version="4" timestamp="2014-02-16T00:47:09Z" changeset="20587508" uid="69984" user="richardwest">
    <nd ref="283473553"/>
    <nd ref="2501384122"/>
    <nd ref="534436274"/>
    <nd ref="534436276"/>
    <nd ref="2502806302"/>
    <nd ref="471235846"/>
    <tag k="highway" v="unclassified"/>
    <tag k="name" v="Calcutt Lane"/>
  </way>
  <way id="42739139" version="9" timestamp="2013-10-16T18:27:59Z" changeset="18391283" uid="9065" user="brianboru">
    <nd ref="534436278"/>
    <nd ref="1489017380"/>
    <nd ref="534468956"/>
    <nd ref="534468957"/>
    <nd ref="534468958"/>
    <nd ref="1373147838"/>
    <nd ref="1489017374"/>
    <nd ref="2498709766"/>
    <nd ref="534436286"/>
    <nd ref="1489037036"/>
    <nd ref="1489037002"/>
    <nd ref="850049423"/>
    <nd ref="1489036944"/>
    <nd ref="1489036974"/>
    <nd ref="850049430"/>
    <nd ref="1489036963"/>
    <nd ref="1489036938"/>
    <nd ref="1489037031"/>
    <nd ref="850049486"/>
    <nd ref="850049421"/>
    <nd ref="1368298624"/>
    <nd ref="850049379"/>
    <tag k="highway" v="unclassified"/>
    <tag k="name" v="Calcutt Lane"/>
  </way>
  <way id="73965551" version="15" timestamp="2025-02-15T01:07:56Z" changeset="162523152" uid="493595" user="Yorvik Prestigitator">
    <nd ref="333285872"/>
    <nd ref="2512702550"/>
    <nd ref="333285877"/>
    <nd ref="8940613754"/>
    <nd ref="8940613758"/>
    <nd ref="7151064668"/>
    <nd ref="333285880"/>
    <nd ref="7009782196"/>
    <nd ref="2512702344"/>
    <nd ref="333285882"/>
    <nd ref="8070062248"/>
    <nd ref="7009782195"/>
    <nd ref="899513883"/>
    <nd ref="899513860"/>
    <nd ref="6375394548"/>
    <nd ref="333285883"/>
    <nd ref="1488925033"/>
    <nd ref="899514095"/>
    <nd ref="1443453020"/>
    <nd ref="333285886"/>
    <nd ref="1488925053"/>
    <nd ref="333285887"/>
    <nd ref="1488925045"/>
    <nd ref="899514101"/>
    <nd ref="899514107"/>
    <nd ref="333285888"/>
    <nd ref="333285889"/>
    <nd ref="333285890"/>
    <nd ref="8238137211"/>
    <nd ref="1488925019"/>
    <nd ref="8238156417"/>
    <nd ref="333285891"/>
    <nd ref="12588785477"/>
    <nd ref="333285893"/>
    <nd ref="12588785474"/>
    <nd ref="899514127"/>
    <nd ref="3267436090"/>
    <nd ref="899513946"/>
    <nd ref="899513923"/>
    <tag k="highway" v="tertiary"/>
    <tag k="name" v="Birdingbury Road"/>
    <tag k="surface" v="asphalt"/>
  </way>
  <way id="73965553" version="5" timestamp="2019-02-01T15:23:53Z" changeset="66836223" uid="9065" user="brianboru">
    <nd ref="333285870"/>
    <nd ref="2512702598"/>
    <nd ref="899514030"/>
    <nd ref="875215115"/>
    <nd ref="2512702567"/>
    <nd ref="875215118"/>
    <nd ref="899513669"/>
    <nd ref="2512702528"/>
    <nd ref="875215121"/>
    <nd ref="899513687"/>
    <tag k="highway" v="residential"/>
  </way>
  <way id="73965600" version="10" timestamp="2022-12-17T21:50:57Z" changeset="130197732" uid="13001300" user="simonc11">
    <nd ref="274767292"/>
    <nd ref="10270294724"/>
    <nd ref="2511374509"/>
    <nd ref="1488996106"/>
    <nd ref="875221729"/>
    <nd ref="875221730"/>
    <nd ref="2329805523"/>
    <nd ref="2329805514"/>
    <nd ref="6375401442"/>
    <nd ref="875221731"/>
    <nd ref="1489036976"/>
    <nd ref="875221732"/>
    <nd ref="1489017382"/>
    <nd ref="1489017358"/>
    <tag k="highway" v="unclassified"/>
    <tag k="name" v="Calias Lane"/>
    <tag k="surface" v="asphalt"/>
  </way>
  <way id="76255212" version="3" timestamp="2019-02-01T15:23:53Z" changeset="66836223" uid="9065" user="brianboru">
    <nd ref="899513669"/>
    <nd ref="2512702519"/>
    <nd ref="899513670"/>
    <nd ref="899513672"/>
    <nd ref="2512702517"/>
    <nd ref="899513687"/>
    <tag k="highway" v="residential"/>
  </way>
  <way id="76255223" version="9" timestamp="2025-04-07T17:11:07Z" changeset="164644880" uid="5589" user="user_5589">
    <nd ref="899513923"/>
    <nd ref="6648123083"/>
    <nd ref="333285897"/>
    <tag k="cycleway:left" v="no"/>
    <tag k="highway" v="tertiary"/>
    <tag k="lanes" v="2"/>
    <tag k="lanes:backward" v="1"/>
    <tag k="lanes:forward" v="1"/>
    <tag k="maxspeed" v="50 mph"/>
    <tag k="maxspeed:type" v="sign"/>
    <tag k="name" v="Birdingbury Road"/>
    <tag k="oneway" v="no"/>
    <tag k="surface" v="asphalt"/>
  </way>
  <way id="76255224" version="6" timestamp="2021-06-03T13:20:58Z" changeset="105781500" uid="10455643" user="kotamadh">
    <nd ref="8238137210"/>
    <nd ref="8238137209"/>
    <nd ref="8238137208"/>
    <nd ref="8238137207"/>
    <nd ref="8238137206"/>
    <nd ref="8238137205"/>
    <nd ref="899513937"/>
    <nd ref="899513943"/>
    <nd ref="3267415949"/>
    <nd ref="8795329662"/>
    <nd ref="899513946"/>
    <tag k="highway" v="residential"/>
  </way>
  <way id="76255229" version="2" timestamp="2019-02-01T15:23:53Z" changeset="66836223" uid="9065" user="brianboru">
    <nd ref="333285872"/>
    <nd ref="899514030"/>
    <tag k="highway" v="residential"/>
  </way>
  <way id="76255233" version="5" timestamp="2025-04-07T17:11:05Z" changeset="164644880" uid="5589" user="user_5589">
    <nd ref="899514151"/>
    <nd ref="899513923"/>
    <tag k="highway" v="tertiary"/>
    <tag k="lanes" v="2"/>
    <tag k="lanes:backward" v="1"/>
    <tag k="lanes:forward" v="1"/>
    <tag k="maxspeed" v="50 mph"/>
    <tag k="maxspeed:type" v="sign"/>
    <tag k="name" v="Birdingbury Road"/>
    <tag k="oneway" v="no"/>
    <tag k="surface" v="asphalt"/>
  </way>
  <way id="123021765" version="2" timestamp="2011-11-01T21:04:59Z" changeset="9716884" uid="185805" user="Jon Iles">
    <nd ref="1373147692"/>
    <nd ref="1058780634"/>
    <nd ref="1488971956"/>
    <nd ref="281470942"/>
    <tag k="highway" v="residential"/>
    <tag k="name" v="The Row"/>
    <tag k="source" v="survey"/>
  </way>
  <way id="123026652" version="4" timestamp="2022-06-27T03:40:59Z" changeset="122886686" uid="15273669" user="sivannap">
    <nd ref="1373186511"/>
    <nd ref="1373186512"/>
    <nd ref="6465307065"/>
    <nd ref="1777937373"/>
    <nd ref="6465306653"/>
    <nd ref="1373186519"/>
    <nd ref="6465307064"/>
    <nd ref="6465307063"/>
    <nd ref="1373186513"/>
    <nd ref="1373186522"/>
    <nd ref="1373186524"/>
    <nd ref="1373186515"/>
    <nd ref="9849270241"/>
    <nd ref="1373186528"/>
    <tag k="highway" v="residential"/>
    <tag k="name" v="The Green"/>
    <tag k="source" v="survey"/>
  </way>
  <way id="123026654" version="4" timestamp="2019-05-10T16:17:07Z" changeset="70115987" uid="9065" user="brianboru">
    <nd ref="1373186537"/>
    <nd ref="1373186540"/>
    <nd ref="6233831202"/>
    <nd ref="6233831204"/>
    <nd ref="1373186537"/>
    <tag k="addr:city" v="Broadwell"/>
    <tag k="addr:postcode" v="CV23 8HB"/>
    <tag k="addr:street" v="Main Street"/>
    <tag k="building" v="yes"/>
    <tag k="name" v="Broadwell Victory Hall"/>
    <tag k="source" v="survey"/>
  </way>
  <way id="131109084" version="4" timestamp="2016-07-23T18:29:07Z" changeset="40977064" uid="608760" user="gregrs">
    <nd ref="1443453061"/>
    <nd ref="1443453148"/>
    <nd ref="2508029373"/>
    <nd ref="1443453035"/>
    <nd ref="1443453214"/>
    <nd ref="2508029358"/>
    <nd ref="1443453063"/>
    <nd ref="1443453064"/>
    <nd ref="2508029349"/>
    <nd ref="1443453210"/>
    <nd ref="1443453178"/>
    <nd ref="1615654707"/>
    <tag k="access" v="destination"/>
    <tag k="highway" v="residential"/>
    <tag k="name" v="Ericather Lane"/>
    <tag k="surface" v="paved"/>
  </way>
  <way id="131109090" version="2" timestamp="2016-07-23T18:29:07Z" changeset="40977064" uid="608760" user="gregrs">
    <nd ref="1443453201"/>
    <nd ref="1443453191"/>
    <nd ref="1443453333"/>
    <nd ref="1443453314"/>
    <nd ref="1443453374"/>
    <nd ref="1443453318"/>
    <tag k="highway" v="residential"/>
    <tag k="maxspeed" v="60 mph"/>
    <tag k="maxspeed:type" v="GB:nsl_single"/>
    <tag k="name" v="Valley House Road"/>
  </way>
  <way id="131109093" version="2" timestamp="2013-10-25T08:36:51Z" changeset="18531821" uid="9065" user="brianboru">
    <nd ref="2508029401"/>
    <nd ref="1443453205"/>
    <nd ref="1443453315"/>
    <tag k="highway" v="residential"/>
    <tag k="name" v="The Orchard"/>
  </way>
  <way id="135586253" version="2" timestamp="2017-04-01T22:34:51Z" changeset="47369226" uid="4152282" user="TheDogfather">
    <nd ref="1488963648"/>
    <nd ref="1488963676"/>
    <nd ref="1488963645"/>
    <nd ref="1488963650"/>
    <nd ref="1488963648"/>
    <tag k="building" v="yes"/>
    <tag k="name" v="Home Farm"/>
    <tag k="source" v="Bing"/>
  </way>
  <way id="135586804" version="4" timestamp="2017-04-04T06:23:09Z" changeset="47432449" uid="4152282" user="TheDogfather">
    <nd ref="1488971984"/>
    <nd ref="1488971907"/>
    <tag k="highway" v="residential"/>
    <tag k="name" v="Croftlands"/>
    <tag k="oneway" v="no"/>
    <tag k="source" v="Bing"/>
    <tag k="surface" v="unpaved"/>
  </way>
  <way id="135590188" version="1" timestamp="2011-11-01T21:45:47Z" changeset="9717333" uid="185805" user="Jon Iles">
    <nd ref="1489017382"/>
    <nd ref="1489017348"/>
    <nd ref="1489017369"/>
    <nd ref="1489017371"/>
    <tag k="highway" v="unclassified"/>
    <tag k="source" v="Bing"/>
  </way>
  <way id="243915283" version="6" timestamp="2025-07-12T23:58:37Z" changeset="168855231" uid="8857" user="philipcullen">
    <nd ref="2512702444"/>
    <nd ref="2512702442"/>
    <nd ref="2512702452"/>
    <nd ref="6648123076"/>
    <nd ref="6648123075"/>
    <nd ref="2512702451"/>
    <nd ref="2512702417"/>
    <nd ref="2512702419"/>
    <nd ref="2512702406"/>
    <nd ref="2512702408"/>
    <nd ref="2512702400"/>
    <nd ref="2512702402"/>
    <nd ref="2512702410"/>
    <nd ref="2512702413"/>
    <nd ref="2512702420"/>
    <nd ref="2512702422"/>
    <nd ref="2512702444"/>
    <tag k="amenity" v="place_of_worship"/>
    <tag k="building" v="church"/>
    <tag k="denomination" v="anglican"/>
    <tag k="heritage" v="2"/>
    <tag k="heritage:operator" v="Historic England"/>
    <tag k="listed_status" v="Grade II*"/>
    <tag k="name" v="All Saints"/>
    <tag k="ref:GB:uprn" v="10010510851"/>
    <tag k="ref:dove" v="12260"/>
    <tag k="religion" v="christian"/>
    <tag k="wikidata" v="Q17550950"/>
  </way>
  <way id="243919785" version="5" timestamp="2025-02-15T01:07:56Z" changeset="162523152" uid="493595" user="Yorvik Prestigitator">
    <nd ref="2512743828"/>
    <nd ref="12588785478"/>
    <nd ref="2512743807"/>
    <nd ref="2512743794"/>
    <nd ref="2512743798"/>
    <nd ref="2512743789"/>
    <nd ref="2512743790"/>
    <nd ref="2512743816"/>
    <nd ref="2512743819"/>
    <nd ref="2512743828"/>
    <tag k="amenity" v="community_centre"/>
    <tag k="building" v="public"/>
    <tag k="community_centre" v="village_hall"/>
    <tag k="name" v="Leamington Hastings Village Hall"/>
    <tag k="source" v="OS_OpenData_StreetView"/>
  </way>
  <way id="320249840" version="4" timestamp="2025-04-07T17:11:04Z" changeset="164639978" uid="5589" user="user_5589">
    <nd ref="1615654707"/>
    <nd ref="4317377694"/>
    <nd ref="4317377691"/>
    <tag k="access" v="destination"/>
    <tag k="bicycle" v="yes"/>
    <tag k="designation" v="public_bridleway"/>
    <tag k="foot" v="designated"/>
    <tag k="highway" v="residential"/>
    <tag k="horse" v="designated"/>
    <tag k="name" v="Ericather Lane"/>
    <tag k="sidewalk" v="no"/>
    <tag k="surface" v="asphalt"/>
  </way>
  <way id="432782783" version="3" timestamp="2021-09-29T09:41:43Z" changeset="111852350" uid="34867" user="SammyTheSnake">
    <nd ref="4317377689"/>
    <nd ref="1443453079"/>
    <tag k="access" v="destination"/>
    <tag k="bicycle" v="yes"/>
    <tag k="designation" v="public_bridleway"/>
    <tag k="foot" v="designated"/>
    <tag k="highway" v="residential"/>
    <tag k="horse" v="designated"/>
    <tag k="name" v="Ericather Lane"/>
    <tag k="sidewalk" v="no"/>
    <tag k="surface" v="concrete"/>
  </way>
  <way id="432782784" version="2" timestamp="2021-10-02T10:13:59Z" changeset="111994575" uid="34867" user="SammyTheSnake">
    <nd ref="4317377691"/>
    <nd ref="4317377690"/>
    <nd ref="4317377689"/>
    <tag k="access" v="destination"/>
    <tag k="highway" v="residential"/>
    <tag k="name" v="Ericather Lane"/>
    <tag k="sidewalk" v="no"/>
    <tag k="surface" v="paved"/>
  </way>
  <way id="432782785" version="1" timestamp="2016-07-23T18:29:05Z" changeset="40977064" uid="608760" user="gregrs">
    <nd ref="4317377700"/>
    <nd ref="4317377696"/>
    <nd ref="4317377695"/>
    <nd ref="4317377697"/>
    <nd ref="4317377700"/>
    <tag k="building" v="house"/>
    <tag k="name" v="The Elms"/>
  </way>
  <way id="432782786" version="1" timestamp="2016-07-23T18:29:05Z" changeset="40977064" uid="608760" user="gregrs">
    <nd ref="4317377722"/>
    <nd ref="4317377720"/>
    <nd ref="4317377717"/>
    <nd ref="4317377718"/>
    <nd ref="4317377713"/>
    <nd ref="4317377715"/>
    <nd ref="4317377719"/>
    <nd ref="4317377721"/>
    <nd ref="4317377722"/>
    <tag k="building" v="house"/>
    <tag k="name" v="The Pastures"/>
    <tag k="source" v="survey"/>
    <tag k="source:geometry" v="Warwickshire CC Aerial Imagery 2013"/>
  </way>
  <way id="484287180" version="2" timestamp="2025-01-08T17:02:11Z" changeset="161141289" uid="5229644" user="Nathan_A_RF">
    <nd ref="4770307792"/>
    <nd ref="1488963665"/>
    <nd ref="1488963642"/>
    <nd ref="281470952"/>
    <nd ref="281470954"/>
    <nd ref="1488963694"/>
    <nd ref="281470955"/>
    <nd ref="1488963701"/>
    <nd ref="12484783902"/>
    <nd ref="281470957"/>
    <tag k="highway" v="unclassified"/>
    <tag k="maxspeed" v="60 mph"/>
    <tag k="maxspeed:type" v="GB:nsl_single"/>
    <tag k="name" v="Hospital Lane"/>
    <tag k="source" v="survey"/>
  </way>
  <way id="484287181" version="3" timestamp="2022-06-27T03:40:59Z" changeset="122886686" uid="15273669" user="sivannap">
    <nd ref="281470941"/>
    <nd ref="6465107138"/>
    <nd ref="6465107133"/>
    <nd ref="281470942"/>
    <nd ref="6465107134"/>
    <nd ref="6465107135"/>
    <nd ref="6465107124"/>
    <nd ref="281470943"/>
    <nd ref="1488971999"/>
    <nd ref="281470944"/>
    <nd ref="6465107791"/>
    <nd ref="281470945"/>
    <nd ref="1373186528"/>
    <nd ref="1488963660"/>
    <nd ref="1488963655"/>
    <nd ref="9849270239"/>
    <nd ref="281470947"/>
    <nd ref="281470948"/>
    <nd ref="281470949"/>
    <nd ref="1488963641"/>
    <nd ref="281470951"/>
    <nd ref="4770307792"/>
    <tag k="highway" v="unclassified"/>
    <tag k="maxspeed" v="30 mph"/>
    <tag k="name" v="Main Street"/>
    <tag k="source" v="survey"/>
  </way>
  <way id="484287182" version="3" timestamp="2019-10-14T08:01:50Z" changeset="75648137" uid="10170576" user="sabodige">
    <nd ref="281470935"/>
    <nd ref="2503502954"/>
    <nd ref="3267415948"/>
    <nd ref="281470936"/>
    <nd ref="2503502939"/>
    <nd ref="6465103075"/>
    <nd ref="2503502934"/>
    <nd ref="6465106530"/>
    <nd ref="281470937"/>
    <nd ref="6465106531"/>
    <nd ref="6877335653"/>
    <nd ref="6465107162"/>
    <nd ref="6465104936"/>
    <nd ref="6465104937"/>
    <nd ref="281470938"/>
    <nd ref="6465107161"/>
    <nd ref="281470939"/>
    <nd ref="281470941"/>
    <tag k="highway" v="unclassified"/>
    <tag k="maxspeed" v="30 mph"/>
    <tag k="name" v="Hayway Lane"/>
    <tag k="source" v="survey"/>
  </way>
  <way id="484287778" version="3" timestamp="2017-04-04T06:23:09Z" changeset="47432449" uid="4152282" user="TheDogfather">
    <nd ref="1488971907"/>
    <nd ref="1488972048"/>
    <nd ref="1488971890"/>
    <nd ref="1488971999"/>
    <tag k="highway" v="residential"/>
    <tag k="name" v="Croftlands"/>
    <tag k="oneway" v="no"/>
    <tag k="source" v="Bing"/>
    <tag k="surface" v="unpaved"/>
    <tag k="width" v="3"/>
  </way>
  <way id="689173489" version="1" timestamp="2019-05-10T16:17:04Z" changeset="70115987" uid="9065" user="brianboru">
    <nd ref="6465106982"/>
    <nd ref="6465106981"/>
    <nd ref="6465106980"/>
    <nd ref="6465106979"/>
    <nd ref="6465106982"/>
    <tag k="amenity" v="place_of_worship"/>
    <tag k="building" v="church"/>
    <tag k="denomination" v="anglican"/>
    <tag k="name" v="Church of the Good Shepherd"/>
    <tag k="religion" v="christian"/>
  </way>
  <way id="689173515" version="1" timestamp="2019-05-10T16:17:06Z" changeset="70115987" uid="9065" user="brianboru">
    <nd ref="6465107160"/>
    <nd ref="6465107159"/>
    <nd ref="6465107158"/>
    <nd ref="6465107157"/>
    <nd ref="6465107160"/>
    <tag k="amenity" v="place_of_worship"/>
    <tag k="building" v="church"/>
    <tag k="denomination" v="methodist"/>
    <tag k="name" v="Broadwell Methodist Church"/>
    <tag k="religion" v="christian"/>
    <tag k="source" v="Warwicks CC Aerial Imagery 2013"/>
  </way>
  <way id="842769874" version="4" timestamp="2021-09-28T09:59:08Z" changeset="111809396" uid="34867" user="SammyTheSnake">
    <nd ref="899514925"/>
    <nd ref="899514931"/>
    <nd ref="899514936"/>
    <nd ref="1482182989"/>
    <nd ref="899514940"/>
    <nd ref="899514942"/>
    <nd ref="25881096"/>
    <nd ref="25881074"/>
    <nd ref="25881097"/>
    <nd ref="1481504964"/>
    <nd ref="25881098"/>
    <nd ref="25881079"/>
    <nd ref="1481504928"/>
    <nd ref="899514760"/>
    <nd ref="25881101"/>
    <nd ref="899514591"/>
    <nd ref="1481504954"/>
    <nd ref="25881102"/>
    <nd ref="3269062103"/>
    <nd ref="30931196"/>
    <nd ref="899514605"/>
    <nd ref="899514639"/>
    <nd ref="25881075"/>
    <nd ref="25881076"/>
    <nd ref="3267494361"/>
    <nd ref="25881104"/>
    <nd ref="25881105"/>
    <nd ref="2509063534"/>
    <nd ref="25881106"/>
    <nd ref="1475518662"/>
    <nd ref="25881107"/>
    <nd ref="2509063582"/>
    <nd ref="7862114043"/>
    <nd ref="875606092"/>
    <nd ref="30931208"/>
    <tag k="cycleway:both" v="no"/>
    <tag k="highway" v="primary"/>
    <tag k="lanes" v="2"/>
    <tag k="maxspeed" v="50 mph"/>
    <tag k="ref" v="A426"/>
    <tag k="sidewalk" v="no"/>
    <tag k="surface" v="asphalt"/>
  </way>
  <way id="1224460618" version="1" timestamp="2023-11-16T13:52:51Z" changeset="144097682" uid="165" user="Richard">
    <nd ref="11355718251"/>
    <nd ref="2511347860"/>
    <nd ref="283473522"/>
    <nd ref="2511347819"/>
    <nd ref="528864694"/>
    <nd ref="2511347815"/>
    <nd ref="283473552"/>
    <nd ref="2511347813"/>
    <nd ref="1489017384"/>
    <nd ref="283473524"/>
    <nd ref="1489017360"/>
    <nd ref="8266221496"/>
    <nd ref="2501384123"/>
    <nd ref="283473553"/>
    <nd ref="2501384119"/>
    <nd ref="283473526"/>
    <nd ref="283473554"/>
    <nd ref="2502806231"/>
    <nd ref="2502806214"/>
    <nd ref="283473555"/>
    <nd ref="534436292"/>
    <nd ref="8919315312"/>
    <nd ref="283473529"/>
    <nd ref="2501384100"/>
    <nd ref="283473556"/>
    <nd ref="283473531"/>
    <nd ref="850049381"/>
    <nd ref="283473557"/>
    <tag k="highway" v="unclassified"/>
  </way>
  <way id="1224460619" version="1" timestamp="2023-11-16T13:52:51Z" changeset="144097682" uid="165" user="Richard">
    <nd ref="11355718254"/>
    <nd ref="11355718251"/>
    <tag k="bridge" v="yes"/>
    <tag k="highway" v="unclassified"/>
    <tag k="layer" v="1"/>
  </way>

</osm>
