<?xml version="1.0" encoding="UTF-8"?>
<osm version="0.6" generator="Overpass API 0.7.62.8 e802775f">
<note>The data included in this document is from www.openstreetmap.org. The data is made available under ODbL.</note>
<meta osm_base="2025-10-23T17:37:55Z" areas="2025-10-23T14:54:58Z"/>

  <node id="264484036" lat="52.1232624" lon="-1.5305068" version="6" timestamp="2011-11-11T12:34:23Z" changeset="9795901" uid="243152" user="ChinnorBoy"/>
  <node id="312300195" lat="52.1351705" lon="-1.5108011" version="2" timestamp="2013-11-26T11:25:02Z" changeset="19124880" uid="9065" user="brianboru"/>
  <node id="312300396" lat="52.1152063" lon="-1.4889079" version="4" timestamp="2022-01-07T17:07:12Z" changeset="115884830" uid="30587" user="IknowJoseph"/>
  <node id="747829807" lat="52.1133598" lon="-1.5389996" version="2" timestamp="2013-12-08T09:49:22Z" changeset="19337423" uid="9065" user="brianboru"/>
  <node id="1545705616" lat="52.1073837" lon="-1.5473507" version="3" timestamp="2013-12-08T13:22:46Z" changeset="19340432" uid="9065" user="brianboru"/>
  <node id="1545705626" lat="52.1071430" lon="-1.5392878" version="1" timestamp="2011-12-14T12:38:39Z" changeset="10115461" uid="165" user="Richard"/>
  <way id="24375848" version="14" timestamp="2025-06-01T10:32:09Z" changeset="167044046" uid="1782504" user="corgicity">
    <nd ref="264484036"/>
    <nd ref="11289391152"/>
    <nd ref="2600919238"/>
    <nd ref="2552395514"/>
    <nd ref="2552395529"/>
    <nd ref="264484037"/>
    <nd ref="2552395535"/>
    <nd ref="2561449286"/>
    <nd ref="264484038"/>
    <nd ref="264484039"/>
    <nd ref="2552395539"/>
    <nd ref="264484040"/>
    <nd ref="264484041"/>
    <nd ref="264484042"/>
    <nd ref="12878773128"/>
    <nd ref="264484043"/>
    <nd ref="264484044"/>
    <nd ref="264484045"/>
    <nd ref="264484046"/>
    <nd ref="7817502472"/>
    <nd ref="2552395576"/>
    <nd ref="264484047"/>
    <nd ref="2552395585"/>
    <nd ref="264484048"/>
    <nd ref="264484049"/>
    <nd ref="2549393206"/>
    <nd ref="264484050"/>
    <nd ref="264484051"/>
    <nd ref="7817502462"/>
    <nd ref="264484052"/>
    <nd ref="2552395766"/>
    <nd ref="264484053"/>
    <nd ref="264484054"/>
    <nd ref="9342080043"/>
    <nd ref="264484055"/>
    <nd ref="264484056"/>
    <nd ref="2561449739"/>
    <nd ref="264484057"/>
    <nd ref="264484058"/>
    <nd ref="264484059"/>
    <nd ref="2561449771"/>
    <nd ref="264484060"/>
    <nd ref="2561449806"/>
    <nd ref="264484061"/>
    <nd ref="264484062"/>
    <nd ref="2561449828"/>
    <nd ref="2561449858"/>
    <nd ref="264484063"/>
    <nd ref="264484064"/>
    <nd ref="2561449879"/>
    <nd ref="264484065"/>
    <nd ref="264484066"/>
    <nd ref="2561449930"/>
    <nd ref="2561449942"/>
    <nd ref="2561449951"/>
    <nd ref="264484067"/>
    <nd ref="264484068"/>
    <tag k="highway" v="tertiary"/>
  </way>
  <way id="25504178" version="22" timestamp="2023-10-25T18:30:50Z" changeset="143129620" uid="8355539" user="danthw_">
    <nd ref="264484036"/>
    <nd ref="11289391153"/>
    <nd ref="8266415803"/>
    <nd ref="7412884764"/>
    <nd ref="277911001"/>
    <nd ref="277911002"/>
    <nd ref="6776684029"/>
    <nd ref="277911003"/>
    <nd ref="2600926884"/>
    <nd ref="277911004"/>
    <nd ref="277911005"/>
    <nd ref="2563050744"/>
    <nd ref="2563050724"/>
    <nd ref="277911006"/>
    <nd ref="7113935571"/>
    <nd ref="7113935581"/>
    <nd ref="2600926883"/>
    <nd ref="747829807"/>
    <nd ref="277911007"/>
    <nd ref="6901543268"/>
    <nd ref="2571380059"/>
    <nd ref="6542516787"/>
    <nd ref="277911008"/>
    <nd ref="2571161131"/>
    <nd ref="2571161128"/>
    <nd ref="2571161122"/>
    <nd ref="732649881"/>
    <tag k="highway" v="tertiary"/>
    <tag k="name" v="Kineton Road"/>
  </way>
  <way id="59112664" version="4" timestamp="2020-12-28T10:06:05Z" changeset="96526127" uid="10170582" user="priymose">
    <nd ref="732649915"/>
    <nd ref="1611866984"/>
    <nd ref="8266377555"/>
    <nd ref="6798953470"/>
    <nd ref="732649911"/>
    <tag k="highway" v="unclassified"/>
  </way>
  <way id="59112692" version="5" timestamp="2022-02-06T12:41:25Z" changeset="117077629" uid="9065" user="brianboru">
    <nd ref="732649923"/>
    <nd ref="9483287890"/>
    <nd ref="2533869453"/>
    <nd ref="732649933"/>
    <nd ref="2533869472"/>
    <nd ref="2533869470"/>
    <nd ref="732649938"/>
    <nd ref="2533869465"/>
    <nd ref="1611866968"/>
    <nd ref="2533869467"/>
    <nd ref="732649939"/>
    <nd ref="2533869468"/>
    <nd ref="732649876"/>
    <nd ref="2025908671"/>
    <nd ref="2533869483"/>
    <nd ref="2533869485"/>
    <nd ref="2025908672"/>
    <nd ref="2025908684"/>
    <nd ref="2533869488"/>
    <nd ref="2025908673"/>
    <tag k="highway" v="unclassified"/>
    <tag k="name" v="Beech Road"/>
    <tag k="source:name" v="OS_OpenData_Locator"/>
  </way>
  <way id="59112693" version="3" timestamp="2019-09-16T09:53:02Z" changeset="74521777" uid="9065" user="brianboru">
    <nd ref="732649890"/>
    <nd ref="6798879473"/>
    <nd ref="732649897"/>
    <tag k="highway" v="unclassified"/>
    <tag k="name" v="Gilkes Lane"/>
    <tag k="source:name" v="OS_OpenData_Locator"/>
  </way>
  <way id="59112695" version="5" timestamp="2013-11-15T18:00:46Z" changeset="18919254" uid="9065" user="brianboru">
    <nd ref="732649881"/>
    <nd ref="732649906"/>
    <nd ref="732649890"/>
    <nd ref="1611867016"/>
    <nd ref="2533869473"/>
    <nd ref="1611867008"/>
    <nd ref="732649923"/>
    <tag k="highway" v="unclassified"/>
  </way>
  <way id="59112696" version="6" timestamp="2020-05-08T08:23:43Z" changeset="84878546" uid="10170568" user="shsahit">
    <nd ref="732649906"/>
    <nd ref="6585850292"/>
    <nd ref="6585850293"/>
    <nd ref="7496891997"/>
    <nd ref="2571380020"/>
    <nd ref="7005828581"/>
    <nd ref="732649914"/>
    <tag k="highway" v="unclassified"/>
    <tag k="name" v="Rouse Lane"/>
    <tag k="oneway" v="no"/>
    <tag k="source:name" v="OS_OpenData_Locator"/>
  </way>
  <way id="59112698" version="4" timestamp="2013-11-15T18:00:44Z" changeset="18919254" uid="9065" user="brianboru">
    <nd ref="732649884"/>
    <nd ref="2533869481"/>
    <nd ref="732649880"/>
    <nd ref="2533869477"/>
    <nd ref="732649933"/>
    <tag k="highway" v="unclassified"/>
    <tag k="name" v="Blackford Way"/>
    <tag k="source:name" v="OS_OpenData_Locator"/>
  </way>
  <way id="59112700" version="4" timestamp="2013-11-15T18:00:44Z" changeset="18919254" uid="9065" user="brianboru">
    <nd ref="732649918"/>
    <nd ref="732649922"/>
    <nd ref="1611867027"/>
    <nd ref="1611866928"/>
    <nd ref="2533869418"/>
    <nd ref="1611866944"/>
    <nd ref="2533869425"/>
    <nd ref="2533869430"/>
    <nd ref="1611866990"/>
    <nd ref="732649932"/>
    <nd ref="2533869443"/>
    <nd ref="2533869451"/>
    <nd ref="732649938"/>
    <tag k="highway" v="unclassified"/>
    <tag k="name" v="Back Lane"/>
    <tag k="source:name" v="OS_OpenData_Locator"/>
  </way>
  <way id="60208825" version="7" timestamp="2023-10-25T18:30:50Z" changeset="143129620" uid="8355539" user="danthw_">
    <nd ref="747829807"/>
    <nd ref="2571161192"/>
    <nd ref="747829815"/>
    <nd ref="2564391636"/>
    <nd ref="2564391638"/>
    <nd ref="2600922816"/>
    <nd ref="747829817"/>
    <nd ref="2564391641"/>
    <nd ref="2600922817"/>
    <nd ref="747829818"/>
    <nd ref="747829821"/>
    <nd ref="2564391645"/>
    <nd ref="747829823"/>
    <nd ref="2564391670"/>
    <nd ref="747829825"/>
    <nd ref="747829827"/>
    <nd ref="6623692050"/>
    <nd ref="8404535245"/>
    <nd ref="2564391687"/>
    <nd ref="747829829"/>
    <nd ref="2564391689"/>
    <nd ref="2564391691"/>
    <nd ref="747829831"/>
    <nd ref="2564391699"/>
    <nd ref="747829835"/>
    <nd ref="747829837"/>
    <nd ref="11289391154"/>
    <nd ref="747829789"/>
    <tag k="highway" v="unclassified"/>
  </way>
  <way id="115569072" version="18" timestamp="2025-01-02T18:43:33Z" changeset="160921475" uid="5229644" user="Nathan_A_RF">
    <nd ref="312300396"/>
    <nd ref="15830472"/>
    <nd ref="1498577641"/>
    <nd ref="1498577685"/>
    <nd ref="1498577689"/>
    <nd ref="1498577765"/>
    <nd ref="1498577639"/>
    <nd ref="1498577793"/>
    <nd ref="1498577723"/>
    <nd ref="1498577699"/>
    <nd ref="15830473"/>
    <nd ref="1498577668"/>
    <nd ref="1498577743"/>
    <nd ref="1498577709"/>
    <nd ref="1498577741"/>
    <nd ref="1498577681"/>
    <nd ref="1498577720"/>
    <nd ref="312300204"/>
    <nd ref="1498577781"/>
    <nd ref="1498577758"/>
    <nd ref="1498577678"/>
    <nd ref="1498577712"/>
    <nd ref="1498577722"/>
    <nd ref="1498577683"/>
    <nd ref="1498577770"/>
    <nd ref="15830474"/>
    <nd ref="1498577767"/>
    <nd ref="1498577736"/>
    <nd ref="1498577751"/>
    <nd ref="1498577744"/>
    <nd ref="1498577646"/>
    <nd ref="6905297275"/>
    <nd ref="1498577654"/>
    <nd ref="1498577661"/>
    <nd ref="1498577773"/>
    <nd ref="15830475"/>
    <nd ref="1498577715"/>
    <nd ref="1498577746"/>
    <nd ref="1498577730"/>
    <nd ref="15830476"/>
    <nd ref="1498577796"/>
    <nd ref="1498577697"/>
    <nd ref="6564208615"/>
    <nd ref="1498577643"/>
    <nd ref="8109887732"/>
    <nd ref="1498577704"/>
    <nd ref="15830477"/>
    <nd ref="1498577686"/>
    <nd ref="1498577732"/>
    <nd ref="1498577653"/>
    <nd ref="1498577713"/>
    <nd ref="1498577677"/>
    <nd ref="1498577688"/>
    <nd ref="1498577649"/>
    <nd ref="15830478"/>
    <nd ref="1498577672"/>
    <nd ref="264484036"/>
    <nd ref="1498577663"/>
    <nd ref="1498577757"/>
    <nd ref="1498577655"/>
    <nd ref="1498577776"/>
    <nd ref="1498577687"/>
    <nd ref="15830479"/>
    <nd ref="1498577742"/>
    <nd ref="15830480"/>
    <nd ref="1498577734"/>
    <nd ref="1498577708"/>
    <nd ref="1498577665"/>
    <nd ref="1498577792"/>
    <nd ref="1498577798"/>
    <nd ref="1498577669"/>
    <nd ref="610651399"/>
    <nd ref="1498577664"/>
    <nd ref="1498577711"/>
    <nd ref="1498577673"/>
    <nd ref="1498577666"/>
    <nd ref="610651400"/>
    <nd ref="610651401"/>
    <nd ref="1498577731"/>
    <nd ref="747829789"/>
    <nd ref="1498577721"/>
    <nd ref="1498577656"/>
    <nd ref="1498577784"/>
    <nd ref="15830498"/>
    <nd ref="1498722383"/>
    <nd ref="1498722464"/>
    <nd ref="1498722379"/>
    <nd ref="1498722515"/>
    <nd ref="732649877"/>
    <nd ref="15830497"/>
    <nd ref="1498722485"/>
    <nd ref="1498722489"/>
    <nd ref="1498722433"/>
    <nd ref="1498722385"/>
    <nd ref="2561449229"/>
    <nd ref="15830496"/>
    <nd ref="1498722400"/>
    <nd ref="1498722483"/>
    <nd ref="1498722476"/>
    <nd ref="1498722387"/>
    <nd ref="15830495"/>
    <nd ref="1498722403"/>
    <nd ref="600095428"/>
    <nd ref="1498722521"/>
    <nd ref="1498722498"/>
    <nd ref="1498722502"/>
    <tag k="cycleway:both" v="no"/>
    <tag k="highway" v="primary"/>
    <tag k="lanes" v="2"/>
    <tag k="maxspeed" v="60 mph"/>
    <tag k="maxspeed:type" v="GB:nsl_single"/>
    <tag k="ref" v="A422"/>
    <tag k="shoulder" v="no"/>
    <tag k="surface" v="asphalt"/>
  </way>
  <way id="141196914" version="8" timestamp="2020-02-28T10:03:22Z" changeset="81584146" uid="10455625" user="bmmundad">
    <nd ref="1545705616"/>
    <nd ref="2571379800"/>
    <nd ref="1545705615"/>
    <nd ref="1545705608"/>
    <nd ref="2569662879"/>
    <nd ref="6538927262"/>
    <nd ref="1545705607"/>
    <nd ref="1545705606"/>
    <nd ref="1545705605"/>
    <nd ref="1545705604"/>
    <nd ref="1545705603"/>
    <nd ref="1545705602"/>
    <nd ref="7249620873"/>
    <nd ref="1545705601"/>
    <nd ref="6905764103"/>
    <nd ref="1545705600"/>
    <nd ref="1545705599"/>
    <nd ref="755859669"/>
    <nd ref="5823195201"/>
    <nd ref="5802206552"/>
    <nd ref="5802206551"/>
    <nd ref="1545705652"/>
    <tag k="highway" v="tertiary"/>
  </way>
  <way id="141196919" version="4" timestamp="2017-04-08T16:04:52Z" changeset="47571776" uid="346039" user="fitzsimons">
    <nd ref="1545705626"/>
    <nd ref="1545705627"/>
    <nd ref="1611866988"/>
    <nd ref="1545705628"/>
    <nd ref="2559826875"/>
    <nd ref="1545705629"/>
    <nd ref="1545705630"/>
    <nd ref="1545705613"/>
    <nd ref="1545705631"/>
    <nd ref="2559826868"/>
    <nd ref="755836521"/>
    <nd ref="1545705632"/>
    <nd ref="4783164040"/>
    <tag k="highway" v="unclassified"/>
    <tag k="name" v="Tysoe Road"/>
    <tag k="source:name" v="OSSV"/>
  </way>
  <way id="141196922" version="4" timestamp="2022-02-06T12:41:25Z" changeset="117077629" uid="9065" user="brianboru">
    <nd ref="1545705616"/>
    <nd ref="2571379795"/>
    <nd ref="1545705617"/>
    <nd ref="1545705618"/>
    <nd ref="1545705619"/>
    <nd ref="9483289625"/>
    <nd ref="1545705620"/>
    <nd ref="1545705621"/>
    <nd ref="6757215104"/>
    <nd ref="1545705622"/>
    <nd ref="1545705623"/>
    <nd ref="1545705624"/>
    <nd ref="1545705625"/>
    <nd ref="1545705626"/>
    <tag k="highway" v="unclassified"/>
    <tag k="name" v="Green Lane"/>
    <tag k="source:name" v="OSSV"/>
  </way>
  <way id="148074721" version="8" timestamp="2023-12-01T09:06:34Z" changeset="144654010" uid="504708" user="HillWithSmallFields">
    <nd ref="1611866946"/>
    <nd ref="1611867053"/>
    <nd ref="1611866993"/>
    <nd ref="1611866954"/>
    <nd ref="6798977928"/>
    <nd ref="6798977926"/>
    <nd ref="6798977925"/>
    <nd ref="6798977927"/>
    <nd ref="1611866946"/>
    <tag k="amenity" v="place_of_worship"/>
    <tag k="building" v="church"/>
    <tag k="denomination" v="anglican"/>
    <tag k="heritage" v="2"/>
    <tag k="heritage:operator" v="Historic England"/>
    <tag k="listed_status" v="Grade I"/>
    <tag k="name" v="St. Lawrence"/>
    <tag k="ref:dove" v="10296"/>
    <tag k="religion" v="christian"/>
    <tag k="source" v="Historic England"/>
    <tag k="website" v="http://www.oxhill.org.uk/StLawrence.htm"/>
    <tag k="wikidata" v="Q17528402"/>
  </way>
  <way id="191357606" version="10" timestamp="2025-01-02T19:03:54Z" changeset="160922478" uid="5229644" user="Nathan_A_RF">
    <nd ref="312300195"/>
    <nd ref="2552395695"/>
    <nd ref="9342080051"/>
    <nd ref="2533807175"/>
    <nd ref="312300197"/>
    <nd ref="312300198"/>
    <nd ref="12110800622"/>
    <nd ref="12110800621"/>
    <nd ref="12110800620"/>
    <nd ref="312300199"/>
    <nd ref="12110800619"/>
    <nd ref="12110800618"/>
    <nd ref="2533807173"/>
    <nd ref="2552395536"/>
    <nd ref="2533807165"/>
    <nd ref="312300200"/>
    <nd ref="2552395527"/>
    <nd ref="312300201"/>
    <nd ref="12110800623"/>
    <nd ref="2552395523"/>
    <nd ref="2552425441"/>
    <nd ref="2552395522"/>
    <nd ref="12110800624"/>
    <nd ref="2533807155"/>
    <nd ref="12110800625"/>
    <nd ref="312300203"/>
    <nd ref="12110800626"/>
    <nd ref="12110800627"/>
    <nd ref="2533807147"/>
    <nd ref="12110800628"/>
    <nd ref="12110800629"/>
    <nd ref="2533807146"/>
    <nd ref="12110800630"/>
    <nd ref="12110800631"/>
    <nd ref="12110800632"/>
    <nd ref="312300204"/>
    <tag k="highway" v="tertiary"/>
    <tag k="lanes" v="2"/>
    <tag k="maxspeed" v="60 mph"/>
    <tag k="maxspeed:type" v="GB:nsl_single"/>
    <tag k="maxweight" v="7.5"/>
    <tag k="name" v="Tysoe Road"/>
    <tag k="source" v="NPE"/>
  </way>
  <way id="191357628" version="11" timestamp="2021-08-13T06:51:03Z" changeset="109608620" uid="11558590" user="gppavani">
    <nd ref="312300195"/>
    <nd ref="2552395782"/>
    <nd ref="312300194"/>
    <nd ref="2554190875"/>
    <nd ref="2552395795"/>
    <nd ref="312300193"/>
    <nd ref="2552395800"/>
    <nd ref="312300192"/>
    <nd ref="2552395810"/>
    <nd ref="312300190"/>
    <nd ref="312300189"/>
    <nd ref="2552907930"/>
    <nd ref="312300188"/>
    <nd ref="312300187"/>
    <nd ref="2552395840"/>
    <nd ref="2552395864"/>
    <nd ref="312300186"/>
    <nd ref="2552395872"/>
    <nd ref="312300185"/>
    <nd ref="312300184"/>
    <nd ref="2552395889"/>
    <nd ref="312300183"/>
    <nd ref="2552395899"/>
    <nd ref="2552395904"/>
    <nd ref="312300181"/>
    <nd ref="264484068"/>
    <nd ref="2552395917"/>
    <nd ref="2554212554"/>
    <nd ref="264484069"/>
    <nd ref="264484070"/>
    <nd ref="264484071"/>
    <nd ref="2554212581"/>
    <nd ref="264484072"/>
    <nd ref="2554212587"/>
    <nd ref="264484073"/>
    <nd ref="2554212588"/>
    <nd ref="2554217272"/>
    <nd ref="2554217274"/>
    <nd ref="2554217277"/>
    <nd ref="264484074"/>
    <nd ref="264484075"/>
    <nd ref="2554212595"/>
    <nd ref="9003118164"/>
    <nd ref="2554212603"/>
    <nd ref="2554212609"/>
    <nd ref="484318483"/>
    <nd ref="264484077"/>
    <nd ref="264484078"/>
    <nd ref="2188181682"/>
    <nd ref="264484079"/>
    <nd ref="5335255097"/>
    <nd ref="5335255098"/>
    <nd ref="5335255096"/>
    <nd ref="1547225046"/>
    <tag k="highway" v="tertiary"/>
    <tag k="name" v="Tysoe Road"/>
    <tag k="source" v="NPE"/>
    <tag k="source:name" v="OS_OpenData_Locator"/>
  </way>
  <way id="191357636" version="7" timestamp="2020-07-29T10:24:11Z" changeset="88671999" uid="10252551" user="amanura">
    <nd ref="732649881"/>
    <nd ref="2571161113"/>
    <nd ref="277911009"/>
    <nd ref="277911010"/>
    <nd ref="6585841431"/>
    <nd ref="7765054214"/>
    <nd ref="2025908686"/>
    <nd ref="2571161021"/>
    <nd ref="277911011"/>
    <nd ref="2571161005"/>
    <nd ref="2571161000"/>
    <nd ref="277911012"/>
    <nd ref="2571379850"/>
    <nd ref="2559826896"/>
    <nd ref="2571379841"/>
    <nd ref="1545705614"/>
    <nd ref="2571379825"/>
    <nd ref="2571379820"/>
    <nd ref="277911013"/>
    <nd ref="2571379811"/>
    <nd ref="277911015"/>
    <nd ref="1545705616"/>
    <tag k="highway" v="tertiary"/>
    <tag k="name" v="Whatcote Road"/>
    <tag k="source:name" v="OS_OpenData_Locator"/>
  </way>
  <way id="192025146" version="1" timestamp="2012-11-22T03:31:26Z" changeset="13981027" uid="4951" user="PeterEastern">
    <nd ref="732649915"/>
    <nd ref="1545705626"/>
    <tag k="highway" v="unclassified"/>
    <tag k="name" v="Church Lane"/>
    <tag k="source:name" v="OS_OpenData_Locator"/>
  </way>
  <way id="192025147" version="2" timestamp="2013-11-15T18:00:45Z" changeset="18919254" uid="9065" user="brianboru">
    <nd ref="732649923"/>
    <nd ref="2533869446"/>
    <nd ref="1611866970"/>
    <nd ref="732649898"/>
    <nd ref="1611866926"/>
    <nd ref="1611867022"/>
    <nd ref="1611866967"/>
    <nd ref="732649918"/>
    <nd ref="732649908"/>
    <nd ref="1611866942"/>
    <nd ref="732649915"/>
    <tag k="highway" v="unclassified"/>
    <tag k="name" v="Main Street"/>
    <tag k="source:name" v="OS_OpenData_Locator"/>
  </way>
  <way id="192025151" version="1" timestamp="2012-11-22T03:31:27Z" changeset="13981027" uid="4951" user="PeterEastern">
    <nd ref="2025908687"/>
    <nd ref="2025908686"/>
    <tag k="highway" v="residential"/>
    <tag k="name" v="The Sett"/>
    <tag k="source:name" v="OS_OpenData_Locator"/>
  </way>
  <way id="485529604" version="3" timestamp="2025-03-16T02:35:47Z" changeset="163673411" uid="493595" user="Yorvik Prestigitator">
    <nd ref="4783112557"/>
    <nd ref="4783112558"/>
    <nd ref="4783112559"/>
    <nd ref="4783112560"/>
    <nd ref="4783112561"/>
    <nd ref="4783112562"/>
    <nd ref="4783112557"/>
    <tag k="addr:city" v="Oxhill"/>
    <tag k="addr:street" v="Main Street"/>
    <tag k="amenity" v="community_centre"/>
    <tag k="building" v="public"/>
    <tag k="community_centre" v="village_hall"/>
    <tag k="name" v="Oxhill Village Hall"/>
    <tag k="source" v="survey"/>
    <tag k="website" v="http://www.oxhill.org.uk/VillageHall.htm"/>
  </way>
  <way id="719931543" version="2" timestamp="2020-01-25T23:44:01Z" changeset="80086396" uid="508" user="Welshie">
    <nd ref="6757215104"/>
    <nd ref="6757215105"/>
    <nd ref="6757215106"/>
    <nd ref="6757215107"/>
    <tag k="highway" v="residential"/>
    <tag k="name" v="Groves Close"/>
    <tag k="surface" v="unpaved"/>
  </way>
  <way id="766574845" version="2" timestamp="2021-04-07T18:31:17Z" changeset="102501187" uid="10205154" user="mundlk">
    <nd ref="7159581227"/>
    <nd ref="7159581226"/>
    <nd ref="7159581225"/>
    <nd ref="7159581231"/>
    <tag k="access" v="private"/>
    <tag k="highway" v="residential"/>
  </way>
  <way id="766574846" version="4" timestamp="2022-02-06T12:41:25Z" changeset="117077629" uid="9065" user="brianboru">
    <nd ref="6585841431"/>
    <nd ref="7159581233"/>
    <nd ref="7159581232"/>
    <nd ref="8603378008"/>
    <nd ref="7159581231"/>
    <nd ref="7159581230"/>
    <nd ref="8919840278"/>
    <nd ref="7159581229"/>
    <nd ref="8603378004"/>
    <nd ref="8603378005"/>
    <nd ref="8603378006"/>
    <nd ref="8603378007"/>
    <tag k="highway" v="residential"/>
    <tag k="name" v="Leys Field"/>
    <tag k="source" v="OS_OpenMap_Local"/>
  </way>
  <way id="766574847" version="1" timestamp="2020-01-25T23:44:01Z" changeset="80086396" uid="508" user="Welshie">
    <nd ref="7159581235"/>
    <nd ref="6757215107"/>
    <nd ref="7159581234"/>
    <tag k="highway" v="residential"/>
    <tag k="name" v="Groves Close"/>
  </way>
  <way id="1028632387" version="3" timestamp="2025-02-24T07:42:02Z" changeset="162879391" uid="4339666" user="stephengmatthews">
    <nd ref="9483289268"/>
    <nd ref="9483289267"/>
    <nd ref="9483289457"/>
    <nd ref="9483289255"/>
    <nd ref="9483289266"/>
    <nd ref="9483289265"/>
    <nd ref="9483289264"/>
    <nd ref="12615202252"/>
    <nd ref="9483289268"/>
    <tag k="amenity" v="pub"/>
    <tag k="building" v="yes"/>
    <tag k="fhrs:id" v="1584578"/>
    <tag k="name" v="The Peacock"/>
    <tag k="source" v="bing"/>
    <tag k="website" v="https://www.peacockoxhill.com/"/>
  </way>

</osm>
