<?xml version="1.0" encoding="UTF-8"?>
<osm version="0.6" generator="Overpass API 0.7.62.8 e802775f">
<note>The data included in this document is from www.openstreetmap.org. The data is made available under ODbL.</note>
<meta osm_base="2025-10-23T17:27:27Z" areas="2025-10-23T14:54:58Z"/>

  <node id="26338271" lat="52.1417406" lon="-1.6153205" version="5" timestamp="2025-02-02T15:25:34Z" changeset="162051184" uid="19756269" user="RyanBush"/>
  <node id="26338433" lat="52.1418505" lon="-1.6141292" version="3" timestamp="2025-02-02T15:25:34Z" changeset="162051184" uid="19756269" user="RyanBush"/>
  <node id="26338653" lat="52.1130430" lon="-1.6175699" version="6" timestamp="2025-01-02T14:54:10Z" changeset="160910838" uid="5229644" user="Nathan_A_RF"/>
  <node id="28264833" lat="52.1259712" lon="-1.5800482" version="3" timestamp="2013-12-04T13:11:46Z" changeset="19271794" uid="9065" user="brianboru"/>
  <node id="289685878" lat="52.1311704" lon="-1.6147502" version="5" timestamp="2025-02-02T15:25:34Z" changeset="162051184" uid="19756269" user="RyanBush"/>
  <node id="1498722447" lat="52.1260059" lon="-1.5790971" version="1" timestamp="2011-11-11T14:32:59Z" changeset="9796831" uid="243152" user="ChinnorBoy"/>
  <node id="1498722525" lat="52.1323424" lon="-1.5966519" version="3" timestamp="2020-04-02T12:13:44Z" changeset="82979925" uid="9065" user="brianboru"/>
  <node id="1545705612" lat="52.1136758" lon="-1.5863137" version="2" timestamp="2012-01-23T14:51:07Z" changeset="10475956" uid="9065" user="brianboru"/>
  <node id="1611835051" lat="52.1177513" lon="-1.5963532" version="2" timestamp="2012-03-19T23:07:13Z" changeset="11035916" uid="84263" user="Robert Whittaker"/>
  <node id="1682454483" lat="52.1282626" lon="-1.6339410" version="2" timestamp="2021-10-11T09:20:45Z" changeset="112365135" uid="9065" user="brianboru"/>
  <node id="2468767293" lat="52.1551352" lon="-1.5757236" version="1" timestamp="2013-09-23T13:02:00Z" changeset="17990767" uid="9065" user="brianboru"/>
  <node id="2627288096" lat="52.1079462" lon="-1.5878215" version="2" timestamp="2016-07-05T11:10:15Z" changeset="40497144" uid="705850" user="Cebderby"/>
  <node id="5335278811" lat="52.1460711" lon="-1.5844217" version="1" timestamp="2018-01-12T17:09:16Z" changeset="55385975" uid="6164655" user="Mike Parfitt"/>
  <way id="4328367" version="9" timestamp="2025-02-02T15:25:34Z" changeset="162051184" uid="19756269" user="RyanBush">
    <nd ref="1474100076"/>
    <nd ref="26338421"/>
    <nd ref="26338422"/>
    <nd ref="1474100073"/>
    <nd ref="26338423"/>
    <nd ref="1474100071"/>
    <nd ref="26338424"/>
    <nd ref="12468987631"/>
    <nd ref="1474100068"/>
    <nd ref="26338425"/>
    <nd ref="1474100070"/>
    <nd ref="26338426"/>
    <nd ref="1474100072"/>
    <nd ref="26338427"/>
    <nd ref="1474100074"/>
    <nd ref="26338428"/>
    <nd ref="1474100077"/>
    <nd ref="26338429"/>
    <nd ref="1474100079"/>
    <nd ref="26338417"/>
    <nd ref="26338418"/>
    <nd ref="1474100081"/>
    <nd ref="26338419"/>
    <nd ref="26338420"/>
    <nd ref="1474100076"/>
    <tag k="highway" v="trunk"/>
    <tag k="junction" v="roundabout"/>
    <tag k="lanes" v="2"/>
    <tag k="maxspeed" v="50 mph"/>
    <tag k="maxspeed:type" v="sign"/>
    <tag k="oneway" v="yes"/>
    <tag k="ref" v="A429"/>
    <tag k="restriction" v="no_stopping"/>
    <tag k="source" v="survey"/>
    <tag k="source:maxspeed" v="survey"/>
    <tag k="surface" v="asphalt"/>
  </way>
  <way id="4328368" version="28" timestamp="2025-02-02T15:52:24Z" changeset="162052287" uid="19756269" user="RyanBush">
    <nd ref="26338433"/>
    <nd ref="12551425714"/>
    <nd ref="26338270"/>
    <nd ref="12551425715"/>
    <nd ref="15830516"/>
    <nd ref="12551425716"/>
    <nd ref="26338286"/>
    <nd ref="5819993034"/>
    <nd ref="11071056555"/>
    <nd ref="15830517"/>
    <nd ref="12551425717"/>
    <nd ref="1474100085"/>
    <nd ref="12551425718"/>
    <nd ref="5819993033"/>
    <nd ref="26338285"/>
    <nd ref="1474100086"/>
    <nd ref="15830518"/>
    <nd ref="12551425719"/>
    <nd ref="12551425720"/>
    <nd ref="1474100087"/>
    <nd ref="12551425721"/>
    <nd ref="11010319897"/>
    <nd ref="12551425722"/>
    <nd ref="2574329837"/>
    <nd ref="12551425723"/>
    <nd ref="15830519"/>
    <nd ref="12551425724"/>
    <nd ref="1474100088"/>
    <nd ref="12551425725"/>
    <nd ref="26338284"/>
    <nd ref="1474100089"/>
    <nd ref="12551425726"/>
    <nd ref="889232702"/>
    <nd ref="889233106"/>
    <nd ref="12551425727"/>
    <nd ref="12551425728"/>
    <nd ref="12551425729"/>
    <nd ref="1474100090"/>
    <nd ref="12551425730"/>
    <nd ref="15830521"/>
    <nd ref="12551425731"/>
    <nd ref="1474100091"/>
    <nd ref="12551425732"/>
    <nd ref="12551425733"/>
    <nd ref="26338283"/>
    <nd ref="12551425734"/>
    <nd ref="1474100092"/>
    <nd ref="12551425735"/>
    <nd ref="15830522"/>
    <nd ref="12551425736"/>
    <nd ref="12551425737"/>
    <nd ref="1474100093"/>
    <nd ref="1474100094"/>
    <nd ref="26338282"/>
    <nd ref="5819993004"/>
    <nd ref="12551425738"/>
    <nd ref="15830523"/>
    <nd ref="12551425739"/>
    <nd ref="1474100095"/>
    <nd ref="12551425740"/>
    <nd ref="2280622063"/>
    <nd ref="12551425741"/>
    <nd ref="12551425742"/>
    <nd ref="26338281"/>
    <nd ref="12551425743"/>
    <nd ref="1474100096"/>
    <nd ref="12551425744"/>
    <nd ref="15830524"/>
    <nd ref="12551425745"/>
    <nd ref="12551425746"/>
    <nd ref="1474100097"/>
    <nd ref="12551425747"/>
    <nd ref="26338003"/>
    <nd ref="12551425748"/>
    <nd ref="1474100098"/>
    <nd ref="12551425749"/>
    <nd ref="15830525"/>
    <nd ref="2280620201"/>
    <nd ref="1474100099"/>
    <nd ref="12551425750"/>
    <nd ref="1474100100"/>
    <nd ref="12551425751"/>
    <nd ref="26338002"/>
    <nd ref="12551425752"/>
    <nd ref="1474100101"/>
    <nd ref="12551425753"/>
    <nd ref="1474100102"/>
    <nd ref="15830526"/>
    <nd ref="12551425754"/>
    <nd ref="1474100103"/>
    <nd ref="12551425755"/>
    <nd ref="2280620208"/>
    <nd ref="12551425756"/>
    <nd ref="26338001"/>
    <nd ref="12551425757"/>
    <nd ref="1474100104"/>
    <nd ref="12551425758"/>
    <nd ref="1474100105"/>
    <nd ref="26338000"/>
    <nd ref="2337403461"/>
    <nd ref="12551425759"/>
    <nd ref="1474100106"/>
    <nd ref="12551425760"/>
    <nd ref="15830527"/>
    <nd ref="12551425761"/>
    <nd ref="26337999"/>
    <nd ref="1474100107"/>
    <nd ref="12551425762"/>
    <nd ref="26337998"/>
    <nd ref="12551425763"/>
    <nd ref="289686817"/>
    <tag k="highway" v="trunk"/>
    <tag k="lanes" v="2"/>
    <tag k="maxspeed" v="60 mph"/>
    <tag k="maxspeed:type" v="GB:nsl_single"/>
    <tag k="ref" v="A429"/>
    <tag k="restriction" v="no_stopping"/>
    <tag k="shoulder" v="no"/>
    <tag k="source" v="survey"/>
    <tag k="source:maxspeed" v="survey"/>
    <tag k="surface" v="asphalt"/>
  </way>
  <way id="4328400" version="7" timestamp="2025-02-02T15:25:34Z" changeset="162051184" uid="19756269" user="RyanBush">
    <nd ref="1474100068"/>
    <nd ref="12551368370"/>
    <nd ref="26338436"/>
    <nd ref="26338273"/>
    <tag k="highway" v="trunk"/>
    <tag k="lanes" v="1"/>
    <tag k="maxspeed" v="50 mph"/>
    <tag k="maxspeed:type" v="sign"/>
    <tag k="name" v="Ettington Bypass"/>
    <tag k="oneway" v="yes"/>
    <tag k="ref" v="A429"/>
    <tag k="restriction" v="no_stopping"/>
    <tag k="source" v="survey"/>
    <tag k="source:maxspeed" v="survey"/>
  </way>
  <way id="4328401" version="10" timestamp="2025-02-02T15:25:34Z" changeset="162051184" uid="19756269" user="RyanBush">
    <nd ref="26338433"/>
    <nd ref="26338434"/>
    <nd ref="12551368377"/>
    <nd ref="26338420"/>
    <tag k="highway" v="trunk"/>
    <tag k="lanes" v="2"/>
    <tag k="maxspeed" v="50 mph"/>
    <tag k="maxspeed:type" v="sign"/>
    <tag k="oneway" v="yes"/>
    <tag k="ref" v="A429"/>
    <tag k="restriction" v="no_stopping"/>
    <tag k="shoulder" v="no"/>
    <tag k="source" v="survey"/>
    <tag k="source:maxspeed" v="survey"/>
    <tag k="surface" v="asphalt"/>
  </way>
  <way id="4328402" version="22" timestamp="2025-03-09T14:43:39Z" changeset="163403709" uid="493595" user="Yorvik Prestigitator">
    <nd ref="26338672"/>
    <nd ref="26338274"/>
    <nd ref="1498724881"/>
    <nd ref="15830511"/>
    <nd ref="2577127681"/>
    <nd ref="889233595"/>
    <nd ref="1498724879"/>
    <nd ref="26338275"/>
    <nd ref="1498724883"/>
    <nd ref="26338673"/>
    <nd ref="26338674"/>
    <nd ref="1682441869"/>
    <nd ref="1498724887"/>
    <nd ref="26338675"/>
    <nd ref="889233418"/>
    <nd ref="15830512"/>
    <nd ref="889234186"/>
    <nd ref="12647676199"/>
    <nd ref="12647676196"/>
    <nd ref="1498724880"/>
    <nd ref="26338276"/>
    <nd ref="1498724886"/>
    <nd ref="889232471"/>
    <nd ref="26338676"/>
    <nd ref="889233023"/>
    <nd ref="889234544"/>
    <nd ref="15830513"/>
    <nd ref="889234027"/>
    <nd ref="11336736550"/>
    <nd ref="1498724889"/>
    <nd ref="15830514"/>
    <nd ref="1498724877"/>
    <nd ref="26338678"/>
    <nd ref="26338677"/>
    <nd ref="2274374081"/>
    <nd ref="889243093"/>
    <nd ref="26338277"/>
    <nd ref="9076177321"/>
    <nd ref="2274374098"/>
    <nd ref="9172594562"/>
    <nd ref="1498724878"/>
    <nd ref="26338278"/>
    <nd ref="1498724888"/>
    <nd ref="26338679"/>
    <nd ref="6750213482"/>
    <nd ref="1498724882"/>
    <nd ref="26338280"/>
    <nd ref="1498722420"/>
    <nd ref="1498722493"/>
    <nd ref="8065625941"/>
    <nd ref="1498722448"/>
    <nd ref="15830515"/>
    <tag k="highway" v="primary"/>
    <tag k="lanes" v="2"/>
    <tag k="maxspeed" v="30 mph"/>
    <tag k="name" v="Banbury Road"/>
    <tag k="ref" v="A422"/>
    <tag k="surface" v="asphalt"/>
  </way>
  <way id="4328438" version="6" timestamp="2025-02-02T15:25:34Z" changeset="162051184" uid="19756269" user="RyanBush">
    <nd ref="26338272"/>
    <nd ref="1474100067"/>
    <nd ref="26338430"/>
    <nd ref="12551368371"/>
    <nd ref="26338424"/>
    <tag k="highway" v="primary"/>
    <tag k="maxspeed" v="50 mph"/>
    <tag k="maxspeed:type" v="sign"/>
    <tag k="name" v="Banbury Road"/>
    <tag k="oneway" v="yes"/>
    <tag k="ref" v="A422"/>
  </way>
  <way id="4436973" version="18" timestamp="2025-01-02T14:54:10Z" changeset="160910838" uid="5229644" user="Nathan_A_RF">
    <nd ref="26338271"/>
    <nd ref="1498736123"/>
    <nd ref="1498736287"/>
    <nd ref="1498736236"/>
    <nd ref="96164701"/>
    <nd ref="1498736039"/>
    <nd ref="96164702"/>
    <nd ref="2574373061"/>
    <nd ref="1498736242"/>
    <nd ref="1498736171"/>
    <nd ref="889287968"/>
    <nd ref="1498736103"/>
    <nd ref="1498736019"/>
    <nd ref="15830924"/>
    <nd ref="1498736180"/>
    <nd ref="1498736072"/>
    <nd ref="1498736283"/>
    <nd ref="2574373100"/>
    <nd ref="1498736274"/>
    <nd ref="96164703"/>
    <nd ref="1498736013"/>
    <nd ref="1498736099"/>
    <nd ref="15830923"/>
    <nd ref="1498736152"/>
    <nd ref="2574373194"/>
    <nd ref="889288173"/>
    <nd ref="1498736173"/>
    <nd ref="6892765062"/>
    <nd ref="9219045003"/>
    <nd ref="1498736281"/>
    <nd ref="11010265929"/>
    <nd ref="15830921"/>
    <nd ref="11010265928"/>
    <nd ref="1498736086"/>
    <nd ref="11010265927"/>
    <nd ref="1498736206"/>
    <nd ref="889287848"/>
    <nd ref="1498736216"/>
    <nd ref="2574373311"/>
    <nd ref="1498736016"/>
    <nd ref="889291732"/>
    <nd ref="15830920"/>
    <nd ref="96164705"/>
    <tag k="highway" v="primary"/>
    <tag k="maxspeed" v="50 mph"/>
    <tag k="maxspeed:type" v="sign"/>
    <tag k="name" v="Banbury Road"/>
    <tag k="ref" v="A422"/>
    <tag k="source:maxspeed" v="survey"/>
    <tag k="source:name" v="OS_OpenData_StreetView"/>
    <tag k="surface" v="asphalt"/>
  </way>
  <way id="4437037" version="9" timestamp="2025-02-02T15:25:34Z" changeset="162051184" uid="19756269" user="RyanBush">
    <nd ref="1474100074"/>
    <nd ref="12551368373"/>
    <nd ref="1474100075"/>
    <nd ref="26338438"/>
    <nd ref="1474100078"/>
    <nd ref="26338271"/>
    <tag k="cycleway:left" v="no"/>
    <tag k="highway" v="primary"/>
    <tag k="lanes" v="1"/>
    <tag k="maxspeed" v="50 mph"/>
    <tag k="maxspeed:type" v="sign"/>
    <tag k="name" v="Banbury Road"/>
    <tag k="oneway" v="yes"/>
    <tag k="ref" v="A422"/>
    <tag k="source:maxspeed" v="survey"/>
    <tag k="surface" v="asphalt"/>
  </way>
  <way id="4437038" version="10" timestamp="2025-02-02T15:25:34Z" changeset="162051184" uid="19756269" user="RyanBush">
    <nd ref="26338271"/>
    <nd ref="12551368374"/>
    <nd ref="26338437"/>
    <nd ref="12551368375"/>
    <nd ref="1474100080"/>
    <nd ref="1474100079"/>
    <tag k="cycleway:left" v="no"/>
    <tag k="highway" v="primary"/>
    <tag k="lanes" v="1"/>
    <tag k="maxspeed" v="50 mph"/>
    <tag k="maxspeed:type" v="sign"/>
    <tag k="name" v="Banbury Road"/>
    <tag k="oneway" v="yes"/>
    <tag k="ref" v="A422"/>
    <tag k="source:maxspeed" v="survey"/>
    <tag k="surface" v="asphalt"/>
  </way>
  <way id="4437039" version="5" timestamp="2025-02-02T15:25:34Z" changeset="162051184" uid="19756269" user="RyanBush">
    <nd ref="26338421"/>
    <nd ref="26338431"/>
    <nd ref="1474100069"/>
    <nd ref="12551368372"/>
    <nd ref="26338272"/>
    <tag k="highway" v="primary"/>
    <tag k="maxspeed" v="50 mph"/>
    <tag k="maxspeed:type" v="sign"/>
    <tag k="name" v="Banbury Road"/>
    <tag k="oneway" v="yes"/>
    <tag k="ref" v="A422"/>
  </way>
  <way id="4437040" version="7" timestamp="2025-01-02T14:54:10Z" changeset="160910838" uid="5229644" user="Nathan_A_RF">
    <nd ref="26338273"/>
    <nd ref="1474100065"/>
    <tag k="highway" v="trunk"/>
    <tag k="lanes" v="1"/>
    <tag k="maxspeed" v="50 mph"/>
    <tag k="maxspeed:type" v="sign"/>
    <tag k="name" v="Ettington Bypass"/>
    <tag k="oneway" v="yes"/>
    <tag k="ref" v="A429"/>
    <tag k="restriction" v="no_stopping"/>
    <tag k="source" v="survey"/>
    <tag k="source:maxspeed" v="survey"/>
  </way>
  <way id="4437041" version="10" timestamp="2025-02-02T15:25:34Z" changeset="162051184" uid="19756269" user="RyanBush">
    <nd ref="26338418"/>
    <nd ref="12551368376"/>
    <nd ref="1474100083"/>
    <nd ref="26338433"/>
    <tag k="highway" v="trunk"/>
    <tag k="lanes" v="1"/>
    <tag k="maxspeed" v="50 mph"/>
    <tag k="maxspeed:type" v="sign"/>
    <tag k="oneway" v="yes"/>
    <tag k="ref" v="A429"/>
    <tag k="restriction" v="no_stopping"/>
    <tag k="shoulder" v="no"/>
    <tag k="source" v="survey"/>
    <tag k="source:maxspeed" v="survey"/>
  </way>
  <way id="26436803" version="9" timestamp="2013-11-01T08:51:21Z" changeset="18648050" uid="9065" user="brianboru">
    <nd ref="289685878"/>
    <nd ref="1474100053"/>
    <nd ref="1474100052"/>
    <nd ref="889288081"/>
    <nd ref="889287952"/>
    <nd ref="289685985"/>
    <nd ref="289685986"/>
    <nd ref="289685987"/>
    <nd ref="2515987786"/>
    <nd ref="289685988"/>
    <nd ref="289685989"/>
    <nd ref="289685990"/>
    <nd ref="289685991"/>
    <nd ref="289685992"/>
    <nd ref="289685993"/>
    <nd ref="289685994"/>
    <nd ref="289685995"/>
    <nd ref="2515987788"/>
    <nd ref="889288103"/>
    <nd ref="889287895"/>
    <nd ref="2515987774"/>
    <nd ref="289685996"/>
    <nd ref="2515987768"/>
    <nd ref="289685997"/>
    <nd ref="889287801"/>
    <nd ref="1682449744"/>
    <nd ref="1682449688"/>
    <nd ref="289685998"/>
    <nd ref="289685999"/>
    <nd ref="1352796751"/>
    <nd ref="1682454483"/>
    <tag k="highway" v="unclassified"/>
    <tag k="source" v="survey;NPE;OS_OpenData_StreetView"/>
  </way>
  <way id="26436814" version="3" timestamp="2020-06-20T10:46:20Z" changeset="86907194" uid="3937" user="southglos">
    <nd ref="289686067"/>
    <nd ref="289686085"/>
    <nd ref="1682441480"/>
    <nd ref="289686086"/>
    <nd ref="289686087"/>
    <nd ref="1682441588"/>
    <nd ref="289686088"/>
    <nd ref="1682441618"/>
    <nd ref="1682441844"/>
    <nd ref="289686089"/>
    <nd ref="1682441820"/>
    <nd ref="289686090"/>
    <nd ref="1682441614"/>
    <nd ref="289686091"/>
    <nd ref="1682441488"/>
    <nd ref="1682441740"/>
    <nd ref="1682441702"/>
    <nd ref="1682441497"/>
    <nd ref="289686092"/>
    <nd ref="1682441685"/>
    <nd ref="289686093"/>
    <nd ref="1682441577"/>
    <nd ref="289686094"/>
    <nd ref="1682441573"/>
    <nd ref="1682441774"/>
    <nd ref="1682441640"/>
    <nd ref="289686095"/>
    <nd ref="1682441727"/>
    <nd ref="289686096"/>
    <nd ref="1682441838"/>
    <nd ref="1682441731"/>
    <nd ref="7637736084"/>
    <nd ref="289686097"/>
    <tag k="highway" v="unclassified"/>
    <tag k="source" v="NPE"/>
  </way>
  <way id="42836153" version="11" timestamp="2025-02-02T15:25:34Z" changeset="162051184" uid="19756269" user="RyanBush">
    <nd ref="26338653"/>
    <nd ref="12551368321"/>
    <nd ref="1331148328"/>
    <nd ref="12551368322"/>
    <nd ref="12551368323"/>
    <nd ref="1331148313"/>
    <nd ref="12551368324"/>
    <nd ref="15830499"/>
    <nd ref="12551368325"/>
    <nd ref="1331148326"/>
    <nd ref="12551368326"/>
    <nd ref="26338671"/>
    <nd ref="12551368327"/>
    <nd ref="1331148323"/>
    <nd ref="12551368328"/>
    <nd ref="15830500"/>
    <nd ref="12551368329"/>
    <nd ref="15830501"/>
    <nd ref="6583685880"/>
    <nd ref="5819993684"/>
    <nd ref="12551368330"/>
    <nd ref="26338268"/>
    <nd ref="12551368331"/>
    <nd ref="15830502"/>
    <nd ref="12551368332"/>
    <nd ref="1474100021"/>
    <nd ref="12551368333"/>
    <nd ref="1474100022"/>
    <nd ref="12551368334"/>
    <nd ref="26338266"/>
    <nd ref="5819993683"/>
    <nd ref="1474100023"/>
    <nd ref="12551368335"/>
    <nd ref="1474100024"/>
    <nd ref="15830503"/>
    <nd ref="12551368336"/>
    <nd ref="26338267"/>
    <nd ref="12551368337"/>
    <nd ref="1474100043"/>
    <nd ref="12551368338"/>
    <nd ref="26338263"/>
    <nd ref="12551368339"/>
    <nd ref="1474100044"/>
    <nd ref="12551368340"/>
    <nd ref="15830504"/>
    <nd ref="5819993680"/>
    <nd ref="12551368341"/>
    <nd ref="1474100045"/>
    <nd ref="12551368342"/>
    <nd ref="1474100046"/>
    <nd ref="12551368343"/>
    <nd ref="1474100047"/>
    <nd ref="12551368344"/>
    <nd ref="15830505"/>
    <nd ref="12551368345"/>
    <nd ref="1474100048"/>
    <nd ref="2455522725"/>
    <nd ref="12551368346"/>
    <nd ref="1474100049"/>
    <nd ref="26338264"/>
    <nd ref="12551368347"/>
    <nd ref="12551368348"/>
    <nd ref="12551368349"/>
    <nd ref="1474100050"/>
    <nd ref="12551368350"/>
    <nd ref="1474100051"/>
    <nd ref="289685878"/>
    <tag k="highway" v="trunk"/>
    <tag k="lanes" v="2"/>
    <tag k="maxspeed" v="60 mph"/>
    <tag k="maxspeed:type" v="GB:nsl_single"/>
    <tag k="ref" v="A429"/>
    <tag k="restriction" v="no_stopping"/>
    <tag k="source" v="survey;Warwicks CC Aerial Imagery 2013"/>
    <tag k="source:maxspeed" v="survey"/>
    <tag k="surface" v="asphalt"/>
  </way>
  <way id="48024004" version="12" timestamp="2025-02-02T15:25:34Z" changeset="162051184" uid="19756269" user="RyanBush">
    <nd ref="289685878"/>
    <nd ref="5819993677"/>
    <nd ref="15830506"/>
    <nd ref="12551368351"/>
    <nd ref="5819993676"/>
    <nd ref="1474100054"/>
    <nd ref="12551368352"/>
    <nd ref="5819993675"/>
    <nd ref="1474100055"/>
    <nd ref="12551368353"/>
    <nd ref="26338265"/>
    <nd ref="5819993668"/>
    <nd ref="1474100056"/>
    <nd ref="12551368354"/>
    <nd ref="5819993669"/>
    <nd ref="12551368355"/>
    <nd ref="15830507"/>
    <nd ref="12551368356"/>
    <nd ref="1474100057"/>
    <nd ref="12551368357"/>
    <nd ref="1474100058"/>
    <nd ref="12551368358"/>
    <nd ref="12551368359"/>
    <nd ref="12551368360"/>
    <nd ref="26338269"/>
    <nd ref="12551368361"/>
    <nd ref="12551368362"/>
    <nd ref="1474100059"/>
    <nd ref="12551368363"/>
    <nd ref="1474100060"/>
    <nd ref="12551368364"/>
    <nd ref="15830510"/>
    <nd ref="12551368365"/>
    <nd ref="1474100061"/>
    <nd ref="12551368366"/>
    <nd ref="889261082"/>
    <nd ref="12551368367"/>
    <nd ref="1474100062"/>
    <nd ref="12551368368"/>
    <nd ref="15830509"/>
    <nd ref="12551368369"/>
    <nd ref="1474100063"/>
    <nd ref="1682441819"/>
    <nd ref="26338273"/>
    <tag k="highway" v="trunk"/>
    <tag k="lanes" v="2"/>
    <tag k="maxspeed" v="60 mph"/>
    <tag k="maxspeed:type" v="GB:nsl_single"/>
    <tag k="name" v="Ettington Bypass"/>
    <tag k="ref" v="A429"/>
    <tag k="restriction" v="no_stopping"/>
    <tag k="shoulder" v="no"/>
    <tag k="source" v="survey"/>
    <tag k="source:maxspeed" v="survey"/>
    <tag k="surface" v="asphalt"/>
  </way>
  <way id="75306173" version="4" timestamp="2020-09-17T08:05:01Z" changeset="91030538" uid="11735880" user="namanees">
    <nd ref="7916098618"/>
    <nd ref="889234429"/>
    <nd ref="7363415332"/>
    <nd ref="889233471"/>
    <tag k="highway" v="residential"/>
    <tag k="name" v="Spring Close"/>
    <tag k="source" v="OS_OpenData_StreetView"/>
    <tag k="source:name" v="OS_OpenData_Locator"/>
  </way>
  <way id="75306191" version="2" timestamp="2012-03-19T23:07:21Z" changeset="11035916" uid="84263" user="Robert Whittaker">
    <nd ref="889234049"/>
    <nd ref="1682441754"/>
    <nd ref="889233113"/>
    <nd ref="1682441485"/>
    <nd ref="889233355"/>
    <nd ref="1682441782"/>
    <nd ref="1682441693"/>
    <nd ref="889233626"/>
    <tag k="highway" v="residential"/>
    <tag k="name" v="Manor Lane"/>
    <tag k="source" v="OS_OpenData_StreetView;Bing"/>
  </way>
  <way id="75306199" version="9" timestamp="2023-10-25T18:30:50Z" changeset="143129620" uid="8355539" user="danthw_">
    <nd ref="889233023"/>
    <nd ref="11289391160"/>
    <nd ref="2020517085"/>
    <nd ref="2020517083"/>
    <nd ref="7358624314"/>
    <nd ref="889233477"/>
    <nd ref="6561144757"/>
    <nd ref="3666821182"/>
    <nd ref="889233678"/>
    <nd ref="889233617"/>
    <nd ref="889233841"/>
    <nd ref="889232820"/>
    <nd ref="889233062"/>
    <nd ref="889233281"/>
    <nd ref="889233515"/>
    <nd ref="1682441627"/>
    <nd ref="889233712"/>
    <nd ref="889233848"/>
    <nd ref="1682441489"/>
    <nd ref="889234065"/>
    <tag k="highway" v="residential"/>
    <tag k="name" v="Rogers Lane"/>
    <tag k="source" v="visual survey;OS_OpenData_StreetView"/>
  </way>
  <way id="75306224" version="3" timestamp="2012-11-18T21:26:33Z" changeset="13924755" uid="4951" user="PeterEastern">
    <nd ref="889232687"/>
    <nd ref="1682441525"/>
    <nd ref="1682441665"/>
    <nd ref="889233870"/>
    <nd ref="889234071"/>
    <nd ref="1682441478"/>
    <nd ref="1682441724"/>
    <nd ref="889233113"/>
    <tag k="highway" v="residential"/>
    <tag k="name" v="Manor Court"/>
    <tag k="source" v="OS_OpenData_StreetView"/>
    <tag k="source:name" v="OS_OpenData_Locator"/>
  </way>
  <way id="75306239" version="2" timestamp="2012-03-19T23:07:21Z" changeset="11035916" uid="84263" user="Robert Whittaker">
    <nd ref="1682441590"/>
    <nd ref="889233624"/>
    <nd ref="889232608"/>
    <nd ref="889233768"/>
    <tag k="highway" v="residential"/>
    <tag k="source" v="OS_OpenData_StreetView"/>
  </way>
  <way id="75306249" version="8" timestamp="2025-03-09T14:43:39Z" changeset="163403709" uid="493595" user="Yorvik Prestigitator">
    <nd ref="889233305"/>
    <nd ref="7358632323"/>
    <nd ref="2476653935"/>
    <nd ref="889233222"/>
    <nd ref="7358632320"/>
    <nd ref="889233451"/>
    <nd ref="889233654"/>
    <nd ref="7358632321"/>
    <nd ref="7358633360"/>
    <nd ref="889233816"/>
    <nd ref="6477062756"/>
    <nd ref="7358633358"/>
    <nd ref="889234016"/>
    <nd ref="6477062757"/>
    <nd ref="889234261"/>
    <nd ref="889234482"/>
    <nd ref="12647678402"/>
    <nd ref="11289391161"/>
    <nd ref="889232471"/>
    <tag k="highway" v="residential"/>
    <tag k="name" v="Hillman Way"/>
    <tag k="not:name" v="Chestnut Grove"/>
    <tag k="source" v="visual survey;OS_OpenData_StreetView"/>
    <tag k="surface" v="asphalt"/>
  </way>
  <way id="75306258" version="4" timestamp="2020-04-02T12:03:48Z" changeset="82979450" uid="9065" user="brianboru">
    <nd ref="889233418"/>
    <nd ref="7358618871"/>
    <nd ref="889233626"/>
    <nd ref="889233809"/>
    <nd ref="1682441638"/>
    <nd ref="7358683727"/>
    <nd ref="889233992"/>
    <tag k="highway" v="residential"/>
    <tag k="name" v="Ivy Lane"/>
    <tag k="source" v="visual survey;OS_OpenData_StreetView'Bing"/>
  </way>
  <way id="75306285" version="4" timestamp="2023-11-30T20:41:20Z" changeset="144639610" uid="504708" user="HillWithSmallFields">
    <nd ref="889234343"/>
    <nd ref="1682441644"/>
    <nd ref="889233384"/>
    <nd ref="1682441809"/>
    <nd ref="1682441713"/>
    <nd ref="889233603"/>
    <nd ref="1682441545"/>
    <nd ref="1682441639"/>
    <nd ref="1682441795"/>
    <nd ref="1682441509"/>
    <nd ref="1682441526"/>
    <nd ref="1682441492"/>
    <nd ref="1682441698"/>
    <nd ref="1682441780"/>
    <nd ref="1682441722"/>
    <nd ref="889233777"/>
    <nd ref="1682441571"/>
    <nd ref="889234343"/>
    <tag k="amenity" v="place_of_worship"/>
    <tag k="building" v="yes"/>
    <tag k="denomination" v="anglican"/>
    <tag k="name" v="Holy Trinity and St Thomas of Canterbury"/>
    <tag k="ref:dove" v="10098"/>
    <tag k="religion" v="christian"/>
    <tag k="source" v="visual survey;OS_OpenData_StreetView"/>
    <tag k="wikidata" v="Q26662615"/>
  </way>
  <way id="75306295" version="4" timestamp="2020-04-02T12:03:48Z" changeset="82979450" uid="9065" user="brianboru">
    <nd ref="889233595"/>
    <nd ref="7358632996"/>
    <nd ref="1682441737"/>
    <nd ref="7358683724"/>
    <nd ref="1682441811"/>
    <nd ref="889234490"/>
    <nd ref="1682441849"/>
    <nd ref="889233770"/>
    <nd ref="1682441848"/>
    <nd ref="1682441649"/>
    <nd ref="1682441612"/>
    <nd ref="889232992"/>
    <nd ref="889233210"/>
    <nd ref="1682441487"/>
    <nd ref="889233768"/>
    <nd ref="889233429"/>
    <nd ref="1682441463"/>
    <nd ref="889233649"/>
    <nd ref="1682441719"/>
    <nd ref="1682441691"/>
    <nd ref="889233813"/>
    <nd ref="889232743"/>
    <nd ref="889234011"/>
    <nd ref="1682441752"/>
    <nd ref="889234065"/>
    <nd ref="1682441540"/>
    <nd ref="889233330"/>
    <tag k="highway" v="residential"/>
    <tag k="name" v="Halford Road"/>
    <tag k="source" v="survey;OS_OpenData_StreetView"/>
  </way>
  <way id="75306304" version="7" timestamp="2023-11-09T21:28:19Z" changeset="143839894" uid="411244" user="RobJN">
    <nd ref="889233144"/>
    <nd ref="6477062752"/>
    <nd ref="11336787603"/>
    <nd ref="889234301"/>
    <nd ref="11336787604"/>
    <nd ref="7358633359"/>
    <nd ref="11336787605"/>
    <nd ref="889233816"/>
    <tag k="highway" v="residential"/>
    <tag k="lit" v="yes"/>
    <tag k="name" v="Clark Walk"/>
    <tag k="source" v="OS_OpenData_StreetView"/>
    <tag k="source:name" v="OS_OpenData_Locator"/>
    <tag k="surface" v="asphalt"/>
  </way>
  <way id="75306312" version="4" timestamp="2023-10-25T18:30:50Z" changeset="143129620" uid="8355539" user="danthw_">
    <nd ref="889234556"/>
    <nd ref="7358632991"/>
    <nd ref="1498724884"/>
    <nd ref="11289391162"/>
    <nd ref="1498724883"/>
    <tag k="highway" v="residential"/>
    <tag k="name" v="Kents Lane"/>
    <tag k="source" v="visual survey;OS_OpenData_StreetView"/>
  </way>
  <way id="75306315" version="5" timestamp="2023-11-09T21:28:19Z" changeset="143839894" uid="411244" user="RobJN">
    <nd ref="889232750"/>
    <nd ref="7358633302"/>
    <nd ref="889233951"/>
    <nd ref="889234482"/>
    <tag k="highway" v="residential"/>
    <tag k="name" v="Ferguson Close"/>
    <tag k="source" v="OS_OpenData_StreetView"/>
    <tag k="source:name" v="OS_OpenData_Locator"/>
  </way>
  <way id="75306337" version="3" timestamp="2012-11-18T21:26:32Z" changeset="13924755" uid="4951" user="PeterEastern">
    <nd ref="889233486"/>
    <nd ref="889232415"/>
    <nd ref="1682441711"/>
    <nd ref="889233809"/>
    <tag k="highway" v="residential"/>
    <tag k="name" v="Cherry Close"/>
    <tag k="source" v="OS_OpenData_StreetView"/>
    <tag k="source:name" v="OS_OpenData_Locator"/>
  </way>
  <way id="75306343" version="5" timestamp="2023-11-09T21:28:19Z" changeset="143839894" uid="411244" user="RobJN">
    <nd ref="11336787598"/>
    <nd ref="889233924"/>
    <nd ref="11336787574"/>
    <nd ref="11336787594"/>
    <nd ref="11336787593"/>
    <nd ref="2577127609"/>
    <nd ref="889232988"/>
    <nd ref="9076177318"/>
    <nd ref="889233194"/>
    <nd ref="889233416"/>
    <nd ref="11289391159"/>
    <nd ref="889234544"/>
    <tag k="hgv" v="discouraged"/>
    <tag k="highway" v="residential"/>
    <tag k="lanes" v="1"/>
    <tag k="name" v="Hockley Lane"/>
    <tag k="source" v="visual survey;OS_OpenData_StreetView"/>
  </way>
  <way id="75306379" version="3" timestamp="2023-11-09T21:28:19Z" changeset="143839894" uid="411244" user="RobJN">
    <nd ref="889234226"/>
    <nd ref="2476653938"/>
    <nd ref="2476653932"/>
    <nd ref="11336787618"/>
    <nd ref="889233963"/>
    <tag k="highway" v="residential"/>
    <tag k="name" v="Churchill Close"/>
    <tag k="source" v="OS_OpenData_StreetView"/>
  </way>
  <way id="75306386" version="4" timestamp="2021-02-24T15:25:20Z" changeset="99915075" uid="10455645" user="viplavm">
    <nd ref="889232985"/>
    <nd ref="6190031386"/>
    <nd ref="8454523401"/>
    <nd ref="2577127692"/>
    <nd ref="2577127684"/>
    <nd ref="2577127681"/>
    <tag k="highway" v="residential"/>
    <tag k="name" v="Old Warwick Road"/>
    <tag k="not:name" v="Warwick Road"/>
    <tag k="source" v="visual survey;OS_OpenData_StreetView"/>
  </way>
  <way id="75306401" version="3" timestamp="2020-04-03T14:41:58Z" changeset="83039984" uid="9065" user="brianboru">
    <nd ref="889232705"/>
    <nd ref="7363391632"/>
    <nd ref="889233886"/>
    <nd ref="889234100"/>
    <nd ref="7363391631"/>
    <nd ref="7358632992"/>
    <nd ref="7358632993"/>
    <nd ref="889234353"/>
    <nd ref="7358632994"/>
    <nd ref="7358632995"/>
    <nd ref="889234556"/>
    <tag k="highway" v="residential"/>
    <tag k="name" v="Nelson Close"/>
    <tag k="source" v="OS_OpenData_StreetView"/>
  </way>
  <way id="75306403" version="4" timestamp="2023-10-25T18:30:50Z" changeset="143129620" uid="8355539" user="danthw_">
    <nd ref="889234490"/>
    <nd ref="11289391163"/>
    <nd ref="1682441603"/>
    <nd ref="7358613536"/>
    <nd ref="26338673"/>
    <tag k="highway" v="residential"/>
    <tag k="name" v="Church Lane"/>
    <tag k="source" v="survey"/>
  </way>
  <way id="75306410" version="6" timestamp="2023-11-09T21:28:19Z" changeset="143839894" uid="411244" user="RobJN">
    <nd ref="7358642799"/>
    <nd ref="889232795"/>
    <nd ref="11336787606"/>
    <nd ref="889233963"/>
    <nd ref="7358618870"/>
    <nd ref="889234186"/>
    <tag k="highway" v="residential"/>
    <tag k="lit" v="yes"/>
    <tag k="name" v="Churchill Close"/>
    <tag k="source" v="visual survey;OS_OpenData_StreetView"/>
    <tag k="surface" v="asphalt"/>
  </way>
  <way id="75306415" version="2" timestamp="2012-03-19T23:07:23Z" changeset="11035916" uid="84263" user="Robert Whittaker">
    <nd ref="889234119"/>
    <nd ref="1682441651"/>
    <nd ref="889233184"/>
    <nd ref="1682441570"/>
    <nd ref="889233409"/>
    <nd ref="1682441486"/>
    <nd ref="889233617"/>
    <tag k="highway" v="residential"/>
    <tag k="name" v="Rogers Lane"/>
    <tag k="source" v="OS_OpenData_StreetView"/>
  </way>
  <way id="75306420" version="8" timestamp="2020-04-03T14:41:58Z" changeset="83039984" uid="9065" user="brianboru">
    <nd ref="889233770"/>
    <nd ref="7358683700"/>
    <nd ref="7358683701"/>
    <nd ref="2020517077"/>
    <nd ref="889233691"/>
    <nd ref="889261126"/>
    <nd ref="889233844"/>
    <nd ref="2577127518"/>
    <nd ref="6892106640"/>
    <nd ref="889234053"/>
    <nd ref="889234281"/>
    <nd ref="889233471"/>
    <nd ref="7363407770"/>
    <nd ref="889234497"/>
    <nd ref="7363407769"/>
    <nd ref="889232492"/>
    <nd ref="1682441763"/>
    <nd ref="1682441598"/>
    <nd ref="889232743"/>
    <tag k="highway" v="residential"/>
    <tag k="name" v="Rookery Lane"/>
    <tag k="source" v="survey;OS_OpenData_StreetView"/>
  </way>
  <way id="75306436" version="8" timestamp="2025-03-09T14:43:39Z" changeset="163403709" uid="493595" user="Yorvik Prestigitator">
    <nd ref="889234352"/>
    <nd ref="9076177319"/>
    <nd ref="889233390"/>
    <nd ref="12647676193"/>
    <nd ref="10967684350"/>
    <nd ref="26338276"/>
    <tag k="highway" v="residential"/>
    <tag k="name" v="Chestnut Close"/>
    <tag k="oneway" v="no"/>
    <tag k="source" v="visual survey;OS_OpenData_StreetView"/>
    <tag k="source:name" v="OS_OpenData_Locator"/>
    <tag k="surface" v="asphalt"/>
  </way>
  <way id="75307333" version="2" timestamp="2012-11-18T21:26:32Z" changeset="13924755" uid="4951" user="PeterEastern">
    <nd ref="2020517082"/>
    <nd ref="889243131"/>
    <nd ref="2020517087"/>
    <tag k="highway" v="residential"/>
    <tag k="name" v="Avon Fields"/>
    <tag k="source" v="OS_OpenData_StreetView"/>
    <tag k="source:name" v="OS_OpenData_Locator"/>
  </way>
  <way id="75311208" version="1" timestamp="2010-08-30T19:50:09Z" changeset="5639694" uid="9065" user="brianboru">
    <nd ref="289685985"/>
    <nd ref="889288193"/>
    <nd ref="889287995"/>
    <nd ref="26338264"/>
    <tag k="highway" v="unclassified"/>
    <tag k="source" v="OS_OpenData_StreetView"/>
  </way>
  <way id="133968151" version="2" timestamp="2025-01-02T14:54:10Z" changeset="160910838" uid="5229644" user="Nathan_A_RF">
    <nd ref="1474100065"/>
    <nd ref="26338435"/>
    <nd ref="1474100072"/>
    <tag k="highway" v="trunk"/>
    <tag k="lanes" v="2"/>
    <tag k="maxspeed" v="50 mph"/>
    <tag k="maxspeed:type" v="sign"/>
    <tag k="name" v="Ettington Bypass"/>
    <tag k="oneway" v="yes"/>
    <tag k="ref" v="A429"/>
    <tag k="restriction" v="no_stopping"/>
    <tag k="source" v="survey"/>
    <tag k="source:maxspeed" v="survey"/>
  </way>
  <way id="136608057" version="16" timestamp="2022-12-27T16:50:14Z" changeset="130561260" uid="5589" user="user_5589">
    <nd ref="1498722525"/>
    <nd ref="26338648"/>
    <nd ref="26338647"/>
    <nd ref="26338646"/>
    <nd ref="2455522813"/>
    <nd ref="26338681"/>
    <nd ref="15830487"/>
    <nd ref="1682441541"/>
    <nd ref="26338649"/>
    <nd ref="6557436149"/>
    <nd ref="1682441522"/>
    <nd ref="1682441710"/>
    <nd ref="15830486"/>
    <nd ref="1682441659"/>
    <nd ref="1682441625"/>
    <nd ref="289686097"/>
    <nd ref="1682441736"/>
    <nd ref="1682441642"/>
    <nd ref="26338650"/>
    <nd ref="1682441777"/>
    <nd ref="15830485"/>
    <nd ref="26338651"/>
    <nd ref="2373583486"/>
    <nd ref="7505108038"/>
    <nd ref="15830484"/>
    <nd ref="1602274491"/>
    <nd ref="10289828979"/>
    <tag k="cycleway:both" v="no"/>
    <tag k="highway" v="secondary"/>
    <tag k="lanes" v="2"/>
    <tag k="lit" v="no"/>
    <tag k="maxspeed" v="60 mph"/>
    <tag k="maxspeed:type" v="GB:nsl_single"/>
    <tag k="name" v="Fosse Way"/>
    <tag k="ref" v="B4455"/>
    <tag k="shoulder" v="no"/>
    <tag k="sidewalk" v="no"/>
    <tag k="source:name" v="OS_OpenData_StreetView"/>
    <tag k="source:ref" v="OS_OpenData_StreetView"/>
    <tag k="surface" v="asphalt"/>
  </way>
  <way id="141196916" version="5" timestamp="2018-08-01T19:39:54Z" changeset="61274368" uid="9065" user="brianboru">
    <nd ref="1545705612"/>
    <nd ref="1545705609"/>
    <nd ref="1545705610"/>
    <nd ref="1545705611"/>
    <nd ref="1545705643"/>
    <nd ref="1545705644"/>
    <nd ref="1545705645"/>
    <nd ref="1545705646"/>
    <nd ref="1545705647"/>
    <nd ref="1545705648"/>
    <nd ref="2569662946"/>
    <nd ref="2571412889"/>
    <nd ref="2571412775"/>
    <nd ref="2569662872"/>
    <nd ref="1545693527"/>
    <nd ref="1692521394"/>
    <nd ref="1545705649"/>
    <nd ref="5802206549"/>
    <nd ref="5802206550"/>
    <nd ref="1545705638"/>
    <nd ref="1692521387"/>
    <nd ref="671826227"/>
    <tag k="highway" v="tertiary"/>
  </way>
  <way id="147033974" version="7" timestamp="2021-08-30T06:51:11Z" changeset="110441216" uid="11558580" user="jaabhil">
    <nd ref="1545705612"/>
    <nd ref="1602274415"/>
    <nd ref="1602274427"/>
    <nd ref="1602274428"/>
    <nd ref="1602274430"/>
    <nd ref="6477099964"/>
    <nd ref="1682413914"/>
    <nd ref="1602274433"/>
    <nd ref="9047247947"/>
    <nd ref="1602274434"/>
    <nd ref="1602274436"/>
    <nd ref="1602274437"/>
    <nd ref="1682441847"/>
    <nd ref="1682441518"/>
    <nd ref="1602274444"/>
    <nd ref="1682441599"/>
    <nd ref="1682441542"/>
    <nd ref="1682441789"/>
    <nd ref="1602274446"/>
    <nd ref="1602274456"/>
    <nd ref="1682441464"/>
    <nd ref="1602274474"/>
    <nd ref="1682441529"/>
    <nd ref="1602274480"/>
    <nd ref="1682441502"/>
    <nd ref="1602274485"/>
    <nd ref="1682441575"/>
    <nd ref="1602274496"/>
    <nd ref="6905269016"/>
    <nd ref="1602274505"/>
    <nd ref="1602274508"/>
    <nd ref="1602274511"/>
    <nd ref="1602274513"/>
    <nd ref="1682441793"/>
    <nd ref="1602274516"/>
    <nd ref="1602274517"/>
    <nd ref="1602274520"/>
    <nd ref="1602274523"/>
    <nd ref="1602274525"/>
    <nd ref="1611835051"/>
    <tag k="highway" v="tertiary"/>
    <tag k="name" v="Whatcote Road"/>
    <tag k="source" v="OS_OpenData_StreetView"/>
  </way>
  <way id="147033978" version="4" timestamp="2023-10-22T20:49:32Z" changeset="142986515" uid="8355539" user="danthw_">
    <nd ref="28264833"/>
    <nd ref="1602274577"/>
    <nd ref="1602274574"/>
    <nd ref="1602274570"/>
    <nd ref="1602274568"/>
    <nd ref="1602274566"/>
    <nd ref="1602274565"/>
    <nd ref="1602274560"/>
    <nd ref="1602274554"/>
    <nd ref="1602274551"/>
    <nd ref="1602274548"/>
    <nd ref="2571390825"/>
    <nd ref="1602274546"/>
    <nd ref="1602274544"/>
    <nd ref="1602274543"/>
    <nd ref="289686067"/>
    <nd ref="1602274533"/>
    <nd ref="1602274532"/>
    <nd ref="1602274527"/>
    <nd ref="1611835051"/>
    <tag k="highway" v="tertiary"/>
    <tag k="source" v="bing"/>
    <tag k="surface" v="asphalt"/>
  </way>
  <way id="147033980" version="4" timestamp="2019-06-19T17:21:56Z" changeset="71410324" uid="8240071" user="ravsjith">
    <nd ref="1545705612"/>
    <nd ref="1602274431"/>
    <nd ref="1602274439"/>
    <nd ref="6558126983"/>
    <nd ref="1602274507"/>
    <nd ref="1602274530"/>
    <nd ref="1602274535"/>
    <nd ref="1602274537"/>
    <nd ref="1602274538"/>
    <nd ref="1602274539"/>
    <nd ref="1602274541"/>
    <nd ref="2571390800"/>
    <nd ref="1602274545"/>
    <nd ref="1602274547"/>
    <nd ref="1602274550"/>
    <nd ref="1602274553"/>
    <nd ref="1602274562"/>
    <nd ref="1602274563"/>
    <nd ref="1602274564"/>
    <nd ref="1602274567"/>
    <nd ref="1602274572"/>
    <nd ref="1602274573"/>
    <nd ref="2564391725"/>
    <nd ref="2564391731"/>
    <nd ref="1602274576"/>
    <nd ref="1602274579"/>
    <nd ref="28264833"/>
    <tag k="highway" v="unclassified"/>
    <tag k="source" v="bing"/>
  </way>
  <way id="147033983" version="3" timestamp="2020-06-20T10:46:20Z" changeset="86907194" uid="3937" user="southglos">
    <nd ref="1611835051"/>
    <nd ref="1602274524"/>
    <nd ref="1602274521"/>
    <nd ref="1602274519"/>
    <nd ref="1602274518"/>
    <nd ref="1602274514"/>
    <nd ref="1602274510"/>
    <nd ref="1602274504"/>
    <nd ref="1602274499"/>
    <nd ref="1602274498"/>
    <nd ref="1602274495"/>
    <nd ref="1602274484"/>
    <nd ref="1602274477"/>
    <nd ref="1602274470"/>
    <nd ref="1602274467"/>
    <nd ref="1602274460"/>
    <nd ref="1602274453"/>
    <nd ref="1602274449"/>
    <nd ref="1602274448"/>
    <nd ref="1602274451"/>
    <nd ref="1602274458"/>
    <nd ref="1602274482"/>
    <nd ref="1602274487"/>
    <nd ref="1602274492"/>
    <nd ref="1602274493"/>
    <nd ref="1602274494"/>
    <nd ref="7637736083"/>
    <nd ref="1602274491"/>
    <tag k="highway" v="tertiary"/>
    <tag k="source" v="bing"/>
  </way>
  <way id="155898420" version="3" timestamp="2020-10-05T21:13:11Z" changeset="92007731" uid="364" user="Edward">
    <nd ref="1682441831"/>
    <nd ref="1682441457"/>
    <nd ref="1682441596"/>
    <nd ref="1682441695"/>
    <nd ref="1682441664"/>
    <nd ref="1682441708"/>
    <nd ref="1682441831"/>
    <tag k="amenity" v="place_of_worship"/>
    <tag k="building" v="yes"/>
    <tag k="denomination" v="quaker"/>
    <tag k="heritage" v="2"/>
    <tag k="heritage:operator" v="Historic England"/>
    <tag k="listed_status" v="Grade II*"/>
    <tag k="name" v="Friends Meeting House"/>
    <tag k="religion" v="christian"/>
    <tag k="wikidata" v="Q17551983"/>
  </way>
  <way id="155903227" version="1" timestamp="2012-03-19T23:26:31Z" changeset="11035916" uid="84263" user="Robert Whittaker">
    <nd ref="1682454483"/>
    <nd ref="1682449714"/>
    <nd ref="289686000"/>
    <nd ref="1682449808"/>
    <tag k="highway" v="unclassified"/>
    <tag k="source" v="survey;NPE;OS_OpenData_StreetView"/>
  </way>
  <way id="191478222" version="3" timestamp="2023-10-25T18:30:50Z" changeset="143129620" uid="8355539" user="danthw_">
    <nd ref="889243131"/>
    <nd ref="11289391158"/>
    <nd ref="889243093"/>
    <tag k="highway" v="residential"/>
    <tag k="name" v="Avon Close"/>
    <tag k="source" v="OS_OpenData_StreetView"/>
  </way>
  <way id="218162791" version="4" timestamp="2021-09-09T10:18:35Z" changeset="110967088" uid="12637824" user="MrMapperBanbury">
    <nd ref="2274374133"/>
    <nd ref="6190177988"/>
    <nd ref="2274374153"/>
    <nd ref="5819993463"/>
    <nd ref="889243093"/>
    <tag k="highway" v="residential"/>
    <tag k="name" v="Farriers Yard"/>
    <tag k="source" v="Bing"/>
  </way>
  <way id="218162795" version="4" timestamp="2024-12-12T04:15:35Z" changeset="160192257" uid="21226027" user="DorneyLake123">
    <nd ref="2274374108"/>
    <nd ref="2274374147"/>
    <nd ref="2274374142"/>
    <nd ref="2274374101"/>
    <nd ref="2274374083"/>
    <nd ref="2274374084"/>
    <nd ref="2274374131"/>
    <nd ref="2274374137"/>
    <nd ref="2274374108"/>
    <tag k="addr:housenumber" v="91"/>
    <tag k="addr:postcode" v="CV37 7SR"/>
    <tag k="addr:street" v="Banbury Road"/>
    <tag k="amenity" v="pub"/>
    <tag k="building" v="yes"/>
    <tag k="fhrs:id" v="502812"/>
    <tag k="name" v="The Chequers Inn"/>
    <tag k="outdoor_seating" v="yes"/>
    <tag k="source" v="local knowledge"/>
    <tag k="website" v="https://www.the-chequers-ettington.co.uk/"/>
    <tag k="wheelchair" v="no"/>
  </way>
  <way id="239061971" version="22" timestamp="2025-01-02T14:57:25Z" changeset="160911038" uid="5229644" user="Nathan_A_RF">
    <nd ref="2468767293"/>
    <nd ref="1248021339"/>
    <nd ref="56061067"/>
    <nd ref="2455072358"/>
    <nd ref="11071056531"/>
    <nd ref="2476629914"/>
    <nd ref="56061069"/>
    <nd ref="2476629892"/>
    <nd ref="2561310508"/>
    <nd ref="9885424987"/>
    <nd ref="15830530"/>
    <nd ref="11071056516"/>
    <nd ref="2476629794"/>
    <nd ref="2953361477"/>
    <nd ref="2476629786"/>
    <nd ref="5335278815"/>
    <nd ref="5335278811"/>
    <nd ref="225923963"/>
    <nd ref="2476629772"/>
    <nd ref="56061298"/>
    <nd ref="2476653984"/>
    <nd ref="15830529"/>
    <nd ref="7249906347"/>
    <nd ref="56061301"/>
    <nd ref="2569643661"/>
    <nd ref="10270060448"/>
    <nd ref="2476653926"/>
    <nd ref="10270060452"/>
    <nd ref="2476653883"/>
    <nd ref="2476653865"/>
    <nd ref="3666812969"/>
    <nd ref="7358718194"/>
    <nd ref="15830491"/>
    <nd ref="7358714395"/>
    <nd ref="7358714394"/>
    <nd ref="7358714391"/>
    <nd ref="15830488"/>
    <tag k="cycleway:both" v="no"/>
    <tag k="highway" v="secondary"/>
    <tag k="lanes" v="2"/>
    <tag k="lit" v="no"/>
    <tag k="maxspeed" v="60 mph"/>
    <tag k="maxspeed:type" v="GB:nsl_single"/>
    <tag k="name" v="Fosse Way"/>
    <tag k="ref" v="B4455"/>
    <tag k="shoulder" v="no"/>
    <tag k="sidewalk" v="no"/>
    <tag k="surface" v="asphalt"/>
  </way>
  <way id="251499503" version="5" timestamp="2025-03-09T14:43:39Z" changeset="163403709" uid="493595" user="Yorvik Prestigitator">
    <nd ref="2577127528"/>
    <nd ref="6190014871"/>
    <nd ref="2577127533"/>
    <nd ref="2577127532"/>
    <nd ref="2577127536"/>
    <nd ref="2577127530"/>
    <nd ref="2577127529"/>
    <nd ref="2577127520"/>
    <nd ref="11336736560"/>
    <nd ref="11336736559"/>
    <nd ref="2577127515"/>
    <nd ref="2577127519"/>
    <nd ref="2577127517"/>
    <nd ref="2577127521"/>
    <nd ref="12647676174"/>
    <nd ref="2577127524"/>
    <nd ref="2577127528"/>
    <tag k="addr:street" v="Rogers Lane"/>
    <tag k="amenity" v="community_centre"/>
    <tag k="building" v="public"/>
    <tag k="community_centre" v="village_hall"/>
    <tag k="name" v="Ettington Village Hall"/>
    <tag k="source" v="bing"/>
  </way>
  <way id="376145311" version="7" timestamp="2025-01-02T18:43:33Z" changeset="160921475" uid="5229644" user="Nathan_A_RF">
    <nd ref="1498722447"/>
    <nd ref="1498722430"/>
    <nd ref="15830493"/>
    <nd ref="1498722396"/>
    <nd ref="1498722416"/>
    <nd ref="15830492"/>
    <nd ref="9076078172"/>
    <nd ref="1498722526"/>
    <nd ref="9076078165"/>
    <nd ref="1498722455"/>
    <nd ref="1489765408"/>
    <nd ref="889261247"/>
    <nd ref="6866593568"/>
    <nd ref="1498722435"/>
    <nd ref="2569643350"/>
    <nd ref="1498722509"/>
    <nd ref="1498722413"/>
    <nd ref="15830490"/>
    <nd ref="1498722467"/>
    <nd ref="1498722432"/>
    <nd ref="1498722415"/>
    <nd ref="1498722507"/>
    <nd ref="889260983"/>
    <tag k="highway" v="primary"/>
    <tag k="lanes" v="2"/>
    <tag k="maxspeed" v="60 mph"/>
    <tag k="maxspeed:type" v="GB:nsl_single"/>
    <tag k="ref" v="A422"/>
    <tag k="surface" v="asphalt"/>
  </way>
  <way id="417242204" version="2" timestamp="2025-01-02T14:54:10Z" changeset="160910838" uid="5229644" user="Nathan_A_RF">
    <nd ref="1682441501"/>
    <nd ref="4178236823"/>
    <tag k="highway" v="residential"/>
  </way>
  <way id="429275678" version="4" timestamp="2024-02-01T22:03:17Z" changeset="146963636" uid="20727137" user="JXL56JLI0B">
    <nd ref="2571412957"/>
    <nd ref="289686276"/>
    <nd ref="289686277"/>
    <nd ref="289686278"/>
    <nd ref="1602274412"/>
    <nd ref="289686279"/>
    <nd ref="289686280"/>
    <nd ref="11577699434"/>
    <nd ref="289686281"/>
    <nd ref="8230244877"/>
    <nd ref="1602274414"/>
    <nd ref="6477099978"/>
    <nd ref="6477099967"/>
    <nd ref="1545705612"/>
    <tag k="highway" v="unclassified"/>
    <tag k="maxwidth" v="6'6&quot;"/>
    <tag k="source" v="Bing"/>
  </way>
  <way id="429275679" version="1" timestamp="2016-07-05T11:10:15Z" changeset="40497144" uid="705850" user="Cebderby">
    <nd ref="2627288096"/>
    <nd ref="2571412957"/>
    <tag k="ford" v="yes"/>
    <tag k="highway" v="unclassified"/>
    <tag k="maxwidth" v="6'6&quot;"/>
    <tag k="source" v="Bing"/>
  </way>
  <way id="552634578" version="6" timestamp="2024-08-17T22:26:16Z" changeset="155391858" uid="456597" user="4004">
    <nd ref="5335278811"/>
    <nd ref="11289391148"/>
    <nd ref="5335278818"/>
    <nd ref="2476629776"/>
    <nd ref="5335285921"/>
    <nd ref="2953361484"/>
    <nd ref="225925020"/>
    <nd ref="6892724013"/>
    <nd ref="5335278817"/>
    <nd ref="225925021"/>
    <nd ref="5335278812"/>
    <nd ref="225925023"/>
    <nd ref="1274615005"/>
    <nd ref="225925024"/>
    <nd ref="225925027"/>
    <nd ref="5335278820"/>
    <nd ref="5335278813"/>
    <nd ref="225925029"/>
    <nd ref="4075763411"/>
    <nd ref="225925032"/>
    <nd ref="225925034"/>
    <nd ref="2515208321"/>
    <nd ref="2515208357"/>
    <nd ref="225925035"/>
    <nd ref="2515208376"/>
    <nd ref="225925038"/>
    <nd ref="225925041"/>
    <nd ref="225925043"/>
    <nd ref="225925044"/>
    <nd ref="225925045"/>
    <nd ref="2515208481"/>
    <nd ref="225925046"/>
    <nd ref="2515208484"/>
    <nd ref="225925048"/>
    <nd ref="225925050"/>
    <nd ref="225925051"/>
    <nd ref="225925053"/>
    <nd ref="225925055"/>
    <nd ref="225925057"/>
    <nd ref="225925058"/>
    <nd ref="225925059"/>
    <nd ref="225925061"/>
    <nd ref="225925062"/>
    <nd ref="2476629952"/>
    <nd ref="2949590861"/>
    <nd ref="2949590864"/>
    <nd ref="2949590866"/>
    <nd ref="225925063"/>
    <tag k="highway" v="unclassified"/>
    <tag k="maxheight" v="3.8"/>
    <tag k="name" v="Walton Road"/>
    <tag k="surface" v="asphalt"/>
  </way>
  <way id="615473478" version="3" timestamp="2021-09-09T10:18:35Z" changeset="110967088" uid="12637824" user="MrMapperBanbury">
    <nd ref="5819993524"/>
    <nd ref="5819993523"/>
    <nd ref="7358633191"/>
    <nd ref="7358633192"/>
    <nd ref="5819993522"/>
    <nd ref="5819993521"/>
    <nd ref="5819993520"/>
    <nd ref="5819993519"/>
    <nd ref="5819993524"/>
    <tag k="building" v="residential"/>
    <tag k="name" v="10 - 12"/>
    <tag k="source" v="Warwicks CC Aerial Imagery 2013"/>
  </way>
  <way id="615473480" version="5" timestamp="2024-12-12T04:15:35Z" changeset="160192257" uid="21226027" user="DorneyLake123">
    <nd ref="5819993547"/>
    <nd ref="5819993546"/>
    <nd ref="5819993545"/>
    <nd ref="11336736568"/>
    <nd ref="5819993543"/>
    <nd ref="5819993542"/>
    <nd ref="5819993541"/>
    <nd ref="5819993540"/>
    <nd ref="5819993539"/>
    <nd ref="5819993538"/>
    <nd ref="11336736567"/>
    <nd ref="5819993547"/>
    <tag k="brand" v="Spar"/>
    <tag k="brand:wikidata" v="Q610492"/>
    <tag k="building" v="yes"/>
    <tag k="fhrs:id" v="1253301"/>
    <tag k="name" v="Spar"/>
    <tag k="shop" v="convenience"/>
    <tag k="source" v="Warwicks CC Aerial Imagery 2013"/>
  </way>
  <way id="718927085" version="5" timestamp="2023-10-25T18:30:50Z" changeset="143129620" uid="8355539" user="danthw_">
    <nd ref="6750213482"/>
    <nd ref="11289391157"/>
    <nd ref="9164601648"/>
    <nd ref="6750213483"/>
    <nd ref="6750215489"/>
    <nd ref="6750213484"/>
    <nd ref="6750215488"/>
    <nd ref="6750215485"/>
    <nd ref="6750215487"/>
    <nd ref="9076161808"/>
    <nd ref="6750215486"/>
    <nd ref="9076161807"/>
    <tag k="highway" v="residential"/>
    <tag k="name" v="Hays Meadow"/>
  </way>
  <way id="771315094" version="4" timestamp="2025-03-09T14:43:39Z" changeset="163403709" uid="493595" user="Yorvik Prestigitator">
    <nd ref="6750215489"/>
    <nd ref="7200420303"/>
    <nd ref="7200420304"/>
    <nd ref="7200420305"/>
    <nd ref="7200420306"/>
    <nd ref="7200420307"/>
    <nd ref="7200420308"/>
    <nd ref="12647678428"/>
    <nd ref="7200420309"/>
    <nd ref="12647678429"/>
    <nd ref="7200420310"/>
    <nd ref="7200420311"/>
    <nd ref="7200420312"/>
    <tag k="highway" v="residential"/>
    <tag k="name" v="Hays Meadow"/>
  </way>
  <way id="787117403" version="1" timestamp="2020-04-02T11:42:09Z" changeset="82978483" uid="9065" user="brianboru">
    <nd ref="7358624314"/>
    <nd ref="7358624313"/>
    <nd ref="7358624312"/>
    <tag k="highway" v="residential"/>
    <tag k="source" v="Maxar Imagery"/>
  </way>
  <way id="787117462" version="1" timestamp="2020-04-02T11:42:10Z" changeset="82978483" uid="9065" user="brianboru">
    <nd ref="7358633302"/>
    <nd ref="7358633301"/>
    <tag k="highway" v="residential"/>
    <tag k="name" v="Ferguson Close"/>
    <tag k="source" v="Warwicks CC Aerial Imagery 2013"/>
  </way>
  <way id="787117467" version="2" timestamp="2020-09-13T15:12:51Z" changeset="90822072" uid="11286310" user="Manateedriver">
    <nd ref="7358632323"/>
    <nd ref="7358632322"/>
    <tag k="highway" v="residential"/>
    <tag k="name" v="Hillman Way"/>
    <tag k="source" v="Warwicks CC Aerial Imagery 2013"/>
    <tag k="surface" v="asphalt"/>
  </way>
  <way id="787122703" version="2" timestamp="2020-04-03T13:15:44Z" changeset="83035870" uid="873940" user="Mike Baggaley">
    <nd ref="7358683726"/>
    <nd ref="889233486"/>
    <nd ref="7358683725"/>
    <tag k="highway" v="residential"/>
    <tag k="name" v="Cherry Close"/>
    <tag k="source" v="Warwicks CC Aerial Imagery 2013"/>
  </way>
  <way id="787122704" version="1" timestamp="2020-04-02T12:03:48Z" changeset="82979450" uid="9065" user="brianboru">
    <nd ref="7358683728"/>
    <nd ref="7358683727"/>
    <tag k="highway" v="residential"/>
    <tag k="name" v="Ivy Lane"/>
    <tag k="source" v="Warwicks CC Aerial Imagery 2013"/>
  </way>
  <way id="787546746" version="1" timestamp="2020-04-03T14:41:57Z" changeset="83039984" uid="9065" user="brianboru">
    <nd ref="7363415333"/>
    <nd ref="7363415332"/>
    <tag k="highway" v="residential"/>
    <tag k="name" v="Spring Close"/>
    <tag k="source" v="Warwicks CC Aerial Imagery 2013"/>
  </way>
  <way id="787546769" version="1" timestamp="2020-04-03T14:41:58Z" changeset="83039984" uid="9065" user="brianboru">
    <nd ref="7363405554"/>
    <nd ref="889234049"/>
    <nd ref="7363405553"/>
    <tag k="highway" v="residential"/>
    <tag k="name" v="Manor Lane"/>
    <tag k="source" v="Warwicks CC Aerial Imagery 2013"/>
  </way>
  <way id="787546793" version="1" timestamp="2020-04-03T14:41:58Z" changeset="83039984" uid="9065" user="brianboru">
    <nd ref="7363415692"/>
    <nd ref="889232705"/>
    <nd ref="7363415691"/>
    <tag k="highway" v="residential"/>
    <tag k="name" v="Nelson Close"/>
    <tag k="source" v="Warwicks CC Aerial Imagery 2013"/>
  </way>
  <way id="981194120" version="1" timestamp="2021-09-09T10:18:35Z" changeset="110967088" uid="12637824" user="MrMapperBanbury">
    <nd ref="9076161808"/>
    <nd ref="9076161809"/>
    <tag k="highway" v="residential"/>
    <tag k="name" v="Hays Meadow"/>
  </way>
  <way id="1161127135" version="7" timestamp="2025-01-02T14:57:25Z" changeset="160911038" uid="5229644" user="Nathan_A_RF">
    <nd ref="15830515"/>
    <nd ref="26338279"/>
    <nd ref="12117560397"/>
    <nd ref="1498722473"/>
    <nd ref="15830488"/>
    <tag k="cycleway:both" v="no"/>
    <tag k="highway" v="primary"/>
    <tag k="lanes" v="2"/>
    <tag k="maxspeed" v="50 mph"/>
    <tag k="maxspeed:type" v="sign"/>
    <tag k="name" v="Banbury Road"/>
    <tag k="ref" v="A422"/>
    <tag k="sidewalk" v="left"/>
    <tag k="surface" v="asphalt"/>
  </way>
  <way id="1222354214" version="2" timestamp="2024-12-12T04:15:35Z" changeset="160192257" uid="21226027" user="DorneyLake123">
    <nd ref="11336736567"/>
    <nd ref="11336736566"/>
    <nd ref="11336736565"/>
    <nd ref="11336736564"/>
    <nd ref="5819993541"/>
    <nd ref="5819993540"/>
    <nd ref="5819993539"/>
    <nd ref="5819993538"/>
    <nd ref="11336736567"/>
    <tag k="amenity" v="cafe"/>
    <tag k="building" v="yes"/>
    <tag k="fhrs:id" v="1253301"/>
    <tag k="name" v="Insomnia coffee company"/>
  </way>
  <way id="1222354218" version="1" timestamp="2023-11-09T21:28:19Z" changeset="143839894" uid="411244" user="RobJN">
    <nd ref="6477062752"/>
    <nd ref="6477062753"/>
    <tag k="highway" v="residential"/>
    <tag k="name" v="Clark Walk"/>
  </way>
  <way id="1308514955" version="2" timestamp="2025-01-02T14:57:25Z" changeset="160911038" uid="5229644" user="Nathan_A_RF">
    <nd ref="889260983"/>
    <nd ref="1498722480"/>
    <nd ref="1498722439"/>
    <nd ref="889261197"/>
    <nd ref="1498722422"/>
    <nd ref="1498722487"/>
    <nd ref="1498722407"/>
    <nd ref="15830489"/>
    <nd ref="1498722535"/>
    <nd ref="2569643493"/>
    <nd ref="1498722437"/>
    <nd ref="1498722525"/>
    <nd ref="15830488"/>
    <tag k="highway" v="primary"/>
    <tag k="lanes" v="2"/>
    <tag k="maxspeed" v="50 mph"/>
    <tag k="maxspeed:type" v="sign"/>
    <tag k="ref" v="A422"/>
    <tag k="surface" v="asphalt"/>
  </way>
  <way id="1348002652" version="1" timestamp="2025-01-02T14:54:10Z" changeset="160910838" uid="5229644" user="Nathan_A_RF">
    <nd ref="26338272"/>
    <nd ref="1682441501"/>
    <nd ref="26338672"/>
    <tag k="highway" v="primary"/>
    <tag k="lanes" v="2"/>
    <tag k="maxspeed" v="50 mph"/>
    <tag k="maxspeed:type" v="sign"/>
    <tag k="name" v="Banbury Road"/>
    <tag k="ref" v="A422"/>
    <tag k="surface" v="asphalt"/>
  </way>
  <relation id="8515991" version="2" timestamp="2021-09-09T10:18:35Z" changeset="110967088" uid="12637824" user="MrMapperBanbury">
    <member type="way" ref="615473438" role="inner"/>
    <member type="way" ref="615473439" role="outer"/>
    <tag k="building" v="yes"/>
    <tag k="name" v="Ettington Chase"/>
    <tag k="tourism" v="hotel"/>
    <tag k="type" v="multipolygon"/>
  </relation>

</osm>
