<?xml version="1.0" encoding="UTF-8"?>
<osm version="0.6" generator="Overpass API 0.7.62.8 e802775f">
<note>The data included in this document is from www.openstreetmap.org. The data is made available under ODbL.</note>
<meta osm_base="2025-10-23T17:24:30Z" areas="2025-10-23T12:46:58Z"/>

  <node id="323063" lat="52.1695155" lon="-1.7005205" version="1" timestamp="2005-12-15T15:23:38Z" changeset="1105" uid="735" user="blackadder"/>
  <node id="323090" lat="52.1590989" lon="-1.6964802" version="2" timestamp="2011-11-11T16:07:47Z" changeset="9797525" uid="243152" user="ChinnorBoy"/>
  <node id="279312255" lat="52.1619106" lon="-1.7518118" version="5" timestamp="2017-10-10T13:04:56Z" changeset="52791209" uid="1834625" user="urViator"/>
  <node id="289657211" lat="52.1729222" lon="-1.7136080" version="3" timestamp="2011-09-26T17:21:05Z" changeset="9403757" uid="9065" user="brianboru"/>
  <node id="2579553543" lat="52.1444762" lon="-1.7387847" version="2" timestamp="2013-12-14T15:40:31Z" changeset="19450213" uid="9065" user="brianboru"/>
  <node id="2587871090" lat="52.1599897" lon="-1.7550423" version="1" timestamp="2013-12-20T14:37:56Z" changeset="19550892" uid="9065" user="brianboru"/>
  <node id="9847886854" lat="52.1336536" lon="-1.7450602" version="2" timestamp="2022-12-03T20:54:19Z" changeset="129688909" uid="705850" user="Cebderby"/>
  <way id="5445260" version="34" timestamp="2024-08-15T13:19:28Z" changeset="155281704" uid="5589" user="user_5589">
    <nd ref="9847886854"/>
    <nd ref="10236259198"/>
    <nd ref="2579580599"/>
    <nd ref="10236259197"/>
    <nd ref="289656908"/>
    <nd ref="2579580601"/>
    <nd ref="6483409412"/>
    <nd ref="1997226"/>
    <nd ref="2579580609"/>
    <nd ref="2579580611"/>
    <nd ref="2579580613"/>
    <nd ref="289656909"/>
    <nd ref="877807847"/>
    <nd ref="289656910"/>
    <nd ref="1446356956"/>
    <nd ref="26623257"/>
    <nd ref="289657198"/>
    <nd ref="1446356614"/>
    <nd ref="1446356615"/>
    <nd ref="1997228"/>
    <nd ref="2579605613"/>
    <nd ref="2134963364"/>
    <nd ref="289656914"/>
    <nd ref="289657199"/>
    <nd ref="2579553543"/>
    <nd ref="2035855341"/>
    <nd ref="1446356617"/>
    <nd ref="2035855339"/>
    <nd ref="1997229"/>
    <nd ref="8256110830"/>
    <nd ref="289657200"/>
    <nd ref="1446356618"/>
    <nd ref="289657202"/>
    <nd ref="2587828347"/>
    <nd ref="1446356619"/>
    <nd ref="1446356620"/>
    <nd ref="1446356625"/>
    <nd ref="2587828349"/>
    <nd ref="1997231"/>
    <nd ref="289657203"/>
    <nd ref="2587828350"/>
    <nd ref="289656922"/>
    <nd ref="8407740002"/>
    <nd ref="2579605804"/>
    <nd ref="289657204"/>
    <nd ref="289657205"/>
    <nd ref="2587828378"/>
    <nd ref="1997232"/>
    <nd ref="2587828379"/>
    <nd ref="1446356627"/>
    <nd ref="674308385"/>
    <tag k="cycleway:both" v="no"/>
    <tag k="highway" v="secondary"/>
    <tag k="lanes" v="2"/>
    <tag k="lit" v="no"/>
    <tag k="maxspeed" v="50 mph"/>
    <tag k="name" v="Campden Road"/>
    <tag k="ref" v="B4632"/>
    <tag k="shoulder" v="no"/>
    <tag k="sidewalk" v="no"/>
    <tag k="surface" v="asphalt"/>
  </way>
  <way id="8145332" version="8" timestamp="2013-04-11T21:17:14Z" changeset="15694863" uid="82783" user="Paul The Archivist">
    <nd ref="323063"/>
    <nd ref="1797095145"/>
    <nd ref="323074"/>
    <nd ref="1797095162"/>
    <nd ref="323075"/>
    <nd ref="1797095140"/>
    <nd ref="323076"/>
    <nd ref="1797095150"/>
    <nd ref="1264744394"/>
    <nd ref="1797095141"/>
    <nd ref="1498846270"/>
    <nd ref="1706357288"/>
    <nd ref="323077"/>
    <nd ref="1797095143"/>
    <nd ref="1498846273"/>
    <nd ref="323078"/>
    <nd ref="1498846296"/>
    <nd ref="323079"/>
    <nd ref="1498846236"/>
    <nd ref="323080"/>
    <tag k="highway" v="primary"/>
    <tag k="maxspeed" v="50 mph"/>
    <tag k="ref" v="A3400"/>
    <tag k="sidewalk" v="left"/>
    <tag k="source" v="survey"/>
    <tag k="source:maxspeed" v="survey"/>
  </way>
  <way id="8145334" version="7" timestamp="2013-04-11T21:17:15Z" changeset="15694863" uid="82783" user="Paul The Archivist">
    <nd ref="323090"/>
    <nd ref="323088"/>
    <nd ref="1797095142"/>
    <nd ref="1498846257"/>
    <nd ref="323087"/>
    <nd ref="323086"/>
    <nd ref="1498846288"/>
    <nd ref="1797095163"/>
    <nd ref="323085"/>
    <nd ref="1498846265"/>
    <nd ref="323084"/>
    <nd ref="1498846282"/>
    <nd ref="1498846252"/>
    <nd ref="2263326611"/>
    <nd ref="323083"/>
    <nd ref="323082"/>
    <nd ref="1498846334"/>
    <nd ref="323081"/>
    <nd ref="1498846311"/>
    <nd ref="1498846261"/>
    <nd ref="323080"/>
    <tag k="highway" v="primary"/>
    <tag k="maxspeed" v="50 mph"/>
    <tag k="name" v="Shipston Road"/>
    <tag k="ref" v="A3400"/>
    <tag k="sidewalk" v="right"/>
    <tag k="source:maxspeed" v="survey"/>
  </way>
  <way id="25643651" version="7" timestamp="2021-03-25T05:40:55Z" changeset="101689113" uid="10170574" user="asnghpi">
    <nd ref="279312256"/>
    <nd ref="279540158"/>
    <nd ref="2587863785"/>
    <nd ref="279540159"/>
    <nd ref="279540160"/>
    <nd ref="2587863784"/>
    <nd ref="2587863783"/>
    <nd ref="279540161"/>
    <nd ref="3695350824"/>
    <nd ref="2587863781"/>
    <nd ref="3695350808"/>
    <nd ref="2587863778"/>
    <nd ref="279540162"/>
    <nd ref="3695350800"/>
    <nd ref="2587863023"/>
    <nd ref="2587863022"/>
    <nd ref="279540163"/>
    <nd ref="2587862149"/>
    <nd ref="279540164"/>
    <nd ref="8559066558"/>
    <nd ref="2587862147"/>
    <nd ref="2587862145"/>
    <nd ref="279540165"/>
    <tag k="highway" v="unclassified"/>
    <tag k="source" v="survey"/>
  </way>
  <way id="28802650" version="31" timestamp="2020-01-29T12:29:00Z" changeset="80255925" uid="3937" user="southglos">
    <nd ref="1446356663"/>
    <nd ref="3616081618"/>
    <nd ref="993692006"/>
    <nd ref="3616081617"/>
    <nd ref="3616080422"/>
    <nd ref="316681226"/>
    <tag k="highway" v="residential"/>
    <tag k="lit" v="no"/>
    <tag k="maxspeed" v="20 mph"/>
    <tag k="noname" v="yes"/>
    <tag k="sidewalk" v="left"/>
    <tag k="surface" v="asphalt"/>
  </way>
  <way id="28802679" version="13" timestamp="2023-12-30T10:08:32Z" changeset="145689618" uid="5589" user="user_5589">
    <nd ref="7810217539"/>
    <nd ref="3680865963"/>
    <nd ref="385971252"/>
    <tag k="highway" v="residential"/>
    <tag k="lit" v="no"/>
    <tag k="maxspeed" v="20 mph"/>
    <tag k="noname" v="yes"/>
    <tag k="sidewalk" v="right"/>
    <tag k="surface" v="asphalt"/>
  </way>
  <way id="28802705" version="8" timestamp="2019-01-04T17:57:31Z" changeset="66029497" uid="23770" user="amapanda ᚛ᚐᚋᚐᚅᚇᚐ᚜ 🏳️‍⚧️">
    <nd ref="316681836"/>
    <nd ref="3625174407"/>
    <nd ref="316681838"/>
    <nd ref="3618220982"/>
    <nd ref="3625174402"/>
    <nd ref="3618220985"/>
    <nd ref="316681839"/>
    <nd ref="3618220991"/>
    <nd ref="3668768479"/>
    <nd ref="3618225407"/>
    <nd ref="3661757349"/>
    <nd ref="316681840"/>
    <tag k="highway" v="residential"/>
    <tag k="lit" v="no"/>
    <tag k="maxspeed" v="20 mph"/>
    <tag k="name" v="Barn Close"/>
    <tag k="sidewalk" v="left"/>
  </way>
  <way id="28802720" version="6" timestamp="2015-08-04T16:26:52Z" changeset="33103297" uid="83207" user="Tom Salmon">
    <nd ref="316682002"/>
    <nd ref="3680864285"/>
    <nd ref="3618220967"/>
    <nd ref="316682003"/>
    <nd ref="3680864287"/>
    <nd ref="316681836"/>
    <tag k="highway" v="residential"/>
    <tag k="maxspeed" v="20 mph"/>
    <tag k="name" v="Dighton Close"/>
    <tag k="sidewalk" v="left"/>
  </way>
  <way id="28802781" version="9" timestamp="2025-05-08T18:42:50Z" changeset="165998277" uid="3199858" user="Mateusz Konieczny - bot account">
    <nd ref="316682547"/>
    <nd ref="3653772706"/>
    <nd ref="3653772704"/>
    <nd ref="316682548"/>
    <nd ref="3661757336"/>
    <nd ref="316682549"/>
    <tag k="highway" v="residential"/>
    <tag k="lit" v="no"/>
    <tag k="maxspeed" v="20 mph"/>
    <tag k="name" v="Rainsford Close"/>
    <tag k="sidewalk" v="no"/>
    <tag k="surface" v="asphalt"/>
  </way>
  <way id="37213285" version="8" timestamp="2025-01-03T00:26:04Z" changeset="160930720" uid="5229644" user="Nathan_A_RF">
    <nd ref="2576036193"/>
    <nd ref="2576036188"/>
    <nd ref="2576036186"/>
    <tag k="highway" v="unclassified"/>
    <tag k="lit" v="no"/>
    <tag k="maxspeed" v="60 mph"/>
    <tag k="maxspeed:type" v="GB:nsl_single"/>
    <tag k="sidewalk" v="left"/>
    <tag k="surface" v="asphalt"/>
  </way>
  <way id="39531721" version="9" timestamp="2017-11-03T15:56:59Z" changeset="53482550" uid="23770" user="amapanda ᚛ᚐᚋᚐᚅᚇᚐ᚜ 🏳️‍⚧️">
    <nd ref="473634798"/>
    <nd ref="3644356695"/>
    <nd ref="3632496660"/>
    <nd ref="1991359073"/>
    <nd ref="473634799"/>
    <nd ref="316681229"/>
    <tag k="highway" v="residential"/>
    <tag k="lit" v="no"/>
    <tag k="maxspeed" v="20 mph"/>
    <tag k="noname" v="yes"/>
    <tag k="sidewalk" v="right"/>
    <tag k="surface" v="asphalt"/>
  </way>
  <way id="39773390" version="7" timestamp="2025-05-08T18:42:51Z" changeset="165998277" uid="3199858" user="Mateusz Konieczny - bot account">
    <nd ref="385971251"/>
    <nd ref="3680864318"/>
    <nd ref="3680865945"/>
    <nd ref="3680864319"/>
    <nd ref="3680864321"/>
    <nd ref="3680864323"/>
    <nd ref="3673616368"/>
    <nd ref="385971252"/>
    <tag k="highway" v="residential"/>
    <tag k="maxspeed" v="20 mph"/>
    <tag k="name" v="The Nashes"/>
    <tag k="sidewalk" v="no"/>
    <tag k="surface" v="asphalt"/>
  </way>
  <way id="39773721" version="8" timestamp="2025-01-03T00:26:04Z" changeset="160930720" uid="5229644" user="Nathan_A_RF">
    <nd ref="2576036193"/>
    <nd ref="26724041"/>
    <nd ref="2576036219"/>
    <tag k="cycleway:both" v="no"/>
    <tag k="highway" v="unclassified"/>
    <tag k="lit" v="no"/>
    <tag k="maxspeed" v="60 mph"/>
    <tag k="maxspeed:type" v="GB:nsl_single"/>
    <tag k="sidewalk" v="right"/>
    <tag k="surface" v="asphalt"/>
  </way>
  <way id="53296893" version="10" timestamp="2024-08-15T13:19:21Z" changeset="155281704" uid="5589" user="user_5589">
    <nd ref="674308385"/>
    <nd ref="1446356629"/>
    <nd ref="1446356632"/>
    <nd ref="1446356634"/>
    <nd ref="279540165"/>
    <tag k="cycleway:both" v="no"/>
    <tag k="highway" v="secondary"/>
    <tag k="lanes" v="2"/>
    <tag k="lit" v="no"/>
    <tag k="maxspeed" v="50 mph"/>
    <tag k="name" v="Campden Road"/>
    <tag k="ref" v="B4632"/>
    <tag k="shoulder" v="no"/>
    <tag k="sidewalk" v="no"/>
    <tag k="surface" v="asphalt"/>
  </way>
  <way id="53296899" version="11" timestamp="2025-01-03T00:26:04Z" changeset="160930720" uid="5229644" user="Nathan_A_RF">
    <nd ref="279312256"/>
    <nd ref="1609213143"/>
    <nd ref="7882886613"/>
    <nd ref="279312257"/>
    <nd ref="3695350833"/>
    <nd ref="279312258"/>
    <nd ref="279312259"/>
    <nd ref="279312260"/>
    <nd ref="279312261"/>
    <nd ref="1469853478"/>
    <nd ref="1609213204"/>
    <nd ref="1264748104"/>
    <nd ref="1609213205"/>
    <nd ref="279312262"/>
    <nd ref="279312263"/>
    <nd ref="279312264"/>
    <nd ref="279312265"/>
    <nd ref="279312266"/>
    <nd ref="279312267"/>
    <nd ref="385970301"/>
    <nd ref="2587861667"/>
    <nd ref="1446356668"/>
    <nd ref="385970252"/>
    <nd ref="1446356669"/>
    <nd ref="385970302"/>
    <nd ref="2587861679"/>
    <nd ref="2576036193"/>
    <tag k="highway" v="unclassified"/>
    <tag k="maxspeed" v="60 mph"/>
    <tag k="maxspeed:type" v="GB:nsl_single"/>
    <tag k="name" v="Milcote Road"/>
    <tag k="source" v="NPE"/>
    <tag k="source:name" v="OS_OpenData_Locator"/>
  </way>
  <way id="53296912" version="6" timestamp="2014-01-08T18:36:03Z" changeset="19887527" uid="9065" user="brianboru">
    <nd ref="279312255"/>
    <nd ref="2615104293"/>
    <nd ref="1469853131"/>
    <nd ref="2585378901"/>
    <nd ref="674308394"/>
    <nd ref="1264748086"/>
    <tag k="highway" v="unclassified"/>
    <tag k="source" v="NPE"/>
  </way>
  <way id="85648951" version="9" timestamp="2025-05-08T18:42:54Z" changeset="165998277" uid="3199858" user="Mateusz Konieczny - bot account">
    <nd ref="993692004"/>
    <nd ref="3616080421"/>
    <nd ref="993692006"/>
    <tag k="highway" v="residential"/>
    <tag k="lit" v="no"/>
    <tag k="maxspeed" v="20 mph"/>
    <tag k="noname" v="yes"/>
    <tag k="sidewalk" v="no"/>
    <tag k="surface" v="asphalt"/>
  </way>
  <way id="110889850" version="11" timestamp="2024-08-15T13:17:55Z" changeset="155281704" uid="5589" user="user_5589">
    <nd ref="289657211"/>
    <nd ref="323070"/>
    <nd ref="1264744397"/>
    <tag k="cycleway:both" v="no"/>
    <tag k="highway" v="secondary"/>
    <tag k="lanes" v="2"/>
    <tag k="lit" v="no"/>
    <tag k="maxspeed" v="50 mph"/>
    <tag k="ref" v="B4632"/>
    <tag k="shoulder" v="no"/>
    <tag k="sidewalk" v="left"/>
    <tag k="surface" v="asphalt"/>
  </way>
  <way id="110889851" version="6" timestamp="2025-05-08T18:42:55Z" changeset="165998277" uid="3199858" user="Mateusz Konieczny - bot account">
    <nd ref="1264744358"/>
    <nd ref="1264744367"/>
    <tag k="highway" v="residential"/>
    <tag k="lit" v="no"/>
    <tag k="maxspeed" v="20 mph"/>
    <tag k="name" v="The Square"/>
    <tag k="sidewalk" v="no"/>
    <tag k="surface" v="asphalt"/>
  </way>
  <way id="110889853" version="9" timestamp="2024-08-15T13:18:03Z" changeset="155281704" uid="5589" user="user_5589">
    <nd ref="1264744396"/>
    <nd ref="289657211"/>
    <tag k="bridge" v="yes"/>
    <tag k="cycleway:both" v="no"/>
    <tag k="highway" v="secondary"/>
    <tag k="lanes" v="2"/>
    <tag k="layer" v="1"/>
    <tag k="lit" v="no"/>
    <tag k="maxspeed" v="50 mph"/>
    <tag k="maxweight:signed" v="no"/>
    <tag k="ref" v="B4632"/>
    <tag k="sidewalk" v="left"/>
    <tag k="surface" v="asphalt"/>
  </way>
  <way id="110889854" version="11" timestamp="2025-05-08T18:42:55Z" changeset="165998277" uid="3199858" user="Mateusz Konieczny - bot account">
    <nd ref="316681800"/>
    <nd ref="3616080424"/>
    <nd ref="12577818008"/>
    <nd ref="3616080423"/>
    <nd ref="3629167263"/>
    <nd ref="3670355248"/>
    <nd ref="3670355243"/>
    <nd ref="3672965252"/>
    <nd ref="3672965254"/>
    <nd ref="3670355232"/>
    <nd ref="3670355231"/>
    <nd ref="3670351621"/>
    <nd ref="3616080420"/>
    <nd ref="3672965262"/>
    <nd ref="3616080418"/>
    <nd ref="316681801"/>
    <tag k="highway" v="residential"/>
    <tag k="lanes" v="1"/>
    <tag k="lit" v="no"/>
    <tag k="maxspeed" v="20 mph"/>
    <tag k="name" v="The Close"/>
    <tag k="sidewalk" v="no"/>
    <tag k="surface" v="asphalt"/>
  </way>
  <way id="131419547" version="8" timestamp="2025-01-03T00:26:04Z" changeset="160930720" uid="5229644" user="Nathan_A_RF">
    <nd ref="1446356663"/>
    <nd ref="1446356664"/>
    <nd ref="12470152220"/>
    <nd ref="7169232289"/>
    <nd ref="1446356666"/>
    <tag k="cycleway:both" v="no"/>
    <tag k="highway" v="residential"/>
    <tag k="lanes" v="1"/>
    <tag k="maxspeed" v="50 mph"/>
    <tag k="maxspeed:type" v="sign"/>
    <tag k="noname" v="yes"/>
    <tag k="oneway" v="yes"/>
    <tag k="surface" v="asphalt"/>
  </way>
  <way id="144329667" version="8" timestamp="2024-08-15T13:18:11Z" changeset="155281704" uid="5589" user="user_5589">
    <nd ref="2576036237"/>
    <nd ref="1446356670"/>
    <nd ref="289657209"/>
    <nd ref="1264744368"/>
    <nd ref="289657210"/>
    <nd ref="2576036283"/>
    <nd ref="1264744396"/>
    <tag k="cycleway:both" v="no"/>
    <tag k="highway" v="secondary"/>
    <tag k="lanes" v="2"/>
    <tag k="lit" v="no"/>
    <tag k="maxspeed" v="50 mph"/>
    <tag k="ref" v="B4632"/>
    <tag k="sidewalk" v="left"/>
    <tag k="surface" v="asphalt"/>
  </way>
  <way id="188508635" version="7" timestamp="2017-11-03T15:53:05Z" changeset="53482550" uid="23770" user="amapanda ᚛ᚐᚋᚐᚅᚇᚐ᚜ 🏳️‍⚧️">
    <nd ref="385971077"/>
    <nd ref="3648427281"/>
    <nd ref="316681229"/>
    <tag k="highway" v="residential"/>
    <tag k="lit" v="no"/>
    <tag k="maxspeed" v="20 mph"/>
    <tag k="noname" v="yes"/>
    <tag k="sidewalk" v="left"/>
    <tag k="surface" v="asphalt"/>
  </way>
  <way id="193061287" version="2" timestamp="2013-12-18T17:24:16Z" changeset="19519092" uid="9065" user="brianboru">
    <nd ref="1264748086"/>
    <nd ref="2585378907"/>
    <nd ref="279312256"/>
    <tag k="highway" v="unclassified"/>
    <tag k="name" v="Milcote Road"/>
    <tag k="source" v="NPE"/>
    <tag k="source:name" v="OS_OpenData_Locator"/>
  </way>
  <way id="193061288" version="7" timestamp="2019-01-05T08:53:32Z" changeset="66041975" uid="23770" user="amapanda ᚛ᚐᚋᚐᚅᚇᚐ᚜ 🏳️‍⚧️">
    <nd ref="385971252"/>
    <nd ref="3673616366"/>
    <nd ref="3673616360"/>
    <nd ref="3673616348"/>
    <nd ref="3673616347"/>
    <nd ref="3673616344"/>
    <nd ref="3673616342"/>
    <nd ref="3673615818"/>
    <nd ref="3673615820"/>
    <nd ref="3673615810"/>
    <nd ref="3673615816"/>
    <nd ref="3673615813"/>
    <nd ref="993692004"/>
    <nd ref="3616080419"/>
    <nd ref="316681226"/>
    <tag k="highway" v="residential"/>
    <tag k="lit" v="no"/>
    <tag k="maxspeed" v="20 mph"/>
    <tag k="name" v="Orchard Place"/>
    <tag k="sidewalk" v="right"/>
    <tag k="source:name" v="OS_OpenData_Locator"/>
    <tag k="surface" v="asphalt"/>
  </way>
  <way id="203774683" version="12" timestamp="2025-05-14T14:29:50Z" changeset="166260366" uid="3199858" user="Mateusz Konieczny - bot account">
    <nd ref="279540165"/>
    <nd ref="1997233"/>
    <nd ref="1446356636"/>
    <nd ref="2578286984"/>
    <nd ref="1997234"/>
    <nd ref="289657206"/>
    <nd ref="7882884857"/>
    <nd ref="1446356638"/>
    <nd ref="2263375547"/>
    <nd ref="1446356640"/>
    <nd ref="2263375551"/>
    <nd ref="1997235"/>
    <nd ref="1446356643"/>
    <nd ref="289657207"/>
    <nd ref="1446356644"/>
    <nd ref="660493349"/>
    <nd ref="289656929"/>
    <nd ref="1446356645"/>
    <nd ref="1997237"/>
    <nd ref="289657208"/>
    <nd ref="1446356649"/>
    <nd ref="3638964130"/>
    <nd ref="1997238"/>
    <tag k="cycleway:both" v="no"/>
    <tag k="highway" v="secondary"/>
    <tag k="lanes" v="2"/>
    <tag k="lit" v="no"/>
    <tag k="maxspeed" v="50 mph"/>
    <tag k="name" v="Campden Road"/>
    <tag k="ref" v="B4632"/>
    <tag k="shoulder" v="no"/>
    <tag k="sidewalk" v="no"/>
    <tag k="surface" v="asphalt"/>
  </way>
  <way id="217013668" version="9" timestamp="2024-08-15T13:18:55Z" changeset="155281704" uid="5589" user="user_5589">
    <nd ref="2263375626"/>
    <nd ref="3680865972"/>
    <nd ref="3680865968"/>
    <nd ref="7810217539"/>
    <tag k="cycleway:both" v="no"/>
    <tag k="highway" v="secondary"/>
    <tag k="lanes" v="2"/>
    <tag k="lanes:backward" v="1"/>
    <tag k="lanes:forward" v="1"/>
    <tag k="lit" v="no"/>
    <tag k="maxspeed" v="50 mph"/>
    <tag k="name" v="Campden Road"/>
    <tag k="overtaking" v="no"/>
    <tag k="ref" v="B4632"/>
    <tag k="sidewalk" v="right"/>
    <tag k="surface" v="asphalt"/>
  </way>
  <way id="217013669" version="10" timestamp="2025-01-03T00:26:04Z" changeset="160930720" uid="5229644" user="Nathan_A_RF">
    <nd ref="7810217539"/>
    <nd ref="1446356666"/>
    <nd ref="2576036175"/>
    <tag k="cycleway:both" v="no"/>
    <tag k="highway" v="secondary"/>
    <tag k="lanes" v="2"/>
    <tag k="lit" v="no"/>
    <tag k="maxspeed" v="50 mph"/>
    <tag k="maxspeed:type" v="sign"/>
    <tag k="name" v="Campden Road"/>
    <tag k="ref" v="B4632"/>
    <tag k="sidewalk" v="no"/>
    <tag k="surface" v="asphalt"/>
  </way>
  <way id="217013675" version="1" timestamp="2013-04-11T22:00:41Z" changeset="15695189" uid="82783" user="Paul The Archivist">
    <nd ref="2263375550"/>
    <nd ref="2263375557"/>
    <nd ref="2263375554"/>
    <nd ref="2263375559"/>
    <nd ref="2263375558"/>
    <nd ref="2263375563"/>
    <nd ref="2263375564"/>
    <nd ref="2263375565"/>
    <nd ref="2263375566"/>
    <nd ref="2263375561"/>
    <nd ref="2263375562"/>
    <nd ref="2263375552"/>
    <nd ref="2263375550"/>
    <tag k="addr:country" v="GB"/>
    <tag k="addr:housename" v="Why Not House"/>
    <tag k="addr:street" v="Campden Road"/>
    <tag k="building" v="yes"/>
    <tag k="name" v="Y Not"/>
    <tag k="note" v="Open by appointment only"/>
    <tag k="shop" v="antiques"/>
    <tag k="source" v="Bing;survey"/>
    <tag k="website" v="http://www.ynotantiques.co.uk/"/>
  </way>
  <way id="251779394" version="4" timestamp="2020-10-21T13:57:31Z" changeset="92838075" uid="10455645" user="viplavm">
    <nd ref="2579553543"/>
    <nd ref="2579553545"/>
    <nd ref="2579553549"/>
    <nd ref="2579553550"/>
    <nd ref="2579553558"/>
    <nd ref="8032461388"/>
    <nd ref="2579553569"/>
    <nd ref="2579553573"/>
    <nd ref="2579553581"/>
    <nd ref="7882886828"/>
    <nd ref="2579553584"/>
    <nd ref="2579553587"/>
    <nd ref="2579553596"/>
    <nd ref="2579553597"/>
    <nd ref="2579553594"/>
    <nd ref="2579553585"/>
    <nd ref="2579553575"/>
    <nd ref="2579553577"/>
    <nd ref="2579553582"/>
    <nd ref="2579553599"/>
    <nd ref="2579553603"/>
    <nd ref="2579553604"/>
    <nd ref="2579553605"/>
    <nd ref="2579553607"/>
    <nd ref="2579553609"/>
    <nd ref="2579553610"/>
    <nd ref="2579553612"/>
    <tag k="highway" v="unclassified"/>
  </way>
  <way id="252729766" version="4" timestamp="2023-11-30T20:41:20Z" changeset="144639610" uid="504708" user="HillWithSmallFields">
    <nd ref="2587673213"/>
    <nd ref="2587673214"/>
    <nd ref="2587673219"/>
    <nd ref="2587673220"/>
    <nd ref="2587673215"/>
    <nd ref="2587673216"/>
    <nd ref="2587673205"/>
    <nd ref="2587673204"/>
    <nd ref="2587673201"/>
    <nd ref="2587673200"/>
    <nd ref="2587673203"/>
    <nd ref="2587673202"/>
    <nd ref="2587673209"/>
    <nd ref="2587673210"/>
    <nd ref="2587673213"/>
    <tag k="amenity" v="place_of_worship"/>
    <tag k="building" v="church"/>
    <tag k="denomination" v="anglican"/>
    <tag k="heritage" v="2"/>
    <tag k="heritage:operator" v="Historic England"/>
    <tag k="listed_status" v="Grade II*"/>
    <tag k="name" v="St Helen"/>
    <tag k="ref:dove" v="12305"/>
    <tag k="religion" v="christian"/>
    <tag k="wikidata" v="Q17551966"/>
  </way>
  <way id="252739046" version="7" timestamp="2022-08-04T13:40:18Z" changeset="124481953" uid="9065" user="brianboru">
    <nd ref="2587747225"/>
    <nd ref="2587747217"/>
    <nd ref="2587747210"/>
    <nd ref="2587747214"/>
    <nd ref="2587747225"/>
    <tag k="bridge" v="yes"/>
    <tag k="building" v="house"/>
    <tag k="heritage" v="2"/>
    <tag k="heritage:operator" v="Historic England"/>
    <tag k="listed_status" v="Grade II"/>
    <tag k="name" v="The Old Mill"/>
    <tag k="source" v="bing"/>
    <tag k="wikidata" v="Q26662605"/>
  </way>
  <way id="252754001" version="2" timestamp="2025-01-03T00:26:04Z" changeset="160930720" uid="5229644" user="Nathan_A_RF">
    <nd ref="2576036186"/>
    <nd ref="2587861678"/>
    <nd ref="2587861679"/>
    <tag k="highway" v="unclassified"/>
    <tag k="maxspeed" v="60 mph"/>
    <tag k="maxspeed:type" v="GB:nsl_single"/>
    <tag k="source" v="bing"/>
  </way>
  <way id="252755507" version="4" timestamp="2020-09-20T21:25:56Z" changeset="91189125" uid="65226" user="wince">
    <nd ref="2587871090"/>
    <nd ref="279312252"/>
    <nd ref="279312253"/>
    <nd ref="2582573025"/>
    <nd ref="1469854084"/>
    <nd ref="279312254"/>
    <nd ref="5158963747"/>
    <nd ref="7926331993"/>
    <nd ref="279312255"/>
    <tag k="highway" v="unclassified"/>
    <tag k="name" v="Station Road"/>
    <tag k="source" v="NPE"/>
  </way>
  <way id="252914544" version="2" timestamp="2021-12-02T11:50:39Z" changeset="114480489" uid="12637824" user="MrMapperBanbury">
    <nd ref="2589279071"/>
    <nd ref="2589279075"/>
    <nd ref="2589279068"/>
    <nd ref="2589279066"/>
    <nd ref="2589279071"/>
    <tag k="addr:postcode" v="CV37 8JN"/>
    <tag k="building" v="residential"/>
    <tag k="name" v="Well Cottage"/>
    <tag k="source" v="bing"/>
  </way>
  <way id="356103502" version="7" timestamp="2019-12-06T13:26:03Z" changeset="78053553" uid="23770" user="amapanda ᚛ᚐᚋᚐᚅᚇᚐ᚜ 🏳️‍⚧️">
    <nd ref="3616080415"/>
    <nd ref="3652838559"/>
    <nd ref="3616080411"/>
    <nd ref="471101085"/>
    <nd ref="3616080413"/>
    <nd ref="3616080415"/>
    <tag k="access" v="members"/>
    <tag k="amenity" v="social_club"/>
    <tag k="brewery" v="free_house"/>
    <tag k="building" v="yes"/>
    <tag k="name" v="Clifford Working Mens Club"/>
    <tag k="note" v="Wheelchair access excludes the Snooker room. Disabled toilets are available."/>
    <tag k="smoking" v="outside"/>
    <tag k="toilets:wheelchair" v="yes"/>
    <tag k="wheelchair" v="yes"/>
  </way>
  <way id="356103512" version="5" timestamp="2022-08-04T13:40:18Z" changeset="124481953" uid="9065" user="brianboru">
    <nd ref="3616076241"/>
    <nd ref="3616076238"/>
    <nd ref="3616076244"/>
    <nd ref="3616076247"/>
    <nd ref="3616076241"/>
    <tag k="addr:housenumber" v="24"/>
    <tag k="addr:street" v="The Square"/>
    <tag k="building" v="house"/>
    <tag k="building:levels" v="1"/>
    <tag k="heritage" v="2"/>
    <tag k="heritage:operator" v="Historic England"/>
    <tag k="listed_status" v="Grade II"/>
    <tag k="roof:levels" v="1"/>
    <tag k="roof:shape" v="gabled"/>
  </way>
  <way id="356103514" version="5" timestamp="2022-08-04T13:40:18Z" changeset="124481953" uid="9065" user="brianboru">
    <nd ref="3616076243"/>
    <nd ref="3616076241"/>
    <nd ref="3616076247"/>
    <nd ref="3616076251"/>
    <nd ref="3616076243"/>
    <tag k="addr:housenumber" v="26"/>
    <tag k="addr:street" v="The Square"/>
    <tag k="building" v="house"/>
    <tag k="building:levels" v="1"/>
    <tag k="heritage" v="2"/>
    <tag k="heritage:operator" v="Historic England"/>
    <tag k="listed_status" v="Grade II"/>
    <tag k="roof:levels" v="1"/>
    <tag k="roof:shape" v="gabled"/>
  </way>
  <way id="356103515" version="5" timestamp="2022-08-04T13:40:18Z" changeset="124481953" uid="9065" user="brianboru">
    <nd ref="3616076246"/>
    <nd ref="3616076243"/>
    <nd ref="3616076251"/>
    <nd ref="3616076255"/>
    <nd ref="3616076246"/>
    <tag k="addr:housenumber" v="27"/>
    <tag k="addr:street" v="The Square"/>
    <tag k="building" v="house"/>
    <tag k="building:levels" v="1"/>
    <tag k="heritage" v="2"/>
    <tag k="heritage:operator" v="Historic England"/>
    <tag k="listed_status" v="Grade II"/>
    <tag k="roof:levels" v="1"/>
    <tag k="roof:shape" v="gabled"/>
  </way>
  <way id="356103517" version="4" timestamp="2025-02-11T03:03:30Z" changeset="162374392" uid="493595" user="Yorvik Prestigitator">
    <nd ref="3616080417"/>
    <nd ref="3616080416"/>
    <nd ref="3616080410"/>
    <nd ref="5539536998"/>
    <nd ref="3616080414"/>
    <nd ref="3616080417"/>
    <tag k="alt_name" v="Clifford Chambers Village Hall"/>
    <tag k="amenity" v="community_centre"/>
    <tag k="building" v="public"/>
    <tag k="community_centre" v="village_hall"/>
    <tag k="name" v="Jubilee Hall"/>
    <tag k="wheelchair" v="limited"/>
  </way>
  <way id="356103518" version="7" timestamp="2021-04-01T15:27:11Z" changeset="102136393" uid="30587" user="IknowJoseph">
    <nd ref="3616076224"/>
    <nd ref="3616076227"/>
    <nd ref="3616076225"/>
    <nd ref="3616076229"/>
    <nd ref="3616076230"/>
    <nd ref="3616076231"/>
    <nd ref="3616076223"/>
    <nd ref="3616076220"/>
    <nd ref="3616076226"/>
    <nd ref="3616076222"/>
    <nd ref="3616076221"/>
    <nd ref="3616076219"/>
    <nd ref="3616076224"/>
    <tag k="building" v="house"/>
    <tag k="building:levels" v="2"/>
    <tag k="heritage" v="2"/>
    <tag k="heritage:operator" v="Historic England"/>
    <tag k="listed_status" v="Grade II*"/>
    <tag k="name" v="Clifford Manor"/>
    <tag k="roof:levels" v="1"/>
    <tag k="roof:shape" v="gabled"/>
    <tag k="wikidata" v="Q17551972"/>
  </way>
  <way id="356306512" version="1" timestamp="2015-06-25T13:56:10Z" changeset="32205900" uid="83207" user="Tom Salmon">
    <nd ref="3617600956"/>
    <nd ref="3617600957"/>
    <nd ref="3617600958"/>
    <nd ref="3617600959"/>
    <nd ref="3617600956"/>
    <tag k="building" v="house"/>
    <tag k="name" v="Hampton Cottage"/>
  </way>
  <way id="356310374" version="4" timestamp="2022-08-04T13:40:18Z" changeset="124481953" uid="9065" user="brianboru">
    <nd ref="3617667053"/>
    <nd ref="3617667054"/>
    <nd ref="3617667055"/>
    <nd ref="3617667056"/>
    <nd ref="3617667053"/>
    <tag k="building" v="house"/>
    <tag k="building:levels" v="2"/>
    <tag k="heritage" v="2"/>
    <tag k="heritage:operator" v="Historic England"/>
    <tag k="listed_status" v="Grade II"/>
    <tag k="name" v="Manor Cottages"/>
    <tag k="roof:levels" v="1"/>
    <tag k="roof:shape" v="gabled"/>
    <tag k="source" v="bing"/>
  </way>
  <way id="356310376" version="4" timestamp="2017-11-03T15:56:43Z" changeset="53482545" uid="23770" user="amapanda ᚛ᚐᚋᚐᚅᚇᚐ᚜ 🏳️‍⚧️">
    <nd ref="3617667057"/>
    <nd ref="3617667058"/>
    <nd ref="3617667059"/>
    <nd ref="3617667060"/>
    <nd ref="3617667061"/>
    <nd ref="3617667062"/>
    <nd ref="3617667063"/>
    <nd ref="3617667064"/>
    <nd ref="3617667057"/>
    <tag k="addr:housename" v="The Palings"/>
    <tag k="building" v="house"/>
    <tag k="building:levels" v="1"/>
    <tag k="name" v="Palings"/>
    <tag k="roof:levels" v="1"/>
    <tag k="roof:shape" v="gabled"/>
  </way>
  <way id="356310378" version="4" timestamp="2018-06-17T12:03:39Z" changeset="59913171" uid="23770" user="amapanda ᚛ᚐᚋᚐᚅᚇᚐ᚜ 🏳️‍⚧️">
    <nd ref="3617667065"/>
    <nd ref="3653772826"/>
    <nd ref="3617667066"/>
    <nd ref="3617667067"/>
    <nd ref="3617667068"/>
    <nd ref="3617667065"/>
    <tag k="building" v="house"/>
    <tag k="building:levels" v="2"/>
    <tag k="name" v="Orchard House"/>
    <tag k="roof:levels" v="1"/>
    <tag k="roof:shape" v="gabled"/>
  </way>
  <way id="356361390" version="3" timestamp="2015-07-30T09:14:49Z" changeset="32973829" uid="23770" user="amapanda ᚛ᚐᚋᚐᚅᚇᚐ᚜ 🏳️‍⚧️">
    <nd ref="3618220989"/>
    <nd ref="3618220983"/>
    <nd ref="3618220981"/>
    <nd ref="3618220984"/>
    <nd ref="3618220989"/>
    <tag k="addr:housenumber" v="2"/>
    <tag k="addr:street" v="Barn Close"/>
    <tag k="building" v="house"/>
  </way>
  <way id="356361395" version="3" timestamp="2015-07-30T09:14:50Z" changeset="32973829" uid="23770" user="amapanda ᚛ᚐᚋᚐᚅᚇᚐ᚜ 🏳️‍⚧️">
    <nd ref="3618220963"/>
    <nd ref="3618220965"/>
    <nd ref="3618220964"/>
    <nd ref="3618220962"/>
    <nd ref="3618220963"/>
    <tag k="addr:housenumber" v="3"/>
    <tag k="addr:street" v="Dighton Close"/>
    <tag k="building" v="house"/>
  </way>
  <way id="356503100" version="2" timestamp="2015-07-03T08:39:17Z" changeset="32382176" uid="83207" user="Tom Salmon">
    <nd ref="3619305800"/>
    <nd ref="3619305801"/>
    <nd ref="3619305802"/>
    <nd ref="3619305803"/>
    <nd ref="3619305804"/>
    <nd ref="3619305805"/>
    <nd ref="3619305806"/>
    <nd ref="3619305807"/>
    <nd ref="3619305800"/>
    <tag k="building" v="house"/>
    <tag k="name" v="The Old School"/>
  </way>
  <way id="356547441" version="4" timestamp="2018-06-17T13:47:17Z" changeset="59915398" uid="23770" user="amapanda ᚛ᚐᚋᚐᚅᚇᚐ᚜ 🏳️‍⚧️">
    <nd ref="3619537529"/>
    <nd ref="3619537530"/>
    <nd ref="3619537531"/>
    <nd ref="3619537532"/>
    <nd ref="3619537533"/>
    <nd ref="3619537529"/>
    <tag k="building" v="house"/>
    <tag k="building:levels" v="2"/>
    <tag k="name" v="Barn House"/>
    <tag k="roof:levels" v="1"/>
    <tag k="roof:shape" v="gabled"/>
  </way>
  <way id="356547449" version="1" timestamp="2015-06-26T11:21:42Z" changeset="32223749" uid="83207" user="Tom Salmon">
    <nd ref="3618220989"/>
    <nd ref="3619537547"/>
    <nd ref="3619537548"/>
    <nd ref="3618220984"/>
    <nd ref="3618220989"/>
    <tag k="addr:housenumber" v="1"/>
    <tag k="addr:street" v="Barn Close"/>
    <tag k="building" v="house"/>
  </way>
  <way id="357186930" version="3" timestamp="2021-12-02T11:44:10Z" changeset="114480247" uid="12637824" user="MrMapperBanbury">
    <nd ref="3625171042"/>
    <nd ref="3625171043"/>
    <nd ref="3625171044"/>
    <nd ref="3625171048"/>
    <nd ref="3625171045"/>
    <nd ref="3625171042"/>
    <tag k="addr:housenumber" v="11"/>
    <tag k="building" v="house"/>
    <tag k="building:levels" v="2"/>
    <tag k="name" v="11"/>
    <tag k="roof:levels" v="0"/>
  </way>
  <way id="357186932" version="3" timestamp="2021-12-02T11:44:10Z" changeset="114480247" uid="12637824" user="MrMapperBanbury">
    <nd ref="3625171044"/>
    <nd ref="3625171046"/>
    <nd ref="3625171047"/>
    <nd ref="3625171048"/>
    <nd ref="3625171044"/>
    <tag k="addr:housenumber" v="10"/>
    <tag k="building" v="house"/>
    <tag k="building:levels" v="1"/>
    <tag k="name" v="10"/>
    <tag k="roof:levels" v="1"/>
  </way>
  <way id="357186934" version="3" timestamp="2021-12-02T11:44:10Z" changeset="114480247" uid="12637824" user="MrMapperBanbury">
    <nd ref="3625171046"/>
    <nd ref="3625171047"/>
    <nd ref="3625171049"/>
    <nd ref="3625171050"/>
    <nd ref="3625171051"/>
    <nd ref="3625171046"/>
    <tag k="addr:housenumber" v="9"/>
    <tag k="building" v="house"/>
    <tag k="building:levels" v="2"/>
    <tag k="name" v="9"/>
    <tag k="roof:levels" v="0"/>
  </way>
  <way id="357186935" version="1" timestamp="2015-06-29T12:29:32Z" changeset="32284260" uid="83207" user="Tom Salmon">
    <nd ref="3625171052"/>
    <nd ref="3625171053"/>
    <nd ref="3625171056"/>
    <nd ref="3625171057"/>
    <nd ref="3625171054"/>
    <nd ref="3625171052"/>
    <tag k="addr:housenumber" v="12"/>
    <tag k="addr:street" v="Barn Close"/>
    <tag k="building" v="house"/>
  </way>
  <way id="357186937" version="1" timestamp="2015-06-29T12:29:32Z" changeset="32284260" uid="83207" user="Tom Salmon">
    <nd ref="3625171055"/>
    <nd ref="3625171056"/>
    <nd ref="3625171057"/>
    <nd ref="3625171058"/>
    <nd ref="3625171060"/>
    <nd ref="3625171055"/>
    <tag k="addr:housenumber" v="11"/>
    <tag k="addr:street" v="Barn Close"/>
    <tag k="building" v="house"/>
  </way>
  <way id="357186942" version="1" timestamp="2015-06-29T12:29:32Z" changeset="32284260" uid="83207" user="Tom Salmon">
    <nd ref="3625171059"/>
    <nd ref="3625171060"/>
    <nd ref="3625171058"/>
    <nd ref="3625171061"/>
    <nd ref="3625171063"/>
    <nd ref="3625171059"/>
    <tag k="addr:housenumber" v="10"/>
    <tag k="addr:street" v="Barn Close"/>
    <tag k="building" v="house"/>
  </way>
  <way id="357186944" version="2" timestamp="2022-03-26T18:05:13Z" changeset="118957591" uid="242345" user="confusedbuffalo">
    <nd ref="3625171062"/>
    <nd ref="3625171063"/>
    <nd ref="3625171061"/>
    <nd ref="3625171064"/>
    <nd ref="3625171062"/>
    <tag k="addr:housenumber" v="9"/>
    <tag k="addr:street" v="Barn Close"/>
    <tag k="building" v="house"/>
  </way>
  <way id="357186947" version="1" timestamp="2015-06-29T12:29:32Z" changeset="32284260" uid="83207" user="Tom Salmon">
    <nd ref="3625171065"/>
    <nd ref="3625171062"/>
    <nd ref="3625171064"/>
    <nd ref="3625171066"/>
    <nd ref="3625171065"/>
    <tag k="addr:housenumber" v="8"/>
    <tag k="addr:street" v="Barn Close"/>
    <tag k="building" v="house"/>
  </way>
  <way id="357186949" version="1" timestamp="2015-06-29T12:29:32Z" changeset="32284260" uid="83207" user="Tom Salmon">
    <nd ref="3625171067"/>
    <nd ref="3625171068"/>
    <nd ref="3625171069"/>
    <nd ref="3625171070"/>
    <nd ref="3625171067"/>
    <tag k="addr:housenumber" v="7"/>
    <tag k="addr:street" v="Barn Close"/>
    <tag k="building" v="house"/>
  </way>
  <way id="357186952" version="1" timestamp="2015-06-29T12:29:32Z" changeset="32284260" uid="83207" user="Tom Salmon">
    <nd ref="3625171071"/>
    <nd ref="3625171072"/>
    <nd ref="3625171068"/>
    <nd ref="3625171067"/>
    <nd ref="3625171071"/>
    <tag k="addr:housenumber" v="6"/>
    <tag k="addr:street" v="Barn Close"/>
    <tag k="building" v="house"/>
  </way>
  <way id="357186955" version="1" timestamp="2015-06-29T12:29:32Z" changeset="32284260" uid="83207" user="Tom Salmon">
    <nd ref="3625171073"/>
    <nd ref="3625171074"/>
    <nd ref="3625171079"/>
    <nd ref="3625171075"/>
    <nd ref="3625171076"/>
    <nd ref="3625171073"/>
    <tag k="addr:housenumber" v="5"/>
    <tag k="addr:street" v="Barn Close"/>
    <tag k="building" v="house"/>
  </way>
  <way id="357186958" version="1" timestamp="2015-06-29T12:29:33Z" changeset="32284260" uid="83207" user="Tom Salmon">
    <nd ref="3625171077"/>
    <nd ref="3625171078"/>
    <nd ref="3625171079"/>
    <nd ref="3625171080"/>
    <nd ref="3625171077"/>
    <tag k="addr:housenumber" v="4"/>
    <tag k="addr:street" v="Barn Close"/>
    <tag k="building" v="house"/>
  </way>
  <way id="357186959" version="1" timestamp="2015-06-29T12:29:33Z" changeset="32284260" uid="83207" user="Tom Salmon">
    <nd ref="3625171078"/>
    <nd ref="3625171081"/>
    <nd ref="3625171082"/>
    <nd ref="3625171077"/>
    <nd ref="3625171078"/>
    <tag k="addr:housenumber" v="3"/>
    <tag k="addr:street" v="Barn Close"/>
    <tag k="building" v="house"/>
  </way>
  <way id="357186975" version="2" timestamp="2015-08-04T16:26:53Z" changeset="33103297" uid="83207" user="Tom Salmon">
    <nd ref="316682002"/>
    <nd ref="3680864289"/>
    <nd ref="3625174408"/>
    <tag k="highway" v="residential"/>
    <tag k="maxspeed" v="20 mph"/>
    <tag k="name" v="Dighton Close"/>
  </way>
  <way id="357186984" version="2" timestamp="2024-01-11T23:19:25Z" changeset="146161229" uid="1713634" user="b-unicycling">
    <nd ref="3625174417"/>
    <nd ref="3625174418"/>
    <nd ref="3625174421"/>
    <nd ref="3625174419"/>
    <nd ref="3625174420"/>
    <nd ref="3625174417"/>
    <tag k="HE_ref" v="no"/>
    <tag k="barrier" v="wall"/>
    <tag k="building" v="farm_auxiliary"/>
    <tag k="historic" v="pound"/>
    <tag k="material" v="brick"/>
    <tag k="name" v="Pound"/>
    <tag k="wikimedia_commons" v="File:Restored pound - geograph.org.uk - 2777251.jpg"/>
  </way>
  <way id="357370770" version="1" timestamp="2015-06-30T08:15:00Z" changeset="32302095" uid="83207" user="Tom Salmon">
    <nd ref="3626510939"/>
    <nd ref="3626510940"/>
    <nd ref="3626510941"/>
    <nd ref="3626510942"/>
    <nd ref="3626510939"/>
    <tag k="addr:housenumber" v="1"/>
    <tag k="addr:street" v="Dighton Close"/>
    <tag k="building" v="house"/>
  </way>
  <way id="357370771" version="1" timestamp="2015-06-30T08:15:00Z" changeset="32302095" uid="83207" user="Tom Salmon">
    <nd ref="3626510943"/>
    <nd ref="3626510944"/>
    <nd ref="3626510945"/>
    <nd ref="3626510946"/>
    <nd ref="3626510943"/>
    <tag k="addr:housenumber" v="2"/>
    <tag k="addr:street" v="Dighton Close"/>
    <tag k="building" v="house"/>
  </way>
  <way id="357370772" version="1" timestamp="2015-06-30T08:15:00Z" changeset="32302095" uid="83207" user="Tom Salmon">
    <nd ref="3626510947"/>
    <nd ref="3626510948"/>
    <nd ref="3626510949"/>
    <nd ref="3626510950"/>
    <nd ref="3626510947"/>
    <tag k="addr:housenumber" v="4"/>
    <tag k="addr:street" v="Dighton Close"/>
    <tag k="building" v="house"/>
  </way>
  <way id="357370773" version="1" timestamp="2015-06-30T08:15:00Z" changeset="32302095" uid="83207" user="Tom Salmon">
    <nd ref="3626510951"/>
    <nd ref="3626510952"/>
    <nd ref="3626510953"/>
    <nd ref="3626510954"/>
    <nd ref="3626510951"/>
    <tag k="addr:housenumber" v="5"/>
    <tag k="addr:street" v="Dighton Close"/>
    <tag k="building" v="house"/>
  </way>
  <way id="357370774" version="1" timestamp="2015-06-30T08:15:00Z" changeset="32302095" uid="83207" user="Tom Salmon">
    <nd ref="3626510955"/>
    <nd ref="3626510956"/>
    <nd ref="3626510957"/>
    <nd ref="3626510958"/>
    <nd ref="3626510955"/>
    <tag k="addr:housenumber" v="6"/>
    <tag k="addr:street" v="Dighton Close"/>
    <tag k="building" v="house"/>
  </way>
  <way id="357370775" version="1" timestamp="2015-06-30T08:15:00Z" changeset="32302095" uid="83207" user="Tom Salmon">
    <nd ref="3626510959"/>
    <nd ref="3626510960"/>
    <nd ref="3626510961"/>
    <nd ref="3626510962"/>
    <nd ref="3626510959"/>
    <tag k="addr:housenumber" v="7"/>
    <tag k="addr:street" v="Dighton Close"/>
    <tag k="building" v="house"/>
  </way>
  <way id="357370776" version="1" timestamp="2015-06-30T08:15:00Z" changeset="32302095" uid="83207" user="Tom Salmon">
    <nd ref="3626510963"/>
    <nd ref="3626510964"/>
    <nd ref="3626510965"/>
    <nd ref="3626510966"/>
    <nd ref="3626510963"/>
    <tag k="addr:housenumber" v="8"/>
    <tag k="addr:street" v="Dighton Close"/>
    <tag k="building" v="house"/>
  </way>
  <way id="357370777" version="1" timestamp="2015-06-30T08:15:01Z" changeset="32302095" uid="83207" user="Tom Salmon">
    <nd ref="3626510967"/>
    <nd ref="3626510968"/>
    <nd ref="3626510969"/>
    <nd ref="3626510970"/>
    <nd ref="3626510967"/>
    <tag k="addr:housenumber" v="9"/>
    <tag k="addr:street" v="Dighton Close"/>
    <tag k="building" v="house"/>
  </way>
  <way id="357370778" version="1" timestamp="2015-06-30T08:15:01Z" changeset="32302095" uid="83207" user="Tom Salmon">
    <nd ref="3626510971"/>
    <nd ref="3626510972"/>
    <nd ref="3626510973"/>
    <nd ref="3626510974"/>
    <nd ref="3626510971"/>
    <tag k="addr:housenumber" v="10"/>
    <tag k="addr:street" v="Dighton Close"/>
    <tag k="building" v="house"/>
  </way>
  <way id="357667233" version="5" timestamp="2017-11-03T15:52:57Z" changeset="53482550" uid="23770" user="amapanda ᚛ᚐᚋᚐᚅᚇᚐ᚜ 🏳️‍⚧️">
    <nd ref="3628515992"/>
    <nd ref="3648427261"/>
    <nd ref="3648427274"/>
    <nd ref="385971077"/>
    <tag k="highway" v="residential"/>
    <tag k="lit" v="no"/>
    <tag k="maxspeed" v="20 mph"/>
    <tag k="noname" v="yes"/>
    <tag k="sidewalk" v="left"/>
    <tag k="surface" v="asphalt"/>
  </way>
  <way id="357667234" version="18" timestamp="2017-11-03T15:53:35Z" changeset="53482550" uid="23770" user="amapanda ᚛ᚐᚋᚐᚅᚇᚐ᚜ 🏳️‍⚧️">
    <nd ref="316681226"/>
    <nd ref="3672965290"/>
    <nd ref="3672965288"/>
    <nd ref="3672965279"/>
    <nd ref="3672965286"/>
    <nd ref="3616042222"/>
    <nd ref="3672965277"/>
    <nd ref="3672965283"/>
    <nd ref="316681840"/>
    <nd ref="316681801"/>
    <nd ref="3668768462"/>
    <nd ref="3670315429"/>
    <nd ref="3670315427"/>
    <nd ref="3639278621"/>
    <nd ref="3664669921"/>
    <nd ref="3648436809"/>
    <nd ref="3648436805"/>
    <nd ref="3664669912"/>
    <nd ref="3648436793"/>
    <nd ref="316681227"/>
    <nd ref="3639277159"/>
    <nd ref="3664669901"/>
    <nd ref="3616080403"/>
    <nd ref="3664669899"/>
    <nd ref="3664669882"/>
    <nd ref="2587673256"/>
    <nd ref="3626510981"/>
    <nd ref="3664669876"/>
    <nd ref="3664292696"/>
    <nd ref="3661757368"/>
    <nd ref="3616042221"/>
    <nd ref="3661757365"/>
    <nd ref="473634780"/>
    <nd ref="3661757359"/>
    <nd ref="3648427239"/>
    <nd ref="3643962320"/>
    <nd ref="476792337"/>
    <nd ref="3648427255"/>
    <nd ref="3643962321"/>
    <nd ref="3632505067"/>
    <nd ref="3648427256"/>
    <nd ref="316682549"/>
    <nd ref="3653971029"/>
    <nd ref="3653971027"/>
    <nd ref="3653971038"/>
    <nd ref="3653772846"/>
    <nd ref="1264744367"/>
    <nd ref="473634785"/>
    <nd ref="3640362236"/>
    <nd ref="3648427300"/>
    <nd ref="3648427298"/>
    <nd ref="3617684124"/>
    <nd ref="3628515992"/>
    <tag k="highway" v="residential"/>
    <tag k="lit" v="no"/>
    <tag k="maxspeed" v="20 mph"/>
    <tag k="noname" v="yes"/>
    <tag k="sidewalk" v="left"/>
    <tag k="surface" v="asphalt"/>
  </way>
  <way id="357667235" version="6" timestamp="2025-01-03T00:26:04Z" changeset="160930720" uid="5229644" user="Nathan_A_RF">
    <nd ref="2576036175"/>
    <nd ref="3625174415"/>
    <nd ref="3918359270"/>
    <tag k="highway" v="secondary"/>
    <tag k="lit" v="no"/>
    <tag k="maxspeed" v="50 mph"/>
    <tag k="maxspeed:type" v="sign"/>
    <tag k="name" v="Campden Road"/>
    <tag k="ref" v="B4632"/>
    <tag k="sidewalk" v="right"/>
    <tag k="surface" v="asphalt"/>
  </way>
  <way id="357667237" version="6" timestamp="2025-01-03T00:26:04Z" changeset="160930720" uid="5229644" user="Nathan_A_RF">
    <nd ref="2576036186"/>
    <nd ref="3625174423"/>
    <nd ref="2587861674"/>
    <nd ref="2576036181"/>
    <nd ref="2576036177"/>
    <tag k="highway" v="unclassified"/>
    <tag k="maxspeed" v="60 mph"/>
    <tag k="maxspeed:type" v="GB:nsl_single"/>
    <tag k="surface" v="asphalt"/>
  </way>
  <way id="357667238" version="5" timestamp="2025-01-03T00:26:04Z" changeset="160930720" uid="5229644" user="Nathan_A_RF">
    <nd ref="2576036219"/>
    <nd ref="12470152223"/>
    <nd ref="2576036237"/>
    <tag k="cycleway:both" v="no"/>
    <tag k="highway" v="unclassified"/>
    <tag k="maxspeed" v="60 mph"/>
    <tag k="maxspeed:type" v="GB:nsl_single"/>
    <tag k="surface" v="asphalt"/>
  </way>
  <way id="357667254" version="1" timestamp="2015-07-01T08:13:53Z" changeset="32325727" uid="83207" user="Tom Salmon">
    <nd ref="3628516974"/>
    <nd ref="3628516975"/>
    <nd ref="3628516976"/>
    <nd ref="3628516977"/>
    <nd ref="3628516978"/>
    <nd ref="3628516979"/>
    <nd ref="3628516980"/>
    <nd ref="3628516981"/>
    <nd ref="3628516982"/>
    <nd ref="3628516983"/>
    <nd ref="3628516974"/>
    <tag k="addr:housename" v="The New Inn"/>
    <tag k="amenity" v="pub"/>
    <tag k="building" v="yes"/>
    <tag k="name" v="The New Inn"/>
    <tag k="tourism" v="hotel"/>
  </way>
  <way id="358182572" version="1" timestamp="2015-07-02T12:20:54Z" changeset="32353235" uid="83207" user="Tom Salmon">
    <nd ref="3631472961"/>
    <nd ref="3631472962"/>
    <nd ref="3631472963"/>
    <nd ref="3631472964"/>
    <nd ref="3631472961"/>
    <tag k="addr:housenumber" v="1"/>
    <tag k="addr:street" v="Orchard Place"/>
    <tag k="building" v="house"/>
  </way>
  <way id="358182573" version="1" timestamp="2015-07-02T12:20:54Z" changeset="32353235" uid="83207" user="Tom Salmon">
    <nd ref="3631472965"/>
    <nd ref="3631472964"/>
    <nd ref="3631472963"/>
    <nd ref="3631472966"/>
    <nd ref="3631472965"/>
    <tag k="addr:housenumber" v="2"/>
    <tag k="addr:street" v="Orchard Place"/>
    <tag k="building" v="house"/>
  </way>
  <way id="358182574" version="1" timestamp="2015-07-02T12:20:54Z" changeset="32353235" uid="83207" user="Tom Salmon">
    <nd ref="3631472967"/>
    <nd ref="3631472965"/>
    <nd ref="3631472966"/>
    <nd ref="3631472968"/>
    <nd ref="3631472967"/>
    <tag k="addr:housenumber" v="3"/>
    <tag k="addr:street" v="Orchard Place"/>
    <tag k="building" v="house"/>
  </way>
  <way id="358182575" version="1" timestamp="2015-07-02T12:20:54Z" changeset="32353235" uid="83207" user="Tom Salmon">
    <nd ref="3631472969"/>
    <nd ref="3631472970"/>
    <nd ref="3631472971"/>
    <nd ref="3631472975"/>
    <nd ref="3631472974"/>
    <nd ref="3631472972"/>
    <nd ref="3631472969"/>
    <tag k="addr:housenumber" v="4"/>
    <tag k="addr:street" v="Orchard Place"/>
    <tag k="building" v="house"/>
  </way>
  <way id="358182576" version="1" timestamp="2015-07-02T12:20:55Z" changeset="32353235" uid="83207" user="Tom Salmon">
    <nd ref="3631472973"/>
    <nd ref="3631472974"/>
    <nd ref="3631472975"/>
    <nd ref="3631472976"/>
    <nd ref="3631472973"/>
    <tag k="addr:housenumber" v="5"/>
    <tag k="addr:street" v="Orchard Place"/>
    <tag k="building" v="house"/>
  </way>
  <way id="358182577" version="1" timestamp="2015-07-02T12:20:55Z" changeset="32353235" uid="83207" user="Tom Salmon">
    <nd ref="3631472977"/>
    <nd ref="3631472973"/>
    <nd ref="3631472976"/>
    <nd ref="3631472978"/>
    <nd ref="3631472977"/>
    <tag k="addr:housenumber" v="6"/>
    <tag k="addr:street" v="Orchard Place"/>
    <tag k="building" v="house"/>
  </way>
  <way id="358182578" version="1" timestamp="2015-07-02T12:20:55Z" changeset="32353235" uid="83207" user="Tom Salmon">
    <nd ref="3631472979"/>
    <nd ref="3631472977"/>
    <nd ref="3631472978"/>
    <nd ref="3631472980"/>
    <nd ref="3631472981"/>
    <nd ref="3631472982"/>
    <nd ref="3631472979"/>
    <tag k="addr:housenumber" v="7"/>
    <tag k="addr:street" v="Orchard Place"/>
    <tag k="building" v="house"/>
  </way>
  <way id="358182579" version="1" timestamp="2015-07-02T12:20:55Z" changeset="32353235" uid="83207" user="Tom Salmon">
    <nd ref="3631472983"/>
    <nd ref="3631472984"/>
    <nd ref="3631472985"/>
    <nd ref="3631472988"/>
    <nd ref="3631472989"/>
    <nd ref="3631472986"/>
    <nd ref="3631472983"/>
    <tag k="addr:housenumber" v="8"/>
    <tag k="addr:street" v="Orchard Place"/>
    <tag k="building" v="house"/>
  </way>
  <way id="358182580" version="1" timestamp="2015-07-02T12:20:55Z" changeset="32353235" uid="83207" user="Tom Salmon">
    <nd ref="3631472987"/>
    <nd ref="3631472988"/>
    <nd ref="3631472989"/>
    <nd ref="3631472990"/>
    <nd ref="3631472987"/>
    <tag k="addr:housenumber" v="9"/>
    <tag k="addr:street" v="Orchard Place"/>
    <tag k="building" v="house"/>
  </way>
  <way id="358182581" version="1" timestamp="2015-07-02T12:20:55Z" changeset="32353235" uid="83207" user="Tom Salmon">
    <nd ref="3631472991"/>
    <nd ref="3631472987"/>
    <nd ref="3631472990"/>
    <nd ref="3631472992"/>
    <nd ref="3631472991"/>
    <tag k="addr:housenumber" v="10"/>
    <tag k="addr:street" v="Orchard Place"/>
    <tag k="building" v="house"/>
  </way>
  <way id="358206700" version="8" timestamp="2025-05-08T18:43:07Z" changeset="165998277" uid="3199858" user="Mateusz Konieczny - bot account">
    <nd ref="1997238"/>
    <nd ref="993692010"/>
    <nd ref="2263375626"/>
    <tag k="cycleway:both" v="no"/>
    <tag k="highway" v="secondary"/>
    <tag k="lanes" v="2"/>
    <tag k="lit" v="no"/>
    <tag k="maxspeed" v="50 mph"/>
    <tag k="name" v="Campden Road"/>
    <tag k="overtaking" v="no"/>
    <tag k="ref" v="B4632"/>
    <tag k="shoulder" v="no"/>
    <tag k="sidewalk" v="no"/>
    <tag k="surface" v="asphalt"/>
  </way>
  <way id="358206701" version="1" timestamp="2015-07-02T15:03:43Z" changeset="32356203" uid="83207" user="Tom Salmon">
    <nd ref="3631675782"/>
    <nd ref="3631675783"/>
    <nd ref="3631675784"/>
    <nd ref="3631675785"/>
    <nd ref="3631675782"/>
    <tag k="building" v="apartments"/>
    <tag k="name" v="Red Hill House"/>
  </way>
  <way id="358208179" version="1" timestamp="2015-07-02T15:14:52Z" changeset="32356487" uid="83207" user="Tom Salmon">
    <nd ref="3631685680"/>
    <nd ref="3631685681"/>
    <nd ref="3631685682"/>
    <nd ref="3631685683"/>
    <nd ref="3631685680"/>
    <tag k="abandoned" v="yes"/>
    <tag k="building" v="farm_auxiliary"/>
    <tag k="name" v="Old Dairy"/>
  </way>
  <way id="358310021" version="4" timestamp="2018-06-17T13:43:04Z" changeset="59915398" uid="23770" user="amapanda ᚛ᚐᚋᚐᚅᚇᚐ᚜ 🏳️‍⚧️">
    <nd ref="3632496663"/>
    <nd ref="3632496664"/>
    <nd ref="3632496665"/>
    <nd ref="3632496666"/>
    <nd ref="3632496663"/>
    <tag k="building" v="house"/>
    <tag k="building:levels" v="2"/>
    <tag k="name" v="Servants Cottages"/>
    <tag k="roof:levels" v="1"/>
    <tag k="roof:shape" v="hipped"/>
  </way>
  <way id="358310025" version="2" timestamp="2021-12-02T11:44:10Z" changeset="114480247" uid="12637824" user="MrMapperBanbury">
    <nd ref="3632496676"/>
    <nd ref="3632496677"/>
    <nd ref="3632496678"/>
    <nd ref="3632496679"/>
    <nd ref="3632496676"/>
    <tag k="addr:housenumber" v="1"/>
    <tag k="addr:street" v="The Nashes"/>
    <tag k="building" v="house"/>
    <tag k="name" v="1"/>
  </way>
  <way id="358310026" version="2" timestamp="2021-12-02T11:44:10Z" changeset="114480247" uid="12637824" user="MrMapperBanbury">
    <nd ref="3632496680"/>
    <nd ref="3632496676"/>
    <nd ref="3632496677"/>
    <nd ref="3632496681"/>
    <nd ref="3632496680"/>
    <tag k="addr:housenumber" v="2"/>
    <tag k="addr:street" v="The Nashes"/>
    <tag k="building" v="house"/>
    <tag k="name" v="2"/>
  </way>
  <way id="358310027" version="2" timestamp="2021-12-02T11:44:10Z" changeset="114480247" uid="12637824" user="MrMapperBanbury">
    <nd ref="3632496680"/>
    <nd ref="3632496682"/>
    <nd ref="3632496683"/>
    <nd ref="3632496681"/>
    <nd ref="3632496680"/>
    <tag k="addr:housenumber" v="3"/>
    <tag k="addr:street" v="The Nashes"/>
    <tag k="building" v="house"/>
    <tag k="name" v="3"/>
  </way>
  <way id="358310028" version="2" timestamp="2021-12-02T11:44:10Z" changeset="114480247" uid="12637824" user="MrMapperBanbury">
    <nd ref="3632496682"/>
    <nd ref="3632496684"/>
    <nd ref="3632496685"/>
    <nd ref="3632496683"/>
    <nd ref="3632496682"/>
    <tag k="addr:housenumber" v="4"/>
    <tag k="addr:street" v="The Nashes"/>
    <tag k="building" v="house"/>
    <tag k="name" v="4"/>
  </way>
  <way id="358310029" version="2" timestamp="2021-12-02T11:44:10Z" changeset="114480247" uid="12637824" user="MrMapperBanbury">
    <nd ref="3632496686"/>
    <nd ref="3632496687"/>
    <nd ref="3632496688"/>
    <nd ref="3632496689"/>
    <nd ref="3632496686"/>
    <tag k="addr:housenumber" v="5"/>
    <tag k="addr:street" v="The Nashes"/>
    <tag k="building" v="house"/>
    <tag k="name" v="5"/>
  </way>
  <way id="358310030" version="2" timestamp="2021-12-02T11:44:10Z" changeset="114480247" uid="12637824" user="MrMapperBanbury">
    <nd ref="3632496690"/>
    <nd ref="3632496691"/>
    <nd ref="3632496688"/>
    <nd ref="3632496687"/>
    <nd ref="3632496690"/>
    <tag k="addr:housenumber" v="6"/>
    <tag k="addr:street" v="The Nashes"/>
    <tag k="building" v="house"/>
    <tag k="name" v="6"/>
  </way>
  <way id="358310031" version="2" timestamp="2021-12-02T11:44:10Z" changeset="114480247" uid="12637824" user="MrMapperBanbury">
    <nd ref="3632496691"/>
    <nd ref="3632496692"/>
    <nd ref="3632496693"/>
    <nd ref="3632496690"/>
    <nd ref="3632496691"/>
    <tag k="addr:housenumber" v="7"/>
    <tag k="addr:street" v="The Nashes"/>
    <tag k="building" v="house"/>
    <tag k="name" v="7"/>
  </way>
  <way id="358310035" version="2" timestamp="2021-12-02T11:44:10Z" changeset="114480247" uid="12637824" user="MrMapperBanbury">
    <nd ref="3632496704"/>
    <nd ref="3632496705"/>
    <nd ref="3632496706"/>
    <nd ref="3632496707"/>
    <nd ref="3632496704"/>
    <tag k="building" v="house"/>
    <tag k="name" v="Autumn Cottage"/>
  </way>
  <way id="359285096" version="5" timestamp="2017-11-03T15:54:11Z" changeset="53482565" uid="23770" user="amapanda ᚛ᚐᚋᚐᚅᚇᚐ᚜ 🏳️‍⚧️">
    <nd ref="3640362236"/>
    <nd ref="3661757221"/>
    <nd ref="3653772838"/>
    <nd ref="3640362237"/>
    <tag k="access" v="private"/>
    <tag k="highway" v="residential"/>
    <tag k="noname" v="yes"/>
  </way>
  <way id="360824570" version="4" timestamp="2022-08-04T13:40:18Z" changeset="124481953" uid="9065" user="brianboru">
    <nd ref="3653772829"/>
    <nd ref="3653772849"/>
    <nd ref="3653772830"/>
    <nd ref="3653772831"/>
    <nd ref="3653772832"/>
    <nd ref="3653772829"/>
    <tag k="building" v="house"/>
    <tag k="building:levels" v="2"/>
    <tag k="heritage" v="2"/>
    <tag k="heritage:operator" v="Historic England"/>
    <tag k="listed_status" v="Grade II"/>
    <tag k="name" v="Apple Tree Cottage"/>
    <tag k="roof:levels" v="1"/>
    <tag k="roof:shape" v="gabled"/>
    <tag k="source" v="bing"/>
  </way>
  <way id="362606592" version="1" timestamp="2015-07-27T14:22:15Z" changeset="32910883" uid="83207" user="Tom Salmon">
    <nd ref="3668768479"/>
    <nd ref="3668768480"/>
    <tag k="highway" v="residential"/>
    <tag k="surface" v="asphalt"/>
  </way>
  <way id="365268702" version="1" timestamp="2015-08-12T09:20:54Z" changeset="33286616" uid="83207" user="Tom Salmon">
    <nd ref="3693007863"/>
    <nd ref="3693007864"/>
    <nd ref="3693007865"/>
    <nd ref="3693007866"/>
    <nd ref="3693007867"/>
    <nd ref="3693007868"/>
    <nd ref="3693007869"/>
    <nd ref="3693007870"/>
    <nd ref="3693007871"/>
    <nd ref="3693007872"/>
    <nd ref="3693007873"/>
    <nd ref="3693007874"/>
    <nd ref="3693007863"/>
    <tag k="building" v="house"/>
    <tag k="name" v="Rectory Farm"/>
  </way>
  <way id="388663749" version="6" timestamp="2025-01-03T00:26:04Z" changeset="160930720" uid="5229644" user="Nathan_A_RF">
    <nd ref="3918359270"/>
    <nd ref="7849490161"/>
    <nd ref="2576036210"/>
    <nd ref="2576036222"/>
    <nd ref="2576036237"/>
    <tag k="cycleway:both" v="no"/>
    <tag k="highway" v="secondary"/>
    <tag k="maxspeed" v="50 mph"/>
    <tag k="maxspeed:type" v="sign"/>
    <tag k="name" v="Campden Road"/>
    <tag k="ref" v="B4632"/>
    <tag k="sidewalk" v="no"/>
    <tag k="surface" v="asphalt"/>
  </way>
  <way id="767851383" version="2" timestamp="2025-01-03T00:26:04Z" changeset="160930720" uid="5229644" user="Nathan_A_RF">
    <nd ref="2576036175"/>
    <nd ref="12470152219"/>
    <nd ref="385970724"/>
    <nd ref="12470152221"/>
    <nd ref="1446356663"/>
    <tag k="highway" v="residential"/>
    <tag k="lanes" v="1"/>
    <tag k="lit" v="no"/>
    <tag k="maxspeed" v="50 mph"/>
    <tag k="maxspeed:type" v="sign"/>
    <tag k="noname" v="yes"/>
    <tag k="oneway" v="yes"/>
    <tag k="sidewalk" v="left"/>
    <tag k="surface" v="asphalt"/>
  </way>
  <way id="767851384" version="3" timestamp="2025-01-03T00:26:04Z" changeset="160930720" uid="5229644" user="Nathan_A_RF">
    <nd ref="1446356666"/>
    <nd ref="12470152222"/>
    <nd ref="2576036177"/>
    <tag k="cycleway:both" v="no"/>
    <tag k="highway" v="unclassified"/>
    <tag k="maxspeed" v="60 mph"/>
    <tag k="maxspeed:type" v="GB:nsl_single"/>
    <tag k="noname" v="yes"/>
    <tag k="oneway" v="yes"/>
    <tag k="source" v="bing"/>
    <tag k="surface" v="asphalt"/>
  </way>
  <way id="841271103" version="2" timestamp="2021-12-02T11:50:39Z" changeset="114480489" uid="12637824" user="MrMapperBanbury">
    <nd ref="7849490161"/>
    <nd ref="7849490162"/>
    <nd ref="7849490163"/>
    <nd ref="7849490164"/>
    <nd ref="7849490165"/>
    <nd ref="7849490166"/>
    <nd ref="7849490169"/>
    <nd ref="7849490167"/>
    <nd ref="7849490168"/>
    <tag k="highway" v="residential"/>
  </way>
  <way id="1079751768" version="2" timestamp="2023-11-09T11:25:55Z" changeset="143818101" uid="18869198" user="TB-E">
    <nd ref="9897367948"/>
    <nd ref="9897367947"/>
    <nd ref="9897367946"/>
    <nd ref="9897367945"/>
    <nd ref="9897367944"/>
    <nd ref="9897367943"/>
    <nd ref="9897367942"/>
    <nd ref="9897367941"/>
    <nd ref="9897367948"/>
    <tag k="building" v="yes"/>
    <tag k="name" v="Dairy Cottage"/>
    <tag k="source" v="bing"/>
    <tag k="tourism" v="chalet"/>
    <tag k="website" v="https://www.monksbarnfarm.co.uk/"/>
  </way>
  <way id="1222219892" version="1" timestamp="2023-11-09T11:25:55Z" changeset="143818101" uid="18869198" user="TB-E">
    <nd ref="9897367958"/>
    <nd ref="11335629455"/>
    <nd ref="11335629456"/>
    <nd ref="9897367957"/>
    <nd ref="9897367958"/>
    <tag k="building" v="yes"/>
    <tag k="name" v="The Granary"/>
    <tag k="tourism" v="chalet"/>
    <tag k="website" v="https://www.monksbarnfarm.co.uk/"/>
  </way>
  <way id="1348126270" version="1" timestamp="2025-01-03T00:26:04Z" changeset="160930720" uid="5229644" user="Nathan_A_RF">
    <nd ref="2576036177"/>
    <nd ref="2576036175"/>
    <tag k="cycleway:both" v="no"/>
    <tag k="highway" v="unclassified"/>
    <tag k="maxspeed" v="60 mph"/>
    <tag k="maxspeed:type" v="GB:nsl_single"/>
    <tag k="noname" v="yes"/>
    <tag k="oneway" v="yes"/>
    <tag k="source" v="bing"/>
    <tag k="surface" v="asphalt"/>
  </way>

</osm>
