<?xml version="1.0" encoding="UTF-8"?>
<osm version="0.6" generator="Overpass API 0.7.62.8 e802775f">
<note>The data included in this document is from www.openstreetmap.org. The data is made available under ODbL.</note>
<meta osm_base="2025-10-23T17:19:19Z" areas="2025-10-23T12:46:58Z"/>

  <node id="27504251" lat="52.1386668" lon="-1.4509863" version="5" timestamp="2013-06-09T19:09:51Z" changeset="16486873" uid="9065" user="brianboru"/>
  <node id="312300493" lat="52.1262896" lon="-1.4769622" version="2" timestamp="2013-06-04T17:12:26Z" changeset="16421943" uid="782788" user="GordonFS"/>
  <node id="1547225105" lat="52.1541107" lon="-1.4963850" version="1" timestamp="2011-12-15T13:43:40Z" changeset="10124122" uid="165" user="Richard"/>
  <node id="1547225372" lat="52.1361029" lon="-1.4460788" version="3" timestamp="2013-06-09T19:09:50Z" changeset="16486873" uid="9065" user="brianboru"/>
  <node id="2332030208" lat="52.1249188" lon="-1.4528171" version="1" timestamp="2013-06-04T17:28:15Z" changeset="16421943" uid="782788" user="GordonFS"/>
  <way id="24274789" version="2" timestamp="2013-06-09T19:09:48Z" changeset="16486873" uid="9065" user="brianboru">
    <nd ref="27504251"/>
    <nd ref="262833171"/>
    <nd ref="262833172"/>
    <nd ref="2338498588"/>
    <nd ref="2338498589"/>
    <nd ref="2338498591"/>
    <nd ref="262833173"/>
    <nd ref="262833174"/>
    <nd ref="262833175"/>
    <nd ref="2338498596"/>
    <nd ref="2338498597"/>
    <nd ref="262833176"/>
    <nd ref="2338498598"/>
    <nd ref="262833177"/>
    <nd ref="2338498600"/>
    <nd ref="262833180"/>
    <nd ref="2338498602"/>
    <nd ref="262833183"/>
    <nd ref="262833185"/>
    <nd ref="2338498641"/>
    <nd ref="2338498642"/>
    <nd ref="262833186"/>
    <nd ref="2338498645"/>
    <nd ref="2338498646"/>
    <nd ref="262833188"/>
    <nd ref="2338498649"/>
    <nd ref="262833192"/>
    <nd ref="2338498651"/>
    <nd ref="2338498657"/>
    <nd ref="262833193"/>
    <nd ref="2338498665"/>
    <nd ref="2338498673"/>
    <nd ref="2338498675"/>
    <nd ref="262833194"/>
    <nd ref="262833195"/>
    <nd ref="2338498679"/>
    <nd ref="2338498683"/>
    <nd ref="262833196"/>
    <nd ref="2338498689"/>
    <nd ref="262833197"/>
    <nd ref="2338498693"/>
    <nd ref="262833198"/>
    <nd ref="2338498705"/>
    <nd ref="2338498711"/>
    <nd ref="262833199"/>
    <nd ref="2338498764"/>
    <nd ref="262833200"/>
    <nd ref="262833201"/>
    <nd ref="262833202"/>
    <nd ref="262833203"/>
    <nd ref="2338498788"/>
    <nd ref="262833204"/>
    <nd ref="2338498797"/>
    <nd ref="2338498799"/>
    <nd ref="262833205"/>
    <nd ref="262833206"/>
    <nd ref="2338498811"/>
    <nd ref="262833208"/>
    <nd ref="262833209"/>
    <nd ref="2338498828"/>
    <nd ref="262833210"/>
    <nd ref="2338498834"/>
    <nd ref="2338498837"/>
    <nd ref="262833211"/>
    <nd ref="262833212"/>
    <nd ref="262833213"/>
    <nd ref="262833214"/>
    <nd ref="262833215"/>
    <nd ref="262833216"/>
    <tag k="highway" v="tertiary"/>
  </way>
  <way id="26465669" version="9" timestamp="2013-11-27T13:16:29Z" changeset="19144198" uid="9065" user="brianboru">
    <nd ref="1547225348"/>
    <nd ref="2554188383"/>
    <nd ref="1598986822"/>
    <nd ref="290028140"/>
    <tag k="highway" v="unclassified"/>
    <tag k="lanes" v="1.5"/>
    <tag k="maxspeed" v="30 mph"/>
    <tag k="name" v="The Green"/>
    <tag k="source" v="NPE"/>
    <tag k="source:name" v="OS_OpenData_Locator"/>
  </way>
  <way id="28426032" version="8" timestamp="2021-02-10T03:47:48Z" changeset="99009280" uid="10455637" user="mounicb">
    <nd ref="290028159"/>
    <nd ref="2554187975"/>
    <nd ref="8410511541"/>
    <nd ref="290028160"/>
    <tag k="highway" v="unclassified"/>
    <tag k="lanes" v="1.5"/>
    <tag k="source" v="NPE"/>
  </way>
  <way id="37623965" version="6" timestamp="2020-07-17T15:30:48Z" changeset="88150290" uid="11206268" user="Te7o">
    <nd ref="290028161"/>
    <nd ref="290028162"/>
    <nd ref="2332012627"/>
    <nd ref="312300504"/>
    <tag k="highway" v="unclassified"/>
    <tag k="lanes" v="1.5"/>
    <tag k="source" v="NPE"/>
  </way>
  <way id="37623966" version="4" timestamp="2023-10-23T07:50:04Z" changeset="143004019" uid="8355539" user="danthw_">
    <nd ref="27504251"/>
    <nd ref="2338498587"/>
    <nd ref="2338498583"/>
    <nd ref="27504250"/>
    <nd ref="2338498579"/>
    <nd ref="27504248"/>
    <nd ref="2338498573"/>
    <nd ref="27504247"/>
    <nd ref="2338498538"/>
    <nd ref="27504246"/>
    <tag k="highway" v="secondary"/>
    <tag k="lanes" v="2"/>
    <tag k="maxspeed" v="50 mph"/>
    <tag k="ref" v="B4086"/>
    <tag k="surface" v="asphalt"/>
  </way>
  <way id="37623967" version="6" timestamp="2023-10-23T07:50:04Z" changeset="143004019" uid="8355539" user="danthw_">
    <nd ref="27504246"/>
    <nd ref="27504245"/>
    <nd ref="2338498530"/>
    <nd ref="1547225395"/>
    <nd ref="1547225378"/>
    <nd ref="2338498520"/>
    <nd ref="1547225428"/>
    <nd ref="2338498514"/>
    <nd ref="1547225372"/>
    <tag k="highway" v="secondary"/>
    <tag k="lanes" v="2"/>
    <tag k="maxspeed" v="50 mph"/>
    <tag k="ref" v="B4086"/>
    <tag k="surface" v="asphalt"/>
  </way>
  <way id="39293771" version="8" timestamp="2013-09-14T16:45:39Z" changeset="17836276" uid="9065" user="brianboru">
    <nd ref="1547225372"/>
    <nd ref="2458231517"/>
    <nd ref="1547225413"/>
    <nd ref="470850901"/>
    <nd ref="1547225380"/>
    <nd ref="2458231510"/>
    <nd ref="1547225446"/>
    <nd ref="2338505774"/>
    <nd ref="279617617"/>
    <nd ref="2338505772"/>
    <nd ref="470850902"/>
    <nd ref="2332012616"/>
    <nd ref="470850903"/>
    <nd ref="2338505766"/>
    <nd ref="470850904"/>
    <nd ref="2338505767"/>
    <nd ref="470850905"/>
    <nd ref="2338505769"/>
    <nd ref="470850906"/>
    <nd ref="2338498466"/>
    <nd ref="470850907"/>
    <tag k="highway" v="unclassified"/>
    <tag k="lanes" v="1"/>
  </way>
  <way id="119783935" version="8" timestamp="2023-08-06T14:51:37Z" changeset="139519215" uid="30587" user="IknowJoseph">
    <nd ref="1344917299"/>
    <nd ref="1344917320"/>
    <nd ref="1344917294"/>
    <nd ref="1344917266"/>
    <nd ref="1344917338"/>
    <nd ref="6755851583"/>
    <nd ref="1344917288"/>
    <nd ref="2875064854"/>
    <nd ref="1344917328"/>
    <nd ref="1344917315"/>
    <nd ref="1344917324"/>
    <nd ref="1344917293"/>
    <nd ref="2875064853"/>
    <nd ref="1344917299"/>
    <tag k="amenity" v="pub"/>
    <tag k="building" v="yes"/>
    <tag k="heritage" v="2"/>
    <tag k="heritage:operator" v="Historic England"/>
    <tag k="listed_status" v="Grade II*"/>
    <tag k="name" v="Castle at Edgehill"/>
    <tag k="note" v="In Radway Parish"/>
    <tag k="website" v="https://www.castleatedgehill.co.uk/"/>
    <tag k="wikidata" v="Q17551037"/>
  </way>
  <way id="141336066" version="8" timestamp="2024-07-08T06:01:19Z" changeset="153687142" uid="18869198" user="TB-E">
    <nd ref="1547225188"/>
    <nd ref="1547225392"/>
    <nd ref="1547225341"/>
    <nd ref="1547225364"/>
    <nd ref="1547225211"/>
    <nd ref="8411370341"/>
    <nd ref="1547225093"/>
    <nd ref="2533766151"/>
    <nd ref="1547225066"/>
    <nd ref="1547225051"/>
    <nd ref="1547225034"/>
    <nd ref="1547226059"/>
    <nd ref="1547226011"/>
    <nd ref="1547226001"/>
    <nd ref="1547226007"/>
    <nd ref="1547225984"/>
    <nd ref="1547225869"/>
    <nd ref="1547225867"/>
    <nd ref="1547225862"/>
    <nd ref="1547225849"/>
    <nd ref="1547225697"/>
    <nd ref="1547226047"/>
    <nd ref="1547226020"/>
    <nd ref="1547225985"/>
    <nd ref="1547225982"/>
    <nd ref="1547225818"/>
    <nd ref="1547225932"/>
    <nd ref="1547225928"/>
    <nd ref="1547225915"/>
    <nd ref="1547225909"/>
    <nd ref="1547225875"/>
    <nd ref="1547225709"/>
    <nd ref="1547225955"/>
    <nd ref="12041062408"/>
    <nd ref="2554188465"/>
    <nd ref="6618867742"/>
    <nd ref="1547225841"/>
    <nd ref="6618867739"/>
    <nd ref="1547225823"/>
    <nd ref="6568514476"/>
    <nd ref="1547225846"/>
    <nd ref="1547225842"/>
    <nd ref="1547225346"/>
    <nd ref="1547225815"/>
    <nd ref="1547225843"/>
    <nd ref="1547225944"/>
    <nd ref="2554188395"/>
    <nd ref="1547225348"/>
    <tag k="highway" v="unclassified"/>
    <tag k="name" v="Langdon Lane"/>
    <tag k="source:name" v="OS_OpenData_Locator"/>
  </way>
  <way id="141336076" version="7" timestamp="2020-12-18T05:51:54Z" changeset="96043445" uid="11734036" user="prreddyz">
    <nd ref="1547225348"/>
    <nd ref="1547225838"/>
    <nd ref="8239381568"/>
    <nd ref="1547225921"/>
    <nd ref="6303568050"/>
    <nd ref="1547225919"/>
    <nd ref="6303568040"/>
    <nd ref="1547225828"/>
    <nd ref="1547225814"/>
    <nd ref="1547225903"/>
    <nd ref="1547225899"/>
    <nd ref="1547225892"/>
    <nd ref="8239381572"/>
    <nd ref="1547225885"/>
    <nd ref="1547225839"/>
    <nd ref="1547225873"/>
    <nd ref="1547225871"/>
    <nd ref="1547225877"/>
    <nd ref="1547225837"/>
    <nd ref="6888214060"/>
    <nd ref="2554188416"/>
    <nd ref="1547225103"/>
    <tag k="highway" v="unclassified"/>
    <tag k="lanes" v="1.5"/>
    <tag k="maxspeed" v="30 mph"/>
    <tag k="name" v="Farnborough Road"/>
    <tag k="source:name" v="OS_OpenData_Locator"/>
  </way>
  <way id="141336081" version="7" timestamp="2025-01-02T19:03:54Z" changeset="160922478" uid="5229644" user="Nathan_A_RF">
    <nd ref="1547225372"/>
    <nd ref="2338498512"/>
    <nd ref="2338498508"/>
    <nd ref="2338498494"/>
    <nd ref="1547225431"/>
    <nd ref="2458231503"/>
    <nd ref="1547225401"/>
    <nd ref="1547225404"/>
    <nd ref="1547225399"/>
    <nd ref="1547225373"/>
    <nd ref="1547225930"/>
    <nd ref="1547225926"/>
    <nd ref="1547225917"/>
    <nd ref="1547225911"/>
    <nd ref="1547225895"/>
    <nd ref="1547225887"/>
    <nd ref="1547225220"/>
    <nd ref="1547225444"/>
    <nd ref="27504203"/>
    <tag k="highway" v="secondary"/>
    <tag k="incline" v="14%"/>
    <tag k="lanes" v="2"/>
    <tag k="maxspeed" v="50 mph"/>
    <tag k="maxspeed:type" v="sign"/>
    <tag k="ref" v="B4086"/>
    <tag k="surface" v="asphalt"/>
  </way>
  <way id="191357594" version="4" timestamp="2020-10-08T06:10:26Z" changeset="92147090" uid="9196107" user="bashwith">
    <nd ref="2019434895"/>
    <nd ref="2554188153"/>
    <nd ref="2019434912"/>
    <nd ref="2554188197"/>
    <nd ref="7986895129"/>
    <nd ref="2554188209"/>
    <nd ref="2019434891"/>
    <nd ref="2554188234"/>
    <nd ref="2554188255"/>
    <nd ref="290028147"/>
    <tag k="highway" v="residential"/>
    <tag k="name" v="West End"/>
    <tag k="source" v="OS_OpenData_StreetView"/>
    <tag k="source:name" v="OS_OpenData_Locator"/>
  </way>
  <way id="192383214" version="6" timestamp="2024-07-08T06:06:26Z" changeset="153687246" uid="18869198" user="TB-E">
    <nd ref="290028140"/>
    <nd ref="8254498608"/>
    <nd ref="290028141"/>
    <nd ref="290028142"/>
    <nd ref="2554188345"/>
    <nd ref="2554188343"/>
    <nd ref="6568514460"/>
    <nd ref="290028143"/>
    <nd ref="2554188337"/>
    <nd ref="2554188334"/>
    <nd ref="290028144"/>
    <nd ref="290028145"/>
    <nd ref="2554188321"/>
    <nd ref="2554188303"/>
    <nd ref="290028146"/>
    <nd ref="1598986819"/>
    <nd ref="2554188283"/>
    <nd ref="290028147"/>
    <nd ref="2554188272"/>
    <nd ref="2554188270"/>
    <nd ref="290028148"/>
    <nd ref="2554188269"/>
    <nd ref="290028149"/>
    <nd ref="12041046552"/>
    <nd ref="12041046557"/>
    <nd ref="290028150"/>
    <tag k="highway" v="unclassified"/>
    <tag k="lanes" v="1.5"/>
    <tag k="maxspeed" v="30 mph"/>
    <tag k="name" v="Tysoe Road"/>
    <tag k="source" v="gps_trace"/>
  </way>
  <way id="224386695" version="2" timestamp="2019-06-20T05:49:06Z" changeset="71426926" uid="9196110" user="shishf">
    <nd ref="312300493"/>
    <nd ref="312300495"/>
    <nd ref="6559319348"/>
    <nd ref="312300496"/>
    <nd ref="2332012625"/>
    <nd ref="312300497"/>
    <nd ref="312300499"/>
    <nd ref="2332012630"/>
    <nd ref="312300504"/>
    <tag k="highway" v="unclassified"/>
    <tag k="lanes" v="1.5"/>
    <tag k="source" v="gps_trace"/>
  </way>
  <way id="224386697" version="2" timestamp="2019-05-18T08:53:32Z" changeset="70381917" uid="8476275" user="mrfa">
    <nd ref="1547225103"/>
    <nd ref="1547225098"/>
    <nd ref="1547225095"/>
    <nd ref="1547226067"/>
    <nd ref="1547226031"/>
    <nd ref="1547226053"/>
    <nd ref="6482145166"/>
    <nd ref="1547226014"/>
    <nd ref="1547226069"/>
    <nd ref="1547225998"/>
    <nd ref="1547225959"/>
    <nd ref="1547225950"/>
    <nd ref="1547225957"/>
    <nd ref="1547225948"/>
    <nd ref="1547225468"/>
    <nd ref="1547225547"/>
    <nd ref="1547225512"/>
    <nd ref="1547225923"/>
    <nd ref="1547225907"/>
    <nd ref="1547225375"/>
    <nd ref="1547225296"/>
    <nd ref="1547225370"/>
    <nd ref="27504246"/>
    <tag k="highway" v="unclassified"/>
    <tag k="lanes" v="1.5"/>
    <tag k="name" v="Farnborough Road"/>
    <tag k="source:name" v="OS_OpenData_Locator"/>
  </way>
  <way id="224386706" version="2" timestamp="2013-11-27T13:16:29Z" changeset="19144198" uid="9065" user="brianboru">
    <nd ref="290028150"/>
    <nd ref="2554188258"/>
    <nd ref="290028151"/>
    <nd ref="290028152"/>
    <nd ref="290028153"/>
    <nd ref="290028154"/>
    <nd ref="2554188182"/>
    <nd ref="2554188145"/>
    <nd ref="290028155"/>
    <nd ref="290028156"/>
    <nd ref="290028157"/>
    <nd ref="290028158"/>
    <nd ref="2554187977"/>
    <nd ref="2332012634"/>
    <nd ref="2554187973"/>
    <nd ref="290028159"/>
    <tag k="highway" v="unclassified"/>
    <tag k="lanes" v="1.5"/>
    <tag k="name" v="Tysoe Road"/>
    <tag k="source" v="gps_trace"/>
  </way>
  <way id="224388270" version="8" timestamp="2019-10-19T19:56:35Z" changeset="75938548" uid="30587" user="IknowJoseph">
    <nd ref="2332030208"/>
    <nd ref="1547225449"/>
    <nd ref="1513168397"/>
    <nd ref="2563295501"/>
    <nd ref="6898897599"/>
    <nd ref="6306486332"/>
    <nd ref="6306486328"/>
    <nd ref="2533461404"/>
    <nd ref="6755851578"/>
    <nd ref="6306486313"/>
    <nd ref="1547225191"/>
    <nd ref="278268137"/>
    <nd ref="1547225166"/>
    <nd ref="1547225159"/>
    <tag k="highway" v="tertiary"/>
    <tag k="lanes" v="2"/>
    <tag k="maxspeed" v="30 mph"/>
  </way>
  <way id="248658941" version="5" timestamp="2023-12-01T09:06:34Z" changeset="144654010" uid="504708" user="HillWithSmallFields">
    <nd ref="2554188329"/>
    <nd ref="2554188328"/>
    <nd ref="2554188325"/>
    <nd ref="2554188324"/>
    <nd ref="2554188315"/>
    <nd ref="2554188316"/>
    <nd ref="2554188310"/>
    <nd ref="2554188311"/>
    <nd ref="2554188306"/>
    <nd ref="2554188307"/>
    <nd ref="2554188308"/>
    <nd ref="2554188309"/>
    <nd ref="2554188317"/>
    <nd ref="2554188318"/>
    <nd ref="2554188327"/>
    <nd ref="2554188326"/>
    <nd ref="2554188329"/>
    <tag k="amenity" v="place_of_worship"/>
    <tag k="building" v="church"/>
    <tag k="denomination" v="anglican"/>
    <tag k="heritage" v="2"/>
    <tag k="heritage:operator" v="Historic England"/>
    <tag k="listed_status" v="Grade II"/>
    <tag k="name" v="St Peter"/>
    <tag k="ref:dove" v="16739"/>
    <tag k="religion" v="christian"/>
    <tag k="source" v="bing"/>
    <tag k="wikidata" v="Q26479957"/>
  </way>
  <way id="660814278" version="5" timestamp="2025-07-15T11:26:57Z" changeset="168960428" uid="10974821" user="Marting77">
    <nd ref="1547225105"/>
    <nd ref="1547225339"/>
    <nd ref="1547225328"/>
    <nd ref="1547225343"/>
    <nd ref="1547225344"/>
    <nd ref="13001489324"/>
    <nd ref="13001489321"/>
    <nd ref="1547225308"/>
    <nd ref="2554229409"/>
    <nd ref="1547225290"/>
    <nd ref="1547225278"/>
    <nd ref="1547225267"/>
    <nd ref="1547225262"/>
    <nd ref="719077335"/>
    <nd ref="8150421094"/>
    <nd ref="2533800513"/>
    <nd ref="1547225286"/>
    <nd ref="1547225263"/>
    <nd ref="1547225274"/>
    <nd ref="1547225256"/>
    <nd ref="1547225212"/>
    <nd ref="1547225214"/>
    <nd ref="719077108"/>
    <nd ref="27504273"/>
    <nd ref="1547225527"/>
    <nd ref="2533800394"/>
    <nd ref="1547225518"/>
    <nd ref="2533800377"/>
    <nd ref="1547225557"/>
    <nd ref="2533800371"/>
    <nd ref="1547225560"/>
    <nd ref="1547225504"/>
    <nd ref="1547226055"/>
    <nd ref="1547226051"/>
    <nd ref="1547226049"/>
    <nd ref="1547226044"/>
    <nd ref="1547226041"/>
    <nd ref="1547226028"/>
    <nd ref="1547226027"/>
    <nd ref="1547226024"/>
    <nd ref="1547225417"/>
    <nd ref="1547225113"/>
    <nd ref="1547225112"/>
    <nd ref="2533776979"/>
    <nd ref="2533776977"/>
    <nd ref="1547225124"/>
    <nd ref="719046167"/>
    <nd ref="1547225188"/>
    <nd ref="2458231713"/>
    <nd ref="2458231695"/>
    <nd ref="27504259"/>
    <nd ref="27504260"/>
    <nd ref="27504256"/>
    <nd ref="2458231677"/>
    <nd ref="27504255"/>
    <nd ref="6538973205"/>
    <nd ref="27504254"/>
    <nd ref="2458231635"/>
    <nd ref="2458231633"/>
    <nd ref="27504253"/>
    <nd ref="2458231599"/>
    <nd ref="27504252"/>
    <nd ref="2338498592"/>
    <nd ref="27504251"/>
    <tag k="highway" v="secondary"/>
    <tag k="maxspeed" v="50 mph"/>
    <tag k="ref" v="B4086"/>
    <tag k="surface" v="asphalt"/>
  </way>
  <way id="689196386" version="4" timestamp="2021-04-01T15:27:09Z" changeset="102136393" uid="30587" user="IknowJoseph">
    <nd ref="6465362483"/>
    <nd ref="6465362482"/>
    <nd ref="6465362481"/>
    <nd ref="6465362480"/>
    <nd ref="6465362479"/>
    <nd ref="6465362478"/>
    <nd ref="6465362483"/>
    <tag k="building" v="house"/>
    <tag k="heritage" v="2"/>
    <tag k="heritage:operator" v="Historic England"/>
    <tag k="listed_status" v="Grade II*"/>
    <tag k="name" v="Egge Cottage"/>
    <tag k="note" v="In Radway Parish"/>
    <tag k="source" v="Warwicks CC Aerial Imagery 2013"/>
    <tag k="wikidata" v="Q17551673"/>
  </way>
  <way id="846451021" version="1" timestamp="2020-09-11T14:33:53Z" changeset="90764472" uid="10455629" user="jgopatho">
    <nd ref="290028161"/>
    <nd ref="7897096233"/>
    <nd ref="7897096234"/>
    <nd ref="7897096235"/>
    <nd ref="290028160"/>
    <tag k="highway" v="unclassified"/>
  </way>

</osm>
