<?xml version="1.0" encoding="UTF-8"?>
<osm version="0.6" generator="Overpass API 0.7.62.8 e802775f">
<note>The data included in this document is from www.openstreetmap.org. The data is made available under ODbL.</note>
<meta osm_base="2025-10-23T17:29:34Z" areas="2025-10-23T12:46:58Z"/>

  <node id="28264767" lat="52.0775455" lon="-1.6180061" version="4" timestamp="2019-01-16T09:46:54Z" changeset="66356770" uid="52797" user="hofoen"/>
  <node id="412616519" lat="52.0800985" lon="-1.6104290" version="3" timestamp="2013-12-09T17:05:53Z" changeset="19362308" uid="9065" user="brianboru"/>
  <node id="412616561" lat="52.0958291" lon="-1.6117857" version="2" timestamp="2013-12-09T15:30:12Z" changeset="19360681" uid="9065" user="brianboru"/>
  <node id="1546097799" lat="52.0801811" lon="-1.5539696" version="2" timestamp="2013-12-01T13:39:30Z" changeset="19210487" uid="9065" user="brianboru"/>
  <node id="1550251691" lat="52.0599913" lon="-1.6168439" version="1" timestamp="2011-12-17T13:04:37Z" changeset="10138173" uid="165" user="Richard"/>
  <node id="1611673620" lat="52.0657929" lon="-1.6091589" version="1" timestamp="2012-01-30T11:34:13Z" changeset="10538786" uid="64" user="lsces"/>
  <way id="26436880" version="9" timestamp="2020-08-11T14:18:17Z" changeset="89256732" uid="10252542" user="karmsudi">
    <nd ref="1550251634"/>
    <nd ref="7804144320"/>
    <nd ref="755859790"/>
    <nd ref="289686608"/>
    <nd ref="755859692"/>
    <tag k="highway" v="unclassified"/>
    <tag k="name" v="Fell Mill Lane"/>
    <tag k="source" v="NPE"/>
    <tag k="source:name" v="OS_OpenData_Locator"/>
  </way>
  <way id="35177098" version="7" timestamp="2019-06-06T06:16:01Z" changeset="70977087" uid="8446894" user="kararcha">
    <nd ref="412616519"/>
    <nd ref="1598984485"/>
    <nd ref="1598984491"/>
    <nd ref="1545693561"/>
    <nd ref="4225619953"/>
    <nd ref="6527720008"/>
    <nd ref="412616543"/>
    <nd ref="2029429540"/>
    <tag k="highway" v="unclassified"/>
    <tag k="name" v="Granby Road"/>
    <tag k="source" v="NPE;Bing"/>
    <tag k="source:name" v="OS_OpenData_Locator"/>
  </way>
  <way id="53053456" version="5" timestamp="2021-08-10T06:41:46Z" changeset="109442431" uid="11558590" user="gppavani">
    <nd ref="671826118"/>
    <nd ref="2573293306"/>
    <nd ref="8995148767"/>
    <nd ref="8995148776"/>
    <nd ref="671826114"/>
    <nd ref="7353107206"/>
    <nd ref="6510457775"/>
    <nd ref="671826123"/>
    <nd ref="671826124"/>
    <nd ref="671826125"/>
    <tag k="highway" v="residential"/>
  </way>
  <way id="53053462" version="4" timestamp="2019-01-16T09:46:55Z" changeset="66356770" uid="52797" user="hofoen">
    <nd ref="28264767"/>
    <nd ref="671826113"/>
    <tag k="bridge" v="yes"/>
    <tag k="bridge:name" v="Honington Bridge"/>
    <tag k="heritage" v="yes"/>
    <tag k="highway" v="tertiary"/>
    <tag k="layer" v="1"/>
    <tag k="name" v="Idlicote Road"/>
    <tag k="source:name" v="naptan"/>
    <tag k="wikidata" v="Q17643787"/>
  </way>
  <way id="53053463" version="9" timestamp="2021-08-10T06:41:46Z" changeset="109442431" uid="11558590" user="gppavani">
    <nd ref="289686617"/>
    <nd ref="7211295764"/>
    <nd ref="28264772"/>
    <nd ref="2562155795"/>
    <nd ref="8995148764"/>
    <nd ref="877649798"/>
    <nd ref="2573293316"/>
    <nd ref="1598984475"/>
    <nd ref="671826119"/>
    <nd ref="1598984470"/>
    <nd ref="671826118"/>
    <nd ref="1598984465"/>
    <nd ref="28264767"/>
    <tag k="highway" v="tertiary"/>
    <tag k="name" v="Idlicote Road"/>
    <tag k="source:name" v="naptan"/>
  </way>
  <way id="53053464" version="7" timestamp="2016-06-04T16:36:13Z" changeset="39800366" uid="346039" user="fitzsimons">
    <nd ref="289686617"/>
    <nd ref="4225619945"/>
    <nd ref="28264773"/>
    <nd ref="2562155790"/>
    <nd ref="2562155791"/>
    <nd ref="1598984477"/>
    <nd ref="2573286549"/>
    <nd ref="412616519"/>
    <tag k="highway" v="tertiary"/>
    <tag k="name" v="Idlicote Road"/>
    <tag k="source:name" v="naptan"/>
  </way>
  <way id="53053465" version="4" timestamp="2013-12-03T15:44:09Z" changeset="19253726" uid="9065" user="brianboru">
    <nd ref="289686615"/>
    <nd ref="2563009159"/>
    <nd ref="289686616"/>
    <nd ref="1598984468"/>
    <nd ref="289686617"/>
    <tag k="highway" v="unclassified"/>
    <tag k="source" v="survey"/>
  </way>
  <way id="60542752" version="1" timestamp="2010-05-29T10:55:40Z" changeset="4841371" uid="9065" user="brianboru">
    <nd ref="755859986"/>
    <nd ref="755859846"/>
    <tag k="bridge" v="yes"/>
    <tag k="highway" v="unclassified"/>
    <tag k="layer" v="1"/>
    <tag k="source" v="survey"/>
  </way>
  <way id="60542760" version="5" timestamp="2019-06-09T07:23:27Z" changeset="71064743" uid="9196086" user="spavulur">
    <nd ref="755859846"/>
    <nd ref="759796801"/>
    <nd ref="289686609"/>
    <nd ref="289686610"/>
    <nd ref="289686611"/>
    <nd ref="2562155755"/>
    <nd ref="289686612"/>
    <nd ref="2562155759"/>
    <nd ref="289686613"/>
    <nd ref="6534741696"/>
    <nd ref="755859906"/>
    <nd ref="289686614"/>
    <nd ref="289686615"/>
    <tag k="highway" v="unclassified"/>
    <tag k="name" v="Fell Mill Lane"/>
    <tag k="source" v="survey"/>
    <tag k="source:name" v="OS_OpenData_Locator"/>
  </way>
  <way id="60690042" version="1" timestamp="2010-05-30T18:09:21Z" changeset="4855378" uid="9065" user="brianboru">
    <nd ref="755859692"/>
    <nd ref="755859986"/>
    <tag k="highway" v="unclassified"/>
    <tag k="source" v="NPE"/>
  </way>
  <way id="141194013" version="12" timestamp="2020-12-24T10:55:04Z" changeset="96379468" uid="10455625" user="bmmundad">
    <nd ref="412616519"/>
    <nd ref="1598984482"/>
    <nd ref="1598984484"/>
    <nd ref="1545693590"/>
    <nd ref="1545693457"/>
    <nd ref="1545693464"/>
    <nd ref="1545693461"/>
    <nd ref="1545693542"/>
    <nd ref="8257310150"/>
    <nd ref="1545693587"/>
    <nd ref="5802207953"/>
    <nd ref="1545693475"/>
    <nd ref="1545693481"/>
    <nd ref="1545693489"/>
    <nd ref="1545693491"/>
    <nd ref="1545693503"/>
    <nd ref="1545693515"/>
    <nd ref="1545693517"/>
    <nd ref="1545693525"/>
    <nd ref="2573186223"/>
    <nd ref="1545693584"/>
    <nd ref="2573186225"/>
    <nd ref="1545693536"/>
    <nd ref="1545693539"/>
    <nd ref="2573186230"/>
    <nd ref="1545693570"/>
    <nd ref="1545693530"/>
    <nd ref="2573186237"/>
    <nd ref="2573186242"/>
    <nd ref="1545693533"/>
    <nd ref="2642246964"/>
    <nd ref="1545693545"/>
    <nd ref="1545693549"/>
    <nd ref="2347803511"/>
    <nd ref="1545693551"/>
    <nd ref="1786167481"/>
    <nd ref="1545693555"/>
    <nd ref="2347803518"/>
    <nd ref="2347803520"/>
    <nd ref="1545693558"/>
    <nd ref="2347803522"/>
    <nd ref="2347803524"/>
    <nd ref="1545693564"/>
    <nd ref="1545693567"/>
    <nd ref="1545693581"/>
    <nd ref="2563009367"/>
    <nd ref="1545693592"/>
    <nd ref="2563009370"/>
    <nd ref="1545693595"/>
    <nd ref="2563009375"/>
    <nd ref="2563009377"/>
    <nd ref="1545693598"/>
    <nd ref="1545693600"/>
    <nd ref="1545693602"/>
    <nd ref="1545693604"/>
    <nd ref="2573180569"/>
    <nd ref="1545693609"/>
    <nd ref="2563009409"/>
    <nd ref="1681574523"/>
    <nd ref="1681574667"/>
    <nd ref="1545693473"/>
    <nd ref="1681574723"/>
    <nd ref="755839416"/>
    <nd ref="277911689"/>
    <nd ref="1545693477"/>
    <nd ref="1545693479"/>
    <nd ref="1545693483"/>
    <nd ref="1545693486"/>
    <nd ref="1545693574"/>
    <nd ref="1545693499"/>
    <nd ref="1545693507"/>
    <nd ref="1545693501"/>
    <nd ref="1545693505"/>
    <nd ref="1545693511"/>
    <nd ref="1545693513"/>
    <nd ref="1545693523"/>
    <nd ref="1545693527"/>
    <tag k="highway" v="tertiary"/>
  </way>
  <way id="141626971" version="6" timestamp="2021-11-08T17:30:43Z" changeset="113531588" uid="9065" user="brianboru">
    <nd ref="1546097799"/>
    <nd ref="1550251923"/>
    <nd ref="1550251724"/>
    <nd ref="1550251722"/>
    <nd ref="1550251720"/>
    <nd ref="1550251727"/>
    <nd ref="1550251731"/>
    <nd ref="2252117056"/>
    <nd ref="1550251736"/>
    <nd ref="1550251738"/>
    <nd ref="1550251740"/>
    <nd ref="1550251751"/>
    <nd ref="1550251745"/>
    <nd ref="1550251750"/>
    <nd ref="1550251744"/>
    <nd ref="1550251752"/>
    <nd ref="1550251820"/>
    <nd ref="1550251642"/>
    <nd ref="1550251791"/>
    <nd ref="1550251790"/>
    <nd ref="1550251911"/>
    <nd ref="2563009099"/>
    <nd ref="1550251645"/>
    <nd ref="1550251916"/>
    <nd ref="1550251839"/>
    <nd ref="1550251888"/>
    <nd ref="1550251906"/>
    <nd ref="1550251904"/>
    <nd ref="1550251809"/>
    <nd ref="1550251902"/>
    <nd ref="1550251773"/>
    <nd ref="1550251841"/>
    <nd ref="1550251909"/>
    <nd ref="1550251910"/>
    <nd ref="1550251896"/>
    <nd ref="1550251874"/>
    <nd ref="1550251907"/>
    <nd ref="1550251840"/>
    <nd ref="1550251659"/>
    <nd ref="1550251755"/>
    <nd ref="1550251653"/>
    <nd ref="1550251867"/>
    <nd ref="1550251670"/>
    <nd ref="1550251695"/>
    <nd ref="1550251754"/>
    <nd ref="1550251813"/>
    <nd ref="1550251787"/>
    <nd ref="1550251628"/>
    <nd ref="1550251823"/>
    <nd ref="1550251886"/>
    <nd ref="1550251797"/>
    <nd ref="1550251620"/>
    <nd ref="1550251718"/>
    <nd ref="1550251912"/>
    <nd ref="1550251756"/>
    <nd ref="1550251742"/>
    <nd ref="1550251814"/>
    <nd ref="1550251644"/>
    <nd ref="1550251812"/>
    <nd ref="1550251879"/>
    <nd ref="1550251799"/>
    <nd ref="1550251629"/>
    <nd ref="1550251778"/>
    <nd ref="1550251853"/>
    <nd ref="1550251890"/>
    <nd ref="1550251630"/>
    <nd ref="1550251640"/>
    <nd ref="1550251811"/>
    <nd ref="1550251733"/>
    <nd ref="1550251648"/>
    <nd ref="1550251655"/>
    <nd ref="1550251824"/>
    <nd ref="1550251782"/>
    <nd ref="1550251872"/>
    <nd ref="1550251626"/>
    <nd ref="1550251635"/>
    <nd ref="1550251646"/>
    <nd ref="1550251762"/>
    <nd ref="1550251767"/>
    <nd ref="1550251683"/>
    <nd ref="1550251637"/>
    <nd ref="1550251734"/>
    <nd ref="1550251870"/>
    <nd ref="1550251792"/>
    <nd ref="1550251786"/>
    <nd ref="1550251622"/>
    <nd ref="1550251661"/>
    <nd ref="1550251775"/>
    <nd ref="1550251636"/>
    <nd ref="1550251815"/>
    <nd ref="1550251895"/>
    <nd ref="1550251804"/>
    <nd ref="1550251873"/>
    <nd ref="9235994563"/>
    <nd ref="1550251634"/>
    <tag k="highway" v="unclassified"/>
  </way>
  <way id="141626972" version="8" timestamp="2019-10-22T11:13:32Z" changeset="76043880" uid="10219386" user="bathines">
    <nd ref="1550251691"/>
    <nd ref="1550251856"/>
    <nd ref="25290007"/>
    <nd ref="1550251633"/>
    <nd ref="1550251763"/>
    <nd ref="25290008"/>
    <nd ref="25290006"/>
    <nd ref="25290005"/>
    <nd ref="25290004"/>
    <nd ref="25290003"/>
    <nd ref="13797365"/>
    <nd ref="25290002"/>
    <nd ref="25290001"/>
    <nd ref="1610634586"/>
    <nd ref="25290000"/>
    <nd ref="6769079763"/>
    <nd ref="25289999"/>
    <nd ref="13797372"/>
    <nd ref="25289998"/>
    <nd ref="25289997"/>
    <nd ref="1509628915"/>
    <nd ref="1610634610"/>
    <nd ref="25289996"/>
    <nd ref="1610634614"/>
    <nd ref="25289995"/>
    <nd ref="1550251901"/>
    <nd ref="1610634626"/>
    <nd ref="25289994"/>
    <nd ref="1610634628"/>
    <nd ref="1513329444"/>
    <nd ref="13797376"/>
    <nd ref="25289993"/>
    <nd ref="13797373"/>
    <nd ref="25289992"/>
    <nd ref="13797374"/>
    <nd ref="1610634623"/>
    <nd ref="25289991"/>
    <nd ref="1513329448"/>
    <nd ref="1610634615"/>
    <nd ref="25289990"/>
    <nd ref="6905352145"/>
    <nd ref="1610634613"/>
    <nd ref="1610634612"/>
    <nd ref="25289989"/>
    <nd ref="1610634611"/>
    <nd ref="13797375"/>
    <nd ref="25289988"/>
    <nd ref="1509683011"/>
    <nd ref="13797370"/>
    <nd ref="25289985"/>
    <nd ref="25289986"/>
    <nd ref="1509697965"/>
    <nd ref="25289987"/>
    <nd ref="13797381"/>
    <nd ref="25289984"/>
    <nd ref="1610634609"/>
    <nd ref="1610634608"/>
    <nd ref="25289983"/>
    <nd ref="25289982"/>
    <nd ref="1610634588"/>
    <nd ref="25289981"/>
    <nd ref="13797382"/>
    <nd ref="25289980"/>
    <nd ref="25289979"/>
    <nd ref="13797378"/>
    <nd ref="2561808628"/>
    <nd ref="25289978"/>
    <nd ref="25289975"/>
    <nd ref="13797383"/>
    <nd ref="25289974"/>
    <nd ref="25289973"/>
    <nd ref="25289972"/>
    <nd ref="1610634565"/>
    <nd ref="13797377"/>
    <nd ref="1610634566"/>
    <nd ref="25289971"/>
    <nd ref="25289970"/>
    <nd ref="25289969"/>
    <tag k="highway" v="secondary"/>
    <tag k="lanes" v="2"/>
    <tag k="maxspeed" v="50 mph"/>
    <tag k="ref" v="B4035"/>
    <tag k="source" v="survey"/>
    <tag k="source:maxspeed" v="survey"/>
  </way>
  <way id="141626978" version="8" timestamp="2024-04-21T08:04:07Z" changeset="150290793" uid="21226027" user="DorneyLake123">
    <nd ref="1550251634"/>
    <nd ref="1550251899"/>
    <nd ref="1550251817"/>
    <nd ref="1550251711"/>
    <nd ref="1550251687"/>
    <nd ref="1550251892"/>
    <nd ref="1550251656"/>
    <nd ref="1550251685"/>
    <nd ref="1550251624"/>
    <nd ref="1550251852"/>
    <nd ref="1611677496"/>
    <nd ref="1550251758"/>
    <nd ref="1599054727"/>
    <nd ref="1550251649"/>
    <nd ref="1550251680"/>
    <nd ref="1611673620"/>
    <tag k="highway" v="unclassified"/>
    <tag k="name" v="Fell Mill Lane"/>
    <tag k="source:name" v="OS_OpenData_Locator"/>
  </way>
  <way id="192383247" version="7" timestamp="2023-11-08T15:23:12Z" changeset="143785810" uid="18869198" user="TB-E">
    <nd ref="2029429540"/>
    <nd ref="4225619954"/>
    <nd ref="2573180542"/>
    <nd ref="412616545"/>
    <nd ref="2573180543"/>
    <nd ref="412616548"/>
    <nd ref="2573180544"/>
    <nd ref="412616550"/>
    <nd ref="2573180545"/>
    <nd ref="1545693452"/>
    <nd ref="2573180546"/>
    <nd ref="2573180547"/>
    <nd ref="1545693509"/>
    <nd ref="412616553"/>
    <nd ref="2573180549"/>
    <nd ref="11333251463"/>
    <nd ref="412616555"/>
    <nd ref="2573180559"/>
    <nd ref="7161997965"/>
    <nd ref="11333251406"/>
    <nd ref="6888305294"/>
    <nd ref="412616558"/>
    <nd ref="7425024033"/>
    <nd ref="11333251367"/>
    <nd ref="2573180565"/>
    <nd ref="412616560"/>
    <nd ref="2573180602"/>
    <nd ref="2573180626"/>
    <nd ref="2573180644"/>
    <nd ref="2573180659"/>
    <nd ref="2573180674"/>
    <nd ref="11333251324"/>
    <nd ref="412616561"/>
    <tag k="highway" v="unclassified"/>
    <tag k="source" v="NPE;Bing"/>
  </way>
  <way id="251018412" version="1" timestamp="2013-12-09T15:30:03Z" changeset="19360681" uid="9065" user="brianboru">
    <nd ref="412616561"/>
    <nd ref="2573180689"/>
    <tag k="bridge" v="yes"/>
    <tag k="highway" v="unclassified"/>
    <tag k="layer" v="1"/>
    <tag k="source" v="NPE;Bing"/>
  </way>
  <way id="251031929" version="5" timestamp="2023-12-01T09:06:34Z" changeset="144654010" uid="504708" user="HillWithSmallFields">
    <nd ref="2573286668"/>
    <nd ref="2573286669"/>
    <nd ref="2573286658"/>
    <nd ref="2573286659"/>
    <nd ref="2573286651"/>
    <nd ref="2573286650"/>
    <nd ref="2573286639"/>
    <nd ref="2573286636"/>
    <nd ref="2573286647"/>
    <nd ref="2573286646"/>
    <nd ref="2573286661"/>
    <nd ref="2573286662"/>
    <nd ref="2573286668"/>
    <tag k="amenity" v="place_of_worship"/>
    <tag k="building" v="church"/>
    <tag k="denomination" v="anglican"/>
    <tag k="heritage" v="2"/>
    <tag k="heritage:operator" v="Historic England"/>
    <tag k="listed_status" v="Grade I"/>
    <tag k="name" v="All Saints"/>
    <tag k="ref:dove" v="11408"/>
    <tag k="religion" v="christian"/>
    <tag k="source" v="bing"/>
    <tag k="wikidata" v="Q17528382"/>
  </way>
  <way id="251031931" version="7" timestamp="2021-03-25T21:35:44Z" changeset="101746091" uid="145231" user="woodpeck_repair">
    <nd ref="2573286711"/>
    <nd ref="2573286719"/>
    <nd ref="2573286715"/>
    <nd ref="2573286718"/>
    <nd ref="2573286709"/>
    <nd ref="2573286708"/>
    <nd ref="2573286701"/>
    <nd ref="2573286702"/>
    <nd ref="2573286681"/>
    <nd ref="2573286673"/>
    <nd ref="2573286670"/>
    <nd ref="2573286665"/>
    <nd ref="2573286664"/>
    <nd ref="2573286666"/>
    <nd ref="2573286667"/>
    <nd ref="2573286663"/>
    <nd ref="2573286683"/>
    <nd ref="2573286685"/>
    <nd ref="2573286698"/>
    <nd ref="2573286705"/>
    <nd ref="2573286713"/>
    <nd ref="2573286710"/>
    <nd ref="2573286714"/>
    <nd ref="2573286706"/>
    <nd ref="2573286711"/>
    <tag k="addr:postcode" v="CV36 5AA"/>
    <tag k="building" v="residential"/>
    <tag k="heritage" v="2"/>
    <tag k="heritage:operator" v="Historic England"/>
    <tag k="listed_status" v="Grade I"/>
    <tag k="name" v="Honington Hall"/>
    <tag k="source" v="bing"/>
  </way>
  <way id="621094073" version="2" timestamp="2019-01-16T09:46:55Z" changeset="66356770" uid="52797" user="hofoen">
    <nd ref="5867373430"/>
    <nd ref="5867373429"/>
    <nd ref="5867373428"/>
    <nd ref="5867373427"/>
    <nd ref="5867373430"/>
    <tag k="building" v="residential"/>
    <tag k="heritage" v="yes"/>
    <tag k="name" v="Ivy Cottage"/>
    <tag k="source" v="Warwicks CC Aerial Imagery 2013"/>
    <tag k="wikidata" v="Q26273916"/>
  </way>
  <way id="621094075" version="2" timestamp="2019-01-16T09:46:56Z" changeset="66356770" uid="52797" user="hofoen">
    <nd ref="5867369578"/>
    <nd ref="5867373435"/>
    <nd ref="5867373434"/>
    <nd ref="5867373433"/>
    <nd ref="5867373432"/>
    <nd ref="5867373431"/>
    <nd ref="5867369578"/>
    <tag k="building" v="residential"/>
    <tag k="heritage" v="yes"/>
    <tag k="name" v="Lodge"/>
    <tag k="source" v="Warwicks CC Aerial Imagery 2013"/>
    <tag k="wikidata" v="Q26273909"/>
  </way>
  <way id="621094078" version="2" timestamp="2019-01-16T09:46:56Z" changeset="66356770" uid="52797" user="hofoen">
    <nd ref="6212806331"/>
    <nd ref="5867369582"/>
    <nd ref="5867369581"/>
    <nd ref="5867373486"/>
    <nd ref="5867373485"/>
    <nd ref="6212806331"/>
    <tag k="building" v="residential"/>
    <tag k="heritage" v="yes"/>
    <tag k="name" v="The Garden House"/>
    <tag k="source" v="Warwicks CC Aerial Imagery 2013"/>
    <tag k="wikidata" v="Q26638280"/>
  </way>
  <way id="621094080" version="2" timestamp="2019-01-16T09:46:56Z" changeset="66356770" uid="52797" user="hofoen">
    <nd ref="5867373490"/>
    <nd ref="5867373489"/>
    <nd ref="5867373488"/>
    <nd ref="5867373487"/>
    <nd ref="5867373490"/>
    <tag k="building" v="residential"/>
    <tag k="name" v="Honington Glebe"/>
    <tag k="source" v="Warwicks CC Aerial Imagery 2013"/>
    <tag k="wikidata" v="Q26638257"/>
  </way>
  <way id="694944192" version="1" timestamp="2019-06-06T06:16:01Z" changeset="70977087" uid="8446894" user="kararcha">
    <nd ref="6527720008"/>
    <nd ref="6527720009"/>
    <nd ref="6527720010"/>
    <nd ref="6527720011"/>
    <nd ref="6527720012"/>
    <tag k="highway" v="residential"/>
  </way>
  <way id="998426652" version="2" timestamp="2024-04-21T08:04:07Z" changeset="150290793" uid="21226027" user="DorneyLake123">
    <nd ref="1611673620"/>
    <nd ref="1550251877"/>
    <nd ref="1550251794"/>
    <tag k="highway" v="unclassified"/>
    <tag k="name" v="Fell Mill Lane"/>
    <tag k="source:name" v="OS_OpenData_Locator"/>
  </way>
  <way id="1222023651" version="1" timestamp="2023-11-08T15:23:12Z" changeset="143785810" uid="18869198" user="TB-E">
    <nd ref="9917131042"/>
    <nd ref="11333251450"/>
    <nd ref="11333251451"/>
    <nd ref="9917131040"/>
    <nd ref="9917131042"/>
    <tag k="building" v="yes"/>
    <tag k="name" v="The Coach House"/>
    <tag k="tourism" v="chalet"/>
    <tag k="website" v="https://www.thecoachhousegranbyfarm.com/"/>
  </way>

</osm>
