<?xml version="1.0" encoding="UTF-8"?>
<osm version="0.6" generator="Overpass API 0.7.62.8 e802775f">
<note>The data included in this document is from www.openstreetmap.org. The data is made available under ODbL.</note>
<meta osm_base="2025-10-23T17:20:26Z" areas="2025-10-23T12:46:58Z"/>

  <node id="567650" lat="52.1768580" lon="-1.3700482" version="6" timestamp="2014-04-19T19:04:57Z" changeset="21803717" uid="69984" user="richardwest"/>
  <node id="25259294" lat="52.2229984" lon="-1.3879910" version="1" timestamp="2007-01-16T01:56:36Z" changeset="195774" uid="2274" user="Ben">
    <tag k="created_by" v="JOSM"/>
  </node>
  <node id="26460150" lat="52.1757432" lon="-1.3694496" version="8" timestamp="2013-09-30T11:14:21Z" changeset="18108234" uid="69984" user="richardwest"/>
  <node id="867451047" lat="52.1961713" lon="-1.3756367" version="2" timestamp="2013-04-29T08:18:27Z" changeset="15905142" uid="9065" user="brianboru"/>
  <node id="2342295437" lat="52.1764938" lon="-1.3698323" version="4" timestamp="2018-07-18T10:36:59Z" changeset="60831436" uid="9065" user="brianboru"/>
  <node id="2801891482" lat="52.1756744" lon="-1.3694247" version="1" timestamp="2014-04-19T19:10:31Z" changeset="21803857" uid="69984" user="richardwest"/>
  <node id="11187524114" lat="52.1750340" lon="-1.3233241" version="3" timestamp="2024-01-04T13:54:18Z" changeset="145882309" uid="10974821" user="Marting77"/>
  <way id="4232761" version="16" timestamp="2025-01-08T16:18:39Z" changeset="161139821" uid="5229644" user="Nathan_A_RF">
    <nd ref="25251114"/>
    <nd ref="2445136657"/>
    <nd ref="567651"/>
    <nd ref="2342309351"/>
    <nd ref="2342309354"/>
    <nd ref="2285371693"/>
    <nd ref="2342309361"/>
    <nd ref="2342309371"/>
    <nd ref="567652"/>
    <nd ref="25251109"/>
    <nd ref="8442573708"/>
    <nd ref="9181425784"/>
    <nd ref="25251107"/>
    <nd ref="8442573709"/>
    <nd ref="8442573710"/>
    <nd ref="25251110"/>
    <nd ref="25251111"/>
    <nd ref="25251106"/>
    <nd ref="2285744092"/>
    <nd ref="25251105"/>
    <tag k="highway" v="tertiary"/>
    <tag k="left:border" v="hedge"/>
    <tag k="maxspeed" v="60 mph"/>
    <tag k="maxspeed:type" v="GB:nsl_single"/>
    <tag k="passing" v="normal"/>
    <tag k="right:border" v="hedge"/>
    <tag k="surface" v="asphalt"/>
  </way>
  <way id="4592282" version="17" timestamp="2025-01-08T16:18:39Z" changeset="161139821" uid="5229644" user="Nathan_A_RF">
    <nd ref="26460150"/>
    <nd ref="2801891482"/>
    <nd ref="2445136298"/>
    <nd ref="2342277126"/>
    <nd ref="2445136271"/>
    <nd ref="26460151"/>
    <nd ref="2445136098"/>
    <nd ref="2445136097"/>
    <nd ref="25251117"/>
    <nd ref="26460153"/>
    <nd ref="26460155"/>
    <nd ref="567649"/>
    <nd ref="2342295422"/>
    <nd ref="5767959446"/>
    <nd ref="25251118"/>
    <nd ref="5767959445"/>
    <nd ref="567648"/>
    <nd ref="2342309311"/>
    <nd ref="25251120"/>
    <nd ref="130219438"/>
    <nd ref="567647"/>
    <nd ref="2342295367"/>
    <nd ref="25251121"/>
    <nd ref="25251123"/>
    <nd ref="5646368354"/>
    <nd ref="26460134"/>
    <tag k="highway" v="trunk"/>
    <tag k="lanes" v="2"/>
    <tag k="maxspeed" v="50 mph"/>
    <tag k="maxspeed:type" v="sign"/>
    <tag k="ref" v="A423"/>
    <tag k="shoulder" v="no"/>
    <tag k="sidewalk" v="no"/>
  </way>
  <way id="4900779" version="10" timestamp="2025-01-08T16:18:39Z" changeset="161139821" uid="5229644" user="Nathan_A_RF">
    <nd ref="2342295437"/>
    <nd ref="2445136622"/>
    <nd ref="130219430"/>
    <nd ref="2445136540"/>
    <nd ref="26460148"/>
    <tag k="bicycle" v="yes"/>
    <tag k="highway" v="trunk"/>
    <tag k="lanes" v="2"/>
    <tag k="maxspeed" v="50 mph"/>
    <tag k="maxspeed:type" v="sign"/>
    <tag k="ref" v="A423"/>
    <tag k="shoulder" v="no"/>
  </way>
  <way id="4900781" version="12" timestamp="2025-01-08T16:18:39Z" changeset="161139821" uid="5229644" user="Nathan_A_RF">
    <nd ref="26460148"/>
    <nd ref="2342309317"/>
    <nd ref="26460150"/>
    <tag k="bicycle" v="yes"/>
    <tag k="bridge" v="yes"/>
    <tag k="bridge:ref" v="136A"/>
    <tag k="highway" v="trunk"/>
    <tag k="lanes" v="2"/>
    <tag k="layer" v="1"/>
    <tag k="maxspeed" v="50 mph"/>
    <tag k="maxspeed:type" v="sign"/>
    <tag k="ref" v="A423"/>
  </way>
  <way id="4900787" version="7" timestamp="2025-01-08T16:18:39Z" changeset="161139821" uid="5229644" user="Nathan_A_RF">
    <nd ref="567650"/>
    <nd ref="130219426"/>
    <nd ref="2445136651"/>
    <nd ref="2801880336"/>
    <nd ref="130219427"/>
    <nd ref="2801880337"/>
    <nd ref="2445136652"/>
    <nd ref="130219428"/>
    <nd ref="25251116"/>
    <nd ref="130219425"/>
    <nd ref="25251115"/>
    <nd ref="25251112"/>
    <nd ref="31937028"/>
    <tag k="highway" v="tertiary"/>
    <tag k="highway_border" v="hedge_hedge"/>
    <tag k="maxspeed" v="60 mph"/>
    <tag k="maxspeed:type" v="GB:nsl_single"/>
  </way>
  <way id="4900788" version="8" timestamp="2025-01-08T16:18:39Z" changeset="161139821" uid="5229644" user="Nathan_A_RF">
    <nd ref="31937028"/>
    <nd ref="25251114"/>
    <tag k="bridge" v="yes"/>
    <tag k="bridge:name" v="Sherne Hill Bridge"/>
    <tag k="bridge:ref" v="135"/>
    <tag k="highway" v="tertiary"/>
    <tag k="layer" v="1"/>
    <tag k="maxspeed" v="60 mph"/>
    <tag k="maxspeed:type" v="GB:nsl_single"/>
  </way>
  <way id="13869512" version="4" timestamp="2019-09-16T09:42:04Z" changeset="74521308" uid="9065" user="brianboru">
    <nd ref="130219401"/>
    <nd ref="130219400"/>
    <nd ref="130219399"/>
    <nd ref="130219398"/>
    <nd ref="130219397"/>
    <nd ref="130219417"/>
    <nd ref="130219396"/>
    <nd ref="130219418"/>
    <nd ref="6517839162"/>
    <nd ref="130219395"/>
    <nd ref="130220115"/>
    <nd ref="130219419"/>
    <nd ref="130220108"/>
    <nd ref="130219393"/>
    <nd ref="130219392"/>
    <nd ref="130219420"/>
    <nd ref="130219391"/>
    <nd ref="130219421"/>
    <nd ref="130219390"/>
    <nd ref="130219422"/>
    <nd ref="130219389"/>
    <nd ref="6798944736"/>
    <nd ref="130219388"/>
    <nd ref="130219387"/>
    <nd ref="130219386"/>
    <nd ref="130219383"/>
    <tag k="highway" v="unclassified"/>
    <tag k="left:border" v="hedge"/>
    <tag k="passing" v="difficult"/>
    <tag k="right:border" v="hedge"/>
  </way>
  <way id="13869513" version="1" timestamp="2007-11-24T13:08:11Z" changeset="605829" uid="2274" user="Ben">
    <nd ref="130219385"/>
    <nd ref="130219383"/>
    <tag k="created_by" v="JOSM"/>
    <tag k="highway" v="unclassified"/>
    <tag k="passing" v="difficult"/>
    <tag k="right:border" v="hedge"/>
  </way>
  <way id="13869515" version="1" timestamp="2007-11-24T13:08:13Z" changeset="605829" uid="2274" user="Ben">
    <nd ref="130219383"/>
    <nd ref="130219384"/>
    <tag k="created_by" v="JOSM"/>
    <tag k="highway" v="unclassified"/>
    <tag k="passing" v="difficult"/>
    <tag k="right:border" v="hedge"/>
  </way>
  <way id="73104188" version="7" timestamp="2019-02-19T06:35:09Z" changeset="67341058" uid="8369523" user="unnsyeda">
    <nd ref="867451047"/>
    <nd ref="867451051"/>
    <nd ref="867451052"/>
    <nd ref="2583751357"/>
    <nd ref="867451053"/>
    <nd ref="867451055"/>
    <nd ref="6287802532"/>
    <nd ref="2285371838"/>
    <nd ref="867451057"/>
    <nd ref="1585207770"/>
    <nd ref="2285371853"/>
    <nd ref="867451058"/>
    <nd ref="1585207771"/>
    <nd ref="867451062"/>
    <nd ref="1585207773"/>
    <nd ref="867451063"/>
    <tag k="bicycle" v="yes"/>
    <tag k="foot" v="yes"/>
    <tag k="highway" v="unclassified"/>
    <tag k="horse" v="yes"/>
    <tag k="motor_vehicle" v="yes"/>
    <tag k="source" v="GPS"/>
    <tag k="surface" v="paved"/>
    <tag k="tracktype" v="grade1"/>
  </way>
  <way id="75044521" version="20" timestamp="2025-01-14T14:19:34Z" changeset="161347031" uid="10974821" user="Marting77">
    <nd ref="25259294"/>
    <nd ref="5767961564"/>
    <nd ref="2285372062"/>
    <nd ref="5767961563"/>
    <nd ref="9720744702"/>
    <nd ref="5767961561"/>
    <nd ref="2285372034"/>
    <nd ref="2285372022"/>
    <nd ref="9720744706"/>
    <nd ref="2285914131"/>
    <nd ref="12500871153"/>
    <nd ref="21132442"/>
    <nd ref="21132427"/>
    <nd ref="5767961562"/>
    <nd ref="21132441"/>
    <nd ref="2285372006"/>
    <nd ref="21132425"/>
    <nd ref="12500871206"/>
    <nd ref="12500871202"/>
    <nd ref="2285371999"/>
    <nd ref="2285914102"/>
    <nd ref="2285371994"/>
    <nd ref="2285914099"/>
    <nd ref="2607645973"/>
    <nd ref="2285371985"/>
    <nd ref="21132426"/>
    <nd ref="2285371977"/>
    <nd ref="3033789235"/>
    <nd ref="21132424"/>
    <nd ref="2285371964"/>
    <nd ref="21132421"/>
    <nd ref="5767961560"/>
    <nd ref="21132423"/>
    <nd ref="5767961559"/>
    <nd ref="2285371949"/>
    <nd ref="21132422"/>
    <nd ref="2607645963"/>
    <nd ref="21132416"/>
    <nd ref="2285371942"/>
    <nd ref="2607645961"/>
    <nd ref="2285371937"/>
    <nd ref="2285371934"/>
    <nd ref="21132417"/>
    <nd ref="2607645958"/>
    <nd ref="5767961558"/>
    <nd ref="21132415"/>
    <nd ref="2285371930"/>
    <nd ref="2293870180"/>
    <nd ref="21132412"/>
    <nd ref="5767961556"/>
    <nd ref="21132418"/>
    <nd ref="21132419"/>
    <nd ref="21132413"/>
    <nd ref="21132420"/>
    <nd ref="5767961555"/>
    <nd ref="21132414"/>
    <nd ref="5767961554"/>
    <nd ref="1260482070"/>
    <nd ref="21132409"/>
    <nd ref="2285371923"/>
    <nd ref="21132410"/>
    <nd ref="2607645953"/>
    <nd ref="2285371919"/>
    <nd ref="21132411"/>
    <nd ref="5767961553"/>
    <nd ref="21132408"/>
    <nd ref="5767959452"/>
    <nd ref="2607645951"/>
    <nd ref="2285371912"/>
    <nd ref="2285371907"/>
    <nd ref="21132407"/>
    <nd ref="8105255488"/>
    <nd ref="2642235509"/>
    <nd ref="2285371899"/>
    <nd ref="21132406"/>
    <nd ref="5767959451"/>
    <nd ref="21132395"/>
    <nd ref="5767959450"/>
    <nd ref="2285371892"/>
    <nd ref="21132405"/>
    <nd ref="21132404"/>
    <nd ref="21132403"/>
    <nd ref="21132402"/>
    <nd ref="2642235501"/>
    <nd ref="2293897115"/>
    <nd ref="21132396"/>
    <nd ref="2642235500"/>
    <nd ref="21132401"/>
    <nd ref="21132400"/>
    <nd ref="2293897110"/>
    <nd ref="21132399"/>
    <nd ref="21132398"/>
    <nd ref="2285371865"/>
    <nd ref="21132397"/>
    <nd ref="21132393"/>
    <nd ref="2642235495"/>
    <nd ref="2285371833"/>
    <nd ref="2583751359"/>
    <nd ref="21132394"/>
    <nd ref="867451047"/>
    <tag k="bicycle" v="yes"/>
    <tag k="highway" v="trunk"/>
    <tag k="lanes" v="2"/>
    <tag k="maxspeed" v="50 mph"/>
    <tag k="maxspeed:type" v="sign"/>
    <tag k="name" v="Banbury Road"/>
    <tag k="ref" v="A423"/>
    <tag k="shoulder" v="no"/>
    <tag k="sidewalk" v="no"/>
  </way>
  <way id="75044543" version="14" timestamp="2025-01-08T16:18:39Z" changeset="161139821" uid="5229644" user="Nathan_A_RF">
    <nd ref="867451047"/>
    <nd ref="2285371783"/>
    <nd ref="21132388"/>
    <nd ref="21132389"/>
    <nd ref="21132390"/>
    <nd ref="21132391"/>
    <nd ref="21132387"/>
    <nd ref="1585207594"/>
    <nd ref="21132392"/>
    <nd ref="21132386"/>
    <nd ref="2285371763"/>
    <nd ref="21132385"/>
    <nd ref="21132383"/>
    <nd ref="21132384"/>
    <nd ref="1585207354"/>
    <nd ref="21132381"/>
    <nd ref="7259864603"/>
    <nd ref="2285371752"/>
    <nd ref="21132382"/>
    <nd ref="21132380"/>
    <nd ref="21132379"/>
    <nd ref="3261291390"/>
    <nd ref="130219436"/>
    <nd ref="567675"/>
    <nd ref="5767959448"/>
    <nd ref="5767959449"/>
    <nd ref="8254544885"/>
    <nd ref="5767959447"/>
    <tag k="bicycle" v="yes"/>
    <tag k="highway" v="trunk"/>
    <tag k="lanes" v="2"/>
    <tag k="maxspeed" v="50 mph"/>
    <tag k="maxspeed:type" v="sign"/>
    <tag k="ref" v="A423"/>
    <tag k="shoulder" v="no"/>
    <tag k="sidewalk" v="no"/>
  </way>
  <way id="145063481" version="1" timestamp="2012-01-10T23:21:07Z" changeset="10356667" uid="22643" user="James Derrick">
    <nd ref="1585207711"/>
    <nd ref="1585207723"/>
    <nd ref="1585207710"/>
    <nd ref="1585207703"/>
    <nd ref="1585207711"/>
    <tag k="building" v="yes"/>
    <tag k="name" v="Lower New House Farm"/>
    <tag k="source" v="Bing"/>
  </way>
  <way id="145063632" version="4" timestamp="2020-10-05T21:10:34Z" changeset="92007731" uid="364" user="Edward">
    <nd ref="1585207197"/>
    <nd ref="4673746977"/>
    <nd ref="4673746976"/>
    <nd ref="1585207199"/>
    <nd ref="4673746975"/>
    <nd ref="4673746974"/>
    <nd ref="4673746973"/>
    <nd ref="4673746972"/>
    <nd ref="1585207195"/>
    <nd ref="4673746971"/>
    <nd ref="4673746970"/>
    <nd ref="4673746969"/>
    <nd ref="4673746968"/>
    <nd ref="4673746967"/>
    <nd ref="4673746966"/>
    <nd ref="1585207193"/>
    <nd ref="1585207197"/>
    <tag k="amenity" v="place_of_worship"/>
    <tag k="building" v="church"/>
    <tag k="denomination" v="anglican"/>
    <tag k="heritage" v="2"/>
    <tag k="heritage:operator" v="Historic England"/>
    <tag k="listed_status" v="Grade I"/>
    <tag k="name" v="St Peter"/>
    <tag k="religion" v="christian"/>
    <tag k="source" v="Warwicks CC Aerial Imagery 2013"/>
    <tag k="website" v="http://www.thebridgesgroup.org.uk/Wormleighton"/>
    <tag k="wikidata" v="Q17528370"/>
  </way>
  <way id="236487257" version="8" timestamp="2025-01-08T16:18:39Z" changeset="161139821" uid="5229644" user="Nathan_A_RF">
    <nd ref="2801891482"/>
    <nd ref="2445136311"/>
    <nd ref="2445136301"/>
    <nd ref="2445136299"/>
    <nd ref="2445136296"/>
    <nd ref="2445136287"/>
    <nd ref="2445136193"/>
    <nd ref="2445136128"/>
    <nd ref="2445136099"/>
    <nd ref="2445136098"/>
    <tag k="cycleway:both" v="no"/>
    <tag k="highway" v="unclassified"/>
    <tag k="lane_markings" v="no"/>
    <tag k="surface" v="asphalt"/>
  </way>
  <way id="376166277" version="8" timestamp="2025-01-08T16:18:39Z" changeset="161139821" uid="5229644" user="Nathan_A_RF">
    <nd ref="25251105"/>
    <nd ref="6903119610"/>
    <nd ref="567653"/>
    <nd ref="25251094"/>
    <nd ref="25251099"/>
    <nd ref="8954603074"/>
    <nd ref="25251095"/>
    <nd ref="6602681352"/>
    <nd ref="25251100"/>
    <nd ref="25251097"/>
    <nd ref="6575908707"/>
    <nd ref="130219384"/>
    <nd ref="25251098"/>
    <nd ref="25251102"/>
    <nd ref="130219385"/>
    <nd ref="567654"/>
    <nd ref="25251103"/>
    <nd ref="130219447"/>
    <nd ref="5864758889"/>
    <nd ref="3796230891"/>
    <tag k="highway" v="tertiary"/>
    <tag k="left:border" v="hedge"/>
    <tag k="maxspeed" v="30 mph"/>
    <tag k="passing" v="normal"/>
    <tag k="right:border" v="hedge"/>
    <tag k="surface" v="asphalt"/>
  </way>
  <way id="376166278" version="8" timestamp="2025-10-13T14:03:36Z" changeset="173229706" uid="10974821" user="Marting77">
    <nd ref="3796230891"/>
    <nd ref="567655"/>
    <nd ref="25251090"/>
    <nd ref="25251091"/>
    <nd ref="25251092"/>
    <nd ref="25251088"/>
    <nd ref="130219378"/>
    <nd ref="567656"/>
    <nd ref="25251085"/>
    <nd ref="25251086"/>
    <nd ref="25251087"/>
    <nd ref="25251084"/>
    <nd ref="11187524125"/>
    <tag k="highway" v="tertiary"/>
    <tag k="left:border" v="hedge"/>
    <tag k="maxspeed" v="60 mph"/>
    <tag k="maxspeed:type" v="GB:nsl_single"/>
    <tag k="passing" v="normal"/>
    <tag k="right:border" v="hedge"/>
    <tag k="surface" v="asphalt"/>
  </way>
  <way id="813708476" version="1" timestamp="2020-06-07T20:29:36Z" changeset="86319095" uid="7413854" user="infraboi">
    <nd ref="7600771307"/>
    <nd ref="7600771308"/>
    <nd ref="7600771309"/>
    <nd ref="7600771310"/>
    <nd ref="7600771307"/>
    <tag k="building" v="yes"/>
    <tag k="description" v="The mast is operated by The Corporation of Trinity House who specialise in marine communications. This is a mast radiator, the entire mast structure is electrically energised and is suspended on electrical insulators."/>
    <tag k="man_made" v="tower"/>
    <tag k="name" v="RF Beacon Mast"/>
    <tag k="tower:construction" v="lattice"/>
    <tag k="tower:type" v="communication"/>
  </way>
  <way id="1207389386" version="5" timestamp="2025-10-13T14:03:36Z" changeset="173229706" uid="10974821" user="Marting77">
    <nd ref="11187524114"/>
    <nd ref="13230501082"/>
    <nd ref="12350777727"/>
    <nd ref="11187524115"/>
    <nd ref="11187524116"/>
    <nd ref="11187524117"/>
    <nd ref="11187524118"/>
    <nd ref="11187524119"/>
    <nd ref="11187524120"/>
    <nd ref="11187524121"/>
    <nd ref="11187524122"/>
    <nd ref="11207397111"/>
    <nd ref="11187524123"/>
    <nd ref="11187524124"/>
    <nd ref="11187524125"/>
    <tag k="check_date" v="2023-09-13"/>
    <tag k="highway" v="tertiary"/>
    <tag k="surface" v="asphalt"/>
  </way>

</osm>
