<?xml version="1.0" encoding="UTF-8"?>
<osm version="0.6" generator="Overpass API 0.7.62.8 e802775f">
<note>The data included in this document is from www.openstreetmap.org. The data is made available under ODbL.</note>
<meta osm_base="2025-12-17T13:11:59Z" areas="2025-12-17T10:32:22Z"/>

  <node id="9780981" lat="52.7507672" lon="-1.2532760" version="6" timestamp="2021-05-11T20:52:36Z" changeset="104535038" uid="2955" user="Matthew Newton">
    <tag k="highway" v="traffic_signals"/>
  </node>
  <node id="9781118" lat="52.7399874" lon="-1.2678042" version="3" timestamp="2021-05-17T11:33:48Z" changeset="104822083" uid="2955" user="Matthew Newton"/>
  <node id="10015252" lat="52.7189160" lon="-1.2819170" version="2" timestamp="2010-10-30T12:45:35Z" changeset="6226862" uid="51722" user="Chris Parker"/>
  <node id="10015254" lat="52.7152669" lon="-1.2852685" version="2" timestamp="2010-05-18T16:21:37Z" changeset="4739192" uid="188349" user="MatSmith"/>
  <node id="10928773" lat="52.7402651" lon="-1.2676218" version="3" timestamp="2021-05-17T11:33:48Z" changeset="104822083" uid="2955" user="Matthew Newton"/>
  <node id="11153486" lat="52.7325705" lon="-1.2724088" version="2" timestamp="2010-10-27T17:23:35Z" changeset="6198445" uid="51722" user="Chris Parker"/>
  <node id="27466646" lat="52.7429093" lon="-1.3100307" version="3" timestamp="2017-03-12T18:38:31Z" changeset="46792331" uid="607648" user="dudone"/>
  <node id="27466653" lat="52.7477238" lon="-1.3021638" version="6" timestamp="2019-05-16T04:19:09Z" changeset="70300706" uid="9196098" user="flevin"/>
  <node id="252410332" lat="52.6965764" lon="-1.2925364" version="5" timestamp="2022-10-11T21:12:55Z" changeset="127381659" uid="24119" user="Mauls"/>
  <node id="252410765" lat="52.7352964" lon="-1.2820412" version="2" timestamp="2010-02-01T01:06:58Z" changeset="3764700" uid="55661" user="evolvedlight"/>
  <node id="431829637" lat="52.7536047" lon="-1.3377029" version="5" timestamp="2017-12-24T11:35:25Z" changeset="54884366" uid="600015" user="CartogLarry"/>
  <node id="1238998255" lat="52.7457785" lon="-1.3460809" version="2" timestamp="2017-03-13T12:56:57Z" changeset="46812007" uid="607648" user="dudone"/>
  <node id="1551036537" lat="52.7211629" lon="-1.2836407" version="2" timestamp="2022-10-11T21:12:55Z" changeset="127381659" uid="24119" user="Mauls"/>
  <node id="5372357186" lat="52.7618436" lon="-1.3284483" version="1" timestamp="2018-01-30T11:24:37Z" changeset="55890442" uid="2011702" user="krd_mapper"/>
  <node id="7001059234" lat="52.7474563" lon="-1.3025156" version="1" timestamp="2019-11-22T09:44:07Z" changeset="77417595" uid="2011702" user="krd_mapper"/>
  <node id="7001059235" lat="52.7474128" lon="-1.3025781" version="1" timestamp="2019-11-22T09:44:07Z" changeset="77417595" uid="2011702" user="krd_mapper"/>
  <node id="7703746879" lat="52.7457957" lon="-1.2766298" version="1" timestamp="2020-07-10T22:13:08Z" changeset="87838552" uid="705850" user="Cebderby"/>
  <node id="12246367098" lat="52.7227210" lon="-1.3096283" version="1" timestamp="2024-10-12T14:42:56Z" changeset="157798997" uid="21595250" user="GIS Geoff"/>
  <way id="2314263" version="23" timestamp="2023-12-29T15:34:18Z" changeset="145666481" uid="20086345" user="donq1986b">
    <nd ref="9781118"/>
    <nd ref="8739074044"/>
    <nd ref="9781870"/>
    <nd ref="964716968"/>
    <nd ref="1909591406"/>
    <nd ref="4750963292"/>
    <nd ref="9781871"/>
    <nd ref="9781873"/>
    <nd ref="964716958"/>
    <nd ref="9781885"/>
    <nd ref="4735847918"/>
    <nd ref="10441586"/>
    <nd ref="4718275495"/>
    <nd ref="9782541"/>
    <nd ref="2675365815"/>
    <nd ref="10301662"/>
    <nd ref="9782546"/>
    <nd ref="9782734"/>
    <nd ref="9782735"/>
    <nd ref="10301645"/>
    <tag k="cycleway:both" v="no"/>
    <tag k="highway" v="tertiary"/>
    <tag k="lanes" v="2"/>
    <tag k="name" v="Shepshed Road"/>
    <tag k="surface" v="asphalt"/>
  </way>
  <way id="2314264" version="18" timestamp="2025-04-14T20:55:48Z" changeset="164957458" uid="5229644" user="Nathan_A_RF">
    <nd ref="10928773"/>
    <nd ref="9781118"/>
    <nd ref="10015244"/>
    <nd ref="9195362578"/>
    <nd ref="10015245"/>
    <nd ref="11153486"/>
    <nd ref="10015246"/>
    <nd ref="10015247"/>
    <nd ref="4735886333"/>
    <nd ref="4735847906"/>
    <nd ref="10015248"/>
    <nd ref="706143159"/>
    <nd ref="10015249"/>
    <nd ref="706143144"/>
    <nd ref="8406893812"/>
    <nd ref="10015250"/>
    <nd ref="10015251"/>
    <nd ref="967764737"/>
    <nd ref="9195449206"/>
    <nd ref="10015252"/>
    <nd ref="970201053"/>
    <nd ref="10015253"/>
    <nd ref="10015254"/>
    <nd ref="29882046"/>
    <nd ref="693279471"/>
    <nd ref="14351989"/>
    <nd ref="7309618370"/>
    <nd ref="10015255"/>
    <nd ref="6889534710"/>
    <nd ref="10015256"/>
    <nd ref="10015257"/>
    <nd ref="252410556"/>
    <tag k="highway" v="secondary"/>
    <tag k="lanes" v="2"/>
    <tag k="maxspeed" v="50 mph"/>
    <tag k="maxspeed:type" v="sign"/>
    <tag k="name" v="Copt Oak Road"/>
    <tag k="ref" v="B591"/>
    <tag k="surface" v="asphalt"/>
  </way>
  <way id="2327295" version="10" timestamp="2025-04-14T20:55:48Z" changeset="164957458" uid="5229644" user="Nathan_A_RF">
    <nd ref="10928773"/>
    <nd ref="8739074043"/>
    <nd ref="10034579"/>
    <nd ref="12246377101"/>
    <nd ref="10034580"/>
    <nd ref="8269349263"/>
    <nd ref="8816619745"/>
    <nd ref="10034581"/>
    <nd ref="1167895541"/>
    <nd ref="1167895730"/>
    <nd ref="10034582"/>
    <nd ref="252410894"/>
    <nd ref="252410893"/>
    <nd ref="987077424"/>
    <nd ref="10034583"/>
    <nd ref="6707647936"/>
    <nd ref="10034584"/>
    <nd ref="706190613"/>
    <nd ref="1167895502"/>
    <nd ref="8404537022"/>
    <nd ref="391095981"/>
    <nd ref="10034585"/>
    <nd ref="12755514738"/>
    <nd ref="5555054001"/>
    <nd ref="10034586"/>
    <nd ref="7850899382"/>
    <nd ref="12755514736"/>
    <nd ref="827473045"/>
    <nd ref="12755514735"/>
    <nd ref="3395984560"/>
    <nd ref="6486782478"/>
    <tag k="highway" v="secondary"/>
    <tag k="maxspeed" v="60 mph"/>
    <tag k="maxspeed:type" v="GB:nsl_single"/>
    <tag k="name" v="Ingleberry Road"/>
    <tag k="ref" v="B591"/>
  </way>
  <way id="2417281" version="17" timestamp="2025-04-05T16:29:56Z" changeset="164559327" uid="14681713" user="freakonature">
    <nd ref="10015254"/>
    <nd ref="10864775"/>
    <nd ref="6528462035"/>
    <nd ref="10864776"/>
    <nd ref="10864777"/>
    <nd ref="10459682"/>
    <nd ref="967762198"/>
    <nd ref="967761020"/>
    <nd ref="967761021"/>
    <nd ref="4828467033"/>
    <nd ref="967761022"/>
    <nd ref="2041047380"/>
    <nd ref="7986910671"/>
    <nd ref="970201176"/>
    <nd ref="10459680"/>
    <nd ref="8697443640"/>
    <nd ref="967761024"/>
    <nd ref="8697443646"/>
    <nd ref="4828466576"/>
    <nd ref="8963049616"/>
    <nd ref="967761271"/>
    <nd ref="8963049607"/>
    <nd ref="10459679"/>
    <nd ref="4828466595"/>
    <nd ref="970201161"/>
    <nd ref="10459678"/>
    <nd ref="8448793330"/>
    <nd ref="8250914348"/>
    <nd ref="8288375850"/>
    <tag k="highway" v="unclassified"/>
    <tag k="lane_markings" v="no"/>
    <tag k="name" v="Whitcroft's Lane"/>
    <tag k="surface" v="asphalt"/>
  </way>
  <way id="2498875" version="9" timestamp="2023-12-31T10:25:06Z" changeset="145726007" uid="14681713" user="freakonature">
    <nd ref="10015252"/>
    <nd ref="10927439"/>
    <nd ref="967764528"/>
    <nd ref="1948065287"/>
    <nd ref="10927440"/>
    <nd ref="4735886348"/>
    <nd ref="10927441"/>
    <nd ref="706143024"/>
    <nd ref="10927443"/>
    <nd ref="11153487"/>
    <nd ref="967764384"/>
    <nd ref="10538230"/>
    <nd ref="10301662"/>
    <tag k="highway" v="tertiary"/>
    <tag k="lanes" v="2"/>
    <tag k="name" v="Beacon Road"/>
    <tag k="surface" v="asphalt"/>
  </way>
  <way id="2535507" version="11" timestamp="2025-09-18T14:44:52Z" changeset="172117315" uid="23045854" user="OSM Warrior">
    <nd ref="11153486"/>
    <nd ref="11153485"/>
    <nd ref="6322985489"/>
    <nd ref="6322985493"/>
    <nd ref="8257742093"/>
    <nd ref="8257742098"/>
    <nd ref="1218183077"/>
    <nd ref="11153483"/>
    <nd ref="11153482"/>
    <nd ref="4735847909"/>
    <nd ref="13153053426"/>
    <nd ref="1842483772"/>
    <nd ref="13153053455"/>
    <nd ref="970201736"/>
    <nd ref="1842483797"/>
    <nd ref="11153481"/>
    <nd ref="11153479"/>
    <nd ref="7046921792"/>
    <nd ref="11153478"/>
    <nd ref="1218183086"/>
    <nd ref="11153477"/>
    <nd ref="11153487"/>
    <tag k="highway" v="tertiary"/>
    <tag k="name" v="Charley Road"/>
    <tag k="surface" v="asphalt"/>
  </way>
  <way id="3854542" version="16" timestamp="2025-03-29T14:58:52Z" changeset="164252696" uid="253700" user="hb0">
    <nd ref="27466653"/>
    <nd ref="2673176520"/>
    <nd ref="19584610"/>
    <nd ref="19584609"/>
    <nd ref="19584608"/>
    <nd ref="987077418"/>
    <nd ref="27466654"/>
    <nd ref="1049512656"/>
    <nd ref="19584604"/>
    <nd ref="19584603"/>
    <nd ref="1049512669"/>
    <nd ref="19584601"/>
    <nd ref="967765183"/>
    <nd ref="3947541693"/>
    <nd ref="967765023"/>
    <nd ref="19584595"/>
    <nd ref="6868941780"/>
    <nd ref="6552683850"/>
    <nd ref="967765315"/>
    <nd ref="7983651465"/>
    <nd ref="11153486"/>
    <tag k="highway" v="tertiary"/>
    <tag k="maxweightrating:hgv" v="7.5"/>
    <tag k="maxweightrating:hgv:conditional" v="none @ delivery"/>
    <tag k="name" v="Charley Road"/>
    <tag k="source:name" v="survey"/>
  </way>
  <way id="4265425" version="14" timestamp="2025-03-29T14:58:52Z" changeset="164252696" uid="253700" user="hb0">
    <nd ref="9780981"/>
    <nd ref="8825364871"/>
    <nd ref="1709716546"/>
    <nd ref="8722982377"/>
    <nd ref="9780999"/>
    <nd ref="966602458"/>
    <nd ref="966602448"/>
    <nd ref="8715096151"/>
    <nd ref="9781010"/>
    <nd ref="988555697"/>
    <nd ref="8367172203"/>
    <nd ref="9781018"/>
    <nd ref="8367172202"/>
    <nd ref="8367172201"/>
    <nd ref="9781029"/>
    <nd ref="9781060"/>
    <nd ref="2111471743"/>
    <nd ref="8715096152"/>
    <nd ref="9781068"/>
    <nd ref="9781074"/>
    <nd ref="8715096172"/>
    <nd ref="9781080"/>
    <nd ref="10928773"/>
    <tag k="highway" v="tertiary"/>
    <tag k="maxweightrating:hgv" v="7.5"/>
    <tag k="maxweightrating:hgv:conditional" v="none @ delivery"/>
    <tag k="name" v="Nanpantan Road"/>
  </way>
  <way id="4641506" version="9" timestamp="2023-05-29T13:39:40Z" changeset="136701380" uid="63537" user="Breazecatcher">
    <nd ref="27466646"/>
    <nd ref="27466647"/>
    <nd ref="27466655"/>
    <nd ref="8769350474"/>
    <nd ref="27466656"/>
    <nd ref="6552861102"/>
    <nd ref="27466657"/>
    <nd ref="27466658"/>
    <nd ref="27466659"/>
    <nd ref="27466660"/>
    <nd ref="27466661"/>
    <nd ref="7001059231"/>
    <nd ref="27466662"/>
    <nd ref="7001059230"/>
    <nd ref="27466663"/>
    <nd ref="7001059232"/>
    <tag k="highway" v="unclassified"/>
    <tag k="name" v="Oaks Road"/>
    <tag k="source:name" v="survey"/>
    <tag k="surface" v="asphalt"/>
  </way>
  <way id="4699488" version="7" timestamp="2025-04-14T21:11:18Z" changeset="164957870" uid="5229644" user="Nathan_A_RF">
    <nd ref="14351992"/>
    <nd ref="14351990"/>
    <tag k="bridge" v="yes"/>
    <tag k="highway" v="tertiary"/>
    <tag k="layer" v="1"/>
    <tag k="maxspeed" v="60 mph"/>
    <tag k="maxspeed:type" v="GB:nsl_single"/>
    <tag k="maxweight:signed" v="no"/>
    <tag k="name" v="Warren Hills Road"/>
  </way>
  <way id="4699489" version="12" timestamp="2025-04-14T21:11:18Z" changeset="164957870" uid="5229644" user="Nathan_A_RF">
    <nd ref="12246367099"/>
    <nd ref="7280300998"/>
    <nd ref="14351989"/>
    <tag k="cycleway:both" v="no"/>
    <tag k="highway" v="tertiary"/>
    <tag k="lanes" v="2"/>
    <tag k="maxspeed" v="50 mph"/>
    <tag k="maxspeed:type" v="sign"/>
    <tag k="name" v="Warren Hills Road"/>
    <tag k="smoothness" v="excellent"/>
    <tag k="surface" v="asphalt"/>
  </way>
  <way id="8454620" version="16" timestamp="2025-06-23T17:07:42Z" changeset="168013336" uid="23025902" user="lonerider543">
    <nd ref="5372357186"/>
    <nd ref="30393045"/>
    <nd ref="5372357160"/>
    <nd ref="30393047"/>
    <nd ref="4990300500"/>
    <nd ref="431829637"/>
    <nd ref="1239053953"/>
    <nd ref="569120880"/>
    <nd ref="7575230835"/>
    <nd ref="5296074291"/>
    <nd ref="766875071"/>
    <nd ref="9384351798"/>
    <tag k="highway" v="tertiary"/>
    <tag k="name" v="Swannymote Road"/>
  </way>
  <way id="8454623" version="17" timestamp="2019-06-05T17:42:56Z" changeset="70962395" uid="9196103" user="srinatpa">
    <nd ref="1238998255"/>
    <nd ref="1239034260"/>
    <nd ref="1239034285"/>
    <nd ref="244428919"/>
    <nd ref="244428920"/>
    <nd ref="1239034295"/>
    <nd ref="244428921"/>
    <nd ref="4732189280"/>
    <nd ref="244428922"/>
    <nd ref="1239034304"/>
    <nd ref="4732189282"/>
    <nd ref="244428924"/>
    <nd ref="244428925"/>
    <nd ref="244428926"/>
    <nd ref="244428927"/>
    <nd ref="244428929"/>
    <nd ref="244428930"/>
    <nd ref="4736941843"/>
    <nd ref="4730924738"/>
    <nd ref="4730924737"/>
    <nd ref="244428931"/>
    <nd ref="2517007478"/>
    <nd ref="244428932"/>
    <nd ref="4730924736"/>
    <nd ref="244428933"/>
    <nd ref="244428934"/>
    <nd ref="244428935"/>
    <nd ref="244428936"/>
    <nd ref="987077495"/>
    <nd ref="244428937"/>
    <nd ref="2472335136"/>
    <nd ref="244428938"/>
    <nd ref="244428939"/>
    <nd ref="4739762847"/>
    <nd ref="4730924767"/>
    <nd ref="6525088579"/>
    <nd ref="244429023"/>
    <nd ref="244429024"/>
    <nd ref="244429025"/>
    <tag k="highway" v="tertiary"/>
    <tag k="name" v="Oaks Road"/>
  </way>
  <way id="23313861" version="24" timestamp="2024-01-22T18:56:44Z" changeset="146565751" uid="16951803" user="Vas111">
    <nd ref="252410332"/>
    <nd ref="1324711762"/>
    <nd ref="326394"/>
    <nd ref="1324711662"/>
    <nd ref="326395"/>
    <nd ref="244429590"/>
    <nd ref="326397"/>
    <nd ref="10093494032"/>
    <nd ref="326398"/>
    <nd ref="10093494031"/>
    <nd ref="10093494030"/>
    <nd ref="326400"/>
    <nd ref="10093494029"/>
    <nd ref="326402"/>
    <nd ref="10093494028"/>
    <nd ref="10093494027"/>
    <nd ref="326404"/>
    <nd ref="10093494026"/>
    <nd ref="326406"/>
    <nd ref="10093494025"/>
    <nd ref="10093494024"/>
    <nd ref="326407"/>
    <nd ref="10093494023"/>
    <nd ref="10093494022"/>
    <nd ref="194753"/>
    <nd ref="10093494021"/>
    <nd ref="194754"/>
    <nd ref="10093494020"/>
    <nd ref="326412"/>
    <nd ref="10093494019"/>
    <nd ref="326414"/>
    <nd ref="1551036532"/>
    <tag k="carriageway_ref" v="A"/>
    <tag k="highway" v="motorway"/>
    <tag k="int_ref" v="E 13"/>
    <tag k="lanes" v="3"/>
    <tag k="lit" v="no"/>
    <tag k="maxheight" v="default"/>
    <tag k="maxspeed" v="70 mph"/>
    <tag k="maxspeed:type" v="GB:motorway"/>
    <tag k="national_highways:area" v="7"/>
    <tag k="oneway" v="yes"/>
    <tag k="operator" v="National Highways"/>
    <tag k="operator:wikidata" v="Q5760006"/>
    <tag k="ref" v="M1"/>
    <tag k="source:maxspeed" v="survey"/>
    <tag k="surface" v="asphalt"/>
    <tag k="wikidata" v="Q19875"/>
    <tag k="wikipedia" v="en:M1 motorway"/>
  </way>
  <way id="23313873" version="18" timestamp="2024-01-22T18:56:44Z" changeset="146565751" uid="16951803" user="Vas111">
    <nd ref="252410728"/>
    <nd ref="252410729"/>
    <tag k="bridge" v="yes"/>
    <tag k="carriageway_ref" v="B"/>
    <tag k="highway" v="motorway"/>
    <tag k="int_ref" v="E 13"/>
    <tag k="lanes" v="3"/>
    <tag k="layer" v="1"/>
    <tag k="lit" v="no"/>
    <tag k="maxspeed" v="70 mph"/>
    <tag k="maxspeed:type" v="GB:motorway"/>
    <tag k="national_highways:area" v="7"/>
    <tag k="oneway" v="yes"/>
    <tag k="operator" v="National Highways"/>
    <tag k="operator:wikidata" v="Q5760006"/>
    <tag k="ref" v="M1"/>
    <tag k="source:maxspeed" v="survey"/>
    <tag k="surface" v="asphalt"/>
  </way>
  <way id="23313874" version="20" timestamp="2024-01-22T18:56:44Z" changeset="146565751" uid="16951803" user="Vas111">
    <nd ref="252410729"/>
    <nd ref="326427"/>
    <nd ref="326425"/>
    <nd ref="2967704491"/>
    <nd ref="2967704490"/>
    <nd ref="326424"/>
    <nd ref="326422"/>
    <nd ref="326420"/>
    <nd ref="326418"/>
    <nd ref="326417"/>
    <nd ref="624881924"/>
    <nd ref="1551036533"/>
    <tag k="carriageway_ref" v="B"/>
    <tag k="highway" v="motorway"/>
    <tag k="int_ref" v="E 13"/>
    <tag k="lanes" v="3"/>
    <tag k="lit" v="no"/>
    <tag k="maxspeed" v="70 mph"/>
    <tag k="maxspeed:type" v="GB:motorway"/>
    <tag k="national_highways:area" v="7"/>
    <tag k="oneway" v="yes"/>
    <tag k="operator" v="National Highways"/>
    <tag k="operator:wikidata" v="Q5760006"/>
    <tag k="ref" v="M1"/>
    <tag k="source:maxspeed" v="survey"/>
    <tag k="surface" v="asphalt"/>
  </way>
  <way id="23313875" version="19" timestamp="2024-01-22T18:56:44Z" changeset="146565751" uid="16951803" user="Vas111">
    <nd ref="252410765"/>
    <nd ref="326428"/>
    <nd ref="2967704487"/>
    <nd ref="326430"/>
    <nd ref="2967704484"/>
    <nd ref="326432"/>
    <nd ref="194757"/>
    <nd ref="194756"/>
    <nd ref="7703746881"/>
    <tag k="carriageway_ref" v="A"/>
    <tag k="highway" v="motorway"/>
    <tag k="int_ref" v="E 13"/>
    <tag k="lanes" v="3"/>
    <tag k="lit" v="no"/>
    <tag k="maxspeed" v="70 mph"/>
    <tag k="maxspeed:type" v="GB:motorway"/>
    <tag k="national_highways:area" v="7"/>
    <tag k="oneway" v="yes"/>
    <tag k="operator" v="National Highways"/>
    <tag k="operator:wikidata" v="Q5760006"/>
    <tag k="ref" v="M1"/>
    <tag k="source:maxspeed" v="survey"/>
    <tag k="surface" v="asphalt"/>
  </way>
  <way id="23313876" version="18" timestamp="2024-01-22T18:56:44Z" changeset="146565751" uid="16951803" user="Vas111">
    <nd ref="252410767"/>
    <nd ref="252410765"/>
    <tag k="bridge" v="yes"/>
    <tag k="carriageway_ref" v="A"/>
    <tag k="highway" v="motorway"/>
    <tag k="int_ref" v="E 13"/>
    <tag k="lanes" v="3"/>
    <tag k="layer" v="1"/>
    <tag k="lit" v="no"/>
    <tag k="maxspeed" v="70 mph"/>
    <tag k="maxspeed:type" v="GB:motorway"/>
    <tag k="national_highways:area" v="7"/>
    <tag k="oneway" v="yes"/>
    <tag k="operator" v="National Highways"/>
    <tag k="operator:wikidata" v="Q5760006"/>
    <tag k="ref" v="M1"/>
    <tag k="source:maxspeed" v="survey"/>
    <tag k="surface" v="asphalt"/>
  </way>
  <way id="37117846" version="16" timestamp="2020-07-18T09:11:20Z" changeset="88171075" uid="600015" user="CartogLarry">
    <nd ref="431829637"/>
    <nd ref="431829642"/>
    <nd ref="431829643"/>
    <nd ref="7575220598"/>
    <nd ref="431829644"/>
    <nd ref="7575220596"/>
    <nd ref="431829646"/>
    <nd ref="5301962453"/>
    <nd ref="7575220586"/>
    <nd ref="7575181245"/>
    <nd ref="431829677"/>
    <nd ref="431829682"/>
    <nd ref="431829685"/>
    <nd ref="5296142458"/>
    <nd ref="3851852474"/>
    <nd ref="431829692"/>
    <nd ref="431829697"/>
    <nd ref="431829703"/>
    <nd ref="431829707"/>
    <nd ref="5301962452"/>
    <nd ref="431829709"/>
    <nd ref="7726183947"/>
    <nd ref="567354486"/>
    <nd ref="431829712"/>
    <nd ref="431829714"/>
    <nd ref="431829716"/>
    <nd ref="431829718"/>
    <nd ref="431829721"/>
    <tag k="highway" v="unclassified"/>
    <tag k="name" v="Warren Lane"/>
  </way>
  <way id="141697555" version="11" timestamp="2024-01-22T18:56:44Z" changeset="146565751" uid="16951803" user="Vas111">
    <nd ref="1551036539"/>
    <nd ref="624881927"/>
    <nd ref="326416"/>
    <nd ref="194755"/>
    <nd ref="326419"/>
    <nd ref="2967704493"/>
    <nd ref="326421"/>
    <nd ref="2967704492"/>
    <nd ref="326423"/>
    <nd ref="2967704489"/>
    <nd ref="194758"/>
    <nd ref="2967704488"/>
    <nd ref="326426"/>
    <nd ref="252410767"/>
    <tag k="carriageway_ref" v="A"/>
    <tag k="highway" v="motorway"/>
    <tag k="int_ref" v="E 13"/>
    <tag k="lanes" v="3"/>
    <tag k="lit" v="no"/>
    <tag k="maxspeed" v="70 mph"/>
    <tag k="maxspeed:type" v="GB:motorway"/>
    <tag k="national_highways:area" v="7"/>
    <tag k="oneway" v="yes"/>
    <tag k="operator" v="National Highways"/>
    <tag k="operator:wikidata" v="Q5760006"/>
    <tag k="ref" v="M1"/>
    <tag k="source:maxspeed" v="survey"/>
    <tag k="surface" v="asphalt"/>
  </way>
  <way id="141697556" version="11" timestamp="2024-01-22T18:56:44Z" changeset="146565751" uid="16951803" user="Vas111">
    <nd ref="1551036533"/>
    <nd ref="1551036537"/>
    <tag k="bridge" v="yes"/>
    <tag k="carriageway_ref" v="B"/>
    <tag k="highway" v="motorway"/>
    <tag k="int_ref" v="E 13"/>
    <tag k="lanes" v="3"/>
    <tag k="layer" v="1"/>
    <tag k="lit" v="no"/>
    <tag k="maxspeed" v="70 mph"/>
    <tag k="maxspeed:type" v="GB:motorway"/>
    <tag k="national_highways:area" v="7"/>
    <tag k="oneway" v="yes"/>
    <tag k="operator" v="National Highways"/>
    <tag k="operator:wikidata" v="Q5760006"/>
    <tag k="ref" v="M1"/>
    <tag k="source:maxspeed" v="survey"/>
    <tag k="surface" v="asphalt"/>
  </way>
  <way id="141697557" version="10" timestamp="2024-01-22T18:56:44Z" changeset="146565751" uid="16951803" user="Vas111">
    <nd ref="1551036532"/>
    <nd ref="1551036539"/>
    <tag k="bridge" v="yes"/>
    <tag k="carriageway_ref" v="A"/>
    <tag k="highway" v="motorway"/>
    <tag k="int_ref" v="E 13"/>
    <tag k="lanes" v="3"/>
    <tag k="layer" v="1"/>
    <tag k="lit" v="no"/>
    <tag k="maxspeed" v="70 mph"/>
    <tag k="maxspeed:type" v="GB:motorway"/>
    <tag k="national_highways:area" v="7"/>
    <tag k="oneway" v="yes"/>
    <tag k="operator" v="National Highways"/>
    <tag k="operator:wikidata" v="Q5760006"/>
    <tag k="ref" v="M1"/>
    <tag k="source:maxspeed" v="survey"/>
    <tag k="surface" v="asphalt"/>
  </way>
  <way id="141697562" version="14" timestamp="2024-01-22T18:56:44Z" changeset="146565751" uid="16951803" user="Vas111">
    <nd ref="1551036537"/>
    <nd ref="326415"/>
    <nd ref="326413"/>
    <nd ref="326411"/>
    <nd ref="326410"/>
    <nd ref="326409"/>
    <nd ref="326408"/>
    <nd ref="326405"/>
    <nd ref="326403"/>
    <nd ref="326401"/>
    <nd ref="326399"/>
    <nd ref="194750"/>
    <tag k="carriageway_ref" v="B"/>
    <tag k="highway" v="motorway"/>
    <tag k="int_ref" v="E 13"/>
    <tag k="lanes" v="3"/>
    <tag k="lit" v="no"/>
    <tag k="maxheight" v="default"/>
    <tag k="maxspeed" v="70 mph"/>
    <tag k="maxspeed:type" v="GB:motorway"/>
    <tag k="national_highways:area" v="7"/>
    <tag k="oneway" v="yes"/>
    <tag k="operator" v="National Highways"/>
    <tag k="operator:wikidata" v="Q5760006"/>
    <tag k="ref" v="M1"/>
    <tag k="source:maxspeed" v="survey"/>
    <tag k="surface" v="asphalt"/>
    <tag k="wikidata" v="Q19875"/>
    <tag k="wikipedia" v="en:M1 motorway"/>
  </way>
  <way id="261720486" version="13" timestamp="2025-08-10T19:41:26Z" changeset="170262177" uid="23025902" user="lonerider543">
    <nd ref="12246367098"/>
    <nd ref="6552712733"/>
    <nd ref="14352000"/>
    <nd ref="738662393"/>
    <nd ref="14351998"/>
    <nd ref="7770826247"/>
    <nd ref="693279132"/>
    <nd ref="7770883365"/>
    <nd ref="14351995"/>
    <nd ref="638736625"/>
    <nd ref="8046344939"/>
    <nd ref="14351993"/>
    <nd ref="8406893813"/>
    <nd ref="13062248135"/>
    <nd ref="693279150"/>
    <nd ref="14351992"/>
    <tag k="highway" v="tertiary"/>
    <tag k="maxspeed" v="60 mph"/>
    <tag k="maxspeed:type" v="GB:nsl_single"/>
    <tag k="name" v="Warren Hills Road"/>
  </way>
  <way id="482278873" version="2" timestamp="2017-03-23T17:19:27Z" changeset="47102194" uid="600015" user="CartogLarry">
    <nd ref="4751207951"/>
    <nd ref="4751207953"/>
    <nd ref="4751207934"/>
    <nd ref="4751207937"/>
    <nd ref="4751207951"/>
    <tag k="building" v="house"/>
    <tag k="name" v="Whittle Hill Cottage"/>
    <tag k="source" v="Bing"/>
    <tag k="source:name" v="OS OpenData StreetView"/>
  </way>
  <way id="748615860" version="3" timestamp="2025-04-14T21:11:18Z" changeset="164957870" uid="5229644" user="Nathan_A_RF">
    <nd ref="7001059234"/>
    <nd ref="7001059235"/>
    <tag k="bridge" v="yes"/>
    <tag k="highway" v="tertiary"/>
    <tag k="lanes" v="2"/>
    <tag k="layer" v="1"/>
    <tag k="lit" v="no"/>
    <tag k="maxspeed" v="50 mph"/>
    <tag k="maxspeed:type" v="sign"/>
    <tag k="name" v="Abbey Road"/>
    <tag k="source:name" v="survey"/>
  </way>
  <way id="748615861" version="5" timestamp="2025-04-14T21:11:18Z" changeset="164957870" uid="5229644" user="Nathan_A_RF">
    <nd ref="7001059235"/>
    <nd ref="27466645"/>
    <nd ref="27466648"/>
    <nd ref="1239053967"/>
    <nd ref="27466646"/>
    <nd ref="244429025"/>
    <nd ref="27466649"/>
    <nd ref="27466650"/>
    <nd ref="7279754231"/>
    <nd ref="1239046791"/>
    <nd ref="2673176569"/>
    <nd ref="27466651"/>
    <nd ref="2041040814"/>
    <nd ref="29529250"/>
    <nd ref="2673259253"/>
    <tag k="highway" v="tertiary"/>
    <tag k="lanes" v="2"/>
    <tag k="lit" v="no"/>
    <tag k="maxspeed" v="50 mph"/>
    <tag k="maxspeed:type" v="sign"/>
    <tag k="name" v="Abbey Road"/>
    <tag k="source:name" v="survey"/>
  </way>
  <way id="767835738" version="3" timestamp="2023-12-02T18:01:42Z" changeset="144699607" uid="504708" user="HillWithSmallFields">
    <nd ref="2673252493"/>
    <nd ref="7169089486"/>
    <nd ref="7169072180"/>
    <nd ref="7169089504"/>
    <nd ref="2673252493"/>
    <tag k="addr:postcode" v="LE12 9YD"/>
    <tag k="addr:street" v="Oaks Road"/>
    <tag k="amenity" v="place_of_worship"/>
    <tag k="building" v="church"/>
    <tag k="denomination" v="anglican"/>
    <tag k="name" v="St James the Greater"/>
    <tag k="ref:dove" v="11164"/>
    <tag k="religion" v="christian"/>
    <tag k="source" v="OS_OpenData_StreetView"/>
    <tag k="wikidata" v="Q26643344"/>
  </way>
  <way id="782725249" version="1" timestamp="2020-03-19T16:32:29Z" changeset="82398706" uid="705850" user="Cebderby">
    <nd ref="7309618373"/>
    <nd ref="7309618372"/>
    <nd ref="7309618368"/>
    <nd ref="7309618370"/>
    <tag k="highway" v="residential"/>
  </way>
  <way id="825047061" version="5" timestamp="2024-01-22T18:56:44Z" changeset="146565751" uid="16951803" user="Vas111">
    <nd ref="7703746879"/>
    <nd ref="326435"/>
    <nd ref="326434"/>
    <nd ref="326433"/>
    <nd ref="2967704485"/>
    <nd ref="326431"/>
    <nd ref="2967704486"/>
    <nd ref="326429"/>
    <nd ref="252410728"/>
    <tag k="carriageway_ref" v="B"/>
    <tag k="highway" v="motorway"/>
    <tag k="int_ref" v="E 13"/>
    <tag k="lanes" v="3"/>
    <tag k="lit" v="no"/>
    <tag k="maxspeed" v="70 mph"/>
    <tag k="maxspeed:type" v="GB:motorway"/>
    <tag k="national_highways:area" v="7"/>
    <tag k="oneway" v="yes"/>
    <tag k="operator" v="National Highways"/>
    <tag k="operator:wikidata" v="Q5760006"/>
    <tag k="ref" v="M1"/>
    <tag k="source:maxspeed" v="survey"/>
    <tag k="surface" v="asphalt"/>
  </way>
  <way id="990300252" version="1" timestamp="2021-10-06T10:48:46Z" changeset="112163778" uid="5939131" user="KoalaGeo">
    <nd ref="9151293642"/>
    <nd ref="9151293643"/>
    <nd ref="9151293644"/>
    <nd ref="9151293645"/>
    <nd ref="9151293642"/>
    <tag k="amenity" v="ranger_station"/>
    <tag k="building" v="yes"/>
    <tag k="name" v="Office"/>
  </way>
  <way id="990300256" version="1" timestamp="2021-10-06T10:48:46Z" changeset="112163778" uid="5939131" user="KoalaGeo">
    <nd ref="9151293656"/>
    <nd ref="9151293657"/>
    <nd ref="9151293658"/>
    <nd ref="9151293660"/>
    <nd ref="9151293659"/>
    <nd ref="9151293656"/>
    <tag k="amenity" v="ranger_station"/>
    <tag k="building" v="yes"/>
    <tag k="name" v="Clarke Hut"/>
  </way>
  <way id="990300260" version="1" timestamp="2021-10-06T10:48:46Z" changeset="112163778" uid="5939131" user="KoalaGeo">
    <nd ref="9151293649"/>
    <nd ref="9151293676"/>
    <nd ref="9151293677"/>
    <nd ref="9151293648"/>
    <nd ref="9151293649"/>
    <tag k="building" v="yes"/>
    <tag k="name" v="Camp Shop"/>
    <tag k="shop" v="yes"/>
  </way>
  <way id="990300261" version="1" timestamp="2021-10-06T10:48:46Z" changeset="112163778" uid="5939131" user="KoalaGeo">
    <nd ref="9151293678"/>
    <nd ref="9151293679"/>
    <nd ref="9151293680"/>
    <nd ref="9151293681"/>
    <nd ref="9151293678"/>
    <tag k="building" v="yes"/>
    <tag k="description" v="Human made scouts caving experience"/>
    <tag k="name" v="Black Hole"/>
  </way>
  <way id="990300262" version="1" timestamp="2021-10-06T10:48:46Z" changeset="112163778" uid="5939131" user="KoalaGeo">
    <nd ref="9151293682"/>
    <nd ref="9151293683"/>
    <nd ref="9151293684"/>
    <nd ref="9151293685"/>
    <nd ref="9151293682"/>
    <tag k="building" v="yes"/>
    <tag k="name" v="Bouldering"/>
  </way>
  <way id="990300263" version="1" timestamp="2021-10-06T10:48:46Z" changeset="112163778" uid="5939131" user="KoalaGeo">
    <nd ref="9151293686"/>
    <nd ref="9151293687"/>
    <nd ref="9151293688"/>
    <nd ref="9151293689"/>
    <nd ref="9151293686"/>
    <tag k="building" v="yes"/>
    <tag k="name" v="Climbing"/>
  </way>
  <way id="1323422492" version="2" timestamp="2025-04-14T21:11:18Z" changeset="164957870" uid="5229644" user="Nathan_A_RF">
    <nd ref="14351990"/>
    <nd ref="12246367099"/>
    <tag k="cycleway:both" v="no"/>
    <tag k="highway" v="tertiary"/>
    <tag k="lanes" v="2"/>
    <tag k="maxspeed" v="60 mph"/>
    <tag k="maxspeed:type" v="GB:nsl_single"/>
    <tag k="name" v="Warren Hills Road"/>
    <tag k="smoothness" v="excellent"/>
    <tag k="surface" v="asphalt"/>
  </way>

</osm>
