<?xml version="1.0" encoding="UTF-8"?>
<osm version="0.6" generator="Overpass API 0.7.62.8 e802775f">
<note>The data included in this document is from www.openstreetmap.org. The data is made available under ODbL.</note>
<meta osm_base="2025-12-17T13:13:00Z" areas="2025-12-17T10:32:22Z"/>

  <node id="217159" lat="52.7454528" lon="-1.4520446" version="7" timestamp="2021-09-26T17:15:31Z" changeset="111732450" uid="13341565" user="Falsernet">
    <tag k="exit_to" v="A511 Ashby-de-la-Zouch, Coalville, A512 Loughborough"/>
    <tag k="highway" v="motorway_junction"/>
    <tag k="layer" v="3"/>
    <tag k="name" v="Flagstaff Island"/>
    <tag k="ref" v="13"/>
  </node>
  <node id="14352896" lat="52.7543231" lon="-1.3833083" version="5" timestamp="2010-05-13T17:36:18Z" changeset="4687889" uid="188349" user="MatSmith"/>
  <node id="14352907" lat="52.7525247" lon="-1.3920812" version="7" timestamp="2021-06-05T17:55:06Z" changeset="105892524" uid="346601" user="Russ McD"/>
  <node id="29882017" lat="52.7379431" lon="-1.4370716" version="2" timestamp="2010-07-07T18:56:41Z" changeset="5160862" uid="188349" user="MatSmith"/>
  <node id="102200984" lat="52.7599685" lon="-1.3879260" version="4" timestamp="2012-10-30T19:40:52Z" changeset="13690340" uid="188349" user="MatSmith"/>
  <node id="255712800" lat="52.7412250" lon="-1.4444482" version="3" timestamp="2017-11-07T16:42:22Z" changeset="53586182" uid="705850" user="Cebderby"/>
  <node id="256130527" lat="52.7339474" lon="-1.4166496" version="1" timestamp="2008-04-06T20:09:51Z" changeset="66616" uid="12992" user="trigpoint"/>
  <node id="256323771" lat="52.7455751" lon="-1.4266003" version="2" timestamp="2010-07-07T19:02:10Z" changeset="5160862" uid="188349" user="MatSmith"/>
  <node id="256324643" lat="52.7336377" lon="-1.4107418" version="3" timestamp="2011-06-06T08:32:41Z" changeset="8357385" uid="188349" user="MatSmith"/>
  <node id="261650378" lat="52.7584203" lon="-1.3953939" version="1" timestamp="2008-05-02T20:32:49Z" changeset="312656" uid="12992" user="trigpoint"/>
  <node id="261650648" lat="52.7535401" lon="-1.3865302" version="9" timestamp="2025-07-03T21:51:50Z" changeset="168462249" uid="705850" user="Cebderby"/>
  <node id="373813042" lat="52.7601452" lon="-1.4056215" version="5" timestamp="2019-11-27T11:04:31Z" changeset="77624908" uid="10252543" user="srikmar"/>
  <node id="373813082" lat="52.7505038" lon="-1.4053192" version="3" timestamp="2012-09-27T21:51:27Z" changeset="13278460" uid="51722" user="Chris Parker"/>
  <node id="616301935" lat="52.7742777" lon="-1.4217801" version="2" timestamp="2015-05-19T11:24:18Z" changeset="31280440" uid="188349" user="MatSmith"/>
  <node id="826242423" lat="52.7480727" lon="-1.3993681" version="2" timestamp="2021-06-14T11:22:37Z" changeset="106332427" uid="10252551" user="amanura"/>
  <node id="826242460" lat="52.7443318" lon="-1.4041167" version="1" timestamp="2010-07-20T15:46:51Z" changeset="5271702" uid="188349" user="MatSmith"/>
  <node id="826261132" lat="52.7527128" lon="-1.3908249" version="2" timestamp="2021-06-05T17:55:06Z" changeset="105892524" uid="346601" user="Russ McD"/>
  <node id="910436873" lat="52.7568194" lon="-1.3995929" version="1" timestamp="2010-09-13T10:41:19Z" changeset="5768453" uid="51722" user="Chris Parker"/>
  <node id="1157288077" lat="52.7606975" lon="-1.3894482" version="1" timestamp="2011-02-17T09:02:25Z" changeset="7311112" uid="51722" user="Chris Parker"/>
  <node id="1313886292" lat="52.7334599" lon="-1.4066655" version="1" timestamp="2011-06-06T08:32:40Z" changeset="8357385" uid="188349" user="MatSmith"/>
  <node id="1556354130" lat="52.7516414" lon="-1.4399861" version="2" timestamp="2017-08-01T23:30:11Z" changeset="50765723" uid="5296090" user="TR42"/>
  <node id="2099063166" lat="52.7343945" lon="-1.4206280" version="2" timestamp="2016-06-15T10:16:16Z" changeset="40035462" uid="705850" user="Cebderby"/>
  <node id="3361517925" lat="52.7704000" lon="-1.4284557" version="1" timestamp="2015-02-20T10:51:42Z" changeset="28974849" uid="2054450" user="HeatherH"/>
  <node id="5216484825" lat="52.7346248" lon="-1.4108577" version="1" timestamp="2017-11-07T16:55:41Z" changeset="53586542" uid="705850" user="Cebderby"/>
  <node id="12758099305" lat="52.7533554" lon="-1.3890733" version="1" timestamp="2025-04-15T17:49:25Z" changeset="164997078" uid="5229644" user="Nathan_A_RF"/>
  <way id="4018384" version="16" timestamp="2024-05-11T13:32:05Z" changeset="151186502" uid="4626766" user="Edward Smith (MilPop14)">
    <nd ref="373813082"/>
    <nd ref="14352912"/>
    <nd ref="2683756318"/>
    <nd ref="14352911"/>
    <nd ref="1935929221"/>
    <nd ref="1935929278"/>
    <nd ref="14352910"/>
    <nd ref="14352909"/>
    <nd ref="1400747839"/>
    <nd ref="1935929337"/>
    <nd ref="1935929323"/>
    <nd ref="14352908"/>
    <nd ref="1400747832"/>
    <nd ref="2276779918"/>
    <nd ref="4738338917"/>
    <nd ref="2276779841"/>
    <nd ref="2276779930"/>
    <nd ref="2276779866"/>
    <nd ref="8807392069"/>
    <tag k="highway" v="primary"/>
    <tag k="maxspeed" v="50 mph"/>
    <tag k="name" v="Loughborough Road"/>
    <tag k="ref" v="A512"/>
  </way>
  <way id="4302668" version="26" timestamp="2025-11-15T21:31:06Z" changeset="174704974" uid="487368" user="Mr Walrus">
    <nd ref="217159"/>
    <nd ref="217160"/>
    <nd ref="4244121875"/>
    <nd ref="217161"/>
    <nd ref="11482962739"/>
    <nd ref="4244122599"/>
    <nd ref="4244122598"/>
    <nd ref="258732004"/>
    <nd ref="5008474033"/>
    <nd ref="217162"/>
    <nd ref="5008474041"/>
    <nd ref="5008474037"/>
    <nd ref="217163"/>
    <nd ref="5008474034"/>
    <nd ref="217164"/>
    <nd ref="5008474027"/>
    <nd ref="217165"/>
    <nd ref="3743854750"/>
    <nd ref="217166"/>
    <nd ref="26017285"/>
    <nd ref="3743854749"/>
    <nd ref="217167"/>
    <nd ref="5008474029"/>
    <nd ref="26017286"/>
    <nd ref="217168"/>
    <nd ref="5008474025"/>
    <nd ref="217169"/>
    <nd ref="26017287"/>
    <nd ref="217170"/>
    <nd ref="217171"/>
    <nd ref="616301938"/>
    <tag k="carriageway_ref" v="A"/>
    <tag k="dual_carriageway" v="yes"/>
    <tag k="expressway" v="yes"/>
    <tag k="highway" v="trunk"/>
    <tag k="lanes" v="2"/>
    <tag k="lit" v="no"/>
    <tag k="maxheight" v="default"/>
    <tag k="maxspeed" v="70 mph"/>
    <tag k="maxspeed:type" v="GB:nsl_dual"/>
    <tag k="national_highways:area" v="7"/>
    <tag k="oneway" v="yes"/>
    <tag k="operator" v="National Highways"/>
    <tag k="operator:wikidata" v="Q5760006"/>
    <tag k="ref" v="A42"/>
    <tag k="shoulder" v="both"/>
    <tag k="surface" v="asphalt"/>
  </way>
  <way id="11477765" version="11" timestamp="2025-04-15T17:49:25Z" changeset="164997078" uid="5229644" user="Nathan_A_RF">
    <nd ref="12758099305"/>
    <nd ref="1927726662"/>
    <nd ref="102200970"/>
    <nd ref="615804136"/>
    <nd ref="102200971"/>
    <nd ref="261650366"/>
    <tag k="highway" v="tertiary"/>
    <tag k="name" v="Nottingham Road"/>
  </way>
  <way id="23314265" version="8" timestamp="2025-04-01T20:13:53Z" changeset="164392321" uid="5229644" user="Nathan_A_RF">
    <nd ref="252413251"/>
    <nd ref="8557728347"/>
    <nd ref="8557728348"/>
    <nd ref="29882017"/>
    <tag k="bridge" v="yes"/>
    <tag k="highway" v="trunk"/>
    <tag k="lanes" v="2"/>
    <tag k="layer" v="1"/>
    <tag k="maxspeed" v="60 mph"/>
    <tag k="maxspeed:type" v="GB:nsl_single"/>
    <tag k="name" v="Ashby Road"/>
    <tag k="ref" v="A511"/>
  </way>
  <way id="23314266" version="11" timestamp="2025-04-01T20:13:53Z" changeset="164392321" uid="5229644" user="Nathan_A_RF">
    <nd ref="29882017"/>
    <nd ref="29882019"/>
    <nd ref="29882020"/>
    <nd ref="29882021"/>
    <nd ref="29882022"/>
    <nd ref="29882023"/>
    <nd ref="12720241284"/>
    <nd ref="29882024"/>
    <nd ref="12720241283"/>
    <nd ref="739256513"/>
    <nd ref="255712810"/>
    <nd ref="29882025"/>
    <nd ref="1556353999"/>
    <nd ref="1556354096"/>
    <tag k="highway" v="trunk"/>
    <tag k="lanes" v="2"/>
    <tag k="lit" v="no"/>
    <tag k="maxspeed" v="60 mph"/>
    <tag k="maxspeed:type" v="GB:nsl_single"/>
    <tag k="name" v="Ashby Road"/>
    <tag k="ref" v="A511"/>
    <tag k="shoulder" v="no"/>
  </way>
  <way id="23610179" version="5" timestamp="2010-05-19T07:33:55Z" changeset="4745599" uid="188349" user="MatSmith">
    <nd ref="255712800"/>
    <nd ref="255712801"/>
    <tag k="bridge" v="yes"/>
    <tag k="highway" v="unclassified"/>
    <tag k="layer" v="1"/>
    <tag k="name" v="Corkscrew Lane"/>
  </way>
  <way id="23610180" version="11" timestamp="2025-04-01T20:13:53Z" changeset="164392321" uid="5229644" user="Nathan_A_RF">
    <nd ref="255712801"/>
    <nd ref="8736803036"/>
    <nd ref="255712802"/>
    <nd ref="5216465522"/>
    <nd ref="5216465524"/>
    <nd ref="8736803033"/>
    <nd ref="5216465531"/>
    <nd ref="8736803034"/>
    <nd ref="255712804"/>
    <nd ref="8736803035"/>
    <nd ref="255712805"/>
    <nd ref="8736803032"/>
    <nd ref="255712807"/>
    <nd ref="8736803031"/>
    <nd ref="8736803028"/>
    <nd ref="8736803029"/>
    <nd ref="8736803030"/>
    <nd ref="255712808"/>
    <nd ref="8736803027"/>
    <nd ref="8736803026"/>
    <nd ref="255712809"/>
    <tag k="hgv" v="destination"/>
    <tag k="highway" v="unclassified"/>
    <tag k="maxspeed" v="60 mph"/>
    <tag k="maxspeed:type" v="GB:nsl_single"/>
    <tag k="name" v="Corkscrew Lane"/>
  </way>
  <way id="23642397" version="15" timestamp="2023-09-03T07:13:02Z" changeset="140744871" uid="20086345" user="donq1986b">
    <nd ref="256130527"/>
    <nd ref="256130528"/>
    <nd ref="256130529"/>
    <nd ref="256130530"/>
    <nd ref="256130531"/>
    <nd ref="256130532"/>
    <nd ref="256130533"/>
    <nd ref="256130534"/>
    <nd ref="256130574"/>
    <nd ref="256130536"/>
    <nd ref="256130538"/>
    <nd ref="255712747"/>
    <nd ref="255712748"/>
    <nd ref="255712749"/>
    <nd ref="255712750"/>
    <nd ref="4738422887"/>
    <nd ref="255712751"/>
    <nd ref="6581284128"/>
    <nd ref="4738422886"/>
    <nd ref="255712752"/>
    <nd ref="255712753"/>
    <nd ref="255712754"/>
    <nd ref="255712755"/>
    <nd ref="255712756"/>
    <nd ref="255712757"/>
    <nd ref="255712758"/>
    <nd ref="255712759"/>
    <nd ref="8228349536"/>
    <nd ref="255712760"/>
    <nd ref="8228797713"/>
    <nd ref="255712761"/>
    <nd ref="255712762"/>
    <nd ref="255712763"/>
    <nd ref="255712764"/>
    <nd ref="2275831552"/>
    <nd ref="255712765"/>
    <nd ref="2275831551"/>
    <nd ref="255712766"/>
    <nd ref="2275831566"/>
    <nd ref="255712767"/>
    <nd ref="255712768"/>
    <nd ref="255712723"/>
    <tag k="cycleway:both" v="no"/>
    <tag k="hgv" v="destination"/>
    <tag k="highway" v="tertiary"/>
    <tag k="lanes" v="2"/>
    <tag k="maxspeed" v="50 mph"/>
    <tag k="name" v="Alton Hill"/>
    <tag k="smoothness" v="good"/>
    <tag k="surface" v="asphalt"/>
  </way>
  <way id="23657966" version="11" timestamp="2020-01-06T05:28:02Z" changeset="79231556" uid="10252543" user="srikmar">
    <nd ref="256324123"/>
    <nd ref="256324124"/>
    <nd ref="256324125"/>
    <nd ref="256324126"/>
    <nd ref="256324127"/>
    <nd ref="256324128"/>
    <nd ref="256324129"/>
    <nd ref="256324130"/>
    <nd ref="256324131"/>
    <nd ref="256324132"/>
    <nd ref="7111404307"/>
    <nd ref="256324133"/>
    <nd ref="256324134"/>
    <nd ref="256324135"/>
    <nd ref="805580047"/>
    <nd ref="7111404309"/>
    <nd ref="6521296670"/>
    <nd ref="2683756320"/>
    <nd ref="7111404302"/>
    <nd ref="7111404301"/>
    <nd ref="805580051"/>
    <nd ref="2683756268"/>
    <nd ref="2683777386"/>
    <nd ref="805580063"/>
    <nd ref="805580066"/>
    <nd ref="805580074"/>
    <nd ref="805580087"/>
    <nd ref="805580094"/>
    <nd ref="805580096"/>
    <nd ref="805580098"/>
    <nd ref="1935950858"/>
    <nd ref="1935950725"/>
    <nd ref="1935950600"/>
    <nd ref="805580102"/>
    <nd ref="805580112"/>
    <tag k="highway" v="unclassified"/>
    <tag k="name" v="Ashby Road"/>
  </way>
  <way id="23658067" version="6" timestamp="2010-07-07T19:02:17Z" changeset="5160862" uid="188349" user="MatSmith">
    <nd ref="256324411"/>
    <nd ref="256324412"/>
    <nd ref="256324413"/>
    <nd ref="256324414"/>
    <nd ref="256324415"/>
    <nd ref="256324416"/>
    <nd ref="256324417"/>
    <nd ref="256324418"/>
    <nd ref="256324419"/>
    <nd ref="256324420"/>
    <nd ref="256324421"/>
    <nd ref="256324422"/>
    <nd ref="256324423"/>
    <nd ref="256324424"/>
    <nd ref="256324425"/>
    <nd ref="256324426"/>
    <nd ref="256324427"/>
    <nd ref="256324428"/>
    <nd ref="256324429"/>
    <nd ref="256324430"/>
    <nd ref="256324431"/>
    <nd ref="256324432"/>
    <nd ref="256324433"/>
    <nd ref="256324434"/>
    <nd ref="256324435"/>
    <nd ref="256324436"/>
    <nd ref="256324437"/>
    <nd ref="256323772"/>
    <tag k="highway" v="unclassified"/>
  </way>
  <way id="33116078" version="13" timestamp="2025-01-15T12:05:10Z" changeset="161378271" uid="54831" user="Mex">
    <nd ref="373813042"/>
    <nd ref="7013793097"/>
    <nd ref="7013793098"/>
    <nd ref="7013793099"/>
    <nd ref="373813044"/>
    <nd ref="373813046"/>
    <nd ref="7518050600"/>
    <nd ref="12504325927"/>
    <nd ref="910436583"/>
    <nd ref="373813048"/>
    <nd ref="826268918"/>
    <nd ref="373813050"/>
    <nd ref="373813052"/>
    <nd ref="910436527"/>
    <nd ref="373813054"/>
    <nd ref="373813056"/>
    <nd ref="373813058"/>
    <nd ref="373813060"/>
    <nd ref="2688858981"/>
    <nd ref="373813063"/>
    <nd ref="373813064"/>
    <nd ref="2683756326"/>
    <nd ref="373813066"/>
    <nd ref="8058750843"/>
    <nd ref="373813069"/>
    <nd ref="8407957672"/>
    <nd ref="373813070"/>
    <nd ref="8295947207"/>
    <nd ref="8407957669"/>
    <nd ref="373813073"/>
    <nd ref="373813075"/>
    <nd ref="373813077"/>
    <nd ref="373813079"/>
    <nd ref="2688862711"/>
    <nd ref="373813082"/>
    <tag k="highway" v="unclassified"/>
    <tag k="name" v="Lower Moor Road"/>
  </way>
  <way id="33116079" version="9" timestamp="2021-05-27T08:16:33Z" changeset="105406381" uid="10305811" user="kumrnls">
    <nd ref="373813083"/>
    <nd ref="1935950741"/>
    <nd ref="373813084"/>
    <nd ref="1935950930"/>
    <nd ref="1935950679"/>
    <nd ref="805580112"/>
    <nd ref="373813088"/>
    <nd ref="1935950423"/>
    <nd ref="1402592982"/>
    <nd ref="373813089"/>
    <nd ref="613002232"/>
    <nd ref="1935950657"/>
    <nd ref="373813092"/>
    <nd ref="1935950702"/>
    <nd ref="1935950510"/>
    <nd ref="373813094"/>
    <nd ref="8771570862"/>
    <nd ref="1935950884"/>
    <nd ref="1935950422"/>
    <nd ref="1935950772"/>
    <nd ref="373813095"/>
    <nd ref="1935950917"/>
    <nd ref="1935951018"/>
    <nd ref="373813098"/>
    <nd ref="2683756381"/>
    <nd ref="373813100"/>
    <nd ref="826242382"/>
    <tag k="highway" v="unclassified"/>
    <tag k="name" v="The Moor"/>
  </way>
  <way id="48464970" version="6" timestamp="2025-07-03T21:51:50Z" changeset="168462249" uid="705850" user="Cebderby">
    <nd ref="261650648"/>
    <nd ref="1934118409"/>
    <nd ref="1934118493"/>
    <nd ref="615804399"/>
    <nd ref="1934118377"/>
    <nd ref="615804404"/>
    <nd ref="1934118327"/>
    <nd ref="615804409"/>
    <nd ref="1934118488"/>
    <nd ref="8838244873"/>
    <nd ref="8411017788"/>
    <nd ref="615804418"/>
    <nd ref="12974826860"/>
    <nd ref="615804136"/>
    <tag k="highway" v="tertiary"/>
    <tag k="name" v="New Road"/>
  </way>
  <way id="48507304" version="20" timestamp="2025-11-15T21:31:06Z" changeset="174704974" uid="487368" user="Mr Walrus">
    <nd ref="616301935"/>
    <nd ref="26017300"/>
    <nd ref="26017299"/>
    <nd ref="26017301"/>
    <nd ref="5008474030"/>
    <nd ref="26017302"/>
    <nd ref="5008474038"/>
    <nd ref="26017303"/>
    <nd ref="5008474031"/>
    <nd ref="26017304"/>
    <nd ref="5008474042"/>
    <nd ref="26017305"/>
    <nd ref="26017306"/>
    <nd ref="5008474028"/>
    <nd ref="26017307"/>
    <nd ref="5008474035"/>
    <nd ref="26017308"/>
    <nd ref="5008474032"/>
    <nd ref="26017291"/>
    <nd ref="5008474026"/>
    <nd ref="26017290"/>
    <nd ref="26017289"/>
    <nd ref="253909887"/>
    <tag k="carriageway_ref" v="B"/>
    <tag k="dual_carriageway" v="yes"/>
    <tag k="expressway" v="yes"/>
    <tag k="highway" v="trunk"/>
    <tag k="lanes" v="2"/>
    <tag k="lit" v="no"/>
    <tag k="maxheight" v="default"/>
    <tag k="maxspeed" v="70 mph"/>
    <tag k="maxspeed:type" v="GB:nsl_dual"/>
    <tag k="national_highways:area" v="7"/>
    <tag k="oneway" v="yes"/>
    <tag k="operator" v="National Highways"/>
    <tag k="operator:wikidata" v="Q5760006"/>
    <tag k="ref" v="A42"/>
    <tag k="shoulder" v="no"/>
    <tag k="surface" v="asphalt"/>
  </way>
  <way id="59107994" version="6" timestamp="2021-06-14T11:22:37Z" changeset="106332427" uid="10252551" user="amanura">
    <nd ref="826242423"/>
    <nd ref="8831792362"/>
    <nd ref="732603936"/>
    <nd ref="613002242"/>
    <nd ref="2683756316"/>
    <nd ref="613002243"/>
    <nd ref="1935950477"/>
    <nd ref="613002232"/>
    <tag k="highway" v="unclassified"/>
    <tag k="name" v="Preston's Lane"/>
  </way>
  <way id="59109713" version="3" timestamp="2020-08-26T10:51:01Z" changeset="89966893" uid="10455639" user="srderang">
    <nd ref="14352896"/>
    <nd ref="732620544"/>
    <nd ref="7846189266"/>
    <nd ref="732620553"/>
    <nd ref="732620562"/>
    <nd ref="1408919085"/>
    <nd ref="732620569"/>
    <nd ref="732620574"/>
    <nd ref="732620580"/>
    <nd ref="732620481"/>
    <tag k="highway" v="tertiary"/>
    <tag k="name" v="Anchor Lane"/>
  </way>
  <way id="59109808" version="2" timestamp="2017-03-16T16:47:17Z" changeset="46903533" uid="4215039" user="Stan W">
    <nd ref="261650373"/>
    <nd ref="732622794"/>
    <nd ref="732622795"/>
    <nd ref="732622796"/>
    <nd ref="732622798"/>
    <nd ref="732622799"/>
    <nd ref="732622800"/>
    <nd ref="4738323633"/>
    <nd ref="732622801"/>
    <nd ref="732622802"/>
    <nd ref="732622803"/>
    <nd ref="732622804"/>
    <nd ref="732622805"/>
    <nd ref="732622806"/>
    <nd ref="732622807"/>
    <nd ref="732622808"/>
    <nd ref="732622809"/>
    <tag k="highway" v="unclassified"/>
    <tag k="name" v="School Lane"/>
  </way>
  <way id="59109809" version="4" timestamp="2014-02-24T20:39:19Z" changeset="20758552" uid="188349" user="MatSmith">
    <nd ref="732622799"/>
    <nd ref="732622811"/>
    <nd ref="2688884515"/>
    <nd ref="732622812"/>
    <nd ref="732622813"/>
    <nd ref="2688876736"/>
    <nd ref="732622814"/>
    <nd ref="732622815"/>
    <nd ref="1927726580"/>
    <nd ref="1927726746"/>
    <nd ref="1927726682"/>
    <nd ref="732622816"/>
    <nd ref="732622817"/>
    <tag k="highway" v="unclassified"/>
    <tag k="name" v="Clay Lane"/>
  </way>
  <way id="66554760" version="6" timestamp="2025-04-01T20:13:53Z" changeset="164392321" uid="5229644" user="Nathan_A_RF">
    <nd ref="256323772"/>
    <nd ref="12720241286"/>
    <nd ref="12720241285"/>
    <nd ref="256323774"/>
    <nd ref="256323775"/>
    <nd ref="256323776"/>
    <nd ref="256323777"/>
    <nd ref="256323778"/>
    <nd ref="256323779"/>
    <nd ref="256323780"/>
    <nd ref="256323781"/>
    <nd ref="256323782"/>
    <nd ref="256323783"/>
    <nd ref="256323784"/>
    <nd ref="256323785"/>
    <nd ref="256323786"/>
    <nd ref="256323787"/>
    <nd ref="256323670"/>
    <nd ref="256323671"/>
    <nd ref="256323672"/>
    <nd ref="256323673"/>
    <nd ref="256323674"/>
    <nd ref="256323675"/>
    <nd ref="256323676"/>
    <nd ref="256323677"/>
    <nd ref="256323678"/>
    <nd ref="256323679"/>
    <nd ref="256323680"/>
    <nd ref="256323681"/>
    <nd ref="256323682"/>
    <nd ref="256323683"/>
    <nd ref="256323684"/>
    <nd ref="6877248205"/>
    <nd ref="256323685"/>
    <nd ref="256323686"/>
    <nd ref="256323687"/>
    <nd ref="256323688"/>
    <nd ref="256323689"/>
    <nd ref="256323690"/>
    <nd ref="256323691"/>
    <nd ref="256323692"/>
    <nd ref="256323693"/>
    <nd ref="256323694"/>
    <nd ref="256323695"/>
    <nd ref="256323696"/>
    <nd ref="256323697"/>
    <nd ref="29882024"/>
    <tag k="hgv" v="destination"/>
    <tag k="highway" v="unclassified"/>
    <tag k="maxspeed" v="60 mph"/>
    <tag k="maxspeed:type" v="GB:nsl_single"/>
    <tag k="name" v="Corkscrew Lane"/>
    <tag k="surface" v="asphalt"/>
  </way>
  <way id="66555713" version="5" timestamp="2021-02-10T09:39:14Z" changeset="99030359" uid="10305811" user="kumrnls">
    <nd ref="256323771"/>
    <nd ref="256324438"/>
    <nd ref="8411230032"/>
    <nd ref="256324439"/>
    <nd ref="256324440"/>
    <nd ref="256324441"/>
    <nd ref="256324442"/>
    <nd ref="256324443"/>
    <nd ref="256324444"/>
    <nd ref="256324445"/>
    <nd ref="256324446"/>
    <nd ref="256324447"/>
    <nd ref="256324448"/>
    <nd ref="256324449"/>
    <nd ref="256324450"/>
    <nd ref="256324451"/>
    <nd ref="256324452"/>
    <nd ref="732093725"/>
    <nd ref="256324453"/>
    <nd ref="256324454"/>
    <nd ref="256324455"/>
    <nd ref="256324456"/>
    <nd ref="256324457"/>
    <nd ref="256324458"/>
    <nd ref="256324459"/>
    <nd ref="256324460"/>
    <nd ref="256324461"/>
    <nd ref="256324462"/>
    <nd ref="256324463"/>
    <nd ref="256324464"/>
    <nd ref="256324465"/>
    <nd ref="256324466"/>
    <nd ref="256324467"/>
    <nd ref="256324468"/>
    <nd ref="256324469"/>
    <nd ref="256324470"/>
    <nd ref="256324471"/>
    <nd ref="256324472"/>
    <nd ref="256324473"/>
    <nd ref="2683756364"/>
    <nd ref="256324474"/>
    <nd ref="256324475"/>
    <nd ref="256324476"/>
    <nd ref="256324477"/>
    <nd ref="256324478"/>
    <nd ref="256324479"/>
    <nd ref="256324480"/>
    <nd ref="256324481"/>
    <nd ref="256324482"/>
    <nd ref="256324483"/>
    <nd ref="256324484"/>
    <nd ref="256324485"/>
    <nd ref="256324486"/>
    <nd ref="826258350"/>
    <nd ref="826258351"/>
    <nd ref="826256843"/>
    <tag k="highway" v="unclassified"/>
  </way>
  <way id="66555720" version="3" timestamp="2023-03-17T05:18:26Z" changeset="133773566" uid="17754196" user="indrajpt">
    <nd ref="7111404310"/>
    <nd ref="256324138"/>
    <nd ref="256324140"/>
    <nd ref="256324141"/>
    <nd ref="256324142"/>
    <nd ref="256324143"/>
    <nd ref="256324144"/>
    <nd ref="256324145"/>
    <nd ref="256324147"/>
    <nd ref="256324148"/>
    <nd ref="256324149"/>
    <nd ref="256324150"/>
    <nd ref="256324151"/>
    <nd ref="256324152"/>
    <nd ref="256324153"/>
    <nd ref="256324154"/>
    <nd ref="256324155"/>
    <nd ref="256324156"/>
    <nd ref="256324157"/>
    <nd ref="256324158"/>
    <nd ref="256324159"/>
    <nd ref="256324160"/>
    <nd ref="256324161"/>
    <nd ref="256324162"/>
    <nd ref="256324163"/>
    <nd ref="256324164"/>
    <nd ref="256324165"/>
    <nd ref="256324166"/>
    <nd ref="256324167"/>
    <nd ref="256324168"/>
    <nd ref="256324169"/>
    <nd ref="256324170"/>
    <nd ref="256323894"/>
    <nd ref="256323895"/>
    <nd ref="256323896"/>
    <nd ref="256323897"/>
    <nd ref="256323769"/>
    <nd ref="256323770"/>
    <nd ref="256323771"/>
    <nd ref="256323772"/>
    <tag k="highway" v="unclassified"/>
  </way>
  <way id="66556128" version="6" timestamp="2025-06-23T17:07:42Z" changeset="168013336" uid="23025902" user="lonerider543">
    <nd ref="102200984"/>
    <nd ref="2121576265"/>
    <nd ref="102200985"/>
    <nd ref="102200986"/>
    <nd ref="102200987"/>
    <nd ref="102200988"/>
    <nd ref="102200989"/>
    <nd ref="102200990"/>
    <nd ref="102200991"/>
    <nd ref="1990084478"/>
    <nd ref="8015857076"/>
    <nd ref="1157288105"/>
    <nd ref="732622793"/>
    <tag k="highway" v="tertiary"/>
  </way>
  <way id="66556130" version="7" timestamp="2025-06-23T17:07:42Z" changeset="168013336" uid="23025902" user="lonerider543">
    <nd ref="102200972"/>
    <nd ref="102200973"/>
    <nd ref="1927726640"/>
    <nd ref="1927726702"/>
    <nd ref="102200974"/>
    <nd ref="7733009072"/>
    <nd ref="1927726609"/>
    <nd ref="102200975"/>
    <nd ref="2688876733"/>
    <nd ref="102200976"/>
    <nd ref="732620481"/>
    <nd ref="102200977"/>
    <nd ref="102200978"/>
    <nd ref="102200979"/>
    <nd ref="102200980"/>
    <nd ref="102200981"/>
    <nd ref="4095458043"/>
    <tag k="highway" v="tertiary"/>
    <tag k="name" v="Nottingham Road"/>
  </way>
  <way id="68749026" version="7" timestamp="2021-06-14T18:03:31Z" changeset="106351653" uid="10252543" user="srikmar">
    <nd ref="14352907"/>
    <nd ref="2276779914"/>
    <nd ref="8746390449"/>
    <nd ref="826242445"/>
    <nd ref="8746390441"/>
    <nd ref="826242449"/>
    <nd ref="1400747838"/>
    <nd ref="8831792360"/>
    <nd ref="826242451"/>
    <nd ref="1400747860"/>
    <nd ref="8831792361"/>
    <nd ref="613002241"/>
    <nd ref="826242423"/>
    <nd ref="8831792389"/>
    <nd ref="8831792388"/>
    <nd ref="826242452"/>
    <nd ref="8831792387"/>
    <nd ref="1402459124"/>
    <nd ref="8831792386"/>
    <nd ref="8831792385"/>
    <nd ref="826242455"/>
    <nd ref="8831792384"/>
    <nd ref="8831792383"/>
    <nd ref="1402459127"/>
    <nd ref="1402459018"/>
    <nd ref="1402459130"/>
    <nd ref="8831792382"/>
    <nd ref="8833133028"/>
    <nd ref="826242460"/>
    <nd ref="8831792365"/>
    <nd ref="826242466"/>
    <nd ref="8831792364"/>
    <nd ref="8831792363"/>
    <nd ref="826242467"/>
    <nd ref="826242382"/>
    <tag k="highway" v="unclassified"/>
    <tag k="name" v="Moor Lane"/>
  </way>
  <way id="68749173" version="3" timestamp="2021-06-14T11:22:37Z" changeset="106332427" uid="10252551" user="amanura">
    <nd ref="826242460"/>
    <nd ref="8831792370"/>
    <nd ref="8831792366"/>
    <nd ref="8831792369"/>
    <nd ref="826247321"/>
    <nd ref="8831792371"/>
    <nd ref="8831792367"/>
    <nd ref="8831792372"/>
    <nd ref="826247324"/>
    <nd ref="8831792368"/>
    <nd ref="2052580896"/>
    <nd ref="826247326"/>
    <nd ref="8831792373"/>
    <nd ref="826247328"/>
    <nd ref="826247329"/>
    <nd ref="8831792374"/>
    <nd ref="8831792375"/>
    <nd ref="8831792376"/>
    <nd ref="826247331"/>
    <nd ref="826247333"/>
    <nd ref="8831792381"/>
    <nd ref="8831792380"/>
    <nd ref="8831792378"/>
    <nd ref="8831792379"/>
    <nd ref="826247337"/>
    <nd ref="8831792377"/>
    <nd ref="826247342"/>
    <nd ref="826247347"/>
    <nd ref="613002238"/>
    <tag k="highway" v="unclassified"/>
    <tag k="name" v="The Rowlands"/>
  </way>
  <way id="68749280" version="3" timestamp="2024-06-27T22:01:47Z" changeset="153268040" uid="1888163" user="RattusMaximus">
    <nd ref="373813100"/>
    <nd ref="826248745"/>
    <nd ref="826248749"/>
    <tag k="highway" v="unclassified"/>
    <tag k="name" v="Pitt Lane"/>
  </way>
  <way id="68749505" version="11" timestamp="2021-05-28T11:18:09Z" changeset="105487129" uid="10252551" user="amanura">
    <nd ref="826242382"/>
    <nd ref="373813102"/>
    <nd ref="8776334476"/>
    <nd ref="8776334475"/>
    <nd ref="373813104"/>
    <nd ref="8776334477"/>
    <nd ref="2683765776"/>
    <nd ref="373813105"/>
    <nd ref="8776334490"/>
    <nd ref="373813108"/>
    <nd ref="8776334491"/>
    <nd ref="8776334489"/>
    <nd ref="8776334488"/>
    <nd ref="6866607473"/>
    <nd ref="8776334487"/>
    <nd ref="2683765311"/>
    <nd ref="373813112"/>
    <nd ref="8776334486"/>
    <nd ref="826261138"/>
    <nd ref="373813116"/>
    <nd ref="8776334485"/>
    <nd ref="8776334484"/>
    <nd ref="373813118"/>
    <nd ref="7672671492"/>
    <nd ref="373813119"/>
    <nd ref="8374379197"/>
    <nd ref="373813122"/>
    <nd ref="7672638484"/>
    <nd ref="8374379185"/>
    <nd ref="373813124"/>
    <nd ref="826256837"/>
    <nd ref="826256843"/>
    <nd ref="5216484825"/>
    <tag k="hgv" v="destination"/>
    <tag k="highway" v="unclassified"/>
    <tag k="name" v="The Moorlands"/>
  </way>
  <way id="68750451" version="3" timestamp="2021-01-29T07:35:45Z" changeset="98343685" uid="10455643" user="kotamadh">
    <nd ref="373813122"/>
    <nd ref="826258809"/>
    <nd ref="8374379195"/>
    <nd ref="826258810"/>
    <nd ref="826258811"/>
    <nd ref="826258812"/>
    <tag k="highway" v="residential"/>
    <tag k="name" v="Forrester Close"/>
    <tag k="surface" v="asphalt"/>
  </way>
  <way id="68750877" version="5" timestamp="2024-06-29T21:02:47Z" changeset="153347799" uid="1888163" user="RattusMaximus">
    <nd ref="826261132"/>
    <nd ref="2276779924"/>
    <nd ref="826261157"/>
    <nd ref="1408919084"/>
    <nd ref="1927726658"/>
    <nd ref="261650366"/>
    <tag k="highway" v="unclassified"/>
    <tag k="name" v="Tugbys Lane"/>
  </way>
  <way id="68751191" version="12" timestamp="2024-05-11T13:32:05Z" changeset="151186502" uid="4626766" user="Edward Smith (MilPop14)">
    <nd ref="373813042"/>
    <nd ref="7152958484"/>
    <nd ref="7152992595"/>
    <nd ref="7013793095"/>
    <nd ref="7152992602"/>
    <nd ref="7013793094"/>
    <nd ref="7013793093"/>
    <nd ref="14352995"/>
    <nd ref="7013793100"/>
    <nd ref="14352994"/>
    <nd ref="2683756340"/>
    <nd ref="7013793101"/>
    <nd ref="14352993"/>
    <nd ref="14352992"/>
    <nd ref="4567478491"/>
    <nd ref="4738465181"/>
    <nd ref="14352991"/>
    <nd ref="14352990"/>
    <nd ref="14352989"/>
    <nd ref="14352988"/>
    <nd ref="2683756400"/>
    <nd ref="14352987"/>
    <nd ref="14352986"/>
    <nd ref="826268948"/>
    <nd ref="14352985"/>
    <nd ref="14352919"/>
    <tag k="highway" v="secondary"/>
    <tag k="maxspeed" v="50 mph"/>
    <tag k="name" v="Rempstone Road"/>
    <tag k="ref" v="B5324"/>
    <tag k="surface" v="asphalt"/>
  </way>
  <way id="68752354" version="3" timestamp="2021-02-09T11:06:02Z" changeset="98970662" uid="9641463" user="branib">
    <nd ref="373813073"/>
    <nd ref="8407957670"/>
    <nd ref="826271815"/>
    <nd ref="8407957671"/>
    <nd ref="826271816"/>
    <nd ref="4738364058"/>
    <nd ref="14352911"/>
    <tag k="highway" v="unclassified"/>
    <tag k="name" v="Bradford's Lane"/>
  </way>
  <way id="68752410" version="2" timestamp="2013-08-05T15:57:55Z" changeset="17229932" uid="1383062" user="Chris Filip">
    <nd ref="373813075"/>
    <nd ref="826272227"/>
    <nd ref="826272228"/>
    <tag k="highway" v="residential"/>
    <tag k="name" v="Overton Close"/>
    <tag k="source" v="Bing"/>
    <tag k="source:name" v="OS OpenData Locator"/>
  </way>
  <way id="77348310" version="8" timestamp="2021-05-25T04:28:54Z" changeset="105259070" uid="10455633" user="tnayini">
    <nd ref="910436691"/>
    <nd ref="910436694"/>
    <nd ref="910436696"/>
    <nd ref="910436697"/>
    <nd ref="8763200114"/>
    <nd ref="910436698"/>
    <nd ref="910436699"/>
    <nd ref="910436700"/>
    <nd ref="910436701"/>
    <nd ref="2688844719"/>
    <nd ref="910436703"/>
    <nd ref="910436707"/>
    <nd ref="910436712"/>
    <nd ref="1400747826"/>
    <nd ref="910436730"/>
    <nd ref="8407957668"/>
    <nd ref="4738364054"/>
    <nd ref="910436733"/>
    <nd ref="8407957677"/>
    <nd ref="8407957666"/>
    <nd ref="373813066"/>
    <tag k="highway" v="unclassified"/>
    <tag k="name" v="Stoney Lane"/>
    <tag k="source" v="os_opendata_streetview"/>
  </way>
  <way id="77348314" version="6" timestamp="2020-03-06T07:26:13Z" changeset="81856121" uid="10455633" user="tnayini">
    <nd ref="261650373"/>
    <nd ref="910436752"/>
    <nd ref="7169388967"/>
    <nd ref="910436691"/>
    <nd ref="910436758"/>
    <nd ref="910436762"/>
    <nd ref="910436765"/>
    <nd ref="910436767"/>
    <nd ref="910436769"/>
    <nd ref="2688845817"/>
    <nd ref="910436771"/>
    <nd ref="910436774"/>
    <nd ref="910436780"/>
    <nd ref="7271247630"/>
    <nd ref="4738338910"/>
    <nd ref="910436787"/>
    <nd ref="910436792"/>
    <nd ref="910436798"/>
    <nd ref="910436799"/>
    <nd ref="910436804"/>
    <nd ref="2688844721"/>
    <nd ref="910436808"/>
    <nd ref="910436813"/>
    <nd ref="14352908"/>
    <tag k="highway" v="unclassified"/>
    <tag k="name" v="Bakewells Lane"/>
    <tag k="source" v="os_opendata_streetview"/>
  </way>
  <way id="77348322" version="2" timestamp="2013-08-05T14:55:41Z" changeset="17229218" uid="1383062" user="Chris Filip">
    <nd ref="910436899"/>
    <nd ref="910436902"/>
    <nd ref="910436907"/>
    <nd ref="910436912"/>
    <nd ref="373813064"/>
    <tag k="highway" v="residential"/>
    <tag k="name" v="Beaumont Green"/>
    <tag k="source:name" v="OS OpenData Locator"/>
  </way>
  <way id="77348355" version="2" timestamp="2016-12-22T21:54:55Z" changeset="44603440" uid="600015" user="CartogLarry">
    <nd ref="910437455"/>
    <nd ref="910437457"/>
    <nd ref="4567597112"/>
    <nd ref="4567597105"/>
    <nd ref="910437458"/>
    <nd ref="910437460"/>
    <tag k="highway" v="unclassified"/>
    <tag k="source" v="os_opendata_streetview"/>
  </way>
  <way id="87794401" version="4" timestamp="2025-04-01T20:13:53Z" changeset="164392321" uid="5229644" user="Nathan_A_RF">
    <nd ref="255712809"/>
    <nd ref="12720241281"/>
    <nd ref="255712810"/>
    <tag k="hgv" v="destination"/>
    <tag k="highway" v="unclassified"/>
    <tag k="maxspeed" v="60 mph"/>
    <tag k="maxspeed:type" v="GB:nsl_single"/>
    <tag k="name" v="Corkscrew Lane"/>
    <tag k="oneway" v="yes"/>
  </way>
  <way id="87794404" version="4" timestamp="2025-04-01T20:13:53Z" changeset="164392321" uid="5229644" user="Nathan_A_RF">
    <nd ref="739256513"/>
    <nd ref="12720241282"/>
    <nd ref="255712809"/>
    <tag k="hgv" v="destination"/>
    <tag k="highway" v="unclassified"/>
    <tag k="maxspeed" v="60 mph"/>
    <tag k="maxspeed:type" v="GB:nsl_single"/>
    <tag k="name" v="Corkscrew Lane"/>
    <tag k="oneway" v="yes"/>
  </way>
  <way id="100111196" version="3" timestamp="2016-09-25T19:40:50Z" changeset="42430749" uid="4215039" user="Stan W">
    <nd ref="1157288077"/>
    <nd ref="1157288933"/>
    <nd ref="4418047858"/>
    <nd ref="1157288364"/>
    <nd ref="1157287674"/>
    <nd ref="1157288108"/>
    <nd ref="1157287651"/>
    <nd ref="1157288764"/>
    <tag k="highway" v="residential"/>
    <tag k="name" v="Bottom Road"/>
  </way>
  <way id="116570372" version="7" timestamp="2023-09-13T12:37:17Z" changeset="141209442" uid="15273669" user="sivannap">
    <nd ref="1313886292"/>
    <nd ref="1313886300"/>
    <nd ref="11187918812"/>
    <nd ref="6347463462"/>
    <nd ref="6325488111"/>
    <nd ref="1313886302"/>
    <nd ref="1313886305"/>
    <nd ref="1313886308"/>
    <nd ref="1313886311"/>
    <nd ref="1313886313"/>
    <nd ref="826256849"/>
    <tag k="hgv" v="destination"/>
    <tag k="highway" v="unclassified"/>
    <tag k="maxspeed" v="30 mph"/>
  </way>
  <way id="126336739" version="1" timestamp="2011-08-16T08:09:00Z" changeset="9034255" uid="188349" user="MatSmith">
    <nd ref="1400747826"/>
    <nd ref="1400747822"/>
    <tag k="highway" v="residential"/>
  </way>
  <way id="142200410" version="6" timestamp="2025-04-01T20:13:53Z" changeset="164392321" uid="5229644" user="Nathan_A_RF">
    <nd ref="1556354130"/>
    <nd ref="14352931"/>
    <nd ref="14352930"/>
    <nd ref="910437425"/>
    <nd ref="14352929"/>
    <nd ref="5008484082"/>
    <nd ref="5008484083"/>
    <nd ref="14352928"/>
    <nd ref="5008484079"/>
    <nd ref="14352927"/>
    <nd ref="5008484085"/>
    <nd ref="5008484080"/>
    <nd ref="14352926"/>
    <nd ref="14352925"/>
    <tag k="cycleway:both" v="no"/>
    <tag k="highway" v="primary"/>
    <tag k="lanes" v="2"/>
    <tag k="lit" v="no"/>
    <tag k="maxspeed" v="60 mph"/>
    <tag k="maxspeed:type" v="GB:nsl_single"/>
    <tag k="name" v="Loughborough Road"/>
    <tag k="ref" v="A512"/>
    <tag k="surface" v="asphalt"/>
  </way>
  <way id="183227161" version="6" timestamp="2024-07-19T06:37:19Z" changeset="154128847" uid="417748" user="Dave Venables">
    <nd ref="1935950457"/>
    <nd ref="1935950579"/>
    <nd ref="1935950542"/>
    <nd ref="1935950752"/>
    <nd ref="1935950912"/>
    <nd ref="1935951007"/>
    <nd ref="1935950457"/>
    <tag k="addr:city" v="Coalville"/>
    <tag k="addr:housenumber" v="85"/>
    <tag k="addr:postcode" v="LE67 8GB"/>
    <tag k="addr:street" v="The Moor"/>
    <tag k="addr:village" v="Coleorton"/>
    <tag k="building" v="yes"/>
    <tag k="disused:amenity" v="pub"/>
    <tag k="name" v="The Angel"/>
    <tag k="source" v="Bing"/>
  </way>
  <way id="199916006" version="3" timestamp="2025-04-01T20:13:53Z" changeset="164392321" uid="5229644" user="Nathan_A_RF">
    <nd ref="2099063166"/>
    <nd ref="4738422889"/>
    <nd ref="29882014"/>
    <nd ref="29882015"/>
    <nd ref="29882016"/>
    <nd ref="805575251"/>
    <nd ref="252413251"/>
    <tag k="highway" v="trunk"/>
    <tag k="lanes" v="2"/>
    <tag k="maxspeed" v="60 mph"/>
    <tag k="maxspeed:type" v="GB:nsl_single"/>
    <tag k="name" v="Ashby Road"/>
    <tag k="ref" v="A511"/>
  </way>
  <way id="232445384" version="8" timestamp="2021-05-26T15:31:05Z" changeset="105367621" uid="10455633" user="tnayini">
    <nd ref="261650378"/>
    <nd ref="261650379"/>
    <nd ref="7978070605"/>
    <nd ref="261650380"/>
    <nd ref="6512502904"/>
    <nd ref="261650381"/>
    <nd ref="7978070614"/>
    <nd ref="826269711"/>
    <nd ref="261650382"/>
    <nd ref="4738323941"/>
    <nd ref="8768952482"/>
    <nd ref="7152992596"/>
    <nd ref="261650383"/>
    <nd ref="261650281"/>
    <tag k="highway" v="tertiary"/>
    <tag k="name" v="Gelsmoor Road"/>
  </way>
  <way id="329282046" version="3" timestamp="2020-11-27T16:06:28Z" changeset="94905494" uid="10170580" user="wellasus">
    <nd ref="3361517925"/>
    <nd ref="8170872700"/>
    <nd ref="3361519597"/>
    <nd ref="3361517926"/>
    <nd ref="3361517927"/>
    <tag k="highway" v="residential"/>
    <tag k="name" v="Pottery Lane"/>
  </way>
  <way id="329282053" version="3" timestamp="2021-02-10T06:55:27Z" changeset="99019950" uid="10455643" user="kotamadh">
    <nd ref="3361519597"/>
    <nd ref="5511760962"/>
    <nd ref="8410809513"/>
    <nd ref="3361519598"/>
    <tag k="highway" v="residential"/>
    <tag k="name" v="Kiln Close"/>
  </way>
  <way id="459011146" version="5" timestamp="2021-06-11T15:45:25Z" changeset="106223070" uid="10455629" user="jgopatho">
    <nd ref="102200972"/>
    <nd ref="4549317731"/>
    <nd ref="261650367"/>
    <nd ref="732622817"/>
    <nd ref="261650368"/>
    <nd ref="261650369"/>
    <nd ref="8825475214"/>
    <nd ref="261650370"/>
    <nd ref="261650371"/>
    <nd ref="7986894828"/>
    <nd ref="4738338909"/>
    <nd ref="261650372"/>
    <nd ref="261650373"/>
    <nd ref="261650374"/>
    <nd ref="261650375"/>
    <nd ref="261650376"/>
    <nd ref="261650377"/>
    <nd ref="4738323627"/>
    <nd ref="261650378"/>
    <tag k="highway" v="tertiary"/>
    <tag k="name" v="Zion Hill"/>
    <tag k="source:name" v="OS OpenData Locator"/>
  </way>
  <way id="461225384" version="2" timestamp="2024-06-24T06:44:53Z" changeset="153095951" uid="7613148" user="soliMM">
    <nd ref="14352985"/>
    <nd ref="12005599824"/>
    <nd ref="12005599823"/>
    <nd ref="12005599825"/>
    <nd ref="910437165"/>
    <nd ref="910436947"/>
    <tag k="access" v="private"/>
    <tag k="highway" v="unclassified"/>
    <tag k="source" v="os_opendata_streetview"/>
  </way>
  <way id="539026534" version="3" timestamp="2021-03-24T22:01:47Z" changeset="101676070" uid="24119" user="Mauls">
    <nd ref="5216484825"/>
    <nd ref="5216484834"/>
    <tag k="bridge" v="yes"/>
    <tag k="bridge:name" v="Sinope Bridge"/>
    <tag k="bridge:ref" v="48"/>
    <tag k="hgv" v="destination"/>
    <tag k="highway" v="unclassified"/>
    <tag k="layer" v="1"/>
    <tag k="name" v="The Moorlands"/>
    <tag k="surface" v="asphalt"/>
  </way>
  <way id="539026535" version="3" timestamp="2020-07-08T12:06:07Z" changeset="87709841" uid="11300674" user="XYsoldier">
    <nd ref="5216484828"/>
    <nd ref="5216484830"/>
    <nd ref="5216484831"/>
    <nd ref="373813124"/>
    <tag k="highway" v="residential"/>
    <tag k="name" v="Birchwood Close"/>
    <tag k="surface" v="asphalt"/>
  </way>
  <way id="598296568" version="3" timestamp="2025-04-01T17:00:56Z" changeset="164384848" uid="417748" user="Dave Venables">
    <nd ref="1927726723"/>
    <nd ref="1927726588"/>
    <nd ref="1762047824"/>
    <nd ref="1927726649"/>
    <nd ref="1927726672"/>
    <nd ref="1927726718"/>
    <nd ref="1927726680"/>
    <nd ref="1927726727"/>
    <nd ref="1927726647"/>
    <nd ref="1927726726"/>
    <nd ref="1927726586"/>
    <nd ref="1927726723"/>
    <tag k="addr:city" v="Coalville"/>
    <tag k="addr:housenumber" v="6"/>
    <tag k="addr:postcode" v="LE67 8JP"/>
    <tag k="addr:street" v="Zion Hill"/>
    <tag k="addr:village" v="Peggs Green"/>
    <tag k="amenity" v="pub"/>
    <tag k="building" v="pub"/>
    <tag k="fhrs:id" v="49904"/>
    <tag k="name" v="New Inn"/>
    <tag k="source" v="OS_OpenData_StreetView"/>
  </way>
  <way id="761150663" version="2" timestamp="2023-03-17T05:18:26Z" changeset="133773566" uid="17754196" user="indrajpt">
    <nd ref="7111404309"/>
    <nd ref="7111404315"/>
    <nd ref="7111404314"/>
    <nd ref="7111404313"/>
    <nd ref="7111404312"/>
    <nd ref="7111404311"/>
    <nd ref="7111404310"/>
    <tag k="highway" v="unclassified"/>
    <tag k="oneway" v="yes"/>
  </way>
  <way id="860395346" version="3" timestamp="2025-04-01T17:20:06Z" changeset="164385674" uid="417748" user="Dave Venables">
    <nd ref="313815266"/>
    <nd ref="8018849240"/>
    <nd ref="8018849232"/>
    <nd ref="8018849228"/>
    <nd ref="8018849237"/>
    <nd ref="8018849254"/>
    <nd ref="8018849253"/>
    <nd ref="8018849227"/>
    <nd ref="8018849233"/>
    <nd ref="8018849239"/>
    <nd ref="8018849248"/>
    <nd ref="8018849244"/>
    <nd ref="313815266"/>
    <tag k="addr:city" v="Coalville"/>
    <tag k="addr:postcode" v="LE67 8FZ"/>
    <tag k="addr:village" v="Coleorton"/>
    <tag k="amenity" v="place_of_worship"/>
    <tag k="building" v="church"/>
    <tag k="denomination" v="anglican"/>
    <tag k="name" v="St Mary's"/>
    <tag k="ref:dove" v="14699"/>
    <tag k="religion" v="christian"/>
    <tag k="wikidata" v="Q17542285"/>
  </way>
  <way id="878878596" version="2" timestamp="2021-02-03T15:38:56Z" changeset="98653480" uid="281267" user="smb1001">
    <nd ref="910436422"/>
    <nd ref="8176196063"/>
    <nd ref="8176196061"/>
    <nd ref="8176196062"/>
    <nd ref="910436422"/>
    <tag k="addr:city" v="Coalville"/>
    <tag k="addr:postcode" v="LE67 8FT"/>
    <tag k="addr:street" v="Ashby Road"/>
    <tag k="addr:village" v="Coleorton"/>
    <tag k="amenity" v="place_of_worship"/>
    <tag k="building" v="church"/>
    <tag k="denomination" v="anglican"/>
    <tag k="name" v="St John"/>
    <tag k="religion" v="christian"/>
    <tag k="wikidata" v="Q105084001"/>
  </way>
  <way id="908639294" version="1" timestamp="2021-02-19T07:47:51Z" changeset="99573449" uid="10252551" user="amanura">
    <nd ref="910436873"/>
    <nd ref="910436876"/>
    <nd ref="910436698"/>
    <tag k="access" v="private"/>
    <tag k="highway" v="unclassified"/>
    <tag k="name" v="The Woolrooms"/>
    <tag k="source" v="os_opendata_streetview"/>
  </way>
  <way id="951521841" version="4" timestamp="2025-04-01T20:13:53Z" changeset="164392321" uid="5229644" user="Nathan_A_RF">
    <nd ref="14352925"/>
    <nd ref="8807371197"/>
    <nd ref="8807371194"/>
    <nd ref="14352924"/>
    <nd ref="8807371190"/>
    <nd ref="14352923"/>
    <nd ref="8807371191"/>
    <nd ref="14352922"/>
    <nd ref="910437498"/>
    <nd ref="8807371192"/>
    <nd ref="14352921"/>
    <nd ref="256324411"/>
    <nd ref="910437460"/>
    <nd ref="256324123"/>
    <nd ref="14352919"/>
    <tag k="cycleway:both" v="no"/>
    <tag k="highway" v="primary"/>
    <tag k="lanes" v="2"/>
    <tag k="lit" v="no"/>
    <tag k="maxspeed" v="50 mph"/>
    <tag k="maxspeed:type" v="sign"/>
    <tag k="name" v="Loughborough Road"/>
    <tag k="ref" v="A512"/>
    <tag k="surface" v="asphalt"/>
  </way>
  <way id="1154901356" version="1" timestamp="2023-03-17T05:18:26Z" changeset="133773566" uid="17754196" user="indrajpt">
    <nd ref="7111404310"/>
    <nd ref="7111404308"/>
    <nd ref="256324137"/>
    <nd ref="256324135"/>
    <tag k="highway" v="unclassified"/>
    <tag k="oneway" v="yes"/>
  </way>
  <way id="1281954860" version="2" timestamp="2025-04-01T20:13:53Z" changeset="164392321" uid="5229644" user="Nathan_A_RF">
    <nd ref="256324643"/>
    <nd ref="2683758895"/>
    <nd ref="5860139630"/>
    <nd ref="29882012"/>
    <nd ref="4244122607"/>
    <nd ref="29882013"/>
    <nd ref="256130527"/>
    <nd ref="2099063166"/>
    <tag k="highway" v="trunk"/>
    <tag k="lanes" v="2"/>
    <tag k="maxspeed" v="50 mph"/>
    <tag k="maxspeed:type" v="sign"/>
    <tag k="name" v="Ashby Road"/>
    <tag k="ref" v="A511"/>
    <tag k="source:maxspeed" v="survey"/>
  </way>
  <way id="1281954861" version="1" timestamp="2024-05-11T13:32:05Z" changeset="151186502" uid="4626766" user="Edward Smith (MilPop14)">
    <nd ref="373813083"/>
    <nd ref="373813082"/>
    <tag k="highway" v="primary"/>
    <tag k="maxspeed" v="50 mph"/>
    <tag k="name" v="Loughborough Road"/>
    <tag k="ref" v="A512"/>
  </way>
  <way id="1281954862" version="1" timestamp="2024-05-11T13:32:05Z" changeset="151186502" uid="4626766" user="Edward Smith (MilPop14)">
    <nd ref="14352919"/>
    <nd ref="8807371195"/>
    <nd ref="14352918"/>
    <nd ref="8807371196"/>
    <nd ref="14352917"/>
    <nd ref="8807371198"/>
    <nd ref="14352916"/>
    <nd ref="8807371193"/>
    <nd ref="14352914"/>
    <nd ref="2688858978"/>
    <nd ref="14352913"/>
    <nd ref="1935950832"/>
    <nd ref="373813083"/>
    <tag k="highway" v="primary"/>
    <tag k="maxspeed" v="50 mph"/>
    <tag k="name" v="Loughborough Road"/>
    <tag k="ref" v="A512"/>
  </way>
  <way id="1282006547" version="1" timestamp="2024-05-11T18:29:49Z" changeset="151198325" uid="4626766" user="Edward Smith (MilPop14)">
    <nd ref="261650366"/>
    <nd ref="102200972"/>
    <tag k="highway" v="tertiary"/>
    <tag k="name" v="Nottingham Road"/>
  </way>
  <way id="1296739902" version="1" timestamp="2024-06-27T22:01:47Z" changeset="153268040" uid="1888163" user="RattusMaximus">
    <nd ref="826248749"/>
    <nd ref="826248752"/>
    <nd ref="4363617333"/>
    <tag k="access" v="private"/>
    <tag k="highway" v="unclassified"/>
    <tag k="name" v="Pitt Lane"/>
  </way>
  <way id="1354641786" version="2" timestamp="2025-04-01T20:13:53Z" changeset="164392321" uid="5229644" user="Nathan_A_RF">
    <nd ref="8736803031"/>
    <nd ref="12536268820"/>
    <nd ref="12536268821"/>
    <tag k="access" v="private"/>
    <tag k="highway" v="unclassified"/>
    <tag k="surface" v="asphalt"/>
  </way>
  <way id="1373863686" version="1" timestamp="2025-04-01T20:13:53Z" changeset="164392321" uid="5229644" user="Nathan_A_RF">
    <nd ref="256324437"/>
    <nd ref="12720241287"/>
    <nd ref="12720241285"/>
    <tag k="highway" v="unclassified"/>
  </way>
  <way id="1408865334" version="1" timestamp="2025-06-23T17:07:42Z" changeset="168013336" uid="23025902" user="lonerider543">
    <nd ref="732622809"/>
    <nd ref="102200983"/>
    <nd ref="102200984"/>
    <tag k="highway" v="tertiary"/>
  </way>
  <way id="1408865335" version="1" timestamp="2025-06-23T17:07:42Z" changeset="168013336" uid="23025902" user="lonerider543">
    <nd ref="4095458043"/>
    <nd ref="102200982"/>
    <nd ref="732622809"/>
    <tag k="highway" v="tertiary"/>
    <tag k="name" v="Nottingham Road"/>
  </way>

</osm>
