<?xml version="1.0" encoding="UTF-8"?>
<osm version="0.6" generator="Overpass API 0.7.62.8 e802775f">
<note>The data included in this document is from www.openstreetmap.org. The data is made available under ODbL.</note>
<meta osm_base="2025-12-17T13:08:56Z" areas="2025-12-17T10:32:22Z"/>

  <node id="100219321" lat="52.7930926" lon="-1.4420028" version="3" timestamp="2019-01-21T00:55:18Z" changeset="66489177" uid="178626" user="Rovastar"/>
  <node id="100219442" lat="52.7980905" lon="-1.4077225" version="1" timestamp="2007-11-06T18:17:08Z" changeset="422907" uid="2955" user="Matthew Newton">
    <tag k="created_by" v="JOSM"/>
  </node>
  <node id="175666234" lat="52.7861690" lon="-1.4127502" version="2" timestamp="2013-01-20T15:34:58Z" changeset="14721856" uid="188349" user="MatSmith"/>
  <node id="175666251" lat="52.7823292" lon="-1.4161504" version="2" timestamp="2011-07-21T19:39:45Z" changeset="8791799" uid="188349" user="MatSmith"/>
  <node id="175666495" lat="52.7696115" lon="-1.4302931" version="2" timestamp="2017-08-01T23:12:58Z" changeset="50765723" uid="5296090" user="TR42"/>
  <node id="175666573" lat="52.7753071" lon="-1.4227633" version="2" timestamp="2012-11-09T16:37:19Z" changeset="13811344" uid="51722" user="Chris Parker"/>
  <node id="261649008" lat="52.7965244" lon="-1.4299665" version="1" timestamp="2008-05-02T20:20:30Z" changeset="312656" uid="12992" user="trigpoint"/>
  <node id="616301939" lat="52.7746098" lon="-1.4217227" version="2" timestamp="2014-08-12T21:21:03Z" changeset="24711560" uid="178626" user="Rovastar"/>
  <node id="3013297317" lat="52.7980112" lon="-1.3535746" version="2" timestamp="2016-03-11T14:54:04Z" changeset="37761580" uid="2512300" user="samely"/>
  <node id="3361517925" lat="52.7704000" lon="-1.4284557" version="1" timestamp="2015-02-20T10:51:42Z" changeset="28974849" uid="2054450" user="HeatherH"/>
  <node id="5008474036" lat="52.7716078" lon="-1.4253544" version="1" timestamp="2017-08-01T23:12:57Z" changeset="50765723" uid="5296090" user="TR42"/>
  <node id="5008484084" lat="52.7526273" lon="-1.4475354" version="1" timestamp="2017-08-01T23:30:10Z" changeset="50765723" uid="5296090" user="TR42"/>
  <way id="11283604" version="11" timestamp="2025-06-23T17:07:42Z" changeset="168013336" uid="23025902" user="lonerider543">
    <nd ref="100219356"/>
    <nd ref="100219355"/>
    <nd ref="9119919584"/>
    <nd ref="100219353"/>
    <nd ref="9119919583"/>
    <nd ref="9119919582"/>
    <nd ref="100219352"/>
    <nd ref="100219351"/>
    <nd ref="100219349"/>
    <nd ref="9119919581"/>
    <nd ref="9119919580"/>
    <nd ref="100219347"/>
    <nd ref="9879164722"/>
    <tag k="highway" v="unclassified"/>
  </way>
  <way id="11283608" version="14" timestamp="2024-05-01T19:01:29Z" changeset="150764785" uid="607648" user="dudone">
    <nd ref="100219442"/>
    <nd ref="100219439"/>
    <nd ref="100219436"/>
    <nd ref="596430968"/>
    <nd ref="3528185458"/>
    <nd ref="100219430"/>
    <nd ref="11872417478"/>
    <nd ref="100219428"/>
    <nd ref="100219427"/>
    <nd ref="100219425"/>
    <nd ref="100219423"/>
    <nd ref="100219421"/>
    <nd ref="100219419"/>
    <nd ref="100219416"/>
    <nd ref="100219413"/>
    <nd ref="2076672674"/>
    <nd ref="100219410"/>
    <nd ref="100219406"/>
    <nd ref="100219403"/>
    <nd ref="100219399"/>
    <nd ref="7322128136"/>
    <nd ref="100219396"/>
    <nd ref="100219393"/>
    <nd ref="100219390"/>
    <nd ref="100219386"/>
    <nd ref="100219384"/>
    <nd ref="100219381"/>
    <nd ref="6868989638"/>
    <nd ref="3528185477"/>
    <nd ref="100219379"/>
    <nd ref="100219376"/>
    <nd ref="100219375"/>
    <nd ref="100219372"/>
    <nd ref="100219369"/>
    <nd ref="100219366"/>
    <nd ref="100219364"/>
    <nd ref="100219361"/>
    <nd ref="3528254088"/>
    <nd ref="100219359"/>
    <tag k="cycleway:both" v="no"/>
    <tag k="highway" v="unclassified"/>
    <tag k="lane_markings" v="no"/>
    <tag k="name" v="Burney Lane"/>
    <tag k="surface" v="asphalt"/>
  </way>
  <way id="25762119" version="8" timestamp="2025-06-23T17:07:42Z" changeset="168013336" uid="23025902" user="lonerider543">
    <nd ref="175666234"/>
    <nd ref="5008466482"/>
    <nd ref="175666237"/>
    <nd ref="175666239"/>
    <nd ref="5008466477"/>
    <nd ref="175666241"/>
    <nd ref="175666244"/>
    <nd ref="175666246"/>
    <nd ref="175666248"/>
    <nd ref="175666251"/>
    <nd ref="280963277"/>
    <nd ref="280963278"/>
    <nd ref="280963279"/>
    <nd ref="280963281"/>
    <nd ref="280963282"/>
    <nd ref="5008466475"/>
    <nd ref="280963283"/>
    <nd ref="280963284"/>
    <nd ref="5008466473"/>
    <nd ref="10911864818"/>
    <tag k="highway" v="tertiary"/>
    <tag k="lit" v="no"/>
    <tag k="maxspeed" v="60 mph"/>
    <tag k="maxspeed:type" v="GB:nsl_single"/>
    <tag k="name" v="Nottingham Road"/>
    <tag k="old_ref" v="A453"/>
  </way>
  <way id="46420899" version="32" timestamp="2025-06-23T17:07:42Z" changeset="168013336" uid="23025902" user="lonerider543">
    <nd ref="175666573"/>
    <nd ref="175666575"/>
    <nd ref="5008466485"/>
    <nd ref="261648746"/>
    <nd ref="616391623"/>
    <nd ref="261648747"/>
    <nd ref="4738239939"/>
    <nd ref="261648748"/>
    <nd ref="616392296"/>
    <nd ref="261648749"/>
    <nd ref="261648750"/>
    <nd ref="596430999"/>
    <nd ref="261648752"/>
    <nd ref="261648753"/>
    <nd ref="12758092468"/>
    <nd ref="261648754"/>
    <nd ref="6555518924"/>
    <nd ref="3528291253"/>
    <nd ref="261648755"/>
    <nd ref="3528291242"/>
    <nd ref="261648756"/>
    <nd ref="261648757"/>
    <nd ref="261648758"/>
    <nd ref="261648759"/>
    <nd ref="261648760"/>
    <nd ref="1826163186"/>
    <nd ref="261648761"/>
    <nd ref="9119919612"/>
    <nd ref="2800619109"/>
    <nd ref="9119919589"/>
    <nd ref="261648762"/>
    <nd ref="9119919588"/>
    <nd ref="261648763"/>
    <nd ref="261648764"/>
    <nd ref="9119919587"/>
    <nd ref="261648765"/>
    <tag k="highway" v="secondary"/>
    <tag k="lit" v="no"/>
    <tag k="maxspeed" v="60 mph"/>
    <tag k="maxspeed:type" v="GB:nsl_single"/>
    <tag k="name" v="Melbourne Road"/>
    <tag k="ref" v="B587"/>
  </way>
  <way id="48507307" version="21" timestamp="2025-11-15T20:01:23Z" changeset="174702209" uid="487368" user="Mr Walrus">
    <nd ref="616301939"/>
    <nd ref="3013296612"/>
    <nd ref="217172"/>
    <nd ref="3013296614"/>
    <nd ref="3013296616"/>
    <nd ref="3013296618"/>
    <nd ref="3013296620"/>
    <nd ref="217173"/>
    <nd ref="3013296622"/>
    <nd ref="3013296624"/>
    <nd ref="217174"/>
    <nd ref="3013296626"/>
    <nd ref="3013296628"/>
    <nd ref="3013296629"/>
    <nd ref="217175"/>
    <nd ref="3013296630"/>
    <nd ref="3013297133"/>
    <nd ref="217176"/>
    <nd ref="3013297135"/>
    <nd ref="3013297137"/>
    <nd ref="217177"/>
    <nd ref="3013297139"/>
    <nd ref="3013297141"/>
    <nd ref="217178"/>
    <nd ref="9583758151"/>
    <nd ref="3013297148"/>
    <nd ref="3013297152"/>
    <nd ref="217179"/>
    <nd ref="3013297159"/>
    <nd ref="3013297162"/>
    <nd ref="3013297165"/>
    <nd ref="217180"/>
    <nd ref="3013297167"/>
    <nd ref="3013297169"/>
    <nd ref="3013297171"/>
    <nd ref="3013297174"/>
    <nd ref="217181"/>
    <nd ref="3013297176"/>
    <nd ref="3013297178"/>
    <nd ref="217182"/>
    <nd ref="3013297182"/>
    <nd ref="3013297185"/>
    <nd ref="3013297188"/>
    <nd ref="3013297190"/>
    <nd ref="217183"/>
    <nd ref="3013297194"/>
    <nd ref="3013297198"/>
    <nd ref="217184"/>
    <nd ref="3013297216"/>
    <nd ref="3013297232"/>
    <nd ref="217185"/>
    <nd ref="3013297268"/>
    <nd ref="3013297286"/>
    <nd ref="217187"/>
    <nd ref="3013297304"/>
    <nd ref="3013297327"/>
    <nd ref="217186"/>
    <nd ref="3013297456"/>
    <nd ref="3013297459"/>
    <nd ref="3013297466"/>
    <nd ref="3013297473"/>
    <nd ref="217188"/>
    <nd ref="3013297486"/>
    <nd ref="3013297493"/>
    <nd ref="390320558"/>
    <nd ref="3013297523"/>
    <nd ref="217189"/>
    <nd ref="3013297532"/>
    <nd ref="3013297635"/>
    <nd ref="3013297637"/>
    <nd ref="217190"/>
    <nd ref="3013297642"/>
    <nd ref="3013297640"/>
    <nd ref="3013297639"/>
    <nd ref="217191"/>
    <nd ref="3013297633"/>
    <nd ref="3013297527"/>
    <nd ref="3013297519"/>
    <nd ref="3013297506"/>
    <nd ref="3013297497"/>
    <nd ref="217192"/>
    <nd ref="3013297475"/>
    <nd ref="3013297463"/>
    <nd ref="3013297453"/>
    <nd ref="217193"/>
    <nd ref="3013297328"/>
    <nd ref="217194"/>
    <nd ref="3013297320"/>
    <nd ref="3013297316"/>
    <nd ref="3013297314"/>
    <nd ref="217195"/>
    <nd ref="3013297319"/>
    <nd ref="217197"/>
    <nd ref="3013297329"/>
    <tag k="carriageway_ref" v="A"/>
    <tag k="dual_carriageway" v="yes"/>
    <tag k="expressway" v="yes"/>
    <tag k="highway" v="trunk"/>
    <tag k="lanes" v="2"/>
    <tag k="lit" v="no"/>
    <tag k="maxheight" v="default"/>
    <tag k="maxspeed" v="70 mph"/>
    <tag k="maxspeed:type" v="GB:nsl_dual"/>
    <tag k="national_highways:area" v="7"/>
    <tag k="oneway" v="yes"/>
    <tag k="operator" v="National Highways"/>
    <tag k="operator:wikidata" v="Q5760006"/>
    <tag k="ref" v="A42"/>
    <tag k="shoulder" v="both"/>
    <tag k="source:maxspeed" v="Stats19"/>
    <tag k="surface" v="asphalt"/>
  </way>
  <way id="59067201" version="2" timestamp="2010-12-04T19:58:26Z" changeset="6542778" uid="12674" user="Peter Hibbert">
    <nd ref="732160041"/>
    <nd ref="732160042"/>
    <tag k="highway" v="residential"/>
  </way>
  <way id="87795522" version="2" timestamp="2014-12-16T20:50:16Z" changeset="27516078" uid="600015" user="CartogLarry">
    <nd ref="732160047"/>
    <nd ref="3238570544"/>
    <nd ref="3238570520"/>
    <nd ref="732160045"/>
    <nd ref="3238570526"/>
    <nd ref="3238570555"/>
    <nd ref="732160042"/>
    <nd ref="732160049"/>
    <nd ref="732160051"/>
    <nd ref="732160059"/>
    <tag k="highway" v="residential"/>
    <tag k="source" v="Bing"/>
    <tag k="surface" v="gravel"/>
  </way>
  <way id="171614863" version="8" timestamp="2025-09-24T20:51:55Z" changeset="172412072" uid="8857" user="philipcullen">
    <nd ref="1826163204"/>
    <nd ref="9270059130"/>
    <nd ref="9270059131"/>
    <nd ref="9270059132"/>
    <nd ref="9270059129"/>
    <nd ref="1826163099"/>
    <nd ref="1826163238"/>
    <nd ref="1826163088"/>
    <nd ref="1826163112"/>
    <nd ref="1826163213"/>
    <nd ref="1826163110"/>
    <nd ref="1826163154"/>
    <nd ref="6223849989"/>
    <nd ref="1826163204"/>
    <tag k="addr:city" v="Ashby-de-la-Zouch"/>
    <tag k="addr:postcode" v="LE65 1RW"/>
    <tag k="addr:village" v="Staunton Harold"/>
    <tag k="amenity" v="place_of_worship"/>
    <tag k="building" v="yes"/>
    <tag k="denomination" v="anglican"/>
    <tag k="name" v="Staunton Harold Church"/>
    <tag k="operator" v="National Trust"/>
    <tag k="ref:GB:uprn" v="200003503728"/>
    <tag k="religion" v="christian"/>
    <tag k="source" v="Bing"/>
    <tag k="website" v="https://www.nationaltrust.org.uk/staunton-harold-church/"/>
    <tag k="wikidata" v="Q17526069"/>
  </way>
  <way id="171614865" version="6" timestamp="2025-04-01T10:54:55Z" changeset="164368841" uid="417748" user="Dave Venables">
    <nd ref="1826163090"/>
    <nd ref="1826163205"/>
    <nd ref="1826163119"/>
    <nd ref="1826163207"/>
    <nd ref="1826163128"/>
    <nd ref="1826163190"/>
    <nd ref="1826163097"/>
    <nd ref="1826163183"/>
    <nd ref="1826163232"/>
    <nd ref="1826163106"/>
    <nd ref="1826163133"/>
    <nd ref="1826163156"/>
    <nd ref="1826163114"/>
    <nd ref="1826163081"/>
    <nd ref="1826163147"/>
    <nd ref="1826163224"/>
    <nd ref="1826163124"/>
    <nd ref="1826163171"/>
    <nd ref="1826163090"/>
    <tag k="addr:city" v="Ashby-de-la-Zouch"/>
    <tag k="addr:postcode" v="LE65 1RT"/>
    <tag k="addr:village" v="Staunton Harold"/>
    <tag k="building" v="detached"/>
    <tag k="name" v="Staunton Harold Hall"/>
    <tag k="source" v="Bing"/>
    <tag k="website" v="https://www.stauntonharoldestate.co.uk/"/>
    <tag k="wikidata" v="Q7604734"/>
    <tag k="wikipedia" v="en:Staunton Harold Hall"/>
  </way>
  <way id="171630994" version="4" timestamp="2019-01-21T00:55:21Z" changeset="66489177" uid="178626" user="Rovastar">
    <nd ref="100219321"/>
    <nd ref="6223901061"/>
    <nd ref="1826298118"/>
    <tag k="bridge" v="yes"/>
    <tag k="highway" v="unclassified"/>
    <tag k="source" v="Bing"/>
  </way>
  <way id="171685488" version="5" timestamp="2025-09-24T20:51:55Z" changeset="172412072" uid="8857" user="philipcullen">
    <nd ref="1826771975"/>
    <nd ref="1826772393"/>
    <nd ref="1826772188"/>
    <nd ref="1826772121"/>
    <nd ref="1826772347"/>
    <nd ref="1826772374"/>
    <nd ref="1826772184"/>
    <nd ref="1826772134"/>
    <nd ref="1826772212"/>
    <nd ref="1826772348"/>
    <nd ref="1826771975"/>
    <tag k="addr:city" v="Ashby-de-la-Zouch"/>
    <tag k="addr:housenumber" v="2"/>
    <tag k="addr:postcode" v="LE65 1RU"/>
    <tag k="addr:street" v="Nursery Gardens"/>
    <tag k="building" v="detached"/>
    <tag k="ref:GB:uprn" v="200003513016"/>
    <tag k="source" v="Bing"/>
  </way>
  <way id="297436963" version="14" timestamp="2025-11-15T20:01:23Z" changeset="174702209" uid="487368" user="Mr Walrus">
    <nd ref="3013297317"/>
    <nd ref="26016262"/>
    <nd ref="3013297305"/>
    <nd ref="26016263"/>
    <nd ref="3013297302"/>
    <nd ref="3013297303"/>
    <nd ref="3013297307"/>
    <nd ref="26016270"/>
    <nd ref="3013297313"/>
    <nd ref="3013297322"/>
    <nd ref="26016267"/>
    <nd ref="9583772445"/>
    <nd ref="3013297450"/>
    <nd ref="26016265"/>
    <nd ref="3013297481"/>
    <nd ref="3013297492"/>
    <nd ref="3013297508"/>
    <nd ref="3013297517"/>
    <nd ref="26016276"/>
    <nd ref="3013297528"/>
    <nd ref="3013297530"/>
    <nd ref="3013297531"/>
    <nd ref="26016275"/>
    <nd ref="3013297529"/>
    <nd ref="3013297525"/>
    <nd ref="3013297518"/>
    <nd ref="3013297512"/>
    <nd ref="26016273"/>
    <nd ref="3013297504"/>
    <nd ref="3013297498"/>
    <nd ref="3013297485"/>
    <nd ref="3013297479"/>
    <nd ref="3013297476"/>
    <nd ref="26016284"/>
    <nd ref="3013297460"/>
    <nd ref="3013297452"/>
    <nd ref="3013297442"/>
    <nd ref="26016282"/>
    <nd ref="3013297311"/>
    <nd ref="3013297299"/>
    <nd ref="26016279"/>
    <nd ref="3013297273"/>
    <nd ref="3013297262"/>
    <nd ref="26016277"/>
    <nd ref="3013297221"/>
    <nd ref="3013297205"/>
    <nd ref="26017201"/>
    <nd ref="3013297197"/>
    <nd ref="3013297193"/>
    <nd ref="26017202"/>
    <nd ref="3013297189"/>
    <nd ref="3013297187"/>
    <nd ref="3013297186"/>
    <nd ref="3013297183"/>
    <nd ref="3013297181"/>
    <nd ref="26017203"/>
    <nd ref="3013297177"/>
    <nd ref="3013297175"/>
    <nd ref="26017204"/>
    <nd ref="3013297172"/>
    <nd ref="3013297170"/>
    <nd ref="3013297168"/>
    <nd ref="3013297166"/>
    <nd ref="26017205"/>
    <nd ref="3013297164"/>
    <nd ref="3013297161"/>
    <nd ref="3013297157"/>
    <nd ref="26017206"/>
    <nd ref="3013297153"/>
    <nd ref="3013297151"/>
    <nd ref="26017292"/>
    <nd ref="3013297140"/>
    <nd ref="3013297138"/>
    <nd ref="26017293"/>
    <nd ref="3013297136"/>
    <nd ref="3013297134"/>
    <nd ref="26017294"/>
    <nd ref="3013296632"/>
    <nd ref="3013296631"/>
    <nd ref="26017295"/>
    <nd ref="3013296627"/>
    <nd ref="3013296625"/>
    <nd ref="26017296"/>
    <nd ref="3013296623"/>
    <nd ref="3013296621"/>
    <nd ref="26017297"/>
    <nd ref="3013296619"/>
    <nd ref="3013296617"/>
    <nd ref="9583758156"/>
    <nd ref="3013296615"/>
    <nd ref="3013296613"/>
    <nd ref="9583758162"/>
    <nd ref="26017298"/>
    <nd ref="3013296611"/>
    <nd ref="616301932"/>
    <tag k="carriageway_ref" v="B"/>
    <tag k="dual_carriageway" v="yes"/>
    <tag k="expressway" v="yes"/>
    <tag k="highway" v="trunk"/>
    <tag k="lanes" v="2"/>
    <tag k="lit" v="no"/>
    <tag k="maxheight" v="default"/>
    <tag k="maxspeed" v="70 mph"/>
    <tag k="maxspeed:type" v="GB:nsl_dual"/>
    <tag k="national_highways:area" v="7"/>
    <tag k="oneway" v="yes"/>
    <tag k="operator" v="National Highways"/>
    <tag k="operator:wikidata" v="Q5760006"/>
    <tag k="ref" v="A42"/>
    <tag k="shoulder" v="left"/>
    <tag k="source:maxspeed" v="Stats19"/>
    <tag k="surface" v="asphalt"/>
  </way>
  <way id="317576964" version="1" timestamp="2014-12-16T20:50:14Z" changeset="27516078" uid="600015" user="CartogLarry">
    <nd ref="1826797123"/>
    <nd ref="1826797130"/>
    <nd ref="1826797137"/>
    <nd ref="1826797124"/>
    <nd ref="1826797148"/>
    <nd ref="1826797122"/>
    <nd ref="732160049"/>
    <tag k="highway" v="residential"/>
    <tag k="source" v="Bing"/>
    <tag k="surface" v="gravel"/>
  </way>
  <way id="329282046" version="3" timestamp="2020-11-27T16:06:28Z" changeset="94905494" uid="10170580" user="wellasus">
    <nd ref="3361517925"/>
    <nd ref="8170872700"/>
    <nd ref="3361519597"/>
    <nd ref="3361517926"/>
    <nd ref="3361517927"/>
    <tag k="highway" v="residential"/>
    <tag k="name" v="Pottery Lane"/>
  </way>
  <way id="413680842" version="1" timestamp="2016-04-26T15:39:29Z" changeset="38890820" uid="2511706" user="calfarome">
    <nd ref="175666251"/>
    <nd ref="175666252"/>
    <tag k="highway" v="unclassified"/>
    <tag k="name" v="Long Hedge Lane"/>
  </way>
  <way id="512164140" version="3" timestamp="2025-04-15T18:10:25Z" changeset="164997869" uid="5229644" user="Nathan_A_RF">
    <nd ref="175666495"/>
    <nd ref="175666499"/>
    <nd ref="175666502"/>
    <nd ref="175666507"/>
    <nd ref="3361517925"/>
    <nd ref="732160041"/>
    <nd ref="4738239941"/>
    <nd ref="175666512"/>
    <nd ref="10911864816"/>
    <nd ref="175666516"/>
    <nd ref="175666520"/>
    <nd ref="175666524"/>
    <nd ref="5008474036"/>
    <tag k="highway" v="secondary"/>
    <tag k="lit" v="yes"/>
    <tag k="maxspeed" v="40 mph"/>
    <tag k="name" v="Nottingham Road"/>
    <tag k="old_ref" v="A453"/>
    <tag k="ref" v="B587"/>
  </way>
  <way id="512165689" version="13" timestamp="2025-04-15T18:10:25Z" changeset="164997869" uid="5229644" user="Nathan_A_RF">
    <nd ref="5008484084"/>
    <nd ref="175666366"/>
    <nd ref="2264313853"/>
    <nd ref="175666370"/>
    <nd ref="175666372"/>
    <nd ref="6561410780"/>
    <nd ref="175666375"/>
    <nd ref="5008474040"/>
    <nd ref="8192922666"/>
    <nd ref="175666379"/>
    <nd ref="175666384"/>
    <nd ref="175666386"/>
    <nd ref="175666388"/>
    <nd ref="8039328634"/>
    <nd ref="175666390"/>
    <nd ref="175666394"/>
    <nd ref="175666397"/>
    <nd ref="175666401"/>
    <nd ref="175666405"/>
    <nd ref="8410543305"/>
    <nd ref="175666411"/>
    <nd ref="175666414"/>
    <nd ref="175666421"/>
    <nd ref="175666424"/>
    <nd ref="175666429"/>
    <nd ref="175666436"/>
    <nd ref="3426459348"/>
    <nd ref="175666438"/>
    <nd ref="175666441"/>
    <nd ref="175666444"/>
    <nd ref="175666447"/>
    <nd ref="175666451"/>
    <nd ref="175666455"/>
    <nd ref="8837935057"/>
    <nd ref="175666458"/>
    <nd ref="175666460"/>
    <nd ref="6555424874"/>
    <nd ref="175666463"/>
    <nd ref="5008474039"/>
    <nd ref="175666466"/>
    <nd ref="713464773"/>
    <nd ref="175666491"/>
    <nd ref="5008474024"/>
    <tag k="cycleway:both" v="no"/>
    <tag k="highway" v="secondary"/>
    <tag k="lanes" v="2"/>
    <tag k="lit" v="no"/>
    <tag k="maxspeed" v="60 mph"/>
    <tag k="maxspeed:type" v="GB:nsl_single"/>
    <tag k="name" v="Nottingham Road"/>
    <tag k="old_ref" v="A453"/>
    <tag k="ref" v="B587"/>
    <tag k="smoothness" v="excellent"/>
    <tag k="surface" v="asphalt"/>
  </way>
  <way id="1174346204" version="2" timestamp="2025-04-15T18:10:25Z" changeset="164997869" uid="5229644" user="Nathan_A_RF">
    <nd ref="5008474024"/>
    <nd ref="175666495"/>
    <tag k="highway" v="secondary"/>
    <tag k="lit" v="no"/>
    <tag k="maxspeed" v="40 mph"/>
    <tag k="name" v="Nottingham Road"/>
    <tag k="old_ref" v="A453"/>
    <tag k="ref" v="B587"/>
  </way>
  <way id="1174346205" version="2" timestamp="2025-04-15T18:10:25Z" changeset="164997869" uid="5229644" user="Nathan_A_RF">
    <nd ref="5008474036"/>
    <nd ref="175666528"/>
    <nd ref="175666532"/>
    <nd ref="10911864817"/>
    <tag k="highway" v="secondary"/>
    <tag k="lit" v="no"/>
    <tag k="maxspeed" v="40 mph"/>
    <tag k="name" v="Nottingham Road"/>
    <tag k="old_ref" v="A453"/>
    <tag k="ref" v="B587"/>
  </way>
  <way id="1175767427" version="2" timestamp="2025-04-15T18:16:49Z" changeset="164998071" uid="5229644" user="Nathan_A_RF">
    <nd ref="261649008"/>
    <nd ref="261649009"/>
    <nd ref="261649010"/>
    <nd ref="261649011"/>
    <nd ref="261649012"/>
    <nd ref="9879164672"/>
    <nd ref="9879164686"/>
    <nd ref="261649013"/>
    <nd ref="6526801259"/>
    <nd ref="261649014"/>
    <nd ref="7171141197"/>
    <nd ref="597332968"/>
    <nd ref="2051072978"/>
    <nd ref="2051069340"/>
    <nd ref="261649015"/>
    <nd ref="1825785992"/>
    <nd ref="1792382801"/>
    <tag k="highway" v="secondary"/>
    <tag k="lit" v="no"/>
    <tag k="maxspeed" v="60 mph"/>
    <tag k="maxspeed:type" v="GB:nsl_single"/>
    <tag k="name" v="Melbourne Road"/>
    <tag k="ref" v="B587"/>
  </way>
  <way id="1175767428" version="3" timestamp="2025-06-23T17:07:42Z" changeset="168013336" uid="23025902" user="lonerider543">
    <nd ref="100219359"/>
    <nd ref="9119919585"/>
    <nd ref="261649007"/>
    <nd ref="7287935905"/>
    <nd ref="615804466"/>
    <nd ref="261649008"/>
    <tag k="hazard" v="animal_crossing"/>
    <tag k="highway" v="secondary"/>
    <tag k="lanes" v="2"/>
    <tag k="lit" v="no"/>
    <tag k="maxspeed" v="60 mph"/>
    <tag k="maxspeed:type" v="GB:nsl_single"/>
    <tag k="name" v="Melbourne Road"/>
    <tag k="ref" v="B587"/>
  </way>
  <way id="1408865315" version="1" timestamp="2025-06-23T17:07:42Z" changeset="168013336" uid="23025902" user="lonerider543">
    <nd ref="9879165017"/>
    <nd ref="6223901058"/>
    <nd ref="100219323"/>
    <nd ref="6223901059"/>
    <nd ref="6223901060"/>
    <nd ref="6223901062"/>
    <nd ref="100219321"/>
    <tag k="highway" v="unclassified"/>
  </way>
  <way id="1408865316" version="1" timestamp="2025-06-23T17:07:42Z" changeset="168013336" uid="23025902" user="lonerider543">
    <nd ref="9119919586"/>
    <nd ref="100219356"/>
    <tag k="hazard" v="animal_crossing"/>
    <tag k="highway" v="secondary"/>
    <tag k="lanes" v="2"/>
    <tag k="lit" v="no"/>
    <tag k="maxspeed" v="60 mph"/>
    <tag k="maxspeed:type" v="GB:nsl_single"/>
    <tag k="name" v="Melbourne Road"/>
    <tag k="ref" v="B587"/>
  </way>
  <way id="1408865317" version="1" timestamp="2025-06-23T17:07:42Z" changeset="168013336" uid="23025902" user="lonerider543">
    <nd ref="100219356"/>
    <nd ref="100219358"/>
    <nd ref="100219359"/>
    <tag k="hazard" v="animal_crossing"/>
    <tag k="highway" v="secondary"/>
    <tag k="lanes" v="2"/>
    <tag k="lit" v="no"/>
    <tag k="maxspeed" v="60 mph"/>
    <tag k="maxspeed:type" v="GB:nsl_single"/>
    <tag k="name" v="Melbourne Road"/>
    <tag k="ref" v="B587"/>
  </way>
  <way id="1408865318" version="1" timestamp="2025-06-23T17:07:42Z" changeset="168013336" uid="23025902" user="lonerider543">
    <nd ref="9879164722"/>
    <nd ref="9879164709"/>
    <nd ref="2800676874"/>
    <nd ref="100219343"/>
    <nd ref="9119919578"/>
    <nd ref="9119919579"/>
    <nd ref="100219340"/>
    <nd ref="6223901048"/>
    <nd ref="6223901050"/>
    <nd ref="6223901049"/>
    <nd ref="6223901051"/>
    <nd ref="100219339"/>
    <nd ref="6223901052"/>
    <nd ref="100219338"/>
    <nd ref="6223901053"/>
    <nd ref="100219336"/>
    <nd ref="6223901054"/>
    <nd ref="100219334"/>
    <nd ref="3270605062"/>
    <nd ref="3270523184"/>
    <nd ref="100219331"/>
    <nd ref="6223901055"/>
    <nd ref="6223901056"/>
    <nd ref="6223901057"/>
    <nd ref="9879165017"/>
    <tag k="highway" v="unclassified"/>
  </way>
  <way id="1408865319" version="1" timestamp="2025-06-23T17:07:42Z" changeset="168013336" uid="23025902" user="lonerider543">
    <nd ref="4737737489"/>
    <nd ref="9119919586"/>
    <tag k="highway" v="secondary"/>
    <tag k="lit" v="no"/>
    <tag k="maxspeed" v="60 mph"/>
    <tag k="maxspeed:type" v="GB:nsl_single"/>
    <tag k="name" v="Melbourne Road"/>
    <tag k="ref" v="B587"/>
  </way>
  <way id="1408865320" version="1" timestamp="2025-06-23T17:07:42Z" changeset="168013336" uid="23025902" user="lonerider543">
    <nd ref="261648765"/>
    <nd ref="4737737489"/>
    <tag k="highway" v="secondary"/>
    <tag k="lit" v="no"/>
    <tag k="maxspeed" v="60 mph"/>
    <tag k="maxspeed:type" v="GB:nsl_single"/>
    <tag k="name" v="Melbourne Road"/>
    <tag k="ref" v="B587"/>
  </way>

</osm>
