<?xml version="1.0" encoding="UTF-8"?>
<osm version="0.6" generator="Overpass API 0.7.62.8 e802775f">
<note>The data included in this document is from www.openstreetmap.org. The data is made available under ODbL.</note>
<meta osm_base="2025-12-17T13:10:58Z" areas="2025-12-17T10:32:22Z"/>

  <node id="249322022" lat="52.7052418" lon="-1.4180490" version="1" timestamp="2008-02-25T21:42:56Z" changeset="206842" uid="27843" user="BrianW">
    <tag k="created_by" v="JOSM"/>
  </node>
  <node id="249322140" lat="52.6943926" lon="-1.4488886" version="3" timestamp="2025-04-01T20:41:02Z" changeset="164393329" uid="5229644" user="Nathan_A_RF"/>
  <node id="249322176" lat="52.6926581" lon="-1.4241109" version="7" timestamp="2011-02-23T22:33:25Z" changeset="7377546" uid="71337" user="quantumstate"/>
  <node id="1169004606" lat="52.7000038" lon="-1.4288087" version="2" timestamp="2025-07-29T17:48:01Z" changeset="169685795" uid="23025902" user="lonerider543"/>
  <node id="1920275478" lat="52.6925759" lon="-1.4092016" version="2" timestamp="2019-09-29T00:43:25Z" changeset="75051228" uid="705850" user="Cebderby"/>
  <node id="6833522623" lat="52.6895613" lon="-1.4118275" version="2" timestamp="2020-09-23T16:00:29Z" changeset="91379112" uid="705850" user="Cebderby"/>
  <way id="11479565" version="8" timestamp="2020-10-11T07:51:28Z" changeset="92294214" uid="10252542" user="karmsudi">
    <nd ref="102239246"/>
    <nd ref="7996615613"/>
    <nd ref="1895901063"/>
    <nd ref="102237994"/>
    <nd ref="102239247"/>
    <nd ref="102239248"/>
    <nd ref="249322176"/>
    <tag k="highway" v="tertiary"/>
    <tag k="name" v="Main Street"/>
  </way>
  <way id="23211260" version="7" timestamp="2019-09-24T08:26:22Z" changeset="74842269" uid="10252562" user="puppalg">
    <nd ref="249322052"/>
    <nd ref="1169004243"/>
    <nd ref="1169003906"/>
    <nd ref="6819355372"/>
    <nd ref="6819355375"/>
    <nd ref="249322053"/>
    <nd ref="1169003842"/>
    <nd ref="249322054"/>
    <nd ref="102239246"/>
    <tag k="highway" v="tertiary"/>
    <tag k="name" v="Main Street"/>
  </way>
  <way id="23211263" version="20" timestamp="2021-02-12T21:21:22Z" changeset="99196570" uid="12597690" user="Dan Chalk">
    <nd ref="249322052"/>
    <nd ref="251071735"/>
    <nd ref="1903826101"/>
    <nd ref="1169004665"/>
    <nd ref="251071736"/>
    <nd ref="1169004346"/>
    <nd ref="251071737"/>
    <nd ref="251071738"/>
    <nd ref="251071739"/>
    <nd ref="1889927148"/>
    <nd ref="251071740"/>
    <nd ref="251071741"/>
    <nd ref="1942695912"/>
    <nd ref="1900434546"/>
    <nd ref="251071742"/>
    <nd ref="8419289269"/>
    <nd ref="251071753"/>
    <nd ref="251071754"/>
    <nd ref="1895894095"/>
    <nd ref="251071755"/>
    <nd ref="2544288695"/>
    <nd ref="251071756"/>
    <nd ref="1920275478"/>
    <tag k="highway" v="tertiary"/>
    <tag k="name" v="Pisca Lane"/>
    <tag k="source:name" v="OS OpenData StreetView"/>
  </way>
  <way id="25912965" version="32" timestamp="2025-04-01T20:41:02Z" changeset="164393329" uid="5229644" user="Nathan_A_RF">
    <nd ref="249322140"/>
    <nd ref="6347077172"/>
    <nd ref="249322141"/>
    <nd ref="249322142"/>
    <nd ref="249322143"/>
    <nd ref="249322144"/>
    <nd ref="249322166"/>
    <nd ref="4546167267"/>
    <nd ref="1906699756"/>
    <nd ref="1895916999"/>
    <nd ref="249322167"/>
    <nd ref="249322168"/>
    <nd ref="1895907735"/>
    <nd ref="7538141701"/>
    <nd ref="1895906365"/>
    <nd ref="249322170"/>
    <nd ref="6347077174"/>
    <nd ref="8841308756"/>
    <tag k="hgv" v="destination"/>
    <tag k="highway" v="tertiary"/>
    <tag k="maxspeed" v="60 mph"/>
    <tag k="maxspeed:type" v="GB:nsl_single"/>
    <tag k="name" v="Swepstone Road"/>
    <tag k="source:name" v="OS_OpenData_Locator"/>
  </way>
  <way id="33081255" version="22" timestamp="2025-02-09T18:02:08Z" changeset="162323864" uid="493595" user="Yorvik Prestigitator">
    <nd ref="249322176"/>
    <nd ref="6955762743"/>
    <nd ref="102239250"/>
    <nd ref="1169003818"/>
    <nd ref="102239251"/>
    <nd ref="1889927150"/>
    <nd ref="7116156051"/>
    <nd ref="102239252"/>
    <nd ref="102239253"/>
    <nd ref="4745743830"/>
    <nd ref="102239255"/>
    <nd ref="1889958973"/>
    <nd ref="12571689759"/>
    <nd ref="102239256"/>
    <nd ref="102239257"/>
    <nd ref="102239258"/>
    <nd ref="2016367862"/>
    <nd ref="6909097518"/>
    <nd ref="102239259"/>
    <nd ref="7996355715"/>
    <nd ref="102239261"/>
    <nd ref="1574773048"/>
    <nd ref="102239262"/>
    <nd ref="102239263"/>
    <nd ref="102239264"/>
    <nd ref="102239265"/>
    <nd ref="102239266"/>
    <nd ref="102239267"/>
    <nd ref="102239268"/>
    <nd ref="102239269"/>
    <nd ref="8449596498"/>
    <nd ref="102239271"/>
    <nd ref="4745670245"/>
    <nd ref="102239273"/>
    <nd ref="102239274"/>
    <nd ref="102239275"/>
    <nd ref="102239276"/>
    <nd ref="102239278"/>
    <nd ref="102239279"/>
    <nd ref="6888837838"/>
    <nd ref="102239280"/>
    <nd ref="102239282"/>
    <nd ref="102239283"/>
    <nd ref="102239284"/>
    <nd ref="7565264718"/>
    <nd ref="102239286"/>
    <tag k="highway" v="unclassified"/>
    <tag k="name" v="Newton Road"/>
  </way>
  <way id="101278564" version="3" timestamp="2020-10-19T15:03:55Z" changeset="92716848" uid="10219376" user="harinikh">
    <nd ref="1169004006"/>
    <nd ref="7299291912"/>
    <nd ref="1169004356"/>
    <nd ref="7299291913"/>
    <nd ref="1169004553"/>
    <nd ref="1169004289"/>
    <nd ref="1169003928"/>
    <nd ref="1169003756"/>
    <tag k="highway" v="residential"/>
    <tag k="source" v="Bing"/>
  </way>
  <way id="101278570" version="3" timestamp="2020-05-29T13:12:04Z" changeset="85948553" uid="705850" user="Cebderby">
    <nd ref="1169003933"/>
    <nd ref="1169004540"/>
    <nd ref="1169004604"/>
    <nd ref="1169003773"/>
    <nd ref="1169003780"/>
    <nd ref="1169004505"/>
    <nd ref="1169004439"/>
    <nd ref="1169004166"/>
    <nd ref="1895901861"/>
    <nd ref="1169003724"/>
    <nd ref="1169003745"/>
    <nd ref="1169003846"/>
    <nd ref="1169003931"/>
    <nd ref="1169003924"/>
    <nd ref="1169004045"/>
    <nd ref="1169004576"/>
    <nd ref="1169003600"/>
    <tag k="highway" v="residential"/>
    <tag k="name" v="Blackett Drive"/>
    <tag k="source" v="Bing"/>
    <tag k="source:name" v="OS_OpenData_Locator"/>
  </way>
  <way id="101278575" version="2" timestamp="2012-09-03T08:15:40Z" changeset="12963999" uid="845299" user="brozier">
    <nd ref="1169003842"/>
    <nd ref="1169003682"/>
    <nd ref="1169003815"/>
    <nd ref="1169004379"/>
    <nd ref="1169004286"/>
    <nd ref="1895899958"/>
    <nd ref="1169004110"/>
    <nd ref="1169003696"/>
    <nd ref="1169004639"/>
    <nd ref="1169004000"/>
    <tag k="highway" v="residential"/>
    <tag k="name" v="St John's Close"/>
    <tag k="source" v="Bing"/>
    <tag k="source:name" v="OS_OpenData_Locator"/>
  </way>
  <way id="101278578" version="1" timestamp="2011-02-23T22:33:12Z" changeset="7377546" uid="71337" user="quantumstate">
    <nd ref="1169003818"/>
    <nd ref="1169004199"/>
    <tag k="highway" v="residential"/>
    <tag k="name" v="Cotsmore Close"/>
    <tag k="source" v="Bing"/>
    <tag k="source:name" v="OS_OpenData_Locator"/>
  </way>
  <way id="101278585" version="2" timestamp="2018-10-19T11:50:15Z" changeset="63675778" uid="281267" user="smb1001">
    <nd ref="1169004166"/>
    <nd ref="1169003641"/>
    <nd ref="1169003849"/>
    <nd ref="1169004437"/>
    <nd ref="5998031338"/>
    <nd ref="5998031335"/>
    <tag k="highway" v="residential"/>
    <tag k="name" v="The Rookery"/>
    <tag k="source" v="Bing"/>
    <tag k="source:name" v="OS_OpenData_Locator"/>
  </way>
  <way id="101278599" version="2" timestamp="2018-10-19T11:50:15Z" changeset="63675778" uid="281267" user="smb1001">
    <nd ref="1169003924"/>
    <nd ref="1169004628"/>
    <nd ref="1169003971"/>
    <nd ref="1169004641"/>
    <nd ref="1169003690"/>
    <nd ref="1169004111"/>
    <nd ref="1169004327"/>
    <nd ref="1169003888"/>
    <nd ref="1169004547"/>
    <nd ref="1169004528"/>
    <nd ref="1169004397"/>
    <nd ref="1169004489"/>
    <nd ref="1169004374"/>
    <nd ref="1169004359"/>
    <nd ref="1169004525"/>
    <nd ref="5998031164"/>
    <nd ref="5998031101"/>
    <tag k="highway" v="residential"/>
    <tag k="name" v="Belcher Close"/>
    <tag k="source" v="Bing"/>
    <tag k="source:name" v="OS_OpenData_Locator"/>
  </way>
  <way id="101278606" version="2" timestamp="2018-10-19T11:50:15Z" changeset="63675778" uid="281267" user="smb1001">
    <nd ref="1169004547"/>
    <nd ref="1169004498"/>
    <nd ref="1169003997"/>
    <nd ref="1169004408"/>
    <nd ref="5998031160"/>
    <nd ref="5998031091"/>
    <tag k="highway" v="residential"/>
    <tag k="name" v="Marston Way"/>
    <tag k="source" v="Bing"/>
    <tag k="source:name" v="OS_OpenData_Locator"/>
  </way>
  <way id="101278609" version="3" timestamp="2020-05-29T13:12:04Z" changeset="85948553" uid="705850" user="Cebderby">
    <nd ref="1169003780"/>
    <nd ref="1169003638"/>
    <nd ref="1169003899"/>
    <nd ref="1169004277"/>
    <nd ref="1169004103"/>
    <nd ref="1169004215"/>
    <nd ref="1169003647"/>
    <nd ref="1169004245"/>
    <nd ref="1169004632"/>
    <nd ref="1169004540"/>
    <tag k="fixme" v="name?"/>
    <tag k="highway" v="residential"/>
    <tag k="source" v="Bing"/>
  </way>
  <way id="101278618" version="1" timestamp="2011-02-23T22:33:16Z" changeset="7377546" uid="71337" user="quantumstate">
    <nd ref="1169003928"/>
    <nd ref="249322050"/>
    <tag k="highway" v="residential"/>
    <tag k="source" v="Bing"/>
  </way>
  <way id="101278622" version="2" timestamp="2016-09-01T17:54:33Z" changeset="41854373" uid="4215039" user="Stan W">
    <nd ref="1169004522"/>
    <nd ref="1169004175"/>
    <nd ref="1169004660"/>
    <nd ref="1169004663"/>
    <nd ref="1169003891"/>
    <nd ref="1169004381"/>
    <nd ref="4379533994"/>
    <nd ref="1169004219"/>
    <nd ref="1169004217"/>
    <nd ref="1169004687"/>
    <nd ref="1169004009"/>
    <nd ref="1169004378"/>
    <nd ref="1169003975"/>
    <nd ref="1169004376"/>
    <nd ref="1169004249"/>
    <nd ref="1169004400"/>
    <tag k="highway" v="residential"/>
    <tag k="name" v="Manor Road"/>
    <tag k="source" v="Bing"/>
    <tag k="source:name" v="OS_OpenData_Locator"/>
  </way>
  <way id="101278629" version="2" timestamp="2013-08-05T14:04:23Z" changeset="17228602" uid="1383062" user="Chris Filip">
    <nd ref="1169004346"/>
    <nd ref="1169004083"/>
    <nd ref="1169004325"/>
    <nd ref="1169003742"/>
    <nd ref="1169004411"/>
    <tag k="highway" v="residential"/>
    <tag k="name" v="Holyoake Crescent"/>
    <tag k="source" v="Bing"/>
    <tag k="source:name" v="OS_OpenData_Locator"/>
  </way>
  <way id="101278637" version="3" timestamp="2020-05-29T13:12:04Z" changeset="85948553" uid="705850" user="Cebderby">
    <nd ref="1169003810"/>
    <nd ref="7569590755"/>
    <nd ref="1169003979"/>
    <nd ref="5998031115"/>
    <nd ref="1169003933"/>
    <nd ref="1169004522"/>
    <nd ref="1169003867"/>
    <tag k="fixme" v="name?"/>
    <tag k="highway" v="residential"/>
    <tag k="source" v="Bing"/>
  </way>
  <way id="101278638" version="1" timestamp="2011-02-23T22:33:18Z" changeset="7377546" uid="71337" user="quantumstate">
    <nd ref="1169004383"/>
    <nd ref="1169004159"/>
    <tag k="highway" v="residential"/>
    <tag k="name" v="Hollyoake Drive"/>
    <tag k="source" v="Bing"/>
    <tag k="source:name" v="OS_OpenData_Locator"/>
  </way>
  <way id="101278646" version="2" timestamp="2013-08-05T14:04:23Z" changeset="17228602" uid="1383062" user="Chris Filip">
    <nd ref="1169004665"/>
    <nd ref="1169004589"/>
    <nd ref="1169004672"/>
    <nd ref="1169003936"/>
    <nd ref="1169004157"/>
    <nd ref="1169004091"/>
    <nd ref="1169004096"/>
    <nd ref="1169003629"/>
    <nd ref="1169003965"/>
    <nd ref="1169004494"/>
    <nd ref="1169004360"/>
    <nd ref="1169004162"/>
    <nd ref="1169004383"/>
    <nd ref="1169003978"/>
    <nd ref="1169004211"/>
    <nd ref="1169004357"/>
    <tag k="highway" v="residential"/>
    <tag k="name" v="Holyoake Drive"/>
    <tag k="source" v="Bing"/>
    <tag k="source:name" v="OS_OpenData_Locator"/>
  </way>
  <way id="101372772" version="3" timestamp="2025-07-29T17:48:01Z" changeset="169685795" uid="23025902" user="lonerider543">
    <nd ref="13034433448"/>
    <nd ref="255719198"/>
    <nd ref="1169004013"/>
    <nd ref="1169004534"/>
    <nd ref="1942694834"/>
    <nd ref="1169004531"/>
    <nd ref="255719199"/>
    <nd ref="255719200"/>
    <nd ref="255719202"/>
    <nd ref="1169004204"/>
    <nd ref="2004358780"/>
    <nd ref="255719203"/>
    <nd ref="1169004580"/>
    <nd ref="1169004481"/>
    <nd ref="255719204"/>
    <nd ref="255719205"/>
    <tag k="highway" v="tertiary"/>
    <tag k="name" v="Normanton Lane"/>
    <tag k="source" v="Bing"/>
    <tag k="source:name" v="OS_OpenData_Locator"/>
  </way>
  <way id="101372782" version="11" timestamp="2025-04-01T20:41:02Z" changeset="164393329" uid="5229644" user="Nathan_A_RF">
    <nd ref="249322022"/>
    <nd ref="249322023"/>
    <nd ref="249322024"/>
    <nd ref="249322025"/>
    <nd ref="249322026"/>
    <nd ref="249322027"/>
    <nd ref="249322028"/>
    <nd ref="1920263809"/>
    <tag k="cycleway:both" v="no"/>
    <tag k="highway" v="unclassified"/>
    <tag k="lanes" v="2"/>
    <tag k="name" v="Ravenstone Road"/>
    <tag k="sidewalk" v="no"/>
    <tag k="smoothness" v="good"/>
    <tag k="source" v="Bing"/>
    <tag k="source:name" v="OS_OpenData_Locator"/>
    <tag k="surface" v="asphalt"/>
  </way>
  <way id="232439651" version="3" timestamp="2019-09-29T00:43:25Z" changeset="75051228" uid="705850" user="Cebderby">
    <nd ref="1920275478"/>
    <nd ref="6833522868"/>
    <nd ref="6833522655"/>
    <nd ref="251071758"/>
    <nd ref="251071832"/>
    <tag k="highway" v="tertiary"/>
    <tag k="name" v="Ashby Road"/>
    <tag k="source:name" v="OS OpenData StreetView"/>
  </way>
  <way id="232439684" version="4" timestamp="2022-10-28T15:14:17Z" changeset="128179804" uid="872624" user="jlwarlow">
    <nd ref="10135646265"/>
    <nd ref="1889927144"/>
    <nd ref="1889927153"/>
    <nd ref="102237991"/>
    <nd ref="102237992"/>
    <nd ref="102237993"/>
    <nd ref="102237994"/>
    <tag k="highway" v="tertiary"/>
    <tag k="maxspeed" v="30 mph"/>
    <tag k="name" v="Mill Lane"/>
    <tag k="oneway" v="no"/>
    <tag k="source" v="NaPTAN"/>
    <tag k="source:name" v="OS OpenData Locator"/>
  </way>
  <way id="232439701" version="2" timestamp="2020-10-05T10:37:29Z" changeset="91978715" uid="705850" user="Cebderby">
    <nd ref="2407932763"/>
    <nd ref="7976677576"/>
    <nd ref="2407932766"/>
    <tag k="highway" v="residential"/>
    <tag k="name" v="Station Terrace"/>
    <tag k="source" v="Bing"/>
    <tag k="source:name" v="OS OpenData Locator"/>
  </way>
  <way id="282789854" version="11" timestamp="2025-04-01T20:41:02Z" changeset="164393329" uid="5229644" user="Nathan_A_RF">
    <nd ref="1920263809"/>
    <nd ref="249322034"/>
    <nd ref="249322035"/>
    <nd ref="249322036"/>
    <nd ref="249322037"/>
    <nd ref="249322038"/>
    <nd ref="6895475546"/>
    <nd ref="249322039"/>
    <nd ref="7299291906"/>
    <nd ref="249322040"/>
    <nd ref="249322041"/>
    <nd ref="6895475541"/>
    <nd ref="249322042"/>
    <nd ref="249322043"/>
    <nd ref="249322044"/>
    <nd ref="7299291907"/>
    <nd ref="1169004582"/>
    <nd ref="249322045"/>
    <nd ref="7299291908"/>
    <nd ref="1169004413"/>
    <nd ref="7299291909"/>
    <nd ref="249322046"/>
    <nd ref="8022334836"/>
    <nd ref="8022334837"/>
    <nd ref="249322047"/>
    <nd ref="7299291910"/>
    <nd ref="1169004006"/>
    <nd ref="249322048"/>
    <nd ref="7299291914"/>
    <nd ref="249322049"/>
    <nd ref="249322050"/>
    <nd ref="1169004292"/>
    <nd ref="249322051"/>
    <nd ref="255719205"/>
    <tag k="cycleway:both" v="no"/>
    <tag k="highway" v="unclassified"/>
    <tag k="lanes" v="2"/>
    <tag k="name" v="Ravenstone Road"/>
    <tag k="smoothness" v="good"/>
    <tag k="source" v="Bing"/>
    <tag k="source:name" v="OS_OpenData_Locator"/>
    <tag k="surface" v="asphalt"/>
  </way>
  <way id="312726756" version="2" timestamp="2020-05-29T13:12:04Z" changeset="85948553" uid="705850" user="Cebderby">
    <nd ref="1169003979"/>
    <nd ref="3186170017"/>
    <nd ref="3186170020"/>
    <nd ref="3186170018"/>
    <nd ref="3186170019"/>
    <tag k="highway" v="residential"/>
    <tag k="maxspeed" v="30 mph"/>
    <tag k="name" v="David Taylor Close"/>
    <tag k="surface" v="asphalt"/>
  </way>
  <way id="312726757" version="2" timestamp="2020-05-29T13:12:04Z" changeset="85948553" uid="705850" user="Cebderby">
    <nd ref="3186170020"/>
    <nd ref="7569590712"/>
    <nd ref="3186170021"/>
    <tag k="highway" v="residential"/>
    <tag k="maxspeed" v="30 mph"/>
    <tag k="name" v="David Taylor Close"/>
    <tag k="surface" v="asphalt"/>
  </way>
  <way id="337806947" version="6" timestamp="2025-02-09T18:02:08Z" changeset="162323864" uid="493595" user="Yorvik Prestigitator">
    <nd ref="3448648739"/>
    <nd ref="3448648741"/>
    <nd ref="6347077175"/>
    <nd ref="3448648742"/>
    <nd ref="12571689757"/>
    <nd ref="7996615611"/>
    <nd ref="3448648745"/>
    <tag k="access" v="private"/>
    <tag k="highway" v="residential"/>
    <tag k="name" v="Old Cow Sheds Drive"/>
  </way>
  <way id="458649706" version="4" timestamp="2025-04-01T17:00:56Z" changeset="164384848" uid="417748" user="Dave Venables">
    <nd ref="4546165592"/>
    <nd ref="4546165593"/>
    <nd ref="4546771739"/>
    <nd ref="4546771744"/>
    <nd ref="4546771745"/>
    <nd ref="4546771737"/>
    <nd ref="4546771738"/>
    <nd ref="4546771746"/>
    <nd ref="4546165594"/>
    <nd ref="4546165595"/>
    <nd ref="4546165592"/>
    <tag k="addr:city" v="Coalville"/>
    <tag k="addr:housename" v="The Cattows Farm Shop"/>
    <tag k="addr:postcode" v="LE67 2RF"/>
    <tag k="addr:street" v="Swepstone Road"/>
    <tag k="addr:village" v="Heather"/>
    <tag k="building" v="retail"/>
    <tag k="name" v="Cattows Farm Shop"/>
    <tag k="shop" v="farm"/>
    <tag k="website" v="https://www.cattowsfarm.co.uk/"/>
  </way>
  <way id="560699559" version="3" timestamp="2021-07-31T16:07:31Z" changeset="108949285" uid="53626" user="jambamkin">
    <nd ref="1889958973"/>
    <nd ref="5407059401"/>
    <nd ref="1889923006"/>
    <nd ref="1889923009"/>
    <nd ref="1946609360"/>
    <nd ref="1889923010"/>
    <nd ref="8968749973"/>
    <tag k="designation" v="public_footpath"/>
    <tag k="foot" v="designated"/>
    <tag k="highway" v="unclassified"/>
  </way>
  <way id="635978179" version="5" timestamp="2025-04-01T17:00:56Z" changeset="164384848" uid="417748" user="Dave Venables">
    <nd ref="1915057911"/>
    <nd ref="11390234811"/>
    <nd ref="11390234809"/>
    <nd ref="11390234808"/>
    <nd ref="11390234810"/>
    <nd ref="5998031087"/>
    <nd ref="5998031174"/>
    <nd ref="11390234806"/>
    <nd ref="11390234805"/>
    <nd ref="11390234804"/>
    <nd ref="11390234807"/>
    <nd ref="5998030071"/>
    <nd ref="1915057911"/>
    <tag k="addr:city" v="Coalville"/>
    <tag k="addr:postcode" v="LE67 2QP"/>
    <tag k="addr:street" v="Main Street"/>
    <tag k="addr:village" v="Heather"/>
    <tag k="amenity" v="place_of_worship"/>
    <tag k="building" v="church"/>
    <tag k="denomination" v="anglican"/>
    <tag k="name" v="St John the Baptist"/>
    <tag k="ref:dove" v="15511"/>
    <tag k="religion" v="christian"/>
    <tag k="wikidata" v="Q17542296"/>
  </way>
  <way id="681320779" version="1" timestamp="2019-04-03T08:14:48Z" changeset="68827128" uid="8446894" user="kararcha">
    <nd ref="1889927150"/>
    <nd ref="6380296121"/>
    <nd ref="6380296122"/>
    <nd ref="6380296123"/>
    <nd ref="6380296124"/>
    <nd ref="6380296125"/>
    <tag k="highway" v="residential"/>
  </way>
  <way id="681320780" version="2" timestamp="2019-11-07T19:28:11Z" changeset="76774393" uid="8270424" user="theArchDruid">
    <nd ref="102239250"/>
    <nd ref="6380296126"/>
    <nd ref="6955762735"/>
    <nd ref="6380296127"/>
    <tag k="highway" v="residential"/>
  </way>
  <way id="729414470" version="3" timestamp="2022-10-28T15:14:17Z" changeset="128179804" uid="872624" user="jlwarlow">
    <nd ref="6833522623"/>
    <nd ref="7934983818"/>
    <nd ref="102237983"/>
    <nd ref="6833522838"/>
    <tag k="highway" v="tertiary"/>
    <tag k="maxspeed" v="30 mph"/>
    <tag k="name" v="Station Road"/>
    <tag k="oneway" v="no"/>
    <tag k="source" v="NaPTAN"/>
  </way>
  <way id="729414525" version="5" timestamp="2022-10-28T15:14:17Z" changeset="128179804" uid="872624" user="jlwarlow">
    <nd ref="6833522838"/>
    <nd ref="5407059123"/>
    <nd ref="1891138644"/>
    <nd ref="102237985"/>
    <nd ref="1890013316"/>
    <nd ref="7116156058"/>
    <nd ref="7153092816"/>
    <nd ref="102237986"/>
    <nd ref="7976682203"/>
    <tag k="highway" v="tertiary"/>
    <tag k="maxspeed" v="40 mph"/>
    <tag k="name" v="Station Road"/>
    <tag k="oneway" v="no"/>
    <tag k="source" v="NaPTAN"/>
  </way>
  <way id="743102644" version="1" timestamp="2019-11-07T19:28:11Z" changeset="76774393" uid="8270424" user="theArchDruid">
    <nd ref="1169004249"/>
    <nd ref="6955762744"/>
    <tag k="highway" v="residential"/>
    <tag k="name" v="Manor Road"/>
    <tag k="source" v="Bing"/>
    <tag k="source:name" v="OS_OpenData_Locator"/>
  </way>
  <way id="759598128" version="4" timestamp="2020-05-29T13:12:04Z" changeset="85948553" uid="705850" user="Cebderby">
    <nd ref="7095733465"/>
    <nd ref="7569590726"/>
    <nd ref="7095713427"/>
    <nd ref="7095733466"/>
    <nd ref="7095733467"/>
    <nd ref="7569590754"/>
    <nd ref="7569590753"/>
    <nd ref="7569590752"/>
    <nd ref="7569590751"/>
    <nd ref="7095733468"/>
    <nd ref="7095733469"/>
    <nd ref="7569590750"/>
    <nd ref="7569590749"/>
    <nd ref="7095733470"/>
    <nd ref="7569590748"/>
    <nd ref="7569590742"/>
    <nd ref="7095733471"/>
    <tag k="highway" v="residential"/>
    <tag k="maxspeed" v="30 mph"/>
    <tag k="name" v="Gadsby Road"/>
  </way>
  <way id="809567761" version="3" timestamp="2025-08-01T11:59:57Z" changeset="169814349" uid="90943" user="chris_debian">
    <nd ref="7095733471"/>
    <nd ref="7569590743"/>
    <nd ref="7095733472"/>
    <nd ref="7569590740"/>
    <tag k="highway" v="residential"/>
    <tag k="maxspeed" v="30 mph"/>
    <tag k="name" v="Gadsby Road"/>
    <tag k="oneway" v="no"/>
    <tag k="source" v="Maxar"/>
  </way>
  <way id="857730092" version="1" timestamp="2020-10-11T07:51:28Z" changeset="92294214" uid="10252542" user="karmsudi">
    <nd ref="7996615612"/>
    <nd ref="1169004199"/>
    <tag k="highway" v="residential"/>
    <tag k="source" v="maxar"/>
  </way>
  <way id="893441703" version="2" timestamp="2022-10-28T15:14:17Z" changeset="128179804" uid="872624" user="jlwarlow">
    <nd ref="7976682203"/>
    <nd ref="2407932766"/>
    <nd ref="1900434250"/>
    <nd ref="7976677578"/>
    <nd ref="7976682204"/>
    <nd ref="8303879873"/>
    <tag k="highway" v="tertiary"/>
    <tag k="maxspeed" v="40 mph"/>
    <tag k="name" v="Mill Lane"/>
    <tag k="oneway" v="no"/>
    <tag k="source" v="NaPTAN"/>
    <tag k="source:name" v="OS OpenData Locator"/>
  </way>
  <way id="893441704" version="2" timestamp="2022-10-28T15:14:17Z" changeset="128179804" uid="872624" user="jlwarlow">
    <nd ref="8303879873"/>
    <nd ref="8303879872"/>
    <tag k="bridge" v="yes"/>
    <tag k="highway" v="tertiary"/>
    <tag k="layer" v="1"/>
    <tag k="maxspeed" v="40 mph"/>
    <tag k="name" v="Mill Lane"/>
    <tag k="oneway" v="no"/>
    <tag k="source" v="NaPTAN"/>
    <tag k="source:name" v="OS OpenData Locator"/>
  </way>
  <way id="906888634" version="1" timestamp="2021-02-13T19:06:12Z" changeset="99226524" uid="12077692" user="SimonLEI">
    <nd ref="8421114033"/>
    <nd ref="8421114034"/>
    <nd ref="8421114035"/>
    <nd ref="8421114036"/>
    <nd ref="8421114037"/>
    <nd ref="8421114038"/>
    <nd ref="8421114039"/>
    <nd ref="8421114040"/>
    <nd ref="8421114041"/>
    <nd ref="8421114042"/>
    <nd ref="8421114043"/>
    <nd ref="8421114044"/>
    <nd ref="8421114045"/>
    <nd ref="8421114046"/>
    <nd ref="8421114033"/>
    <tag k="building" v="yes"/>
    <tag k="name" v="Cattows Farm Shop"/>
  </way>
  <way id="907132330" version="1" timestamp="2021-02-14T19:53:27Z" changeset="99264793" uid="12077692" user="SimonLEI">
    <nd ref="8423497536"/>
    <nd ref="8423497537"/>
    <nd ref="8423497538"/>
    <nd ref="8423497539"/>
    <nd ref="8423497540"/>
    <nd ref="8423497541"/>
    <nd ref="8423497536"/>
    <tag k="building" v="yes"/>
    <tag k="name" v="Heather St John's Football Club"/>
  </way>
  <way id="955249701" version="3" timestamp="2024-06-06T21:12:40Z" changeset="152350159" uid="1888163" user="RattusMaximus">
    <nd ref="8841308756"/>
    <nd ref="6997917182"/>
    <nd ref="7095733465"/>
    <nd ref="6997917173"/>
    <nd ref="249322171"/>
    <nd ref="1169004329"/>
    <nd ref="1169003810"/>
    <nd ref="249322172"/>
    <nd ref="249322173"/>
    <nd ref="1169003867"/>
    <nd ref="1169003737"/>
    <nd ref="1169003645"/>
    <nd ref="11961588797"/>
    <nd ref="3448648739"/>
    <nd ref="249322174"/>
    <nd ref="4379533700"/>
    <nd ref="249322175"/>
    <nd ref="4379533997"/>
    <nd ref="249322176"/>
    <tag k="hgv" v="destination"/>
    <tag k="highway" v="tertiary"/>
    <tag k="maxspeed" v="30 mph"/>
    <tag k="name" v="Swepstone Road"/>
    <tag k="source:name" v="OS_OpenData_Locator"/>
  </way>
  <way id="969268667" version="1" timestamp="2021-07-31T16:07:31Z" changeset="108949285" uid="53626" user="jambamkin">
    <nd ref="8968749972"/>
    <nd ref="5558529825"/>
    <nd ref="8968749974"/>
    <nd ref="5407059467"/>
    <tag k="designation" v="public_footpath"/>
    <tag k="foot" v="designated"/>
    <tag k="highway" v="unclassified"/>
  </way>
  <way id="969268668" version="1" timestamp="2021-07-31T16:07:31Z" changeset="108949285" uid="53626" user="jambamkin">
    <nd ref="8968749973"/>
    <nd ref="8968749972"/>
    <tag k="bridge" v="yes"/>
    <tag k="designation" v="public_footpath"/>
    <tag k="foot" v="designated"/>
    <tag k="highway" v="unclassified"/>
    <tag k="layer" v="1"/>
  </way>
  <way id="1107759308" version="1" timestamp="2022-10-28T15:14:17Z" changeset="128179804" uid="872624" user="jlwarlow">
    <nd ref="8303879872"/>
    <nd ref="102237988"/>
    <nd ref="102237989"/>
    <nd ref="10135646265"/>
    <tag k="highway" v="tertiary"/>
    <tag k="maxspeed" v="40 mph"/>
    <tag k="name" v="Mill Lane"/>
    <tag k="oneway" v="no"/>
    <tag k="source" v="NaPTAN"/>
    <tag k="source:name" v="OS OpenData Locator"/>
  </way>
  <way id="1290106448" version="2" timestamp="2025-08-01T11:59:57Z" changeset="169814349" uid="90943" user="chris_debian">
    <nd ref="7095733472"/>
    <nd ref="7095733473"/>
    <tag k="highway" v="residential"/>
    <tag k="maxspeed" v="30 mph"/>
    <tag k="name" v="Gadsby Road"/>
    <tag k="source" v="Maxar"/>
  </way>
  <way id="1358389040" version="1" timestamp="2025-02-09T18:02:08Z" changeset="162323864" uid="493595" user="Yorvik Prestigitator">
    <nd ref="12571689709"/>
    <nd ref="12571689710"/>
    <nd ref="12571689711"/>
    <nd ref="12571689712"/>
    <nd ref="12571689713"/>
    <nd ref="12571689714"/>
    <nd ref="12571689715"/>
    <nd ref="12571689716"/>
    <nd ref="12571689709"/>
    <tag k="addr:street" v="Swepstone Road"/>
    <tag k="amenity" v="community_centre"/>
    <tag k="building" v="public"/>
    <tag k="community_centre" v="village_hall"/>
    <tag k="name" v="Heather Village Hall"/>
  </way>
  <way id="1358389046" version="1" timestamp="2025-02-09T18:02:08Z" changeset="162323864" uid="493595" user="Yorvik Prestigitator">
    <nd ref="1169004408"/>
    <nd ref="12571689752"/>
    <tag k="highway" v="residential"/>
  </way>
  <way id="1358389048" version="1" timestamp="2025-02-09T18:02:08Z" changeset="162323864" uid="493595" user="Yorvik Prestigitator">
    <nd ref="1169004359"/>
    <nd ref="12571689754"/>
    <tag k="highway" v="residential"/>
  </way>
  <way id="1373870042" version="1" timestamp="2025-04-01T20:41:02Z" changeset="164393329" uid="5229644" user="Nathan_A_RF">
    <nd ref="255719205"/>
    <nd ref="1169004108"/>
    <nd ref="249322052"/>
    <tag k="cycleway:both" v="no"/>
    <tag k="highway" v="tertiary"/>
    <tag k="lanes" v="2"/>
    <tag k="name" v="Ravenstone Road"/>
    <tag k="smoothness" v="good"/>
    <tag k="source" v="Bing"/>
    <tag k="source:name" v="OS_OpenData_Locator"/>
    <tag k="surface" v="asphalt"/>
  </way>
  <way id="1418388897" version="1" timestamp="2025-07-29T17:48:01Z" changeset="169685795" uid="23025902" user="lonerider543">
    <nd ref="1169004606"/>
    <nd ref="255719197"/>
    <nd ref="13034433448"/>
    <tag k="highway" v="tertiary"/>
    <tag k="name" v="Normanton Lane"/>
    <tag k="source" v="Bing"/>
    <tag k="source:name" v="OS_OpenData_Locator"/>
  </way>

</osm>
