<?xml version="1.0" encoding="UTF-8"?>
<osm version="0.6" generator="Overpass API 0.7.62.8 e802775f">
<note>The data included in this document is from www.openstreetmap.org. The data is made available under ODbL.</note>
<meta osm_base="2025-12-17T13:10:58Z" areas="2025-12-17T07:37:58Z"/>

  <node id="100873090" lat="52.7025736" lon="-1.3238136" version="5" timestamp="2022-03-01T16:53:21Z" changeset="117986934" uid="705850" user="Cebderby"/>
  <node id="100873246" lat="52.7028361" lon="-1.3236195" version="4" timestamp="2017-06-09T10:44:33Z" changeset="49393717" uid="705850" user="Cebderby"/>
  <node id="100873512" lat="52.7057972" lon="-1.3287223" version="2" timestamp="2008-03-09T23:42:20Z" changeset="297576" uid="12992" user="trigpoint"/>
  <node id="251447008" lat="52.7047776" lon="-1.3269149" version="2" timestamp="2023-09-05T21:28:24Z" changeset="140869299" uid="13341565" user="Falsernet"/>
  <node id="252410332" lat="52.6965764" lon="-1.2925364" version="5" timestamp="2022-10-11T21:12:55Z" changeset="127381659" uid="24119" user="Mauls"/>
  <node id="1551036537" lat="52.7211629" lon="-1.2836407" version="2" timestamp="2022-10-11T21:12:55Z" changeset="127381659" uid="24119" user="Mauls"/>
  <node id="2098907979" lat="52.7006300" lon="-1.3065191" version="3" timestamp="2022-03-01T16:53:21Z" changeset="117986934" uid="705850" user="Cebderby"/>
  <node id="11170601253" lat="52.7046969" lon="-1.3270565" version="1" timestamp="2023-09-05T21:28:24Z" changeset="140869299" uid="13341565" user="Falsernet"/>
  <way id="11339185" version="7" timestamp="2022-05-31T20:47:17Z" changeset="121784570" uid="322039" user="MacLondon">
    <nd ref="100873090"/>
    <nd ref="100873234"/>
    <nd ref="9547790476"/>
    <nd ref="4905654916"/>
    <nd ref="4905655827"/>
    <nd ref="100873235"/>
    <nd ref="4905655822"/>
    <nd ref="255237767"/>
    <nd ref="100873236"/>
    <nd ref="4905655828"/>
    <nd ref="741093533"/>
    <nd ref="100873237"/>
    <nd ref="100873238"/>
    <nd ref="741093535"/>
    <nd ref="100873239"/>
    <nd ref="100873241"/>
    <nd ref="100873244"/>
    <nd ref="100873246"/>
    <nd ref="4905655833"/>
    <nd ref="4905655832"/>
    <nd ref="4905655823"/>
    <nd ref="4905655831"/>
    <nd ref="9547790475"/>
    <nd ref="741093536"/>
    <nd ref="100873090"/>
    <tag k="highway" v="trunk"/>
    <tag k="junction" v="circular"/>
    <tag k="maxspeed" v="70 mph"/>
    <tag k="oneway" v="yes"/>
  </way>
  <way id="11339317" version="15" timestamp="2023-09-05T21:28:24Z" changeset="140869299" uid="13341565" user="Falsernet">
    <nd ref="100873246"/>
    <nd ref="4905655830"/>
    <nd ref="4905654914"/>
    <nd ref="4905655829"/>
    <nd ref="2471791200"/>
    <nd ref="100874064"/>
    <nd ref="4738657102"/>
    <nd ref="3724769874"/>
    <nd ref="100874065"/>
    <nd ref="2098907980"/>
    <tag k="dual_carriageway" v="yes"/>
    <tag k="highway" v="trunk"/>
    <tag k="lanes" v="2"/>
    <tag k="maxspeed" v="70 mph"/>
    <tag k="name" v="Shaw Lane"/>
    <tag k="oneway" v="yes"/>
    <tag k="ref" v="A511"/>
    <tag k="source:name" v="NaPTAN"/>
  </way>
  <way id="23239500" version="11" timestamp="2024-11-15T13:29:22Z" changeset="159170675" uid="22181562" user="finlew">
    <nd ref="251447008"/>
    <nd ref="251447009"/>
    <nd ref="4905655826"/>
    <nd ref="12343817001"/>
    <nd ref="251447010"/>
    <nd ref="100873238"/>
    <tag k="dual_carriageway" v="yes"/>
    <tag k="highway" v="trunk"/>
    <tag k="lanes" v="2"/>
    <tag k="maxspeed" v="50 mph"/>
    <tag k="name" v="Bardon Road"/>
    <tag k="oneway" v="yes"/>
    <tag k="ref" v="A511"/>
    <tag k="source:name" v="NaPTAN"/>
  </way>
  <way id="23239503" version="11" timestamp="2023-12-11T17:38:45Z" changeset="145008631" uid="705850" user="Cebderby">
    <nd ref="100873512"/>
    <nd ref="7379075931"/>
    <nd ref="1639352575"/>
    <nd ref="100873513"/>
    <nd ref="100873514"/>
    <nd ref="11410175233"/>
    <tag k="highway" v="trunk"/>
    <tag k="lanes" v="2"/>
    <tag k="maxspeed" v="50 mph"/>
    <tag k="ref" v="A511"/>
  </way>
  <way id="23313861" version="24" timestamp="2024-01-22T18:56:44Z" changeset="146565751" uid="16951803" user="Vas111">
    <nd ref="252410332"/>
    <nd ref="1324711762"/>
    <nd ref="326394"/>
    <nd ref="1324711662"/>
    <nd ref="326395"/>
    <nd ref="244429590"/>
    <nd ref="326397"/>
    <nd ref="10093494032"/>
    <nd ref="326398"/>
    <nd ref="10093494031"/>
    <nd ref="10093494030"/>
    <nd ref="326400"/>
    <nd ref="10093494029"/>
    <nd ref="326402"/>
    <nd ref="10093494028"/>
    <nd ref="10093494027"/>
    <nd ref="326404"/>
    <nd ref="10093494026"/>
    <nd ref="326406"/>
    <nd ref="10093494025"/>
    <nd ref="10093494024"/>
    <nd ref="326407"/>
    <nd ref="10093494023"/>
    <nd ref="10093494022"/>
    <nd ref="194753"/>
    <nd ref="10093494021"/>
    <nd ref="194754"/>
    <nd ref="10093494020"/>
    <nd ref="326412"/>
    <nd ref="10093494019"/>
    <nd ref="326414"/>
    <nd ref="1551036532"/>
    <tag k="carriageway_ref" v="A"/>
    <tag k="highway" v="motorway"/>
    <tag k="int_ref" v="E 13"/>
    <tag k="lanes" v="3"/>
    <tag k="lit" v="no"/>
    <tag k="maxheight" v="default"/>
    <tag k="maxspeed" v="70 mph"/>
    <tag k="maxspeed:type" v="GB:motorway"/>
    <tag k="national_highways:area" v="7"/>
    <tag k="oneway" v="yes"/>
    <tag k="operator" v="National Highways"/>
    <tag k="operator:wikidata" v="Q5760006"/>
    <tag k="ref" v="M1"/>
    <tag k="source:maxspeed" v="survey"/>
    <tag k="surface" v="asphalt"/>
    <tag k="wikidata" v="Q19875"/>
    <tag k="wikipedia" v="en:M1 motorway"/>
  </way>
  <way id="141697562" version="14" timestamp="2024-01-22T18:56:44Z" changeset="146565751" uid="16951803" user="Vas111">
    <nd ref="1551036537"/>
    <nd ref="326415"/>
    <nd ref="326413"/>
    <nd ref="326411"/>
    <nd ref="326410"/>
    <nd ref="326409"/>
    <nd ref="326408"/>
    <nd ref="326405"/>
    <nd ref="326403"/>
    <nd ref="326401"/>
    <nd ref="326399"/>
    <nd ref="194750"/>
    <tag k="carriageway_ref" v="B"/>
    <tag k="highway" v="motorway"/>
    <tag k="int_ref" v="E 13"/>
    <tag k="lanes" v="3"/>
    <tag k="lit" v="no"/>
    <tag k="maxheight" v="default"/>
    <tag k="maxspeed" v="70 mph"/>
    <tag k="maxspeed:type" v="GB:motorway"/>
    <tag k="national_highways:area" v="7"/>
    <tag k="oneway" v="yes"/>
    <tag k="operator" v="National Highways"/>
    <tag k="operator:wikidata" v="Q5760006"/>
    <tag k="ref" v="M1"/>
    <tag k="source:maxspeed" v="survey"/>
    <tag k="surface" v="asphalt"/>
    <tag k="wikidata" v="Q19875"/>
    <tag k="wikipedia" v="en:M1 motorway"/>
  </way>
  <way id="193759790" version="4" timestamp="2025-04-01T17:31:07Z" changeset="164386085" uid="417748" user="Dave Venables">
    <nd ref="2042680149"/>
    <nd ref="2042680135"/>
    <nd ref="2042680151"/>
    <nd ref="2042680134"/>
    <nd ref="2042680149"/>
    <tag k="addr:city" v="Coalville"/>
    <tag k="addr:postcode" v="LE67 1SY"/>
    <tag k="addr:street" v="Shaw Lane"/>
    <tag k="amenity" v="place_of_worship"/>
    <tag k="building" v="church"/>
    <tag k="name" v="Bardon Park Chapel"/>
    <tag k="religion" v="christian"/>
    <tag k="source" v="Bing"/>
    <tag k="wikidata" v="Q4860204"/>
  </way>
  <way id="199902778" version="6" timestamp="2023-09-05T21:28:24Z" changeset="140869299" uid="13341565" user="Falsernet">
    <nd ref="2098907979"/>
    <nd ref="255237589"/>
    <nd ref="100873088"/>
    <nd ref="6305367488"/>
    <nd ref="3724769884"/>
    <nd ref="4738657101"/>
    <nd ref="251072051"/>
    <nd ref="100873089"/>
    <nd ref="251446876"/>
    <tag k="dual_carriageway" v="yes"/>
    <tag k="highway" v="trunk"/>
    <tag k="lanes" v="2"/>
    <tag k="maxspeed" v="70 mph"/>
    <tag k="name" v="Shaw Lane"/>
    <tag k="oneway" v="yes"/>
    <tag k="ref" v="A511"/>
    <tag k="source:name" v="NaPTAN"/>
  </way>
  <way id="1205343084" version="1" timestamp="2023-09-05T21:28:24Z" changeset="140869299" uid="13341565" user="Falsernet">
    <nd ref="100873512"/>
    <nd ref="251447007"/>
    <nd ref="251447008"/>
    <tag k="dual_carriageway" v="no"/>
    <tag k="highway" v="trunk"/>
    <tag k="lanes" v="2"/>
    <tag k="maxspeed" v="50 mph"/>
    <tag k="name" v="Bardon Road"/>
    <tag k="oneway" v="yes"/>
    <tag k="ref" v="A511"/>
    <tag k="source:name" v="NaPTAN"/>
  </way>
  <way id="1205343085" version="1" timestamp="2023-09-05T21:28:24Z" changeset="140869299" uid="13341565" user="Falsernet">
    <nd ref="11170601253"/>
    <nd ref="4738657080"/>
    <nd ref="100873512"/>
    <tag k="dual_carriageway" v="no"/>
    <tag k="highway" v="trunk"/>
    <tag k="lanes" v="2"/>
    <tag k="maxspeed" v="50 mph"/>
    <tag k="name" v="Bardon Road"/>
    <tag k="oneway" v="yes"/>
    <tag k="ref" v="A511"/>
    <tag k="source:name" v="NaPTAN"/>
  </way>

</osm>
