<?xml version="1.0" encoding="UTF-8"?>
<osm version="0.6" generator="Overpass API 0.7.62.8 e802775f">
<note>The data included in this document is from www.openstreetmap.org. The data is made available under ODbL.</note>
<meta osm_base="2025-12-17T13:08:56Z" areas="2025-12-17T07:37:58Z"/>

  <node id="33626487" lat="52.7829299" lon="-1.3826677" version="9" timestamp="2022-04-27T15:16:37Z" changeset="120264923" uid="13341565" user="Falsernet"/>
  <node id="100210066" lat="52.8288950" lon="-1.3994863" version="4" timestamp="2013-07-09T15:05:07Z" changeset="16888257" uid="24119" user="Mauls"/>
  <node id="100219442" lat="52.7980905" lon="-1.4077225" version="1" timestamp="2007-11-06T18:17:08Z" changeset="422907" uid="2955" user="Matthew Newton">
    <tag k="created_by" v="JOSM"/>
  </node>
  <node id="102206059" lat="52.8130780" lon="-1.3772214" version="2" timestamp="2014-08-12T21:53:07Z" changeset="24712125" uid="178626" user="Rovastar"/>
  <node id="244428544" lat="52.7972733" lon="-1.3535556" version="3" timestamp="2014-08-12T21:21:00Z" changeset="24711560" uid="178626" user="Rovastar"/>
  <node id="244428552" lat="52.7907159" lon="-1.3562436" version="4" timestamp="2014-08-12T21:21:00Z" changeset="24711560" uid="178626" user="Rovastar"/>
  <node id="271203098" lat="52.8191938" lon="-1.4018566" version="3" timestamp="2012-12-10T12:59:23Z" changeset="14225770" uid="51722" user="Chris Parker"/>
  <node id="616301939" lat="52.7746098" lon="-1.4217227" version="2" timestamp="2014-08-12T21:21:03Z" changeset="24711560" uid="178626" user="Rovastar"/>
  <node id="1045423954" lat="52.8255380" lon="-1.3851326" version="3" timestamp="2024-07-11T20:41:28Z" changeset="153829227" uid="11768777" user="sistershrimp">
    <tag k="access" v="no"/>
    <tag k="barrier" v="gate"/>
  </node>
  <node id="3013297317" lat="52.7980112" lon="-1.3535746" version="2" timestamp="2016-03-11T14:54:04Z" changeset="37761580" uid="2512300" user="samely"/>
  <node id="3013297323" lat="52.7980379" lon="-1.3530783" version="2" timestamp="2016-03-11T14:54:04Z" changeset="37761580" uid="2512300" user="samely"/>
  <node id="4151759110" lat="52.7922363" lon="-1.4021090" version="2" timestamp="2017-08-01T23:00:30Z" changeset="50765723" uid="5296090" user="TR42"/>
  <node id="5008449954" lat="52.7973026" lon="-1.3685530" version="1" timestamp="2017-08-01T22:36:54Z" changeset="50765723" uid="5296090" user="TR42"/>
  <way id="5032467" version="9" timestamp="2025-04-14T21:22:45Z" changeset="164958119" uid="5229644" user="Nathan_A_RF">
    <nd ref="33626507"/>
    <nd ref="12755541779"/>
    <nd ref="33626508"/>
    <nd ref="3013297256"/>
    <nd ref="1157288260"/>
    <nd ref="12755541778"/>
    <nd ref="33626509"/>
    <nd ref="33626510"/>
    <nd ref="1157287692"/>
    <nd ref="33626501"/>
    <nd ref="3013297284"/>
    <nd ref="1157288805"/>
    <nd ref="33626502"/>
    <nd ref="1157287634"/>
    <nd ref="33626503"/>
    <nd ref="3013297250"/>
    <nd ref="33626504"/>
    <nd ref="1157288893"/>
    <nd ref="33626505"/>
    <nd ref="1157288263"/>
    <nd ref="33626506"/>
    <nd ref="33626507"/>
    <tag k="highway" v="primary"/>
    <tag k="junction" v="roundabout"/>
    <tag k="lit" v="yes"/>
    <tag k="maxspeed" v="60 mph"/>
    <tag k="maxspeed:type" v="GB:nsl_single"/>
    <tag k="name" v="Tonge Interchange"/>
  </way>
  <way id="5032468" version="17" timestamp="2025-04-14T21:22:45Z" changeset="164958119" uid="5229644" user="Nathan_A_RF">
    <nd ref="217190"/>
    <nd ref="3013297644"/>
    <nd ref="3013297648"/>
    <nd ref="3013297651"/>
    <nd ref="3013297652"/>
    <nd ref="33626517"/>
    <nd ref="3013297660"/>
    <nd ref="33626518"/>
    <nd ref="3013297667"/>
    <nd ref="3013297670"/>
    <tag k="carriageway_ref" v="H"/>
    <tag k="highway" v="trunk_link"/>
    <tag k="lanes" v="1"/>
    <tag k="lit" v="no"/>
    <tag k="maxspeed" v="70 mph"/>
    <tag k="maxspeed:type" v="GB:nsl_dual"/>
    <tag k="national_highways:area" v="7"/>
    <tag k="oneway" v="yes"/>
    <tag k="operator" v="National Highways"/>
    <tag k="operator:wikidata" v="Q5760006"/>
    <tag k="surface" v="asphalt"/>
  </way>
  <way id="5032471" version="19" timestamp="2025-04-14T21:22:45Z" changeset="164958119" uid="5229644" user="Nathan_A_RF">
    <nd ref="33626487"/>
    <nd ref="3013414289"/>
    <nd ref="3013414290"/>
    <nd ref="33626488"/>
    <nd ref="1157287503"/>
    <nd ref="33626489"/>
    <nd ref="33626490"/>
    <nd ref="3013414301"/>
    <nd ref="3013414304"/>
    <nd ref="3013414306"/>
    <nd ref="33626491"/>
    <nd ref="3013414311"/>
    <nd ref="3013414315"/>
    <nd ref="33626492"/>
    <nd ref="3013414317"/>
    <nd ref="3013414319"/>
    <nd ref="3013414320"/>
    <nd ref="33626493"/>
    <nd ref="3013414321"/>
    <nd ref="3013414322"/>
    <nd ref="33626494"/>
    <nd ref="33626495"/>
    <nd ref="3013414326"/>
    <nd ref="3013414327"/>
    <nd ref="3013414328"/>
    <nd ref="3013414329"/>
    <nd ref="33626496"/>
    <nd ref="3013414330"/>
    <nd ref="3013414331"/>
    <nd ref="3013414332"/>
    <nd ref="33626497"/>
    <nd ref="3013418933"/>
    <nd ref="3013418934"/>
    <nd ref="3013418935"/>
    <nd ref="33626498"/>
    <nd ref="3013418936"/>
    <nd ref="3013418937"/>
    <nd ref="3013418938"/>
    <nd ref="33626499"/>
    <nd ref="3013418939"/>
    <nd ref="3013418940"/>
    <nd ref="12755541781"/>
    <nd ref="33626500"/>
    <tag k="cycleway:both" v="no"/>
    <tag k="highway" v="tertiary"/>
    <tag k="lanes" v="2"/>
    <tag k="lit" v="no"/>
    <tag k="maxspeed" v="60 mph"/>
    <tag k="maxspeed:type" v="GB:nsl_single"/>
    <tag k="name" v="Top Brand"/>
    <tag k="old_ref" v="A447"/>
    <tag k="smoothness" v="excellent"/>
    <tag k="surface" v="asphalt"/>
  </way>
  <way id="5032472" version="6" timestamp="2025-04-14T21:22:45Z" changeset="164958119" uid="5229644" user="Nathan_A_RF">
    <nd ref="33626505"/>
    <nd ref="33626525"/>
    <nd ref="3013297213"/>
    <nd ref="33626526"/>
    <nd ref="33626500"/>
    <tag k="highway" v="tertiary"/>
    <tag k="lit" v="yes"/>
    <tag k="maxspeed" v="60 mph"/>
    <tag k="maxspeed:type" v="GB:nsl_single"/>
    <tag k="name" v="Top Brand"/>
    <tag k="old_ref" v="A447"/>
    <tag k="oneway" v="yes"/>
  </way>
  <way id="5032482" version="8" timestamp="2025-04-14T21:22:45Z" changeset="164958119" uid="5229644" user="Nathan_A_RF">
    <nd ref="33626509"/>
    <nd ref="33626573"/>
    <nd ref="33626521"/>
    <tag k="highway" v="primary"/>
    <tag k="lit" v="yes"/>
    <tag k="maxspeed" v="60 mph"/>
    <tag k="maxspeed:type" v="GB:nsl_single"/>
    <tag k="old_ref" v="A447"/>
    <tag k="oneway" v="yes"/>
    <tag k="ref" v="A453"/>
  </way>
  <way id="9228734" version="7" timestamp="2015-11-19T13:21:07Z" changeset="35434068" uid="1431482" user="JonOrchard">
    <nd ref="33626489"/>
    <nd ref="100219639"/>
    <nd ref="3013414291"/>
    <nd ref="100219634"/>
    <nd ref="3013414292"/>
    <nd ref="3013414293"/>
    <nd ref="3013414294"/>
    <nd ref="3013414295"/>
    <nd ref="100219630"/>
    <nd ref="100219626"/>
    <nd ref="3013414296"/>
    <nd ref="3013414297"/>
    <nd ref="100219619"/>
    <nd ref="3013414298"/>
    <nd ref="3013414299"/>
    <nd ref="3013414300"/>
    <nd ref="100219615"/>
    <nd ref="3013414302"/>
    <nd ref="3013414303"/>
    <nd ref="100219611"/>
    <nd ref="3013414305"/>
    <nd ref="100219609"/>
    <nd ref="3013414307"/>
    <nd ref="3013414308"/>
    <nd ref="3013414309"/>
    <nd ref="100219605"/>
    <nd ref="3013414310"/>
    <nd ref="100219603"/>
    <nd ref="3013414312"/>
    <nd ref="3013414313"/>
    <nd ref="3013414314"/>
    <nd ref="100219601"/>
    <nd ref="3013414316"/>
    <nd ref="100219598"/>
    <nd ref="3013414318"/>
    <nd ref="100219595"/>
    <nd ref="100219592"/>
    <nd ref="3013414323"/>
    <nd ref="3013414324"/>
    <nd ref="3013414325"/>
    <nd ref="100219588"/>
    <nd ref="3844482811"/>
    <nd ref="100219587"/>
    <nd ref="100219585"/>
    <nd ref="100219581"/>
    <tag k="highway" v="unclassified"/>
    <tag k="name" v="Stocking Lane"/>
  </way>
  <way id="11283606" version="20" timestamp="2024-05-11T13:32:05Z" changeset="151186502" uid="4626766" user="Edward Smith (MilPop14)">
    <nd ref="1239149243"/>
    <nd ref="4737760910"/>
    <nd ref="175632632"/>
    <nd ref="280963043"/>
    <nd ref="4737760911"/>
    <nd ref="280963044"/>
    <nd ref="280963046"/>
    <nd ref="4365542231"/>
    <nd ref="8192834831"/>
    <nd ref="280963047"/>
    <nd ref="6569774539"/>
    <nd ref="280963048"/>
    <nd ref="100219505"/>
    <nd ref="4365542197"/>
    <nd ref="4365542187"/>
    <nd ref="4365542184"/>
    <nd ref="6569774532"/>
    <nd ref="100219498"/>
    <nd ref="9133550264"/>
    <nd ref="100219494"/>
    <nd ref="4365542121"/>
    <nd ref="4365542119"/>
    <nd ref="4365542115"/>
    <nd ref="4365542095"/>
    <nd ref="100219489"/>
    <nd ref="4365536951"/>
    <nd ref="100219485"/>
    <nd ref="4365536923"/>
    <nd ref="2059767589"/>
    <nd ref="244428003"/>
    <tag k="highway" v="tertiary"/>
    <tag k="lit" v="yes"/>
    <tag k="maxspeed" v="30 mph"/>
    <tag k="name" v="Main Street"/>
    <tag k="old_ref" v="A453"/>
    <tag k="source:name" v="survey"/>
  </way>
  <way id="11283608" version="14" timestamp="2024-05-01T19:01:29Z" changeset="150764785" uid="607648" user="dudone">
    <nd ref="100219442"/>
    <nd ref="100219439"/>
    <nd ref="100219436"/>
    <nd ref="596430968"/>
    <nd ref="3528185458"/>
    <nd ref="100219430"/>
    <nd ref="11872417478"/>
    <nd ref="100219428"/>
    <nd ref="100219427"/>
    <nd ref="100219425"/>
    <nd ref="100219423"/>
    <nd ref="100219421"/>
    <nd ref="100219419"/>
    <nd ref="100219416"/>
    <nd ref="100219413"/>
    <nd ref="2076672674"/>
    <nd ref="100219410"/>
    <nd ref="100219406"/>
    <nd ref="100219403"/>
    <nd ref="100219399"/>
    <nd ref="7322128136"/>
    <nd ref="100219396"/>
    <nd ref="100219393"/>
    <nd ref="100219390"/>
    <nd ref="100219386"/>
    <nd ref="100219384"/>
    <nd ref="100219381"/>
    <nd ref="6868989638"/>
    <nd ref="3528185477"/>
    <nd ref="100219379"/>
    <nd ref="100219376"/>
    <nd ref="100219375"/>
    <nd ref="100219372"/>
    <nd ref="100219369"/>
    <nd ref="100219366"/>
    <nd ref="100219364"/>
    <nd ref="100219361"/>
    <nd ref="3528254088"/>
    <nd ref="100219359"/>
    <tag k="cycleway:both" v="no"/>
    <tag k="highway" v="unclassified"/>
    <tag k="lane_markings" v="no"/>
    <tag k="name" v="Burney Lane"/>
    <tag k="surface" v="asphalt"/>
  </way>
  <way id="11477846" version="8" timestamp="2025-04-14T21:22:45Z" changeset="164958119" uid="5229644" user="Nathan_A_RF">
    <nd ref="33626521"/>
    <nd ref="33626523"/>
    <nd ref="33626501"/>
    <tag k="highway" v="primary"/>
    <tag k="lit" v="yes"/>
    <tag k="maxspeed" v="60 mph"/>
    <tag k="maxspeed:type" v="GB:nsl_single"/>
    <tag k="old_ref" v="A447"/>
    <tag k="oneway" v="yes"/>
    <tag k="ref" v="A453"/>
  </way>
  <way id="11477950" version="15" timestamp="2022-04-27T15:16:37Z" changeset="120264923" uid="13341565" user="Falsernet">
    <nd ref="252412823"/>
    <nd ref="3013297657"/>
    <nd ref="3013297668"/>
    <nd ref="33626520"/>
    <nd ref="5008449956"/>
    <tag k="highway" v="primary"/>
    <tag k="lit" v="yes"/>
    <tag k="maxspeed" v="60 mph"/>
    <tag k="maxspeed:type" v="GB:nsl_single"/>
    <tag k="old_ref" v="A447"/>
    <tag k="ref" v="A453"/>
  </way>
  <way id="16941489" version="11" timestamp="2024-01-19T19:43:31Z" changeset="146455735" uid="242345" user="confusedbuffalo">
    <nd ref="102206053"/>
    <nd ref="175632272"/>
    <nd ref="175632274"/>
    <nd ref="175632277"/>
    <nd ref="175632279"/>
    <nd ref="3135806773"/>
    <nd ref="175632402"/>
    <nd ref="175632413"/>
    <tag k="highway" v="tertiary"/>
    <tag k="lit" v="no"/>
    <tag k="maxspeed" v="50 mph"/>
    <tag k="maxspeed:type" v="sign"/>
    <tag k="old_ref" v="A453"/>
  </way>
  <way id="16941490" version="15" timestamp="2025-04-15T17:50:38Z" changeset="164997116" uid="5229644" user="Nathan_A_RF">
    <nd ref="175632631"/>
    <nd ref="2814556843"/>
    <nd ref="2814556845"/>
    <nd ref="175632633"/>
    <nd ref="175632635"/>
    <nd ref="175632636"/>
    <nd ref="175632638"/>
    <nd ref="175632645"/>
    <nd ref="175632646"/>
    <nd ref="175632647"/>
    <nd ref="175632648"/>
    <nd ref="175632651"/>
    <nd ref="175632661"/>
    <nd ref="175632662"/>
    <nd ref="175632665"/>
    <nd ref="175632668"/>
    <nd ref="2814556854"/>
    <nd ref="175632671"/>
    <nd ref="175632734"/>
    <nd ref="2814556861"/>
    <nd ref="2814556863"/>
    <nd ref="175632735"/>
    <nd ref="2814556865"/>
    <nd ref="175632736"/>
    <nd ref="175632737"/>
    <nd ref="175632738"/>
    <nd ref="175632739"/>
    <nd ref="2814556866"/>
    <nd ref="175632740"/>
    <nd ref="2814556867"/>
    <nd ref="175632741"/>
    <nd ref="2814556868"/>
    <nd ref="2814556869"/>
    <nd ref="175632742"/>
    <nd ref="2814556870"/>
    <nd ref="175632743"/>
    <nd ref="175632744"/>
    <nd ref="2814556871"/>
    <nd ref="175632745"/>
    <nd ref="175632747"/>
    <nd ref="2059770785"/>
    <nd ref="175632749"/>
    <nd ref="175632752"/>
    <nd ref="2814556872"/>
    <nd ref="175632755"/>
    <nd ref="2059770773"/>
    <nd ref="2814556873"/>
    <nd ref="175632757"/>
    <tag k="highway" v="tertiary"/>
    <tag k="lit" v="no"/>
    <tag k="maxspeed" v="60 mph"/>
    <tag k="maxspeed:type" v="GB:nsl_single"/>
    <tag k="name" v="Pingle Hill"/>
  </way>
  <way id="16944612" version="10" timestamp="2025-04-15T18:14:27Z" changeset="164997990" uid="5229644" user="Nathan_A_RF">
    <nd ref="100219442"/>
    <nd ref="175666187"/>
    <nd ref="175666190"/>
    <nd ref="175666193"/>
    <nd ref="175666196"/>
    <nd ref="5008466481"/>
    <nd ref="175666199"/>
    <nd ref="175666203"/>
    <nd ref="175666205"/>
    <nd ref="2279271768"/>
    <tag k="highway" v="tertiary"/>
    <tag k="lit" v="no"/>
    <tag k="maxspeed" v="60 mph"/>
    <tag k="maxspeed:type" v="GB:nsl_single"/>
    <tag k="name" v="Nottingham Road"/>
    <tag k="old_ref" v="A453"/>
    <tag k="surface" v="asphalt"/>
  </way>
  <way id="22768772" version="6" timestamp="2022-05-26T12:53:49Z" changeset="121524233" uid="6397757" user="TomJeffs">
    <nd ref="244427858"/>
    <nd ref="244427943"/>
    <nd ref="5008451123"/>
    <nd ref="244427944"/>
    <nd ref="244427945"/>
    <nd ref="5008451124"/>
    <nd ref="244427946"/>
    <nd ref="4365542250"/>
    <nd ref="4365542257"/>
    <nd ref="244427947"/>
    <nd ref="4365542259"/>
    <nd ref="4365542260"/>
    <nd ref="9772641386"/>
    <nd ref="1239147074"/>
    <tag k="highway" v="unclassified"/>
    <tag k="maxspeed" v="30 mph"/>
    <tag k="name" v="Peters Close"/>
  </way>
  <way id="22768773" version="11" timestamp="2024-01-19T19:32:09Z" changeset="146455440" uid="242345" user="confusedbuffalo">
    <nd ref="175632735"/>
    <nd ref="2814556864"/>
    <nd ref="1241832241"/>
    <nd ref="1241832242"/>
    <nd ref="1241832244"/>
    <nd ref="244427984"/>
    <nd ref="244427985"/>
    <nd ref="244427986"/>
    <nd ref="244427987"/>
    <nd ref="244427988"/>
    <nd ref="244427989"/>
    <nd ref="244427990"/>
    <nd ref="244427991"/>
    <nd ref="597334892"/>
    <nd ref="244427992"/>
    <nd ref="1241832259"/>
    <nd ref="1224636192"/>
    <nd ref="244427993"/>
    <nd ref="1224636307"/>
    <tag k="highway" v="unclassified"/>
    <tag k="maxspeed" v="60 mph"/>
    <tag k="maxspeed:type" v="GB:nsl_single"/>
    <tag k="name" v="Squirrel Lane"/>
  </way>
  <way id="22768776" version="8" timestamp="2021-02-09T10:32:24Z" changeset="98968070" uid="9641456" user="rababdul">
    <nd ref="4151759110"/>
    <nd ref="244428104"/>
    <nd ref="1369318054"/>
    <nd ref="244428105"/>
    <nd ref="8407850692"/>
    <nd ref="244428106"/>
    <nd ref="244428107"/>
    <nd ref="244428108"/>
    <nd ref="244428109"/>
    <nd ref="244428110"/>
    <nd ref="244428111"/>
    <nd ref="244428112"/>
    <nd ref="244428113"/>
    <nd ref="244428114"/>
    <nd ref="244428115"/>
    <nd ref="3013391742"/>
    <nd ref="244428116"/>
    <nd ref="1891136434"/>
    <nd ref="3013391741"/>
    <nd ref="3013391740"/>
    <nd ref="3013391739"/>
    <nd ref="244428117"/>
    <nd ref="3013391738"/>
    <nd ref="3013391737"/>
    <nd ref="1891136421"/>
    <nd ref="3013391736"/>
    <nd ref="33626468"/>
    <tag k="highway" v="unclassified"/>
    <tag k="name" v="Worthington Lane"/>
  </way>
  <way id="22768805" version="8" timestamp="2025-04-14T21:22:45Z" changeset="164958119" uid="5229644" user="Nathan_A_RF">
    <nd ref="1157288412"/>
    <nd ref="5008449954"/>
    <tag k="highway" v="tertiary"/>
    <tag k="lit" v="yes"/>
    <tag k="maxspeed" v="60 mph"/>
    <tag k="maxspeed:type" v="GB:nsl_single"/>
    <tag k="name" v="Gelscoe Lane"/>
  </way>
  <way id="22768806" version="3" timestamp="2014-08-12T21:24:15Z" changeset="24711616" uid="178626" user="Rovastar">
    <nd ref="244428544"/>
    <nd ref="3013297202"/>
    <nd ref="3013297196"/>
    <nd ref="244428547"/>
    <nd ref="3013297184"/>
    <nd ref="3013297180"/>
    <nd ref="3013297179"/>
    <nd ref="244428548"/>
    <nd ref="3013297173"/>
    <nd ref="244428549"/>
    <nd ref="3013297163"/>
    <nd ref="3013297160"/>
    <nd ref="3013297158"/>
    <nd ref="3013297156"/>
    <nd ref="3013297155"/>
    <nd ref="244428550"/>
    <nd ref="244428551"/>
    <nd ref="3013297149"/>
    <nd ref="3013297147"/>
    <nd ref="3013297145"/>
    <nd ref="3013297144"/>
    <nd ref="244428552"/>
    <tag k="highway" v="tertiary"/>
  </way>
  <way id="23314192" version="8" timestamp="2025-04-14T21:22:45Z" changeset="164958119" uid="5229644" user="Nathan_A_RF">
    <nd ref="252412823"/>
    <nd ref="252412824"/>
    <tag k="bridge" v="yes"/>
    <tag k="highway" v="primary"/>
    <tag k="layer" v="1"/>
    <tag k="lit" v="yes"/>
    <tag k="maxspeed" v="60 mph"/>
    <tag k="maxspeed:type" v="GB:nsl_single"/>
    <tag k="old_ref" v="A447"/>
    <tag k="ref" v="A453"/>
  </way>
  <way id="24957914" version="8" timestamp="2021-04-09T11:30:20Z" changeset="102638747" uid="10170574" user="asnghpi">
    <nd ref="271203073"/>
    <nd ref="271203074"/>
    <nd ref="271203075"/>
    <nd ref="271203076"/>
    <nd ref="8610871161"/>
    <nd ref="8387403279"/>
    <nd ref="271203077"/>
    <nd ref="6512376384"/>
    <nd ref="271203079"/>
    <nd ref="271203081"/>
    <nd ref="2711259774"/>
    <tag k="highway" v="unclassified"/>
    <tag k="name" v="Slade Lane"/>
  </way>
  <way id="24957974" version="5" timestamp="2014-08-12T21:24:15Z" changeset="24711616" uid="178626" user="Rovastar">
    <nd ref="244428552"/>
    <nd ref="3013297143"/>
    <nd ref="1157307750"/>
    <nd ref="3013297146"/>
    <nd ref="271203444"/>
    <nd ref="3013297150"/>
    <nd ref="3013307133"/>
    <nd ref="3013297154"/>
    <nd ref="3013307134"/>
    <nd ref="3013307135"/>
    <nd ref="3013307136"/>
    <nd ref="271203445"/>
    <nd ref="3013307137"/>
    <nd ref="3013307138"/>
    <nd ref="3013307139"/>
    <nd ref="271203446"/>
    <nd ref="3013307140"/>
    <nd ref="3013307141"/>
    <nd ref="3013307142"/>
    <nd ref="3013307143"/>
    <nd ref="271203447"/>
    <nd ref="3013307144"/>
    <nd ref="3013307145"/>
    <nd ref="3013307146"/>
    <nd ref="3013307147"/>
    <nd ref="271203448"/>
    <nd ref="3013307148"/>
    <nd ref="3013307149"/>
    <nd ref="271203449"/>
    <nd ref="3013307150"/>
    <nd ref="271203450"/>
    <nd ref="3013307151"/>
    <nd ref="3013307152"/>
    <nd ref="3013307153"/>
    <nd ref="271203451"/>
    <nd ref="271203452"/>
    <nd ref="271203453"/>
    <nd ref="3013307154"/>
    <nd ref="3013307155"/>
    <nd ref="3013307156"/>
    <nd ref="271203454"/>
    <nd ref="271203455"/>
    <nd ref="271203458"/>
    <tag k="highway" v="unclassified"/>
  </way>
  <way id="48507307" version="21" timestamp="2025-11-15T20:01:23Z" changeset="174702209" uid="487368" user="Mr Walrus">
    <nd ref="616301939"/>
    <nd ref="3013296612"/>
    <nd ref="217172"/>
    <nd ref="3013296614"/>
    <nd ref="3013296616"/>
    <nd ref="3013296618"/>
    <nd ref="3013296620"/>
    <nd ref="217173"/>
    <nd ref="3013296622"/>
    <nd ref="3013296624"/>
    <nd ref="217174"/>
    <nd ref="3013296626"/>
    <nd ref="3013296628"/>
    <nd ref="3013296629"/>
    <nd ref="217175"/>
    <nd ref="3013296630"/>
    <nd ref="3013297133"/>
    <nd ref="217176"/>
    <nd ref="3013297135"/>
    <nd ref="3013297137"/>
    <nd ref="217177"/>
    <nd ref="3013297139"/>
    <nd ref="3013297141"/>
    <nd ref="217178"/>
    <nd ref="9583758151"/>
    <nd ref="3013297148"/>
    <nd ref="3013297152"/>
    <nd ref="217179"/>
    <nd ref="3013297159"/>
    <nd ref="3013297162"/>
    <nd ref="3013297165"/>
    <nd ref="217180"/>
    <nd ref="3013297167"/>
    <nd ref="3013297169"/>
    <nd ref="3013297171"/>
    <nd ref="3013297174"/>
    <nd ref="217181"/>
    <nd ref="3013297176"/>
    <nd ref="3013297178"/>
    <nd ref="217182"/>
    <nd ref="3013297182"/>
    <nd ref="3013297185"/>
    <nd ref="3013297188"/>
    <nd ref="3013297190"/>
    <nd ref="217183"/>
    <nd ref="3013297194"/>
    <nd ref="3013297198"/>
    <nd ref="217184"/>
    <nd ref="3013297216"/>
    <nd ref="3013297232"/>
    <nd ref="217185"/>
    <nd ref="3013297268"/>
    <nd ref="3013297286"/>
    <nd ref="217187"/>
    <nd ref="3013297304"/>
    <nd ref="3013297327"/>
    <nd ref="217186"/>
    <nd ref="3013297456"/>
    <nd ref="3013297459"/>
    <nd ref="3013297466"/>
    <nd ref="3013297473"/>
    <nd ref="217188"/>
    <nd ref="3013297486"/>
    <nd ref="3013297493"/>
    <nd ref="390320558"/>
    <nd ref="3013297523"/>
    <nd ref="217189"/>
    <nd ref="3013297532"/>
    <nd ref="3013297635"/>
    <nd ref="3013297637"/>
    <nd ref="217190"/>
    <nd ref="3013297642"/>
    <nd ref="3013297640"/>
    <nd ref="3013297639"/>
    <nd ref="217191"/>
    <nd ref="3013297633"/>
    <nd ref="3013297527"/>
    <nd ref="3013297519"/>
    <nd ref="3013297506"/>
    <nd ref="3013297497"/>
    <nd ref="217192"/>
    <nd ref="3013297475"/>
    <nd ref="3013297463"/>
    <nd ref="3013297453"/>
    <nd ref="217193"/>
    <nd ref="3013297328"/>
    <nd ref="217194"/>
    <nd ref="3013297320"/>
    <nd ref="3013297316"/>
    <nd ref="3013297314"/>
    <nd ref="217195"/>
    <nd ref="3013297319"/>
    <nd ref="217197"/>
    <nd ref="3013297329"/>
    <tag k="carriageway_ref" v="A"/>
    <tag k="dual_carriageway" v="yes"/>
    <tag k="expressway" v="yes"/>
    <tag k="highway" v="trunk"/>
    <tag k="lanes" v="2"/>
    <tag k="lit" v="no"/>
    <tag k="maxheight" v="default"/>
    <tag k="maxspeed" v="70 mph"/>
    <tag k="maxspeed:type" v="GB:nsl_dual"/>
    <tag k="national_highways:area" v="7"/>
    <tag k="oneway" v="yes"/>
    <tag k="operator" v="National Highways"/>
    <tag k="operator:wikidata" v="Q5760006"/>
    <tag k="ref" v="A42"/>
    <tag k="shoulder" v="both"/>
    <tag k="source:maxspeed" v="Stats19"/>
    <tag k="surface" v="asphalt"/>
  </way>
  <way id="51107325" version="5" timestamp="2025-04-14T21:22:45Z" changeset="164958119" uid="5229644" user="Nathan_A_RF">
    <nd ref="33626500"/>
    <nd ref="12755541782"/>
    <nd ref="33626528"/>
    <nd ref="3013297225"/>
    <nd ref="33626507"/>
    <tag k="highway" v="tertiary"/>
    <tag k="lit" v="yes"/>
    <tag k="maxspeed" v="60 mph"/>
    <tag k="maxspeed:type" v="GB:nsl_single"/>
    <tag k="name" v="Top Brand"/>
    <tag k="old_ref" v="A447"/>
    <tag k="oneway" v="yes"/>
  </way>
  <way id="51107326" version="10" timestamp="2023-10-29T02:41:07Z" changeset="143292395" uid="13341565" user="Falsernet">
    <nd ref="33626508"/>
    <nd ref="3013297265"/>
    <nd ref="33626511"/>
    <nd ref="3013297294"/>
    <tag k="highway" v="trunk_link"/>
    <tag k="lit" v="yes"/>
    <tag k="maxspeed" v="70 mph"/>
    <tag k="maxspeed:type" v="GB:nsl_dual"/>
    <tag k="national_highways:area" v="7"/>
    <tag k="oneway" v="yes"/>
    <tag k="operator" v="National Highways"/>
    <tag k="operator:wikidata" v="Q5760006"/>
  </way>
  <way id="66557266" version="3" timestamp="2016-08-24T23:19:05Z" changeset="41675984" uid="207845" user="will_p">
    <nd ref="244428001"/>
    <nd ref="2059660927"/>
    <nd ref="2059660930"/>
    <nd ref="2059660897"/>
    <nd ref="4365542129"/>
    <nd ref="2059660943"/>
    <nd ref="4365542090"/>
    <nd ref="100219468"/>
    <tag k="highway" v="residential"/>
    <tag k="maxspeed" v="30 mph"/>
    <tag k="name" v="The Green"/>
  </way>
  <way id="90172511" version="4" timestamp="2024-07-11T20:41:28Z" changeset="153829227" uid="11768777" user="sistershrimp">
    <nd ref="1045423954"/>
    <nd ref="1045424139"/>
    <nd ref="1045423296"/>
    <nd ref="2379169837"/>
    <nd ref="1045423427"/>
    <nd ref="2379169851"/>
    <tag k="highway" v="unclassified"/>
  </way>
  <way id="100111181" version="6" timestamp="2025-04-14T21:22:45Z" changeset="164958119" uid="5229644" user="Nathan_A_RF">
    <nd ref="1157288412"/>
    <nd ref="3013297247"/>
    <nd ref="3013297245"/>
    <nd ref="3013297244"/>
    <nd ref="33626504"/>
    <tag k="highway" v="tertiary"/>
    <tag k="lit" v="yes"/>
    <tag k="maxspeed" v="60 mph"/>
    <tag k="maxspeed:type" v="GB:nsl_single"/>
    <tag k="name" v="Gelscoe Lane"/>
    <tag k="oneway" v="yes"/>
  </way>
  <way id="100111218" version="6" timestamp="2025-04-14T21:22:45Z" changeset="164958119" uid="5229644" user="Nathan_A_RF">
    <nd ref="33626502"/>
    <nd ref="3013297263"/>
    <nd ref="3013297260"/>
    <nd ref="3013297253"/>
    <nd ref="1157288412"/>
    <tag k="highway" v="tertiary"/>
    <tag k="lit" v="yes"/>
    <tag k="maxspeed" v="60 mph"/>
    <tag k="maxspeed:type" v="GB:nsl_single"/>
    <tag k="name" v="Gelscoe Lane"/>
    <tag k="oneway" v="yes"/>
  </way>
  <way id="106448307" version="8" timestamp="2025-11-09T16:55:19Z" changeset="174426698" uid="705850" user="Cebderby">
    <nd ref="1224636061"/>
    <nd ref="1224636108"/>
    <nd ref="1224636283"/>
    <nd ref="1224636145"/>
    <nd ref="1224636089"/>
    <nd ref="1224636182"/>
    <nd ref="1224636260"/>
    <nd ref="1224636119"/>
    <nd ref="1224636061"/>
    <tag k="HE_ref" v="1361364"/>
    <tag k="addr:city" v="Derby"/>
    <tag k="addr:postcode" v="DE73 8AJ"/>
    <tag k="addr:village" v="Breedon on the Hill"/>
    <tag k="amenity" v="place_of_worship"/>
    <tag k="building" v="church"/>
    <tag k="denomination" v="anglican"/>
    <tag k="listed_status" v="Grade I"/>
    <tag k="name" v="Church of St Mary and St Hardulph"/>
    <tag k="ref:dove" v="13815"/>
    <tag k="religion" v="christian"/>
    <tag k="source" v="Bing;local_knowledge"/>
    <tag k="source:listed_status" v="Historic England"/>
    <tag k="wikidata" v="Q5117566"/>
  </way>
  <way id="106448316" version="1" timestamp="2011-03-29T20:20:44Z" changeset="7710575" uid="207845" user="will_p">
    <nd ref="1224636307"/>
    <nd ref="1224636223"/>
    <nd ref="1224636096"/>
    <nd ref="1224636264"/>
    <nd ref="1224636121"/>
    <nd ref="1224636072"/>
    <nd ref="1224636164"/>
    <nd ref="1224636103"/>
    <nd ref="1224636195"/>
    <nd ref="1224636141"/>
    <nd ref="1224636233"/>
    <nd ref="1224636173"/>
    <nd ref="1224636276"/>
    <nd ref="1224636097"/>
    <nd ref="1224636088"/>
    <nd ref="1224636207"/>
    <nd ref="1224636179"/>
    <nd ref="1224636262"/>
    <nd ref="1224636079"/>
    <tag k="highway" v="unclassified"/>
  </way>
  <way id="107898262" version="5" timestamp="2017-08-01T22:50:41Z" changeset="50765723" uid="5296090" user="TR42">
    <nd ref="244427957"/>
    <nd ref="244427958"/>
    <nd ref="244427959"/>
    <nd ref="4365542265"/>
    <nd ref="4365542267"/>
    <nd ref="244427960"/>
    <nd ref="244427961"/>
    <nd ref="4737760912"/>
    <nd ref="244427962"/>
    <nd ref="1239149243"/>
    <tag k="highway" v="unclassified"/>
    <tag k="lit" v="no"/>
    <tag k="name" v="Tonge Lane"/>
  </way>
  <way id="107898263" version="6" timestamp="2023-08-18T09:54:14Z" changeset="140048605" uid="20086345" user="donq1986b">
    <nd ref="1239147074"/>
    <nd ref="3135795469"/>
    <tag k="bridge" v="yes"/>
    <tag k="highway" v="unclassified"/>
    <tag k="lanes" v="2"/>
    <tag k="layer" v="1"/>
    <tag k="maxspeed" v="30 mph"/>
    <tag k="maxweight:signed" v="no"/>
    <tag k="name" v="Breedon Lane"/>
    <tag k="surface" v="asphalt"/>
  </way>
  <way id="107898265" version="2" timestamp="2016-08-24T23:19:02Z" changeset="41675984" uid="207845" user="will_p">
    <nd ref="244427957"/>
    <nd ref="4365542241"/>
    <nd ref="4365542239"/>
    <nd ref="1239147139"/>
    <nd ref="1239147145"/>
    <nd ref="1239147149"/>
    <tag k="highway" v="residential"/>
    <tag k="name" v="Berry Avenue"/>
  </way>
  <way id="107898631" version="7" timestamp="2022-05-26T12:53:49Z" changeset="121524233" uid="6397757" user="TomJeffs">
    <nd ref="9772641386"/>
    <nd ref="9772641387"/>
    <nd ref="9133526693"/>
    <nd ref="4365542266"/>
    <nd ref="4365542268"/>
    <nd ref="1239151439"/>
    <tag k="highway" v="unclassified"/>
    <tag k="maxspeed" v="30 mph"/>
    <tag k="name" v="Dovecote"/>
    <tag k="source:name" v="OS OpenData Locator"/>
  </way>
  <way id="107898632" version="8" timestamp="2022-04-27T15:16:37Z" changeset="120264923" uid="13341565" user="Falsernet">
    <nd ref="102206042"/>
    <nd ref="102206043"/>
    <nd ref="3013354929"/>
    <nd ref="1157287736"/>
    <nd ref="3013354930"/>
    <nd ref="3013354931"/>
    <nd ref="3013354932"/>
    <nd ref="102206044"/>
    <nd ref="3013355833"/>
    <nd ref="102206046"/>
    <nd ref="3013355834"/>
    <tag k="highway" v="primary"/>
    <tag k="lit" v="no"/>
    <tag k="maxspeed" v="60 mph"/>
    <tag k="maxspeed:type" v="GB:nsl_single"/>
    <tag k="name" v="Moor Lane"/>
    <tag k="old_ref" v="A447"/>
    <tag k="ref" v="A453"/>
  </way>
  <way id="108202824" version="6" timestamp="2017-11-12T18:06:14Z" changeset="53719873" uid="607648" user="dudone">
    <nd ref="100219476"/>
    <nd ref="2059660945"/>
    <nd ref="2059660917"/>
    <nd ref="2059767323"/>
    <nd ref="1241815395"/>
    <nd ref="4365542117"/>
    <nd ref="1241815402"/>
    <nd ref="4365542149"/>
    <nd ref="1241815408"/>
    <nd ref="5225106351"/>
    <nd ref="5225106350"/>
    <nd ref="2059767417"/>
    <tag k="highway" v="residential"/>
    <tag k="name" v="Cross Street"/>
  </way>
  <way id="108202825" version="5" timestamp="2023-11-19T11:56:11Z" changeset="144205069" uid="20086345" user="donq1986b">
    <nd ref="244428000"/>
    <nd ref="1241815375"/>
    <nd ref="1241815421"/>
    <nd ref="1241815424"/>
    <nd ref="1241815408"/>
    <tag k="cycleway:both" v="no"/>
    <tag k="highway" v="residential"/>
    <tag k="lane_markings" v="no"/>
    <tag k="name" v="Hollow Road"/>
    <tag k="sidewalk" v="no"/>
    <tag k="surface" v="asphalt"/>
  </way>
  <way id="108202974" version="4" timestamp="2019-10-15T05:40:22Z" changeset="75698059" uid="10252546" user="nnpriyn">
    <nd ref="100219458"/>
    <nd ref="2059660950"/>
    <nd ref="1241822277"/>
    <nd ref="1241822278"/>
    <nd ref="1241822279"/>
    <nd ref="1241822281"/>
    <nd ref="1241822283"/>
    <nd ref="2059660961"/>
    <nd ref="2059660947"/>
    <nd ref="2059660936"/>
    <nd ref="6880525939"/>
    <nd ref="1241822285"/>
    <tag k="highway" v="residential"/>
    <tag k="name" v="The Crescent"/>
    <tag k="source:name" v="OS OpenData Locator"/>
  </way>
  <way id="108202975" version="2" timestamp="2012-12-10T11:00:23Z" changeset="14224543" uid="51722" user="Chris Parker">
    <nd ref="1241822292"/>
    <nd ref="1241822294"/>
    <nd ref="2059660940"/>
    <nd ref="2059660935"/>
    <nd ref="1241822296"/>
    <nd ref="1241822285"/>
    <nd ref="1241822299"/>
    <nd ref="1241822301"/>
    <nd ref="2059660952"/>
    <nd ref="1241822304"/>
    <nd ref="1241822306"/>
    <tag k="highway" v="residential"/>
    <tag k="name" v="Hastings Close"/>
  </way>
  <way id="108203346" version="10" timestamp="2021-05-24T10:28:25Z" changeset="105217385" uid="10252543" user="srikmar">
    <nd ref="175632757"/>
    <nd ref="2059770727"/>
    <nd ref="2814556874"/>
    <nd ref="2059770733"/>
    <nd ref="1241835717"/>
    <nd ref="175632766"/>
    <nd ref="2814556875"/>
    <nd ref="175632767"/>
    <nd ref="175632773"/>
    <nd ref="2059770726"/>
    <nd ref="8393154640"/>
    <nd ref="2814556876"/>
    <nd ref="175632777"/>
    <nd ref="8760744052"/>
    <nd ref="2814556877"/>
    <nd ref="175632779"/>
    <nd ref="8760744059"/>
    <nd ref="2814556878"/>
    <nd ref="8760744053"/>
    <nd ref="2814526805"/>
    <nd ref="2814526807"/>
    <nd ref="175632784"/>
    <nd ref="175632786"/>
    <nd ref="2814526812"/>
    <nd ref="2814526816"/>
    <nd ref="175632790"/>
    <nd ref="271203098"/>
    <tag k="highway" v="tertiary"/>
    <tag k="name" v="Main Street"/>
  </way>
  <way id="108203347" version="7" timestamp="2023-08-25T18:43:49Z" changeset="140384973" uid="13844594" user="MarshMello___">
    <nd ref="2059770754"/>
    <nd ref="4365472491"/>
    <nd ref="2059770786"/>
    <nd ref="271203091"/>
    <nd ref="8760744038"/>
    <nd ref="4365472495"/>
    <nd ref="7962800546"/>
    <nd ref="271203093"/>
    <nd ref="2059770718"/>
    <nd ref="2059770744"/>
    <nd ref="2059770724"/>
    <nd ref="271203096"/>
    <nd ref="2059770757"/>
    <nd ref="2059770720"/>
    <nd ref="2059770777"/>
    <nd ref="2059770711"/>
    <nd ref="271203098"/>
    <tag k="highway" v="unclassified"/>
    <tag k="lane_markings" v="no"/>
    <tag k="name" v="Short Hill"/>
    <tag k="surface" v="asphalt"/>
  </way>
  <way id="109937858" version="14" timestamp="2024-01-19T19:32:09Z" changeset="146455440" uid="242345" user="confusedbuffalo">
    <nd ref="100210066"/>
    <nd ref="100210068"/>
    <nd ref="6477682742"/>
    <nd ref="4599818805"/>
    <nd ref="100210070"/>
    <nd ref="1044511459"/>
    <nd ref="100210072"/>
    <nd ref="2711259785"/>
    <nd ref="100210073"/>
    <nd ref="100210074"/>
    <nd ref="100210075"/>
    <nd ref="1257314361"/>
    <nd ref="100210076"/>
    <nd ref="100210079"/>
    <nd ref="1045423110"/>
    <nd ref="100210081"/>
    <nd ref="271203101"/>
    <nd ref="100210084"/>
    <nd ref="100210086"/>
    <nd ref="2379169851"/>
    <nd ref="271203073"/>
    <nd ref="100210087"/>
    <nd ref="486426028"/>
    <nd ref="1257314384"/>
    <nd ref="100210092"/>
    <nd ref="1157287996"/>
    <nd ref="100210095"/>
    <nd ref="100210096"/>
    <nd ref="1257314329"/>
    <nd ref="100210100"/>
    <nd ref="100210101"/>
    <nd ref="1257314341"/>
    <nd ref="8883420794"/>
    <nd ref="100210105"/>
    <nd ref="100210106"/>
    <nd ref="1257314315"/>
    <nd ref="100210109"/>
    <tag k="highway" v="tertiary"/>
    <tag k="lit" v="no"/>
    <tag k="maxspeed" v="60 mph"/>
    <tag k="maxspeed:type" v="GB:nsl_single"/>
    <tag k="name" v="Melbourne Road"/>
    <tag k="sidewalk" v="no"/>
  </way>
  <way id="110979043" version="5" timestamp="2024-01-19T19:32:09Z" changeset="146455440" uid="242345" user="confusedbuffalo">
    <nd ref="102206059"/>
    <nd ref="3013355846"/>
    <nd ref="3013355847"/>
    <nd ref="102206061"/>
    <nd ref="3013355848"/>
    <nd ref="102206062"/>
    <nd ref="102206064"/>
    <nd ref="3013355854"/>
    <nd ref="102206065"/>
    <nd ref="3013355859"/>
    <nd ref="3013355862"/>
    <nd ref="102206067"/>
    <nd ref="3013355875"/>
    <nd ref="1157289057"/>
    <nd ref="3013355889"/>
    <nd ref="102206068"/>
    <nd ref="3013355895"/>
    <nd ref="3013355900"/>
    <nd ref="102206070"/>
    <nd ref="3013355905"/>
    <nd ref="3013355909"/>
    <nd ref="102206071"/>
    <nd ref="3013355912"/>
    <nd ref="102206072"/>
    <nd ref="3013355915"/>
    <nd ref="102206074"/>
    <nd ref="3013355918"/>
    <nd ref="102206075"/>
    <nd ref="102206076"/>
    <nd ref="3013355923"/>
    <nd ref="102206077"/>
    <nd ref="3013355925"/>
    <nd ref="102206078"/>
    <nd ref="3013355928"/>
    <nd ref="102206080"/>
    <nd ref="3013355934"/>
    <nd ref="3013355936"/>
    <nd ref="3013355937"/>
    <nd ref="3013355938"/>
    <nd ref="3013355939"/>
    <nd ref="102206081"/>
    <nd ref="3013355940"/>
    <nd ref="102206082"/>
    <nd ref="102206083"/>
    <nd ref="4340173231"/>
    <tag k="highway" v="primary"/>
    <tag k="lit" v="no"/>
    <tag k="maxspeed" v="60 mph"/>
    <tag k="maxspeed:type" v="GB:nsl_single"/>
    <tag k="name" v="Moor Lane"/>
    <tag k="ref" v="A453"/>
  </way>
  <way id="110979044" version="6" timestamp="2024-01-19T19:43:31Z" changeset="146455735" uid="242345" user="confusedbuffalo">
    <nd ref="102206053"/>
    <nd ref="3013355837"/>
    <nd ref="3013355838"/>
    <nd ref="3013355839"/>
    <nd ref="102206054"/>
    <nd ref="3013355840"/>
    <nd ref="102206055"/>
    <nd ref="3013355841"/>
    <nd ref="3013355842"/>
    <nd ref="3013355843"/>
    <nd ref="102206057"/>
    <nd ref="3013355844"/>
    <nd ref="3013355845"/>
    <nd ref="102206058"/>
    <nd ref="102206059"/>
    <tag k="highway" v="primary"/>
    <tag k="incline" v="-5%"/>
    <tag k="lit" v="no"/>
    <tag k="maxspeed" v="50 mph"/>
    <tag k="maxspeed:type" v="sign"/>
    <tag k="name" v="Moor Lane"/>
    <tag k="ref" v="A453"/>
  </way>
  <way id="158260304" version="4" timestamp="2021-05-24T10:28:25Z" changeset="105217385" uid="10252543" user="srikmar">
    <nd ref="1704960762"/>
    <nd ref="6497308931"/>
    <nd ref="1241832212"/>
    <nd ref="8760744042"/>
    <nd ref="8760744041"/>
    <nd ref="1241832214"/>
    <nd ref="7571955487"/>
    <nd ref="8760744040"/>
    <nd ref="2059770754"/>
    <tag k="fixme" v="Reported by a Skobbler user to be a no through road. Requires a survey. OpenStreetBug also added to location."/>
    <tag k="highway" v="residential"/>
    <tag k="name" v="Dog Lane"/>
  </way>
  <way id="193195784" version="6" timestamp="2023-08-25T18:43:49Z" changeset="140384973" uid="13844594" user="MarshMello___">
    <nd ref="271203096"/>
    <nd ref="2037126459"/>
    <nd ref="2037126455"/>
    <nd ref="175632795"/>
    <tag k="highway" v="unclassified"/>
    <tag k="lanes" v="2"/>
    <tag k="name" v="Short Hill"/>
    <tag k="surface" v="asphalt"/>
  </way>
  <way id="193195785" version="2" timestamp="2023-08-25T18:43:49Z" changeset="140384972" uid="13844594" user="MarshMello___">
    <nd ref="2037126460"/>
    <nd ref="2037126456"/>
    <nd ref="2037126457"/>
    <nd ref="2037126455"/>
    <tag k="highway" v="residential"/>
    <tag k="name" v="Wilson Rise"/>
    <tag k="surface" v="asphalt"/>
  </way>
  <way id="195415548" version="3" timestamp="2014-04-24T22:25:06Z" changeset="21918951" uid="178626" user="Rovastar">
    <nd ref="271203098"/>
    <nd ref="2059770759"/>
    <nd ref="2814526822"/>
    <nd ref="175632791"/>
    <nd ref="2059770779"/>
    <nd ref="2814526824"/>
    <nd ref="175632795"/>
    <nd ref="2814526828"/>
    <nd ref="2814526829"/>
    <nd ref="175632797"/>
    <nd ref="175632801"/>
    <nd ref="2059770753"/>
    <nd ref="175632803"/>
    <nd ref="175632804"/>
    <nd ref="2059770748"/>
    <nd ref="2814526842"/>
    <nd ref="175632810"/>
    <nd ref="2814526849"/>
    <nd ref="175632813"/>
    <nd ref="2814526852"/>
    <nd ref="2814526853"/>
    <nd ref="175632814"/>
    <nd ref="175632815"/>
    <nd ref="175632816"/>
    <nd ref="175632819"/>
    <nd ref="175632820"/>
    <nd ref="175632821"/>
    <nd ref="175632822"/>
    <nd ref="2814526856"/>
    <nd ref="2814526857"/>
    <nd ref="175632823"/>
    <nd ref="2814526862"/>
    <nd ref="175632824"/>
    <nd ref="2814526864"/>
    <nd ref="175632825"/>
    <nd ref="2049472926"/>
    <nd ref="175632826"/>
    <nd ref="175632828"/>
    <nd ref="175632830"/>
    <nd ref="2814526859"/>
    <nd ref="175632832"/>
    <nd ref="2814526858"/>
    <nd ref="175632834"/>
    <nd ref="175632836"/>
    <nd ref="2814526866"/>
    <nd ref="175632839"/>
    <nd ref="175632841"/>
    <nd ref="2814526872"/>
    <nd ref="2814526874"/>
    <nd ref="175632843"/>
    <nd ref="2814526877"/>
    <nd ref="175632845"/>
    <nd ref="2814526881"/>
    <nd ref="175632847"/>
    <nd ref="175632849"/>
    <nd ref="2814526878"/>
    <nd ref="175632851"/>
    <nd ref="175632853"/>
    <nd ref="175632855"/>
    <nd ref="2814526880"/>
    <nd ref="175632857"/>
    <nd ref="175632861"/>
    <nd ref="175632864"/>
    <nd ref="2814526876"/>
    <nd ref="2814526875"/>
    <nd ref="175632867"/>
    <nd ref="597334897"/>
    <nd ref="175632870"/>
    <nd ref="175632873"/>
    <nd ref="2814526868"/>
    <nd ref="175632876"/>
    <nd ref="2814526867"/>
    <nd ref="175632879"/>
    <nd ref="175632882"/>
    <tag k="highway" v="tertiary"/>
    <tag k="name" v="Wilson Lane"/>
  </way>
  <way id="195541401" version="5" timestamp="2023-11-19T12:09:29Z" changeset="144203182" uid="20086345" user="donq1986b">
    <nd ref="2059660937"/>
    <nd ref="2059660926"/>
    <nd ref="2059660912"/>
    <nd ref="2059660904"/>
    <nd ref="2059660960"/>
    <nd ref="2059660924"/>
    <nd ref="2059660913"/>
    <nd ref="2059660903"/>
    <nd ref="2059660911"/>
    <nd ref="4365542140"/>
    <nd ref="100219494"/>
    <tag k="highway" v="residential"/>
    <tag k="name" v="The Dovecote"/>
    <tag k="sidewalk" v="both"/>
    <tag k="source" v="Bing"/>
    <tag k="surface" v="asphalt"/>
  </way>
  <way id="195541402" version="3" timestamp="2019-06-08T12:36:22Z" changeset="71050251" uid="9196103" user="srinatpa">
    <nd ref="6533746121"/>
    <nd ref="2059660953"/>
    <nd ref="2059660939"/>
    <nd ref="2059660942"/>
    <nd ref="2059660955"/>
    <nd ref="100219452"/>
    <tag k="highway" v="residential"/>
    <tag k="name" v="Southworth Road"/>
    <tag k="source" v="Bing"/>
  </way>
  <way id="195541403" version="2" timestamp="2013-04-24T09:28:05Z" changeset="15846717" uid="508" user="Welshie">
    <nd ref="2059660901"/>
    <nd ref="2059660929"/>
    <tag k="highway" v="residential"/>
    <tag k="name" v="Rectory Close"/>
    <tag k="source" v="Bing"/>
  </way>
  <way id="195541404" version="7" timestamp="2024-05-11T13:32:05Z" changeset="151186502" uid="4626766" user="Edward Smith (MilPop14)">
    <nd ref="11361602652"/>
    <nd ref="244428000"/>
    <nd ref="8045867461"/>
    <nd ref="1241832269"/>
    <nd ref="2059660929"/>
    <nd ref="244428001"/>
    <nd ref="2059660899"/>
    <nd ref="2059660907"/>
    <nd ref="2059660946"/>
    <nd ref="2059660959"/>
    <nd ref="2059660938"/>
    <nd ref="244428002"/>
    <nd ref="597334699"/>
    <nd ref="2059660958"/>
    <tag k="highway" v="unclassified"/>
    <tag k="maxspeed" v="30 mph"/>
    <tag k="name" v="Melbourne Lane"/>
  </way>
  <way id="195541405" version="2" timestamp="2016-08-24T23:19:05Z" changeset="41675984" uid="207845" user="will_p">
    <nd ref="2059660930"/>
    <nd ref="4365542160"/>
    <nd ref="2059660946"/>
    <tag k="highway" v="unclassified"/>
    <tag k="maxspeed" v="30 mph"/>
    <tag k="source" v="Bing"/>
  </way>
  <way id="195541406" version="3" timestamp="2013-04-24T09:28:05Z" changeset="15846717" uid="508" user="Welshie">
    <nd ref="2059767539"/>
    <nd ref="2059660925"/>
    <nd ref="1241815395"/>
    <tag k="highway" v="residential"/>
    <tag k="name" v="Stud Farm Close"/>
    <tag k="source" v="Bing"/>
  </way>
  <way id="195541407" version="2" timestamp="2013-04-24T09:28:05Z" changeset="15846717" uid="508" user="Welshie">
    <nd ref="2059660921"/>
    <nd ref="2059660948"/>
    <nd ref="2059660931"/>
    <nd ref="2059660926"/>
    <tag k="highway" v="residential"/>
    <tag k="name" v="Saxon Close"/>
    <tag k="source" v="Bing"/>
  </way>
  <way id="195541408" version="1" timestamp="2012-12-10T11:00:21Z" changeset="14224543" uid="51722" user="Chris Parker">
    <nd ref="2059660956"/>
    <nd ref="2059660948"/>
    <tag k="highway" v="residential"/>
    <tag k="source" v="Bing"/>
  </way>
  <way id="195541409" version="3" timestamp="2019-04-09T05:37:16Z" changeset="69030403" uid="3245867" user="HarryPlotter">
    <nd ref="2059660902"/>
    <nd ref="2059660914"/>
    <nd ref="2059660932"/>
    <nd ref="2059660958"/>
    <tag k="highway" v="unclassified"/>
    <tag k="oneway" v="-1"/>
    <tag k="source" v="Bing"/>
  </way>
  <way id="195541410" version="2" timestamp="2018-08-05T21:03:10Z" changeset="61383634" uid="207845" user="will_p">
    <nd ref="2059660916"/>
    <nd ref="5810939351"/>
    <nd ref="2059660944"/>
    <nd ref="2059660949"/>
    <nd ref="2059660910"/>
    <nd ref="2059660900"/>
    <nd ref="2059660950"/>
    <tag k="highway" v="residential"/>
    <tag k="source" v="Bing"/>
  </way>
  <way id="195541411" version="3" timestamp="2018-08-05T21:03:10Z" changeset="61383634" uid="207845" user="will_p">
    <nd ref="2059660898"/>
    <nd ref="5810940659"/>
    <nd ref="5810940658"/>
    <nd ref="2059660915"/>
    <tag k="highway" v="residential"/>
    <tag k="name" v="Loveys Croft"/>
    <tag k="source" v="Bing"/>
  </way>
  <way id="195553538" version="6" timestamp="2023-11-19T11:52:03Z" changeset="144204938" uid="20086345" user="donq1986b">
    <nd ref="3062751473"/>
    <nd ref="3062751474"/>
    <nd ref="3062751475"/>
    <nd ref="11046326980"/>
    <nd ref="11046326979"/>
    <nd ref="11046326977"/>
    <nd ref="11046326978"/>
    <nd ref="3062751476"/>
    <nd ref="3062751477"/>
    <nd ref="11046326957"/>
    <nd ref="11046326976"/>
    <nd ref="11046326975"/>
    <nd ref="11046326916"/>
    <nd ref="3062751478"/>
    <nd ref="11046326971"/>
    <tag k="highway" v="residential"/>
    <tag k="name" v="Priory Close"/>
  </way>
  <way id="195553543" version="2" timestamp="2013-04-24T09:28:03Z" changeset="15846717" uid="508" user="Welshie">
    <nd ref="2059767497"/>
    <nd ref="2059767323"/>
    <tag k="highway" v="residential"/>
    <tag k="name" v="Hillside Court"/>
    <tag k="source" v="Bing"/>
  </way>
  <way id="197643585" version="2" timestamp="2016-08-24T23:19:04Z" changeset="41675984" uid="207845" user="will_p">
    <nd ref="244427947"/>
    <nd ref="4365542261"/>
    <nd ref="4365542262"/>
    <nd ref="4365542264"/>
    <nd ref="1239151439"/>
    <tag k="highway" v="unclassified"/>
    <tag k="maxspeed" v="30 mph"/>
    <tag k="name" v="Moor Lane"/>
  </way>
  <way id="206553145" version="7" timestamp="2022-04-22T12:02:42Z" changeset="120047454" uid="5008136" user="JayTurnr">
    <nd ref="2165681490"/>
    <nd ref="100219578"/>
    <nd ref="3844490540"/>
    <nd ref="100219575"/>
    <nd ref="3844490542"/>
    <nd ref="3844490541"/>
    <nd ref="100219572"/>
    <nd ref="3844490544"/>
    <nd ref="100219570"/>
    <nd ref="3844490543"/>
    <nd ref="6908563661"/>
    <nd ref="100219569"/>
    <tag k="highway" v="unclassified"/>
    <tag k="name" v="Doctor's Lane"/>
    <tag k="source:name" v="OS OpenData Locator"/>
    <tag k="surface" v="asphalt"/>
  </way>
  <way id="206553150" version="1" timestamp="2013-02-21T18:00:01Z" changeset="15114950" uid="24119" user="Mauls">
    <nd ref="100219581"/>
    <nd ref="2165681490"/>
    <tag k="bridge" v="yes"/>
    <tag k="highway" v="unclassified"/>
    <tag k="layer" v="1"/>
    <tag k="name" v="Stocking Lane"/>
  </way>
  <way id="232452490" version="5" timestamp="2021-08-02T11:07:27Z" changeset="109025647" uid="10170582" user="priymose">
    <nd ref="1239151439"/>
    <nd ref="4365542274"/>
    <nd ref="4365542277"/>
    <nd ref="6478712946"/>
    <nd ref="4365542281"/>
    <nd ref="1239151440"/>
    <nd ref="1239151441"/>
    <nd ref="1239151442"/>
    <nd ref="1239151443"/>
    <nd ref="1239151444"/>
    <nd ref="4365542284"/>
    <nd ref="4365542286"/>
    <nd ref="1239151445"/>
    <nd ref="8974163603"/>
    <nd ref="1239151446"/>
    <nd ref="1239151447"/>
    <nd ref="4365542391"/>
    <nd ref="4365542392"/>
    <nd ref="1239151448"/>
    <tag k="highway" v="unclassified"/>
    <tag k="maxspeed" v="30 mph"/>
    <tag k="name" v="Moor Lane"/>
  </way>
  <way id="232452496" version="1" timestamp="2013-08-05T16:10:14Z" changeset="17230049" uid="1383062" user="Chris Filip">
    <nd ref="2408045678"/>
    <nd ref="2408045681"/>
    <nd ref="2408045683"/>
    <tag k="highway" v="residential"/>
    <tag k="name" v="The Lime Kilns"/>
    <tag k="source" v="Bing"/>
    <tag k="source:name" v="OS OpenData Locator"/>
  </way>
  <way id="297436960" version="10" timestamp="2022-10-28T19:15:24Z" changeset="128188196" uid="13666626" user="RedAuburn">
    <nd ref="3013297323"/>
    <nd ref="3013297317"/>
    <tag k="bridge" v="yes"/>
    <tag k="carriageway_ref" v="B"/>
    <tag k="expressway" v="yes"/>
    <tag k="highway" v="trunk"/>
    <tag k="lanes" v="2"/>
    <tag k="layer" v="1"/>
    <tag k="lit" v="no"/>
    <tag k="maxspeed" v="70 mph"/>
    <tag k="maxspeed:type" v="GB:nsl_dual"/>
    <tag k="national_highways:area" v="7"/>
    <tag k="oneway" v="yes"/>
    <tag k="operator" v="National Highways"/>
    <tag k="operator:wikidata" v="Q5760006"/>
    <tag k="ref" v="A42"/>
    <tag k="source:maxspeed" v="Stats19"/>
    <tag k="surface" v="asphalt"/>
  </way>
  <way id="297436963" version="14" timestamp="2025-11-15T20:01:23Z" changeset="174702209" uid="487368" user="Mr Walrus">
    <nd ref="3013297317"/>
    <nd ref="26016262"/>
    <nd ref="3013297305"/>
    <nd ref="26016263"/>
    <nd ref="3013297302"/>
    <nd ref="3013297303"/>
    <nd ref="3013297307"/>
    <nd ref="26016270"/>
    <nd ref="3013297313"/>
    <nd ref="3013297322"/>
    <nd ref="26016267"/>
    <nd ref="9583772445"/>
    <nd ref="3013297450"/>
    <nd ref="26016265"/>
    <nd ref="3013297481"/>
    <nd ref="3013297492"/>
    <nd ref="3013297508"/>
    <nd ref="3013297517"/>
    <nd ref="26016276"/>
    <nd ref="3013297528"/>
    <nd ref="3013297530"/>
    <nd ref="3013297531"/>
    <nd ref="26016275"/>
    <nd ref="3013297529"/>
    <nd ref="3013297525"/>
    <nd ref="3013297518"/>
    <nd ref="3013297512"/>
    <nd ref="26016273"/>
    <nd ref="3013297504"/>
    <nd ref="3013297498"/>
    <nd ref="3013297485"/>
    <nd ref="3013297479"/>
    <nd ref="3013297476"/>
    <nd ref="26016284"/>
    <nd ref="3013297460"/>
    <nd ref="3013297452"/>
    <nd ref="3013297442"/>
    <nd ref="26016282"/>
    <nd ref="3013297311"/>
    <nd ref="3013297299"/>
    <nd ref="26016279"/>
    <nd ref="3013297273"/>
    <nd ref="3013297262"/>
    <nd ref="26016277"/>
    <nd ref="3013297221"/>
    <nd ref="3013297205"/>
    <nd ref="26017201"/>
    <nd ref="3013297197"/>
    <nd ref="3013297193"/>
    <nd ref="26017202"/>
    <nd ref="3013297189"/>
    <nd ref="3013297187"/>
    <nd ref="3013297186"/>
    <nd ref="3013297183"/>
    <nd ref="3013297181"/>
    <nd ref="26017203"/>
    <nd ref="3013297177"/>
    <nd ref="3013297175"/>
    <nd ref="26017204"/>
    <nd ref="3013297172"/>
    <nd ref="3013297170"/>
    <nd ref="3013297168"/>
    <nd ref="3013297166"/>
    <nd ref="26017205"/>
    <nd ref="3013297164"/>
    <nd ref="3013297161"/>
    <nd ref="3013297157"/>
    <nd ref="26017206"/>
    <nd ref="3013297153"/>
    <nd ref="3013297151"/>
    <nd ref="26017292"/>
    <nd ref="3013297140"/>
    <nd ref="3013297138"/>
    <nd ref="26017293"/>
    <nd ref="3013297136"/>
    <nd ref="3013297134"/>
    <nd ref="26017294"/>
    <nd ref="3013296632"/>
    <nd ref="3013296631"/>
    <nd ref="26017295"/>
    <nd ref="3013296627"/>
    <nd ref="3013296625"/>
    <nd ref="26017296"/>
    <nd ref="3013296623"/>
    <nd ref="3013296621"/>
    <nd ref="26017297"/>
    <nd ref="3013296619"/>
    <nd ref="3013296617"/>
    <nd ref="9583758156"/>
    <nd ref="3013296615"/>
    <nd ref="3013296613"/>
    <nd ref="9583758162"/>
    <nd ref="26017298"/>
    <nd ref="3013296611"/>
    <nd ref="616301932"/>
    <tag k="carriageway_ref" v="B"/>
    <tag k="dual_carriageway" v="yes"/>
    <tag k="expressway" v="yes"/>
    <tag k="highway" v="trunk"/>
    <tag k="lanes" v="2"/>
    <tag k="lit" v="no"/>
    <tag k="maxheight" v="default"/>
    <tag k="maxspeed" v="70 mph"/>
    <tag k="maxspeed:type" v="GB:nsl_dual"/>
    <tag k="national_highways:area" v="7"/>
    <tag k="oneway" v="yes"/>
    <tag k="operator" v="National Highways"/>
    <tag k="operator:wikidata" v="Q5760006"/>
    <tag k="ref" v="A42"/>
    <tag k="shoulder" v="left"/>
    <tag k="source:maxspeed" v="Stats19"/>
    <tag k="surface" v="asphalt"/>
  </way>
  <way id="308283795" version="9" timestamp="2023-11-19T12:12:36Z" changeset="144205069" uid="20086345" user="donq1986b">
    <nd ref="100219566"/>
    <nd ref="8189789400"/>
    <nd ref="3116744221"/>
    <nd ref="100219564"/>
    <nd ref="100219562"/>
    <nd ref="100219560"/>
    <nd ref="100219557"/>
    <nd ref="100219553"/>
    <nd ref="100219549"/>
    <nd ref="100219547"/>
    <nd ref="100219545"/>
    <nd ref="100219544"/>
    <nd ref="100219541"/>
    <nd ref="100219539"/>
    <nd ref="100219538"/>
    <nd ref="100219536"/>
    <nd ref="6881533795"/>
    <nd ref="100219535"/>
    <nd ref="100219533"/>
    <nd ref="100219529"/>
    <nd ref="100219527"/>
    <nd ref="100219525"/>
    <nd ref="100219523"/>
    <nd ref="4737760914"/>
    <nd ref="100219520"/>
    <nd ref="11361650497"/>
    <tag k="cycleway:both" v="no"/>
    <tag k="highway" v="unclassified"/>
    <tag k="name" v="Doctor's Lane"/>
    <tag k="source:name" v="OS OpenData Locator"/>
    <tag k="surface" v="asphalt"/>
  </way>
  <way id="308283796" version="4" timestamp="2023-08-18T09:36:05Z" changeset="140048605" uid="20086345" user="donq1986b">
    <nd ref="100219569"/>
    <nd ref="100219566"/>
    <tag k="bridge" v="yes"/>
    <tag k="highway" v="unclassified"/>
    <tag k="lanes" v="2"/>
    <tag k="layer" v="1"/>
    <tag k="maxweight:signed" v="no"/>
    <tag k="name" v="Doctor's Lane"/>
    <tag k="source:name" v="OS OpenData Locator"/>
    <tag k="surface" v="asphalt"/>
  </way>
  <way id="308284004" version="3" timestamp="2024-04-29T17:17:13Z" changeset="150673633" uid="607648" user="dudone">
    <nd ref="3135795469"/>
    <nd ref="244427948"/>
    <nd ref="4365542270"/>
    <nd ref="4365542273"/>
    <nd ref="244427949"/>
    <nd ref="244427950"/>
    <nd ref="4365542279"/>
    <nd ref="4365542280"/>
    <nd ref="244427951"/>
    <nd ref="244427952"/>
    <nd ref="4365542275"/>
    <nd ref="4365542272"/>
    <tag k="highway" v="unclassified"/>
    <tag k="maxspeed" v="30 mph"/>
    <tag k="name" v="Breedon Lane"/>
  </way>
  <way id="308285577" version="5" timestamp="2024-01-19T19:43:31Z" changeset="146455735" uid="242345" user="confusedbuffalo">
    <nd ref="175632413"/>
    <nd ref="175632428"/>
    <tag k="bridge" v="yes"/>
    <tag k="highway" v="tertiary"/>
    <tag k="layer" v="1"/>
    <tag k="lit" v="no"/>
    <tag k="maxspeed" v="50 mph"/>
    <tag k="maxspeed:type" v="sign"/>
    <tag k="old_ref" v="A453"/>
  </way>
  <way id="308285578" version="8" timestamp="2022-04-27T15:16:37Z" changeset="120264923" uid="13341565" user="Falsernet">
    <nd ref="175632428"/>
    <nd ref="175632429"/>
    <nd ref="7398307624"/>
    <nd ref="9621185202"/>
    <nd ref="175632431"/>
    <nd ref="175632433"/>
    <nd ref="175632438"/>
    <nd ref="175632443"/>
    <nd ref="175632448"/>
    <nd ref="175632453"/>
    <nd ref="175632462"/>
    <nd ref="4737737477"/>
    <nd ref="175632470"/>
    <nd ref="175632553"/>
    <nd ref="175632556"/>
    <nd ref="175632560"/>
    <nd ref="175632563"/>
    <nd ref="175632567"/>
    <nd ref="175632617"/>
    <nd ref="175632619"/>
    <nd ref="175632620"/>
    <nd ref="175632621"/>
    <nd ref="175632622"/>
    <nd ref="175632623"/>
    <nd ref="175632624"/>
    <nd ref="2814556848"/>
    <nd ref="175632625"/>
    <nd ref="175632626"/>
    <nd ref="175632627"/>
    <nd ref="175632628"/>
    <nd ref="2814556847"/>
    <nd ref="175632629"/>
    <tag k="highway" v="tertiary"/>
    <tag k="lit" v="no"/>
    <tag k="maxspeed" v="50 mph"/>
    <tag k="old_ref" v="A453"/>
  </way>
  <way id="308285735" version="4" timestamp="2021-05-24T10:28:25Z" changeset="105217385" uid="10252543" user="srikmar">
    <nd ref="3135811392"/>
    <nd ref="7962800522"/>
    <nd ref="271203084"/>
    <nd ref="271203086"/>
    <nd ref="4737741821"/>
    <nd ref="8760744027"/>
    <nd ref="8760744039"/>
    <nd ref="2059770754"/>
    <tag k="highway" v="unclassified"/>
    <tag k="name" v="Slade Lane"/>
  </way>
  <way id="308285738" version="1" timestamp="2014-10-17T19:55:49Z" changeset="26154706" uid="600015" user="CartogLarry">
    <nd ref="2711259774"/>
    <nd ref="3135811392"/>
    <tag k="bridge" v="yes"/>
    <tag k="highway" v="unclassified"/>
    <tag k="layer" v="1"/>
    <tag k="name" v="Slade Lane"/>
  </way>
  <way id="413975496" version="6" timestamp="2025-04-15T18:14:27Z" changeset="164997990" uid="5229644" user="Nathan_A_RF">
    <nd ref="9698084071"/>
    <nd ref="244428096"/>
    <nd ref="4738239616"/>
    <nd ref="244428097"/>
    <nd ref="244428098"/>
    <nd ref="8611309493"/>
    <nd ref="244428099"/>
    <nd ref="244428100"/>
    <nd ref="244428101"/>
    <nd ref="244428102"/>
    <nd ref="4738239922"/>
    <nd ref="12758154702"/>
    <nd ref="12758154703"/>
    <nd ref="244428103"/>
    <tag k="highway" v="unclassified"/>
    <tag k="maxspeed" v="60 mph"/>
    <tag k="maxspeed:type" v="GB:nsl_single"/>
    <tag k="name" v="Worthington Lane"/>
  </way>
  <way id="413975497" version="3" timestamp="2025-04-15T18:14:27Z" changeset="164997990" uid="5229644" user="Nathan_A_RF">
    <nd ref="244428103"/>
    <nd ref="4151759110"/>
    <tag k="bridge" v="yes"/>
    <tag k="highway" v="unclassified"/>
    <tag k="layer" v="1"/>
    <tag k="name" v="Worthington Lane"/>
  </way>
  <way id="438899797" version="8" timestamp="2024-04-29T19:31:04Z" changeset="150678774" uid="607648" user="dudone">
    <nd ref="4365471383"/>
    <nd ref="11867212964"/>
    <nd ref="4365471385"/>
    <nd ref="4365471384"/>
    <nd ref="4365471388"/>
    <nd ref="4365471387"/>
    <nd ref="4365472490"/>
    <nd ref="2059660922"/>
    <nd ref="4365472489"/>
    <nd ref="4365471383"/>
    <tag k="addr:city" v="Derby"/>
    <tag k="addr:postcode" v="DE73 8AE"/>
    <tag k="addr:street" v="Main Street"/>
    <tag k="addr:village" v="Wilson"/>
    <tag k="amenity" v="pub"/>
    <tag k="building" v="pub"/>
    <tag k="contact:facebook" v="https://www.facebook.com/people/The-Bulls-Head-at-Wilson/100095525646065/"/>
    <tag k="fhrs:id" v="1632680"/>
    <tag k="name" v="The Bulls Head"/>
    <tag k="real_ale" v="yes"/>
    <tag k="source" v="survey"/>
    <tag k="source:addr" v="FHRS open data"/>
    <tag k="website" v="https://www.thebullsheadwilson.co.uk/"/>
  </way>
  <way id="438906427" version="8" timestamp="2024-05-11T13:32:05Z" changeset="151186502" uid="4626766" user="Edward Smith (MilPop14)">
    <nd ref="100219464"/>
    <nd ref="11046326974"/>
    <nd ref="5810940657"/>
    <nd ref="2059660933"/>
    <nd ref="100219461"/>
    <nd ref="100219458"/>
    <nd ref="3062751473"/>
    <nd ref="2059660915"/>
    <nd ref="596430978"/>
    <nd ref="100219455"/>
    <nd ref="5810940660"/>
    <nd ref="5810940661"/>
    <nd ref="100219452"/>
    <nd ref="5008452469"/>
    <nd ref="2059660918"/>
    <tag k="highway" v="tertiary"/>
    <tag k="lit" v="yes"/>
    <tag k="maxspeed" v="30 mph"/>
    <tag k="name" v="Ashby Road"/>
    <tag k="old_ref" v="A453"/>
    <tag k="sidewalk" v="both"/>
    <tag k="surface" v="asphalt"/>
  </way>
  <way id="438906428" version="2" timestamp="2024-01-19T19:32:09Z" changeset="146455440" uid="242345" user="confusedbuffalo">
    <nd ref="4365542272"/>
    <nd ref="244427953"/>
    <nd ref="244427954"/>
    <nd ref="244427955"/>
    <nd ref="4365542255"/>
    <nd ref="4365542253"/>
    <nd ref="4365542251"/>
    <nd ref="244427956"/>
    <nd ref="4365542244"/>
    <nd ref="4365542243"/>
    <nd ref="244427957"/>
    <tag k="highway" v="unclassified"/>
    <tag k="maxspeed" v="60 mph"/>
    <tag k="maxspeed:type" v="GB:nsl_single"/>
    <tag k="name" v="Breedon Lane"/>
  </way>
  <way id="438906429" version="1" timestamp="2016-08-24T23:19:00Z" changeset="41675984" uid="207845" user="will_p">
    <nd ref="4365536962"/>
    <nd ref="4365536964"/>
    <nd ref="4365536969"/>
    <nd ref="4365536973"/>
    <nd ref="4365536976"/>
    <nd ref="4365536980"/>
    <nd ref="4365536983"/>
    <nd ref="4365536981"/>
    <nd ref="4365536978"/>
    <nd ref="4365536975"/>
    <nd ref="4365536971"/>
    <nd ref="4365536965"/>
    <nd ref="4365536963"/>
    <nd ref="4365536962"/>
    <tag k="building" v="yes"/>
    <tag k="historic" v="memorial"/>
    <tag k="memorial" v="war_memorial"/>
    <tag k="name" v="Breedon on the Hill War Memorial"/>
    <tag k="source" v="survey"/>
  </way>
  <way id="438906430" version="4" timestamp="2025-01-04T17:22:25Z" changeset="160994966" uid="4376864" user="AndrewDJohnson">
    <nd ref="1224636307"/>
    <nd ref="12473925010"/>
    <nd ref="244427994"/>
    <nd ref="4737760873"/>
    <nd ref="244427995"/>
    <nd ref="4365542263"/>
    <tag k="highway" v="unclassified"/>
    <tag k="maxspeed" v="60 mph"/>
    <tag k="maxspeed:type" v="GB:nsl_single"/>
    <tag k="name" v="Melbourne Lane"/>
  </way>
  <way id="438906431" version="2" timestamp="2024-01-19T19:32:09Z" changeset="146455440" uid="242345" user="confusedbuffalo">
    <nd ref="1239151448"/>
    <nd ref="4365542393"/>
    <nd ref="1239151449"/>
    <nd ref="4365542394"/>
    <nd ref="1239151450"/>
    <nd ref="1239151451"/>
    <nd ref="3013354928"/>
    <nd ref="102206042"/>
    <tag k="highway" v="unclassified"/>
    <tag k="maxspeed" v="60 mph"/>
    <tag k="maxspeed:type" v="GB:nsl_single"/>
    <tag k="name" v="Moor Lane"/>
  </way>
  <way id="438906432" version="2" timestamp="2018-12-20T19:57:45Z" changeset="65650724" uid="364" user="Edward">
    <nd ref="4365542097"/>
    <nd ref="4365542096"/>
    <nd ref="4365542099"/>
    <nd ref="4365542102"/>
    <nd ref="4365542105"/>
    <nd ref="4365542110"/>
    <nd ref="4365542112"/>
    <nd ref="4365542109"/>
    <nd ref="4365542103"/>
    <nd ref="4365542100"/>
    <nd ref="4365542097"/>
    <tag k="HE_ref" v="1074127"/>
    <tag k="building" v="yes"/>
    <tag k="historic" v="lock-up"/>
    <tag k="listed_status" v="Grade II"/>
    <tag k="name" v="Round House"/>
    <tag k="source:listed_status" v="Historic England"/>
    <tag k="wikidata" v="Q26336201"/>
  </way>
  <way id="438906434" version="3" timestamp="2022-01-24T10:04:04Z" changeset="116533588" uid="417748" user="Dave Venables">
    <nd ref="4365542200"/>
    <nd ref="4365542201"/>
    <nd ref="4365542202"/>
    <nd ref="4365542210"/>
    <nd ref="4365542209"/>
    <nd ref="2059660923"/>
    <nd ref="4365542194"/>
    <nd ref="4365542189"/>
    <nd ref="4365542191"/>
    <nd ref="4365542200"/>
    <tag k="addr:city" v="Derby"/>
    <tag k="addr:postcode" v="DE73 8AT"/>
    <tag k="addr:street" v="Melbourne Lane"/>
    <tag k="addr:village" v="Breedon on the Hill"/>
    <tag k="amenity" v="pub"/>
    <tag k="building" v="pub"/>
    <tag k="fhrs:id" v="505481"/>
    <tag k="name" v="The Holly Bush Inn"/>
    <tag k="source" v="survey"/>
    <tag k="source:addr" v="FHRS open data"/>
    <tag k="wikidata" v="Q26336204"/>
  </way>
  <way id="438906435" version="5" timestamp="2024-01-13T08:35:07Z" changeset="146206075" uid="417748" user="Dave Venables">
    <nd ref="4365542204"/>
    <nd ref="4365542195"/>
    <nd ref="4365542199"/>
    <nd ref="4365542206"/>
    <nd ref="4365542204"/>
    <tag k="addr:city" v="Derby"/>
    <tag k="addr:postcode" v="DE73 8AN"/>
    <tag k="addr:street" v="Main Street"/>
    <tag k="addr:village" v="Breedon on the Hill"/>
    <tag k="building" v="yes"/>
    <tag k="fhrs:id" v="1537256"/>
    <tag k="name" v="The Pinnacle Store"/>
    <tag k="shop" v="newsagent"/>
  </way>
  <way id="438906436" version="5" timestamp="2021-12-04T08:17:10Z" changeset="114547004" uid="417748" user="Dave Venables">
    <nd ref="4365536943"/>
    <nd ref="4365536941"/>
    <nd ref="4365536967"/>
    <nd ref="4365536955"/>
    <nd ref="4365536950"/>
    <nd ref="4365536944"/>
    <nd ref="4365536948"/>
    <nd ref="4365536945"/>
    <nd ref="4365536935"/>
    <nd ref="4365536931"/>
    <nd ref="4365536937"/>
    <nd ref="4365536932"/>
    <nd ref="5225106267"/>
    <nd ref="4365536947"/>
    <nd ref="4365542094"/>
    <nd ref="4365536952"/>
    <nd ref="4365536943"/>
    <tag k="addr:city" v="Derby"/>
    <tag k="addr:housenumber" v="44"/>
    <tag k="addr:postcode" v="DE73 8AN"/>
    <tag k="addr:street" v="Main Street"/>
    <tag k="addr:village" v="Breedon on the Hill"/>
    <tag k="amenity" v="pub"/>
    <tag k="building" v="pub"/>
    <tag k="fhrs:id" v="1300"/>
    <tag k="name" v="The Three Horseshoes"/>
    <tag k="not:addr:postcode" v="DE73 1AN"/>
    <tag k="source" v="survey"/>
    <tag k="source:addr" v="FHRS open data"/>
    <tag k="wikidata" v="Q26392010"/>
  </way>
  <way id="449337065" version="5" timestamp="2023-11-19T12:11:46Z" changeset="144205411" uid="20086345" user="donq1986b">
    <nd ref="4463073398"/>
    <nd ref="4463073396"/>
    <nd ref="4463073405"/>
    <nd ref="4463073415"/>
    <nd ref="4463073398"/>
    <tag k="addr:housenumber" v="1"/>
    <tag k="addr:street" v="Frain Gardens"/>
    <tag k="building" v="detached"/>
  </way>
  <way id="449337066" version="4" timestamp="2023-11-19T12:11:52Z" changeset="144205411" uid="20086345" user="donq1986b">
    <nd ref="4463073403"/>
    <nd ref="4463073406"/>
    <nd ref="4463073392"/>
    <nd ref="4463073412"/>
    <nd ref="4463073407"/>
    <nd ref="4463073402"/>
    <nd ref="4463073403"/>
    <tag k="addr:housenumber" v="3"/>
    <tag k="addr:street" v="Frain Gardens"/>
    <tag k="building" v="detached"/>
  </way>
  <way id="449337069" version="6" timestamp="2024-04-29T17:17:13Z" changeset="150673633" uid="607648" user="dudone">
    <nd ref="4463073416"/>
    <nd ref="4463073409"/>
    <nd ref="4463073410"/>
    <nd ref="4463073397"/>
    <nd ref="11866894934"/>
    <nd ref="11866894933"/>
    <nd ref="4463073400"/>
    <nd ref="4463073399"/>
    <nd ref="4463073416"/>
    <tag k="addr:city" v="Derby"/>
    <tag k="addr:housenumber" v="2"/>
    <tag k="addr:postcode" v="DE73 8DU"/>
    <tag k="addr:street" v="Doctor's Lane"/>
    <tag k="addr:village" v="Breedon on the Hill"/>
    <tag k="building" v="detached"/>
  </way>
  <way id="512160096" version="3" timestamp="2025-04-14T21:22:45Z" changeset="164958119" uid="5229644" user="Nathan_A_RF">
    <nd ref="5008449954"/>
    <nd ref="244428535"/>
    <nd ref="3013297234"/>
    <nd ref="3013297231"/>
    <nd ref="3013297229"/>
    <nd ref="271203458"/>
    <nd ref="3013297227"/>
    <nd ref="3013297223"/>
    <nd ref="3013297220"/>
    <nd ref="3013297215"/>
    <nd ref="3013297211"/>
    <nd ref="244428537"/>
    <nd ref="3013297210"/>
    <nd ref="3013297209"/>
    <nd ref="3013297208"/>
    <nd ref="3013297212"/>
    <nd ref="3013297214"/>
    <nd ref="3013297218"/>
    <nd ref="244428538"/>
    <nd ref="3013297224"/>
    <nd ref="3013297226"/>
    <nd ref="3013297228"/>
    <nd ref="1157288486"/>
    <nd ref="3013297236"/>
    <nd ref="3013297242"/>
    <nd ref="244428539"/>
    <nd ref="3013297259"/>
    <nd ref="1157287931"/>
    <nd ref="3013297269"/>
    <nd ref="3013297278"/>
    <nd ref="3013297285"/>
    <nd ref="244428540"/>
    <nd ref="3013297290"/>
    <nd ref="3013297291"/>
    <nd ref="3013297287"/>
    <nd ref="244428541"/>
    <nd ref="3013297283"/>
    <nd ref="244428542"/>
    <nd ref="3013297276"/>
    <nd ref="3013297270"/>
    <nd ref="244428543"/>
    <nd ref="244428544"/>
    <tag k="highway" v="tertiary"/>
    <tag k="lit" v="no"/>
    <tag k="maxspeed" v="60 mph"/>
    <tag k="maxspeed:type" v="GB:nsl_single"/>
    <tag k="name" v="Gelscoe Lane"/>
  </way>
  <way id="512160097" version="3" timestamp="2024-05-11T13:32:05Z" changeset="151186502" uid="4626766" user="Edward Smith (MilPop14)">
    <nd ref="5008449956"/>
    <nd ref="3013297684"/>
    <nd ref="3013297688"/>
    <nd ref="3013297691"/>
    <nd ref="102204142"/>
    <nd ref="3013297698"/>
    <nd ref="102204144"/>
    <nd ref="3013297702"/>
    <nd ref="102204145"/>
    <nd ref="3013297710"/>
    <nd ref="3013297712"/>
    <nd ref="3013297714"/>
    <nd ref="102204146"/>
    <nd ref="3013297717"/>
    <nd ref="3013297721"/>
    <nd ref="3013297724"/>
    <nd ref="3013297727"/>
    <nd ref="102204147"/>
    <nd ref="3013297735"/>
    <nd ref="3013297738"/>
    <nd ref="102204148"/>
    <nd ref="3013297740"/>
    <nd ref="3013297741"/>
    <nd ref="3013297743"/>
    <nd ref="102204149"/>
    <nd ref="3013297745"/>
    <nd ref="3013297746"/>
    <nd ref="102204150"/>
    <nd ref="3013297748"/>
    <nd ref="3013297749"/>
    <nd ref="102204151"/>
    <nd ref="3013297751"/>
    <nd ref="3013297752"/>
    <nd ref="102204152"/>
    <nd ref="3013297755"/>
    <nd ref="244427858"/>
    <tag k="highway" v="primary"/>
    <tag k="lit" v="no"/>
    <tag k="maxspeed" v="60 mph"/>
    <tag k="maxspeed:type" v="GB:nsl_single"/>
    <tag k="old_ref" v="A447"/>
    <tag k="ref" v="A453"/>
  </way>
  <way id="512160099" version="6" timestamp="2023-10-29T02:41:07Z" changeset="143292395" uid="13341565" user="Falsernet">
    <nd ref="3013297294"/>
    <nd ref="33626512"/>
    <nd ref="3013297312"/>
    <nd ref="3013297326"/>
    <nd ref="3013297434"/>
    <nd ref="33626513"/>
    <nd ref="3013297448"/>
    <nd ref="3013297457"/>
    <nd ref="33626514"/>
    <nd ref="3013297470"/>
    <nd ref="3013297478"/>
    <nd ref="3013297480"/>
    <nd ref="33626515"/>
    <nd ref="3013297487"/>
    <nd ref="3013297491"/>
    <nd ref="33626516"/>
    <nd ref="3013297505"/>
    <nd ref="3013297511"/>
    <nd ref="3013297516"/>
    <nd ref="3013297521"/>
    <nd ref="3013297524"/>
    <nd ref="26016275"/>
    <tag k="highway" v="trunk_link"/>
    <tag k="lane_markings" v="no"/>
    <tag k="lit" v="no"/>
    <tag k="maxspeed" v="70 mph"/>
    <tag k="maxspeed:type" v="GB:nsl_dual"/>
    <tag k="national_highways:area" v="7"/>
    <tag k="oneway" v="yes"/>
    <tag k="operator" v="National Highways"/>
    <tag k="operator:wikidata" v="Q5760006"/>
    <tag k="surface" v="asphalt"/>
  </way>
  <way id="512160100" version="5" timestamp="2025-04-14T21:22:45Z" changeset="164958119" uid="5229644" user="Nathan_A_RF">
    <nd ref="5008449955"/>
    <nd ref="33626520"/>
    <tag k="carriageway_ref" v="H"/>
    <tag k="highway" v="trunk_link"/>
    <tag k="lanes" v="2"/>
    <tag k="lit" v="yes"/>
    <tag k="maxspeed" v="70 mph"/>
    <tag k="maxspeed:type" v="GB:nsl_dual"/>
    <tag k="national_highways:area" v="7"/>
    <tag k="oneway" v="yes"/>
    <tag k="operator" v="National Highways"/>
    <tag k="operator:wikidata" v="Q5760006"/>
    <tag k="surface" v="asphalt"/>
  </way>
  <way id="512160102" version="3" timestamp="2025-04-14T21:22:45Z" changeset="164958119" uid="5229644" user="Nathan_A_RF">
    <nd ref="252412824"/>
    <nd ref="3013297330"/>
    <nd ref="33626521"/>
    <tag k="highway" v="primary"/>
    <tag k="lit" v="yes"/>
    <tag k="maxspeed" v="60 mph"/>
    <tag k="maxspeed:type" v="GB:nsl_single"/>
    <tag k="old_ref" v="A447"/>
    <tag k="ref" v="A453"/>
  </way>
  <way id="512161397" version="4" timestamp="2025-04-15T18:14:27Z" changeset="164997990" uid="5229644" user="Nathan_A_RF">
    <nd ref="2059660918"/>
    <nd ref="100219449"/>
    <nd ref="2059660906"/>
    <nd ref="100219446"/>
    <nd ref="8170824324"/>
    <nd ref="100219442"/>
    <tag k="highway" v="tertiary"/>
    <tag k="lit" v="no"/>
    <tag k="maxspeed" v="60 mph"/>
    <tag k="maxspeed:type" v="GB:nsl_single"/>
    <tag k="name" v="Ashby Road"/>
    <tag k="old_ref" v="A453"/>
  </way>
  <way id="512161400" version="2" timestamp="2022-04-27T15:16:37Z" changeset="120264923" uid="13341565" user="Falsernet">
    <nd ref="175632629"/>
    <nd ref="2814556846"/>
    <nd ref="1224636225"/>
    <nd ref="2814556844"/>
    <nd ref="175632631"/>
    <nd ref="1239149243"/>
    <tag k="highway" v="tertiary"/>
    <tag k="lit" v="yes"/>
    <tag k="maxspeed" v="30 mph"/>
    <tag k="old_ref" v="A453"/>
  </way>
  <way id="673929204" version="3" timestamp="2021-09-29T23:18:47Z" changeset="111890771" uid="493595" user="Yorvik Prestigitator">
    <nd ref="6311279722"/>
    <nd ref="6311279723"/>
    <nd ref="6311279724"/>
    <nd ref="6311279725"/>
    <nd ref="6311279726"/>
    <nd ref="6311279727"/>
    <nd ref="6311279728"/>
    <nd ref="6311279729"/>
    <nd ref="6311279730"/>
    <nd ref="6311279731"/>
    <nd ref="9133550267"/>
    <nd ref="6311279732"/>
    <tag k="highway" v="residential"/>
    <tag k="name" v="Pear Tree Mews"/>
  </way>
  <way id="690529423" version="1" timestamp="2019-05-16T17:26:20Z" changeset="70328836" uid="9641464" user="tmmanish">
    <nd ref="6478712946"/>
    <nd ref="6478712947"/>
    <nd ref="6478712948"/>
    <nd ref="6478712949"/>
    <nd ref="6478712950"/>
    <nd ref="6478712951"/>
    <nd ref="6478712952"/>
    <nd ref="6478712953"/>
    <nd ref="6478712954"/>
    <tag k="highway" v="residential"/>
  </way>
  <way id="1055437220" version="1" timestamp="2022-04-27T15:16:37Z" changeset="120264923" uid="13341565" user="Falsernet">
    <nd ref="3013355834"/>
    <nd ref="3013355835"/>
    <nd ref="3013355836"/>
    <nd ref="102206047"/>
    <nd ref="102206049"/>
    <nd ref="102206050"/>
    <nd ref="102206051"/>
    <nd ref="102206053"/>
    <tag k="highway" v="primary"/>
    <tag k="lit" v="no"/>
    <tag k="maxspeed" v="50 mph"/>
    <tag k="name" v="Moor Lane"/>
    <tag k="old_ref" v="A447"/>
    <tag k="ref" v="A453"/>
  </way>
  <way id="1055437221" version="1" timestamp="2022-04-27T15:16:37Z" changeset="120264923" uid="13341565" user="Falsernet">
    <nd ref="244428003"/>
    <nd ref="9698084070"/>
    <nd ref="2408045683"/>
    <nd ref="244428094"/>
    <nd ref="244428095"/>
    <nd ref="4737760913"/>
    <nd ref="9698084071"/>
    <tag k="highway" v="unclassified"/>
    <tag k="maxspeed" v="30 mph"/>
    <tag k="name" v="Worthington Lane"/>
  </way>
  <way id="1189624882" version="2" timestamp="2024-07-11T20:48:43Z" changeset="153829459" uid="11768777" user="sistershrimp">
    <nd ref="6797360108"/>
    <nd ref="11046326922"/>
    <nd ref="6797360107"/>
    <nd ref="6797360106"/>
    <nd ref="11046326915"/>
    <nd ref="6797360105"/>
    <tag k="highway" v="residential"/>
    <tag k="surface" v="unpaved"/>
  </way>
  <way id="1189624883" version="1" timestamp="2023-07-14T11:53:13Z" changeset="138504429" uid="9026132" user="PulisakZ">
    <nd ref="11046326922"/>
    <nd ref="11046326921"/>
    <nd ref="11046326918"/>
    <nd ref="11046326920"/>
    <nd ref="11046326917"/>
    <nd ref="11046326919"/>
    <nd ref="11046326916"/>
    <tag k="highway" v="residential"/>
  </way>
  <way id="1189624884" version="1" timestamp="2023-07-14T11:53:13Z" changeset="138504429" uid="9026132" user="PulisakZ">
    <nd ref="9814477649"/>
    <nd ref="11046326929"/>
    <nd ref="2059767372"/>
    <nd ref="11046326972"/>
    <nd ref="11046326973"/>
    <nd ref="11046326974"/>
    <tag k="highway" v="residential"/>
  </way>
  <way id="1189624885" version="1" timestamp="2023-07-14T11:53:13Z" changeset="138504429" uid="9026132" user="PulisakZ">
    <nd ref="11046326956"/>
    <nd ref="11046326955"/>
    <nd ref="11046326952"/>
    <nd ref="11046326954"/>
    <nd ref="11046326951"/>
    <nd ref="11046326953"/>
    <nd ref="11046326950"/>
    <tag k="highway" v="residential"/>
  </way>
  <way id="1189624886" version="1" timestamp="2023-07-14T11:53:13Z" changeset="138504429" uid="9026132" user="PulisakZ">
    <nd ref="3062751476"/>
    <nd ref="11046326970"/>
    <nd ref="11046326967"/>
    <nd ref="11046326969"/>
    <nd ref="11046326966"/>
    <nd ref="11046326968"/>
    <nd ref="11046326965"/>
    <nd ref="11046326964"/>
    <nd ref="11046326961"/>
    <nd ref="11046326960"/>
    <nd ref="11046326963"/>
    <nd ref="11046326950"/>
    <nd ref="11046326959"/>
    <nd ref="11046326962"/>
    <nd ref="11046326958"/>
    <nd ref="11046326926"/>
    <nd ref="11046326927"/>
    <nd ref="11046326925"/>
    <nd ref="9814477649"/>
    <tag k="highway" v="residential"/>
    <tag k="name" v="Priory Close"/>
  </way>
  <way id="1189624887" version="1" timestamp="2023-07-14T11:53:13Z" changeset="138504429" uid="9026132" user="PulisakZ">
    <nd ref="2059767562"/>
    <nd ref="11046326924"/>
    <nd ref="11046326923"/>
    <nd ref="6797360105"/>
    <nd ref="11046326932"/>
    <nd ref="9814477653"/>
    <nd ref="11046326931"/>
    <nd ref="9814477652"/>
    <nd ref="2059767592"/>
    <nd ref="11046326928"/>
    <nd ref="11046326930"/>
    <nd ref="9814477649"/>
    <tag k="highway" v="residential"/>
  </way>
  <way id="1225170829" version="5" timestamp="2023-11-19T12:01:42Z" changeset="144205069" uid="20086345" user="donq1986b">
    <nd ref="4365542263"/>
    <nd ref="7679669368"/>
    <nd ref="244427996"/>
    <nd ref="244427997"/>
    <nd ref="244427998"/>
    <nd ref="244427999"/>
    <nd ref="11361602652"/>
    <tag k="cycleway:both" v="no"/>
    <tag k="highway" v="unclassified"/>
    <tag k="lane_markings" v="no"/>
    <tag k="maxspeed" v="30 mph"/>
    <tag k="name" v="Melbourne Lane"/>
    <tag k="sidewalk" v="no"/>
    <tag k="surface" v="asphalt"/>
  </way>
  <way id="1225172688" version="3" timestamp="2024-04-29T17:17:13Z" changeset="150673633" uid="607648" user="dudone">
    <nd ref="11361650497"/>
    <nd ref="100219519"/>
    <nd ref="100219518"/>
    <nd ref="100219517"/>
    <nd ref="100219516"/>
    <nd ref="11866894915"/>
    <nd ref="11866894904"/>
    <nd ref="11866894924"/>
    <nd ref="100219515"/>
    <nd ref="100219513"/>
    <nd ref="100219512"/>
    <nd ref="11866894929"/>
    <nd ref="100219511"/>
    <nd ref="4463066201"/>
    <nd ref="100219510"/>
    <nd ref="100219507"/>
    <nd ref="4463066440"/>
    <nd ref="100219506"/>
    <nd ref="100219505"/>
    <tag k="cycleway:both" v="no"/>
    <tag k="highway" v="unclassified"/>
    <tag k="lanes" v="2"/>
    <tag k="name" v="Doctor's Lane"/>
    <tag k="source:name" v="OS OpenData Locator"/>
    <tag k="surface" v="asphalt"/>
  </way>
  <way id="1278248397" version="1" timestamp="2024-04-29T17:17:13Z" changeset="150673633" uid="607648" user="dudone">
    <nd ref="244427946"/>
    <nd ref="8973993661"/>
    <nd ref="1239147121"/>
    <nd ref="1239147127"/>
    <tag k="highway" v="residential"/>
    <tag k="name" v="Field Lane"/>
  </way>
  <way id="1281954809" version="1" timestamp="2024-05-11T13:32:05Z" changeset="151186502" uid="4626766" user="Edward Smith (MilPop14)">
    <nd ref="244428003"/>
    <nd ref="5225106282"/>
    <nd ref="6311279722"/>
    <nd ref="100219476"/>
    <nd ref="2059660957"/>
    <nd ref="2059767494"/>
    <nd ref="2059660951"/>
    <nd ref="100219474"/>
    <nd ref="100219470"/>
    <nd ref="2059767479"/>
    <nd ref="2059660920"/>
    <nd ref="100219468"/>
    <nd ref="2059660928"/>
    <nd ref="5810940654"/>
    <nd ref="2059660934"/>
    <nd ref="4365536938"/>
    <nd ref="100219465"/>
    <nd ref="2059660902"/>
    <tag k="highway" v="tertiary"/>
    <tag k="lit" v="yes"/>
    <tag k="maxspeed" v="30 mph"/>
    <tag k="name" v="Main Street"/>
    <tag k="old_ref" v="A453"/>
    <tag k="source:name" v="survey"/>
  </way>
  <way id="1281954810" version="1" timestamp="2024-05-11T13:32:05Z" changeset="151186502" uid="4626766" user="Edward Smith (MilPop14)">
    <nd ref="2059660902"/>
    <nd ref="2059660909"/>
    <nd ref="5810940655"/>
    <nd ref="2059660908"/>
    <nd ref="100219464"/>
    <tag k="highway" v="tertiary"/>
    <tag k="lit" v="yes"/>
    <tag k="maxspeed" v="30 mph"/>
    <tag k="name" v="Ashby Road"/>
    <tag k="old_ref" v="A453"/>
    <tag k="sidewalk" v="both"/>
    <tag k="surface" v="asphalt"/>
  </way>
  <way id="1281954811" version="1" timestamp="2024-05-11T13:32:05Z" changeset="151186502" uid="4626766" user="Edward Smith (MilPop14)">
    <nd ref="2059660958"/>
    <nd ref="805587644"/>
    <nd ref="5810940656"/>
    <nd ref="100219464"/>
    <tag k="highway" v="unclassified"/>
    <tag k="maxspeed" v="30 mph"/>
    <tag k="name" v="Melbourne Lane"/>
  </way>
  <way id="1281954866" version="1" timestamp="2024-05-11T13:32:05Z" changeset="151186502" uid="4626766" user="Edward Smith (MilPop14)">
    <nd ref="244427858"/>
    <nd ref="102204153"/>
    <nd ref="3013297759"/>
    <nd ref="102206036"/>
    <nd ref="3013297763"/>
    <nd ref="102206037"/>
    <nd ref="3013297765"/>
    <nd ref="3013297766"/>
    <nd ref="102206038"/>
    <nd ref="3013297774"/>
    <nd ref="3396961327"/>
    <nd ref="102206039"/>
    <nd ref="3013297783"/>
    <nd ref="102206040"/>
    <nd ref="3013297786"/>
    <nd ref="3013297789"/>
    <nd ref="102206041"/>
    <nd ref="3013297793"/>
    <nd ref="3013297794"/>
    <nd ref="3013297795"/>
    <nd ref="102206042"/>
    <tag k="highway" v="primary"/>
    <tag k="lit" v="no"/>
    <tag k="maxspeed" v="60 mph"/>
    <tag k="maxspeed:type" v="GB:nsl_single"/>
    <tag k="old_ref" v="A447"/>
    <tag k="ref" v="A453"/>
  </way>
  <way id="1377604044" version="1" timestamp="2025-04-14T21:22:45Z" changeset="164958119" uid="5229644" user="Nathan_A_RF">
    <nd ref="3013297670"/>
    <nd ref="5008449955"/>
    <tag k="carriageway_ref" v="H"/>
    <tag k="highway" v="trunk_link"/>
    <tag k="lanes" v="2"/>
    <tag k="lit" v="no"/>
    <tag k="maxspeed" v="70 mph"/>
    <tag k="maxspeed:type" v="GB:nsl_dual"/>
    <tag k="national_highways:area" v="7"/>
    <tag k="oneway" v="yes"/>
    <tag k="operator" v="National Highways"/>
    <tag k="operator:wikidata" v="Q5760006"/>
    <tag k="surface" v="asphalt"/>
  </way>

</osm>
