<?xml version="1.0" encoding="UTF-8"?>
<osm version="0.6" generator="Overpass API 0.7.62.8 e802775f">
<note>The data included in this document is from www.openstreetmap.org. The data is made available under ODbL.</note>
<meta osm_base="2025-10-23T17:10:06Z" areas="2025-10-23T14:54:58Z"/>

  <node id="326860" lat="53.0597378" lon="-1.2649704" version="14" timestamp="2023-01-02T10:09:30Z" changeset="130780110" uid="1778799" user="SomeoneElse_Revert">
    <tag k="destination" v="Kirby-in-Ashfield"/>
    <tag k="destination:ref" v="A608"/>
    <tag k="highway" v="motorway_junction"/>
    <tag k="ref" v="27"/>
  </node>
  <node id="28099013" lat="53.0635178" lon="-1.2706925" version="3" timestamp="2014-03-28T23:38:21Z" changeset="21375149" uid="178626" user="Rovastar"/>
  <node id="28099033" lat="53.0628657" lon="-1.2689685" version="1" timestamp="2007-04-27T20:01:23Z" changeset="29475" uid="1473" user="avantman42">
    <tag k="created_by" v="JOSM"/>
  </node>
  <node id="1334095456" lat="53.0638770" lon="-1.2692155" version="2" timestamp="2014-03-28T23:38:19Z" changeset="21375149" uid="178626" user="Rovastar"/>
  <node id="1416939499" lat="53.0629063" lon="-1.2714916" version="3" timestamp="2025-04-22T13:06:40Z" changeset="165285215" uid="5229644" user="Nathan_A_RF"/>
  <node id="1590686656" lat="53.0667806" lon="-1.2728151" version="10" timestamp="2023-01-02T10:09:30Z" changeset="130780110" uid="1778799" user="SomeoneElse_Revert">
    <tag k="destination" v="Hucknall"/>
    <tag k="destination:ref" v="A608"/>
    <tag k="highway" v="motorway_junction"/>
    <tag k="ref" v="27"/>
    <tag k="source" v="Bing"/>
  </node>
  <way id="3058790" version="29" timestamp="2024-01-22T18:56:44Z" changeset="146565751" uid="16951803" user="Vas111">
    <nd ref="326860"/>
    <nd ref="1562644505"/>
    <nd ref="2750951146"/>
    <nd ref="2750951152"/>
    <nd ref="1590686873"/>
    <nd ref="2750951237"/>
    <nd ref="2750951280"/>
    <nd ref="2750951354"/>
    <nd ref="1590686939"/>
    <nd ref="2750951490"/>
    <nd ref="2750951537"/>
    <nd ref="2750951551"/>
    <nd ref="1590686440"/>
    <nd ref="2750951570"/>
    <nd ref="2750951581"/>
    <nd ref="2750951590"/>
    <nd ref="1590686673"/>
    <nd ref="1876488022"/>
    <nd ref="1590686640"/>
    <nd ref="2750951640"/>
    <nd ref="2750951642"/>
    <nd ref="2750951644"/>
    <nd ref="1590686913"/>
    <nd ref="2750951646"/>
    <nd ref="2750951647"/>
    <nd ref="2750951649"/>
    <nd ref="1590686934"/>
    <nd ref="2750951651"/>
    <nd ref="2750951653"/>
    <nd ref="2750951655"/>
    <nd ref="1590686465"/>
    <nd ref="2750951658"/>
    <nd ref="2750951660"/>
    <nd ref="2750951661"/>
    <nd ref="1562644454"/>
    <nd ref="1562644445"/>
    <nd ref="326886"/>
    <nd ref="2750951662"/>
    <nd ref="1296571574"/>
    <nd ref="2750951664"/>
    <nd ref="2750951666"/>
    <nd ref="1296571561"/>
    <nd ref="2750951669"/>
    <nd ref="1296571562"/>
    <nd ref="2750951670"/>
    <nd ref="326899"/>
    <nd ref="2750951673"/>
    <nd ref="2750951675"/>
    <nd ref="2378567350"/>
    <nd ref="2750951677"/>
    <nd ref="2750951679"/>
    <nd ref="1598128823"/>
    <nd ref="2750998617"/>
    <nd ref="2750951681"/>
    <nd ref="2750951683"/>
    <nd ref="1333235599"/>
    <tag k="active_traffic_management" v="yes"/>
    <tag k="carriageway_ref" v="A"/>
    <tag k="enforcement:maxspeed" v="yes"/>
    <tag k="highway" v="motorway"/>
    <tag k="int_ref" v="E 13"/>
    <tag k="lanes" v="4"/>
    <tag k="lit" v="yes"/>
    <tag k="maxheight" v="default"/>
    <tag k="maxspeed" v="70 mph"/>
    <tag k="maxspeed:type" v="GB:motorway"/>
    <tag k="maxspeed:variable" v="signals"/>
    <tag k="national_highways:area" v="7"/>
    <tag k="oneway" v="yes"/>
    <tag k="operator" v="National Highways"/>
    <tag k="operator:wikidata" v="Q5760006"/>
    <tag k="ref" v="M1"/>
    <tag k="source:maxspeed" v="survey"/>
    <tag k="surface" v="asphalt"/>
  </way>
  <way id="4541836" version="14" timestamp="2022-11-10T19:08:05Z" changeset="128747366" uid="3560" user="Firefishy">
    <nd ref="326860"/>
    <nd ref="2750951115"/>
    <nd ref="2750951122"/>
    <nd ref="1562644503"/>
    <nd ref="2750951137"/>
    <nd ref="28267204"/>
    <nd ref="2750951148"/>
    <nd ref="1416939497"/>
    <nd ref="2750951157"/>
    <nd ref="2750951161"/>
    <nd ref="2750951163"/>
    <nd ref="2750951165"/>
    <nd ref="7459228795"/>
    <nd ref="2750951167"/>
    <nd ref="1416939495"/>
    <tag k="destination" v="Kirby-in-Ashfield"/>
    <tag k="destination:ref" v="A608"/>
    <tag k="highway" v="motorway_link"/>
    <tag k="lanes" v="2"/>
    <tag k="lit" v="yes"/>
    <tag k="national_highways:area" v="7"/>
    <tag k="oneway" v="yes"/>
    <tag k="operator" v="National Highways"/>
    <tag k="operator:wikidata" v="Q5760006"/>
    <tag k="surface" v="asphalt"/>
  </way>
  <way id="8104535" version="11" timestamp="2022-11-10T19:08:05Z" changeset="128747366" uid="3560" user="Firefishy">
    <nd ref="28099013"/>
    <nd ref="2750951292"/>
    <nd ref="2750951311"/>
    <nd ref="2750951323"/>
    <nd ref="2750951337"/>
    <nd ref="1416939509"/>
    <nd ref="2750951366"/>
    <nd ref="2750951387"/>
    <nd ref="2750951394"/>
    <nd ref="2750951404"/>
    <nd ref="2750951411"/>
    <nd ref="1416939483"/>
    <nd ref="2750951534"/>
    <nd ref="2750951545"/>
    <nd ref="2750951557"/>
    <nd ref="2750951566"/>
    <nd ref="2750951576"/>
    <nd ref="2750951587"/>
    <nd ref="1590686673"/>
    <tag k="destination" v="The NORTH"/>
    <tag k="destination:ref" v="M1"/>
    <tag k="highway" v="motorway_link"/>
    <tag k="lit" v="yes"/>
    <tag k="national_highways:area" v="7"/>
    <tag k="oneway" v="yes"/>
    <tag k="operator" v="National Highways"/>
    <tag k="operator:wikidata" v="Q5760006"/>
    <tag k="source" v="Unknown;local_knowldge;GPS;Bing"/>
    <tag k="surface" v="asphalt"/>
  </way>
  <way id="8105040" version="31" timestamp="2025-04-22T13:06:40Z" changeset="165285215" uid="5229644" user="Nathan_A_RF">
    <nd ref="1416939499"/>
    <nd ref="1416939505"/>
    <tag k="highway" v="primary"/>
    <tag k="lit" v="no"/>
    <tag k="maxspeed" v="60 mph"/>
    <tag k="maxspeed:type" v="GB:nsl_single"/>
    <tag k="name" v="Mansfield Road"/>
    <tag k="oneway" v="yes"/>
    <tag k="ref" v="A608"/>
    <tag k="source" v="Unknown;local_knowldge;GPS;Bing"/>
    <tag k="source:maxspeed" v="Stats19"/>
  </way>
  <way id="118665734" version="18" timestamp="2025-07-23T20:34:24Z" changeset="169365596" uid="22178592" user="Fahmid5987">
    <nd ref="28099016"/>
    <nd ref="2750951181"/>
    <nd ref="2750951185"/>
    <nd ref="2750951193"/>
    <nd ref="2750951203"/>
    <nd ref="2750951213"/>
    <nd ref="28099015"/>
    <nd ref="2750951231"/>
    <nd ref="2750951239"/>
    <nd ref="2750951243"/>
    <nd ref="2750951251"/>
    <nd ref="2750951260"/>
    <nd ref="28099014"/>
    <tag k="highway" v="primary"/>
    <tag k="junction" v="circular"/>
    <tag k="lit" v="yes"/>
    <tag k="maxspeed" v="60 mph"/>
    <tag k="maxspeed:type" v="GB:nsl_single"/>
    <tag k="sidewalk" v="no"/>
    <tag k="surface" v="asphalt"/>
  </way>
  <way id="118665740" version="19" timestamp="2025-04-22T13:06:40Z" changeset="165285215" uid="5229644" user="Nathan_A_RF">
    <nd ref="1334095445"/>
    <nd ref="1334095456"/>
    <tag k="bridge" v="yes"/>
    <tag k="cycleway:left" v="no"/>
    <tag k="highway" v="primary"/>
    <tag k="junction" v="circular"/>
    <tag k="lanes" v="2"/>
    <tag k="layer" v="1"/>
    <tag k="lit" v="yes"/>
    <tag k="maxspeed" v="60 mph"/>
    <tag k="maxspeed:type" v="GB:nsl_single"/>
    <tag k="maxweight:signed" v="no"/>
    <tag k="shoulder" v="no"/>
    <tag k="sidewalk" v="both"/>
    <tag k="surface" v="asphalt"/>
  </way>
  <way id="128169089" version="11" timestamp="2021-08-26T13:28:05Z" changeset="110289039" uid="242345" user="confusedbuffalo">
    <nd ref="1416939499"/>
    <nd ref="6885310125"/>
    <nd ref="2750951188"/>
    <nd ref="2750951178"/>
    <nd ref="321908895"/>
    <nd ref="2750951166"/>
    <nd ref="2750951162"/>
    <nd ref="2750951159"/>
    <nd ref="2750951155"/>
    <nd ref="2750951154"/>
    <nd ref="60728400"/>
    <nd ref="2750951150"/>
    <nd ref="2750951147"/>
    <nd ref="2750951142"/>
    <nd ref="2750951136"/>
    <nd ref="2750951133"/>
    <nd ref="2750951130"/>
    <nd ref="2750951127"/>
    <nd ref="2750951123"/>
    <nd ref="2750951118"/>
    <nd ref="2750951116"/>
    <nd ref="60728402"/>
    <nd ref="2750951112"/>
    <nd ref="2750951111"/>
    <nd ref="2750951110"/>
    <nd ref="2750951109"/>
    <nd ref="60728403"/>
    <nd ref="2750951107"/>
    <nd ref="2750951106"/>
    <nd ref="2750951105"/>
    <nd ref="2750951104"/>
    <nd ref="2750951103"/>
    <nd ref="2750951101"/>
    <nd ref="2750951099"/>
    <nd ref="2750951098"/>
    <nd ref="6539849126"/>
    <nd ref="2750951095"/>
    <nd ref="2750951094"/>
    <nd ref="321908894"/>
    <nd ref="2750951091"/>
    <nd ref="2750951088"/>
    <nd ref="2464580709"/>
    <tag k="cycleway:right" v="lane"/>
    <tag k="highway" v="primary"/>
    <tag k="lit" v="no"/>
    <tag k="maxspeed" v="60 mph"/>
    <tag k="maxspeed:type" v="GB:nsl_single"/>
    <tag k="name" v="Mansfield Road"/>
    <tag k="ref" v="A608"/>
    <tag k="source:maxspeed" v="Stats19"/>
  </way>
  <way id="128169095" version="11" timestamp="2025-04-22T13:06:40Z" changeset="165285215" uid="5229644" user="Nathan_A_RF">
    <nd ref="28099016"/>
    <nd ref="2750951176"/>
    <nd ref="1416939511"/>
    <nd ref="2750951194"/>
    <nd ref="1416939484"/>
    <tag k="highway" v="primary"/>
    <tag k="lit" v="yes"/>
    <tag k="maxspeed" v="60 mph"/>
    <tag k="maxspeed:type" v="GB:nsl_single"/>
    <tag k="name" v="Mansfield Road"/>
    <tag k="oneway" v="yes"/>
    <tag k="ref" v="A608"/>
    <tag k="sidewalk" v="no"/>
    <tag k="source" v="Unknown;local_knowldge;GPS;Bing"/>
    <tag k="source:maxspeed" v="Stats19"/>
    <tag k="surface" v="asphalt"/>
  </way>
  <way id="512743009" version="4" timestamp="2025-04-22T13:06:40Z" changeset="165285215" uid="5229644" user="Nathan_A_RF">
    <nd ref="1416939484"/>
    <nd ref="1416939499"/>
    <tag k="highway" v="primary"/>
    <tag k="lit" v="no"/>
    <tag k="maxspeed" v="60 mph"/>
    <tag k="maxspeed:type" v="GB:nsl_single"/>
    <tag k="name" v="Mansfield Road"/>
    <tag k="oneway" v="yes"/>
    <tag k="ref" v="A608"/>
    <tag k="source" v="Unknown;local_knowldge;GPS;Bing"/>
    <tag k="source:maxspeed" v="Stats19"/>
  </way>
  <way id="512743025" version="8" timestamp="2025-04-22T13:06:40Z" changeset="165285215" uid="5229644" user="Nathan_A_RF">
    <nd ref="1416939505"/>
    <nd ref="2750951219"/>
    <nd ref="2750951227"/>
    <nd ref="2750951234"/>
    <nd ref="1416939501"/>
    <nd ref="2750951249"/>
    <nd ref="2750951257"/>
    <nd ref="28099014"/>
    <tag k="cycleway:left" v="no"/>
    <tag k="highway" v="primary"/>
    <tag k="lit" v="yes"/>
    <tag k="maxspeed" v="60 mph"/>
    <tag k="maxspeed:type" v="GB:nsl_single"/>
    <tag k="name" v="Mansfield Road"/>
    <tag k="oneway" v="yes"/>
    <tag k="ref" v="A608"/>
    <tag k="sidewalk" v="left"/>
    <tag k="source" v="Unknown;local_knowldge;GPS;Bing"/>
    <tag k="source:maxspeed" v="Stats19"/>
    <tag k="surface" v="asphalt"/>
  </way>
  <way id="837876410" version="9" timestamp="2025-04-22T13:06:40Z" changeset="165285215" uid="5229644" user="Nathan_A_RF">
    <nd ref="28099033"/>
    <nd ref="7459228796"/>
    <nd ref="2750951173"/>
    <nd ref="2750951170"/>
    <nd ref="1416939495"/>
    <nd ref="12775857283"/>
    <nd ref="2750951171"/>
    <nd ref="28099016"/>
    <tag k="highway" v="primary"/>
    <tag k="junction" v="circular"/>
    <tag k="lit" v="yes"/>
    <tag k="maxspeed" v="60 mph"/>
    <tag k="maxspeed:type" v="GB:nsl_single"/>
    <tag k="sidewalk" v="no"/>
    <tag k="surface" v="asphalt"/>
  </way>
  <way id="837876422" version="7" timestamp="2025-04-22T13:06:40Z" changeset="165285215" uid="5229644" user="Nathan_A_RF">
    <nd ref="1334095456"/>
    <nd ref="28099012"/>
    <nd ref="2750951382"/>
    <nd ref="2750951384"/>
    <nd ref="1416939477"/>
    <nd ref="2750951381"/>
    <nd ref="2750951379"/>
    <nd ref="28099011"/>
    <tag k="highway" v="primary"/>
    <tag k="junction" v="circular"/>
    <tag k="lanes" v="2"/>
    <tag k="lit" v="yes"/>
    <tag k="maxspeed" v="60 mph"/>
    <tag k="maxspeed:type" v="GB:nsl_single"/>
    <tag k="surface" v="asphalt"/>
  </way>
  <way id="837876423" version="9" timestamp="2025-04-22T13:06:40Z" changeset="165285215" uid="5229644" user="Nathan_A_RF">
    <nd ref="28099014"/>
    <nd ref="2750951266"/>
    <nd ref="1416939504"/>
    <nd ref="2750951275"/>
    <nd ref="2750951279"/>
    <nd ref="28099013"/>
    <nd ref="2750951290"/>
    <nd ref="2750951298"/>
    <nd ref="2750951304"/>
    <nd ref="1416939510"/>
    <nd ref="2750951312"/>
    <nd ref="1416939480"/>
    <nd ref="1334095445"/>
    <tag k="highway" v="primary"/>
    <tag k="junction" v="circular"/>
    <tag k="lit" v="yes"/>
    <tag k="maxspeed" v="60 mph"/>
    <tag k="maxspeed:type" v="GB:nsl_single"/>
    <tag k="sidewalk" v="no"/>
    <tag k="surface" v="asphalt"/>
  </way>
  <way id="969281556" version="7" timestamp="2024-01-22T18:56:44Z" changeset="146565751" uid="16951803" user="Vas111">
    <nd ref="1590686656"/>
    <nd ref="1590687109"/>
    <nd ref="2750951555"/>
    <nd ref="2750951543"/>
    <nd ref="2750951510"/>
    <nd ref="326866"/>
    <nd ref="2750951371"/>
    <nd ref="2750951286"/>
    <nd ref="2750951254"/>
    <nd ref="1590686958"/>
    <nd ref="2750951151"/>
    <nd ref="2750951143"/>
    <nd ref="1590687082"/>
    <nd ref="2750951120"/>
    <nd ref="28099021"/>
    <nd ref="2750951108"/>
    <nd ref="326858"/>
    <nd ref="2750951100"/>
    <nd ref="2750951096"/>
    <nd ref="326854"/>
    <nd ref="2750951093"/>
    <nd ref="493785251"/>
    <nd ref="2750951090"/>
    <nd ref="180762"/>
    <nd ref="2750951087"/>
    <nd ref="2750951085"/>
    <nd ref="928646238"/>
    <nd ref="326851"/>
    <nd ref="2750951081"/>
    <nd ref="326849"/>
    <nd ref="2750951079"/>
    <nd ref="2750951078"/>
    <nd ref="2750951076"/>
    <nd ref="1590686798"/>
    <nd ref="2750951073"/>
    <nd ref="2750951071"/>
    <nd ref="2750951069"/>
    <nd ref="1590687092"/>
    <nd ref="2750951066"/>
    <nd ref="2750951064"/>
    <nd ref="2750951063"/>
    <nd ref="497728288"/>
    <tag k="active_traffic_management" v="yes"/>
    <tag k="carriageway_ref" v="B"/>
    <tag k="enforcement:maxspeed" v="yes"/>
    <tag k="highway" v="motorway"/>
    <tag k="int_ref" v="E 13"/>
    <tag k="lanes" v="4"/>
    <tag k="lit" v="yes"/>
    <tag k="maxheight" v="default"/>
    <tag k="maxspeed" v="70 mph"/>
    <tag k="maxspeed:type" v="GB:motorway"/>
    <tag k="maxspeed:variable" v="signals"/>
    <tag k="national_highways:area" v="7"/>
    <tag k="oneway" v="yes"/>
    <tag k="operator" v="National Highways"/>
    <tag k="operator:wikidata" v="Q5760006"/>
    <tag k="ref" v="M1"/>
    <tag k="source:maxspeed" v="survey"/>
    <tag k="surface" v="asphalt"/>
  </way>

</osm>
