<?xml version="1.0" encoding="UTF-8"?>
<osm version="0.6" generator="Overpass API 0.7.62.8 e802775f">
<note>The data included in this document is from www.openstreetmap.org. The data is made available under ODbL.</note>
<meta osm_base="2025-12-17T13:11:59Z" areas="2025-12-17T07:37:58Z"/>

  <node id="217151" lat="52.7261620" lon="-1.4881286" version="5" timestamp="2023-10-29T02:45:49Z" changeset="143292447" uid="13341565" user="Falsernet"/>
  <node id="14352964" lat="52.7454354" lon="-1.4518564" version="1" timestamp="2007-02-25T01:19:49Z" changeset="223903" uid="2955" user="Matthew Newton">
    <tag k="created_by" v="JOSM"/>
  </node>
  <node id="252647206" lat="52.7207605" lon="-1.4888291" version="4" timestamp="2022-04-27T15:05:29Z" changeset="120264364" uid="13341565" user="Falsernet"/>
  <node id="255713220" lat="52.7361992" lon="-1.4651087" version="2" timestamp="2017-08-01T23:56:08Z" changeset="50765723" uid="5296090" user="TR42"/>
  <node id="256130527" lat="52.7339474" lon="-1.4166496" version="1" timestamp="2008-04-06T20:09:51Z" changeset="66616" uid="12992" user="trigpoint"/>
  <node id="739256543" lat="52.7298756" lon="-1.4636882" version="3" timestamp="2021-04-20T16:43:32Z" changeset="103284342" uid="705850" user="Cebderby"/>
  <node id="1161257600" lat="52.7267404" lon="-1.4631949" version="3" timestamp="2021-04-20T16:43:32Z" changeset="103284342" uid="705850" user="Cebderby"/>
  <node id="1169004638" lat="52.7176323" lon="-1.4462586" version="3" timestamp="2025-09-29T12:29:06Z" changeset="172610682" uid="22079293" user="Packmanton"/>
  <node id="1170589657" lat="52.7151124" lon="-1.4610313" version="1" timestamp="2011-02-24T17:57:27Z" changeset="7383717" uid="71337" user="quantumstate"/>
  <way id="4302825" version="24" timestamp="2025-11-15T21:24:15Z" changeset="174704802" uid="487368" user="Mr Walrus">
    <nd ref="14352964"/>
    <nd ref="4244121881"/>
    <nd ref="14352965"/>
    <nd ref="26017333"/>
    <nd ref="26017329"/>
    <nd ref="26017330"/>
    <nd ref="5008498083"/>
    <nd ref="26017331"/>
    <nd ref="26017510"/>
    <nd ref="5008498072"/>
    <nd ref="5008498097"/>
    <nd ref="26017511"/>
    <nd ref="26017498"/>
    <nd ref="5008498096"/>
    <nd ref="1627569160"/>
    <nd ref="5008498071"/>
    <nd ref="5008498093"/>
    <nd ref="11296563743"/>
    <nd ref="11296563742"/>
    <nd ref="26017500"/>
    <tag k="carriageway_ref" v="B"/>
    <tag k="dual_carriageway" v="yes"/>
    <tag k="expressway" v="yes"/>
    <tag k="highway" v="trunk"/>
    <tag k="lanes" v="2"/>
    <tag k="lit" v="no"/>
    <tag k="maxheight" v="default"/>
    <tag k="maxspeed" v="70 mph"/>
    <tag k="maxspeed:type" v="GB:nsl_dual"/>
    <tag k="national_highways:area" v="7"/>
    <tag k="oneway" v="yes"/>
    <tag k="operator" v="National Highways"/>
    <tag k="operator:wikidata" v="Q5760006"/>
    <tag k="ref" v="A42"/>
    <tag k="shoulder" v="left"/>
    <tag k="surface" v="asphalt"/>
  </way>
  <way id="23332181" version="21" timestamp="2025-11-15T21:24:15Z" changeset="174704802" uid="487368" user="Mr Walrus">
    <nd ref="217151"/>
    <nd ref="11296563740"/>
    <nd ref="11296563741"/>
    <nd ref="11296563744"/>
    <nd ref="5008498081"/>
    <nd ref="217152"/>
    <nd ref="5008498075"/>
    <nd ref="217153"/>
    <nd ref="5008498078"/>
    <nd ref="5008498073"/>
    <nd ref="8349484413"/>
    <nd ref="217154"/>
    <nd ref="217155"/>
    <nd ref="5008498088"/>
    <nd ref="217156"/>
    <nd ref="217157"/>
    <nd ref="5008498092"/>
    <nd ref="26017332"/>
    <nd ref="217158"/>
    <nd ref="4244121876"/>
    <nd ref="4244121874"/>
    <nd ref="217159"/>
    <tag k="carriageway_ref" v="A"/>
    <tag k="dual_carriageway" v="yes"/>
    <tag k="expressway" v="yes"/>
    <tag k="highway" v="trunk"/>
    <tag k="lanes" v="2"/>
    <tag k="lit" v="no"/>
    <tag k="maxheight" v="default"/>
    <tag k="maxspeed" v="70 mph"/>
    <tag k="maxspeed:type" v="GB:nsl_dual"/>
    <tag k="national_highways:area" v="7"/>
    <tag k="oneway" v="yes"/>
    <tag k="operator" v="National Highways"/>
    <tag k="operator:wikidata" v="Q5760006"/>
    <tag k="ref" v="A42"/>
    <tag k="shoulder" v="both"/>
  </way>
  <way id="23610243" version="13" timestamp="2025-10-19T18:26:04Z" changeset="173505166" uid="22399754" user="CONTAN">
    <nd ref="255713220"/>
    <nd ref="255713221"/>
    <nd ref="255713222"/>
    <nd ref="2134937487"/>
    <nd ref="255713254"/>
    <nd ref="2134937442"/>
    <nd ref="13243941711"/>
    <nd ref="255713255"/>
    <nd ref="255713256"/>
    <nd ref="2688798093"/>
    <nd ref="255713257"/>
    <nd ref="8648113876"/>
    <nd ref="8553452430"/>
    <nd ref="2688798094"/>
    <nd ref="7334214839"/>
    <nd ref="255713259"/>
    <nd ref="12258755031"/>
    <nd ref="8648113877"/>
    <nd ref="255713260"/>
    <nd ref="6496268637"/>
    <nd ref="255713261"/>
    <tag k="highway" v="tertiary"/>
    <tag k="name" v="Ashby Road"/>
  </way>
  <way id="23642397" version="15" timestamp="2023-09-03T07:13:02Z" changeset="140744871" uid="20086345" user="donq1986b">
    <nd ref="256130527"/>
    <nd ref="256130528"/>
    <nd ref="256130529"/>
    <nd ref="256130530"/>
    <nd ref="256130531"/>
    <nd ref="256130532"/>
    <nd ref="256130533"/>
    <nd ref="256130534"/>
    <nd ref="256130574"/>
    <nd ref="256130536"/>
    <nd ref="256130538"/>
    <nd ref="255712747"/>
    <nd ref="255712748"/>
    <nd ref="255712749"/>
    <nd ref="255712750"/>
    <nd ref="4738422887"/>
    <nd ref="255712751"/>
    <nd ref="6581284128"/>
    <nd ref="4738422886"/>
    <nd ref="255712752"/>
    <nd ref="255712753"/>
    <nd ref="255712754"/>
    <nd ref="255712755"/>
    <nd ref="255712756"/>
    <nd ref="255712757"/>
    <nd ref="255712758"/>
    <nd ref="255712759"/>
    <nd ref="8228349536"/>
    <nd ref="255712760"/>
    <nd ref="8228797713"/>
    <nd ref="255712761"/>
    <nd ref="255712762"/>
    <nd ref="255712763"/>
    <nd ref="255712764"/>
    <nd ref="2275831552"/>
    <nd ref="255712765"/>
    <nd ref="2275831551"/>
    <nd ref="255712766"/>
    <nd ref="2275831566"/>
    <nd ref="255712767"/>
    <nd ref="255712768"/>
    <nd ref="255712723"/>
    <tag k="cycleway:both" v="no"/>
    <tag k="hgv" v="destination"/>
    <tag k="highway" v="tertiary"/>
    <tag k="lanes" v="2"/>
    <tag k="maxspeed" v="50 mph"/>
    <tag k="name" v="Alton Hill"/>
    <tag k="smoothness" v="good"/>
    <tag k="surface" v="asphalt"/>
  </way>
  <way id="24384921" version="15" timestamp="2025-09-23T20:47:47Z" changeset="172363869" uid="22079293" user="Packmanton">
    <nd ref="252647206"/>
    <nd ref="8349484232"/>
    <nd ref="264594085"/>
    <nd ref="5268810073"/>
    <nd ref="264594086"/>
    <nd ref="264594087"/>
    <nd ref="264594088"/>
    <nd ref="264594089"/>
    <nd ref="264594090"/>
    <nd ref="264594091"/>
    <nd ref="264594092"/>
    <nd ref="264594093"/>
    <nd ref="264594094"/>
    <nd ref="264594096"/>
    <nd ref="264594097"/>
    <nd ref="264594098"/>
    <nd ref="264594099"/>
    <nd ref="264594100"/>
    <nd ref="264594101"/>
    <nd ref="264594102"/>
    <nd ref="264594103"/>
    <nd ref="264594104"/>
    <nd ref="264594105"/>
    <nd ref="264594106"/>
    <nd ref="264594107"/>
    <nd ref="264594108"/>
    <nd ref="264594109"/>
    <nd ref="264594110"/>
    <nd ref="264594112"/>
    <nd ref="8186390610"/>
    <nd ref="4742974636"/>
    <nd ref="264594113"/>
    <nd ref="1826841521"/>
    <nd ref="264594130"/>
    <nd ref="264594114"/>
    <nd ref="264594115"/>
    <nd ref="13165977380"/>
    <nd ref="264594116"/>
    <nd ref="264594117"/>
    <tag k="highway" v="tertiary"/>
    <tag k="maxspeed" v="50 mph"/>
    <tag k="name" v="Measham Road"/>
  </way>
  <way id="59590793" version="4" timestamp="2021-04-20T16:43:32Z" changeset="103284342" uid="705850" user="Cebderby">
    <nd ref="255713265"/>
    <nd ref="8648113911"/>
    <nd ref="8648113914"/>
    <nd ref="8648113913"/>
    <nd ref="739256543"/>
    <tag k="highway" v="unclassified"/>
    <tag k="name" v="Coleorton Lane"/>
  </way>
  <way id="87794688" version="2" timestamp="2021-04-20T16:43:32Z" changeset="103284342" uid="705850" user="Cebderby">
    <nd ref="739256543"/>
    <nd ref="8648113912"/>
    <nd ref="255713266"/>
    <tag k="highway" v="unclassified"/>
    <tag k="name" v="Coleorton Lane"/>
  </way>
  <way id="87794691" version="5" timestamp="2019-06-17T17:05:34Z" changeset="71337242" uid="9641456" user="rababdul">
    <nd ref="739256543"/>
    <nd ref="2688781565"/>
    <nd ref="6553565124"/>
    <nd ref="1169004490"/>
    <nd ref="739256546"/>
    <nd ref="739256547"/>
    <nd ref="1169003675"/>
    <nd ref="739256548"/>
    <nd ref="1169004520"/>
    <nd ref="1169004578"/>
    <nd ref="739256553"/>
    <nd ref="1169004605"/>
    <nd ref="1169003729"/>
    <nd ref="2134937445"/>
    <nd ref="739256555"/>
    <nd ref="739256556"/>
    <nd ref="1169004612"/>
    <nd ref="739256557"/>
    <nd ref="1169004282"/>
    <nd ref="739256559"/>
    <nd ref="1169004474"/>
    <nd ref="739256560"/>
    <nd ref="1169003894"/>
    <nd ref="1169003853"/>
    <nd ref="739256562"/>
    <nd ref="1169004464"/>
    <nd ref="739256563"/>
    <nd ref="739256564"/>
    <nd ref="1169004668"/>
    <nd ref="739256565"/>
    <nd ref="1169004252"/>
    <nd ref="739256566"/>
    <nd ref="1169004341"/>
    <nd ref="1169004320"/>
    <nd ref="1169004560"/>
    <nd ref="739256568"/>
    <nd ref="739256528"/>
    <tag k="highway" v="unclassified"/>
    <tag k="name" v="Coleorton Lane"/>
  </way>
  <way id="97452818" version="17" timestamp="2025-09-29T12:29:06Z" changeset="172610682" uid="22079293" user="Packmanton">
    <nd ref="255713261"/>
    <nd ref="6496268638"/>
    <nd ref="255713262"/>
    <nd ref="255713263"/>
    <nd ref="6496268636"/>
    <nd ref="255713264"/>
    <nd ref="6496268635"/>
    <nd ref="255713265"/>
    <nd ref="6496268634"/>
    <nd ref="6496268633"/>
    <nd ref="6496268632"/>
    <nd ref="6496268631"/>
    <nd ref="255713266"/>
    <nd ref="1169003687"/>
    <nd ref="6496268630"/>
    <nd ref="255713267"/>
    <nd ref="255713268"/>
    <nd ref="8749749363"/>
    <nd ref="255713269"/>
    <nd ref="8749749366"/>
    <nd ref="255713270"/>
    <nd ref="7016394812"/>
    <nd ref="1169004062"/>
    <nd ref="6539298230"/>
    <nd ref="1169004317"/>
    <nd ref="255713271"/>
    <nd ref="1169003885"/>
    <nd ref="8648113941"/>
    <nd ref="1161257600"/>
    <nd ref="255713272"/>
    <nd ref="1169003804"/>
    <nd ref="1169004616"/>
    <nd ref="255713273"/>
    <nd ref="1169004060"/>
    <nd ref="255713274"/>
    <nd ref="255713275"/>
    <nd ref="255713276"/>
    <nd ref="1169003733"/>
    <nd ref="255719160"/>
    <nd ref="255719161"/>
    <nd ref="255719162"/>
    <nd ref="8022370801"/>
    <nd ref="255719163"/>
    <nd ref="1169003851"/>
    <nd ref="1169004462"/>
    <nd ref="1169004433"/>
    <nd ref="255719164"/>
    <nd ref="255719165"/>
    <nd ref="1169004354"/>
    <nd ref="2275832694"/>
    <nd ref="255719166"/>
    <nd ref="255719167"/>
    <nd ref="1169004053"/>
    <nd ref="1169004149"/>
    <nd ref="2275831571"/>
    <nd ref="255719168"/>
    <nd ref="1169003762"/>
    <nd ref="255719169"/>
    <nd ref="13180368766"/>
    <nd ref="1169004638"/>
    <tag k="highway" v="tertiary"/>
    <tag k="name" v="Normanton Road"/>
  </way>
  <way id="100452580" version="1" timestamp="2011-02-19T13:02:25Z" changeset="7331538" uid="71337" user="quantumstate">
    <nd ref="1161258170"/>
    <nd ref="1161257240"/>
    <tag k="highway" v="residential"/>
    <tag k="source" v="Bing"/>
  </way>
  <way id="100452582" version="3" timestamp="2021-04-20T16:43:32Z" changeset="103284342" uid="705850" user="Cebderby">
    <nd ref="1161257729"/>
    <nd ref="8648113868"/>
    <nd ref="1161258072"/>
    <nd ref="1161257956"/>
    <nd ref="1161257982"/>
    <nd ref="1161258037"/>
    <nd ref="1161257928"/>
    <nd ref="6496268551"/>
    <nd ref="1161257719"/>
    <nd ref="8648113866"/>
    <nd ref="1161257276"/>
    <tag k="highway" v="residential"/>
    <tag k="name" v="Home Croft Drive"/>
    <tag k="source" v="Bing"/>
    <tag k="source:name" v="OS_OpenData_Locator"/>
  </way>
  <way id="100452584" version="3" timestamp="2021-04-20T16:43:32Z" changeset="103284342" uid="705850" user="Cebderby">
    <nd ref="1161257584"/>
    <nd ref="6496268556"/>
    <nd ref="6496268555"/>
    <nd ref="1161258069"/>
    <nd ref="1161257151"/>
    <nd ref="1161258170"/>
    <nd ref="1161258028"/>
    <tag k="highway" v="residential"/>
    <tag k="name" v="Nethercroft Drive"/>
    <tag k="source" v="Bing"/>
    <tag k="source:name" v="OS_OpenData_Locator"/>
  </way>
  <way id="100452588" version="7" timestamp="2020-11-30T14:40:14Z" changeset="95051473" uid="10252558" user="prddym">
    <nd ref="1161257600"/>
    <nd ref="6539298231"/>
    <nd ref="1161258125"/>
    <nd ref="1161258092"/>
    <nd ref="1161258005"/>
    <nd ref="1161257797"/>
    <nd ref="1161257674"/>
    <nd ref="1161257639"/>
    <nd ref="8021130581"/>
    <nd ref="1161257408"/>
    <nd ref="1161257359"/>
    <nd ref="1161257438"/>
    <nd ref="6881156609"/>
    <nd ref="1161257592"/>
    <nd ref="1161257641"/>
    <nd ref="1161257739"/>
    <nd ref="1161257425"/>
    <nd ref="1161257802"/>
    <nd ref="1161257835"/>
    <nd ref="1161257462"/>
    <nd ref="1161257520"/>
    <nd ref="1161257596"/>
    <nd ref="1161257630"/>
    <nd ref="6908599822"/>
    <nd ref="1161257164"/>
    <nd ref="1161258079"/>
    <nd ref="1161257236"/>
    <nd ref="1161257690"/>
    <nd ref="1161257355"/>
    <nd ref="8179732500"/>
    <nd ref="1161257794"/>
    <nd ref="7306123120"/>
    <nd ref="1161257541"/>
    <nd ref="1161258065"/>
    <nd ref="1161258084"/>
    <nd ref="1161257156"/>
    <nd ref="1161257694"/>
    <nd ref="1161258117"/>
    <nd ref="1161257609"/>
    <nd ref="1161257476"/>
    <nd ref="1161257362"/>
    <nd ref="1161258123"/>
    <nd ref="1161257650"/>
    <nd ref="1161257804"/>
    <tag k="highway" v="unclassified"/>
    <tag k="name" v="Spring Lane"/>
    <tag k="source" v="Bing"/>
    <tag k="source:name" v="OS_OpenData_Locator"/>
  </way>
  <way id="100452593" version="1" timestamp="2011-02-19T13:02:27Z" changeset="7331538" uid="71337" user="quantumstate">
    <nd ref="1161257358"/>
    <nd ref="1161258138"/>
    <nd ref="1161257746"/>
    <nd ref="1161257397"/>
    <tag k="highway" v="residential"/>
    <tag k="name" v="The Grange"/>
    <tag k="source" v="Bing"/>
    <tag k="source:name" v="OS_OpenData_Locator"/>
  </way>
  <way id="100452596" version="8" timestamp="2025-09-18T18:06:01Z" changeset="172126757" uid="22079293" user="Packmanton">
    <nd ref="1161257273"/>
    <nd ref="6539275371"/>
    <nd ref="8648113903"/>
    <nd ref="1161257333"/>
    <nd ref="1161257870"/>
    <nd ref="1161257856"/>
    <nd ref="13153396192"/>
    <nd ref="1161257900"/>
    <nd ref="1161257798"/>
    <nd ref="7111219341"/>
    <nd ref="1161257513"/>
    <nd ref="6869428263"/>
    <nd ref="1161257499"/>
    <nd ref="1161257753"/>
    <nd ref="1161257636"/>
    <tag k="highway" v="residential"/>
    <tag k="name" v="Babelake Street"/>
  </way>
  <way id="100452597" version="1" timestamp="2011-02-19T13:02:27Z" changeset="7331538" uid="71337" user="quantumstate">
    <nd ref="1161257900"/>
    <nd ref="1161257361"/>
    <nd ref="1161257996"/>
    <nd ref="1161258172"/>
    <tag k="highway" v="residential"/>
    <tag k="name" v="Brook Close"/>
    <tag k="source" v="Bing"/>
    <tag k="source:name" v="OS_OpenData_Locator"/>
  </way>
  <way id="100452601" version="3" timestamp="2021-04-20T16:43:32Z" changeset="103284342" uid="705850" user="Cebderby">
    <nd ref="1161257979"/>
    <nd ref="1161257357"/>
    <nd ref="1161257397"/>
    <nd ref="1161258041"/>
    <nd ref="1161257506"/>
    <nd ref="6496268557"/>
    <nd ref="1161257687"/>
    <nd ref="1161257231"/>
    <nd ref="8648113880"/>
    <tag k="highway" v="residential"/>
    <tag k="name" v="The Grange"/>
    <tag k="source" v="Bing"/>
    <tag k="source:name" v="OS_OpenData_Locator"/>
  </way>
  <way id="100452602" version="5" timestamp="2021-05-20T12:13:07Z" changeset="105028065" uid="10170582" user="priymose">
    <nd ref="264594126"/>
    <nd ref="8648113889"/>
    <nd ref="1161257436"/>
    <nd ref="1161258034"/>
    <nd ref="1161257584"/>
    <nd ref="1161258047"/>
    <nd ref="1161257358"/>
    <nd ref="1161257633"/>
    <nd ref="6496268554"/>
    <nd ref="1161257154"/>
    <nd ref="6496268553"/>
    <nd ref="1161257648"/>
    <nd ref="1161257729"/>
    <nd ref="1161257734"/>
    <nd ref="8411216288"/>
    <nd ref="1161257313"/>
    <nd ref="1161257743"/>
    <nd ref="8749749370"/>
    <nd ref="1161257934"/>
    <nd ref="6496268552"/>
    <nd ref="8749749378"/>
    <nd ref="1161257323"/>
    <nd ref="1161257790"/>
    <nd ref="1161257840"/>
    <nd ref="255713261"/>
    <tag k="highway" v="residential"/>
    <tag k="name" v="High Street"/>
    <tag k="source" v="Bing"/>
    <tag k="source:name" v="OS_OpenData_Locator"/>
  </way>
  <way id="100452606" version="4" timestamp="2014-05-18T20:38:54Z" changeset="22413464" uid="705850" user="Cebderby">
    <nd ref="1161257605"/>
    <nd ref="2688786171"/>
    <nd ref="2867304552"/>
    <tag k="highway" v="residential"/>
    <tag k="name" v="Vicarage Lane"/>
    <tag k="source" v="Bing"/>
    <tag k="source:name" v="OS_OpenData_Locator"/>
  </way>
  <way id="100452608" version="3" timestamp="2021-04-20T16:43:32Z" changeset="103284342" uid="705850" user="Cebderby">
    <nd ref="1161257743"/>
    <nd ref="1161257570"/>
    <nd ref="8648053216"/>
    <nd ref="1161257293"/>
    <nd ref="1161257291"/>
    <nd ref="1161257750"/>
    <nd ref="6976457952"/>
    <nd ref="1161258175"/>
    <tag k="highway" v="residential"/>
    <tag k="name" v="Hall Lane"/>
    <tag k="source" v="Bing"/>
    <tag k="source:name" v="OS_OpenData_Locator"/>
  </way>
  <way id="100452610" version="1" timestamp="2011-02-19T13:02:28Z" changeset="7331538" uid="71337" user="quantumstate">
    <nd ref="1161258037"/>
    <nd ref="1161257509"/>
    <nd ref="1161257460"/>
    <nd ref="1161257907"/>
    <tag k="highway" v="residential"/>
    <tag k="source" v="Bing"/>
  </way>
  <way id="100452616" version="7" timestamp="2023-10-15T14:48:19Z" changeset="142621222" uid="20086345" user="donq1986b">
    <nd ref="1161257402"/>
    <nd ref="1161257405"/>
    <nd ref="1161257429"/>
    <nd ref="1161257444"/>
    <nd ref="1161257472"/>
    <nd ref="1161257554"/>
    <nd ref="1161257441"/>
    <nd ref="1161257544"/>
    <nd ref="1161257896"/>
    <nd ref="1161257873"/>
    <nd ref="1161258039"/>
    <nd ref="1161257668"/>
    <nd ref="2134937481"/>
    <tag k="highway" v="residential"/>
    <tag k="name" v="Mill Street"/>
    <tag k="sidewalk" v="no"/>
    <tag k="source" v="Bing"/>
    <tag k="source:name" v="OS_OpenData_Locator"/>
  </way>
  <way id="116570583" version="4" timestamp="2019-06-11T10:49:31Z" changeset="71135756" uid="705850" user="Cebderby">
    <nd ref="1161257605"/>
    <nd ref="6539275375"/>
    <nd ref="264594121"/>
    <nd ref="1161257273"/>
    <tag k="highway" v="tertiary"/>
    <tag k="name" v="Bridge Street"/>
  </way>
  <way id="218333320" version="3" timestamp="2020-11-30T14:40:14Z" changeset="95051473" uid="10252558" user="prddym">
    <nd ref="2275831571"/>
    <nd ref="2275832695"/>
    <nd ref="2275831572"/>
    <nd ref="2275832700"/>
    <nd ref="2275832690"/>
    <nd ref="2275832692"/>
    <nd ref="2275832697"/>
    <nd ref="2275831567"/>
    <nd ref="2275831568"/>
    <nd ref="8179732488"/>
    <nd ref="1161257541"/>
    <tag k="highway" v="unclassified"/>
    <tag k="source" v="Bing"/>
  </way>
  <way id="282790740" version="6" timestamp="2024-01-21T11:35:56Z" changeset="146507236" uid="20086345" user="donq1986b">
    <nd ref="2134937481"/>
    <nd ref="1161257697"/>
    <nd ref="1161258000"/>
    <nd ref="1161257857"/>
    <nd ref="1161257273"/>
    <tag k="cycleway:both" v="no"/>
    <tag k="highway" v="residential"/>
    <tag k="lane_markings" v="no"/>
    <tag k="lit" v="yes"/>
    <tag k="maxspeed:type" v="GB:nsl_restricted"/>
    <tag k="name" v="Mill Street"/>
    <tag k="sidewalk" v="right"/>
    <tag k="source" v="Bing"/>
    <tag k="source:name" v="OS_OpenData_Locator"/>
    <tag k="surface" v="asphalt"/>
  </way>
  <way id="282790743" version="6" timestamp="2024-01-21T11:33:58Z" changeset="146505334" uid="20086345" user="donq1986b">
    <nd ref="1161257273"/>
    <nd ref="8648113899"/>
    <nd ref="264594122"/>
    <nd ref="264594124"/>
    <nd ref="8648113902"/>
    <nd ref="264594125"/>
    <nd ref="264594126"/>
    <tag k="cycleway:both" v="no"/>
    <tag k="highway" v="tertiary"/>
    <tag k="lanes" v="2"/>
    <tag k="name" v="Bridge Street"/>
    <tag k="smoothness" v="excellent"/>
    <tag k="surface" v="asphalt"/>
  </way>
  <way id="282790748" version="7" timestamp="2025-09-06T15:58:06Z" changeset="171548944" uid="22079293" user="Packmanton">
    <nd ref="2867304552"/>
    <nd ref="13123584037"/>
    <nd ref="1161257558"/>
    <tag k="cycleway:both" v="no"/>
    <tag k="highway" v="residential"/>
    <tag k="lane_markings" v="no"/>
    <tag k="name" v="Vicarage Lane"/>
    <tag k="sidewalk" v="no"/>
    <tag k="source" v="Bing"/>
    <tag k="source:name" v="OS_OpenData_Locator"/>
    <tag k="surface" v="asphalt"/>
  </way>
  <way id="282835523" version="6" timestamp="2024-01-21T11:38:23Z" changeset="146505393" uid="20086345" user="donq1986b">
    <nd ref="1161257558"/>
    <nd ref="1161257909"/>
    <nd ref="7990852973"/>
    <nd ref="8189616903"/>
    <nd ref="1161258141"/>
    <tag k="highway" v="residential"/>
    <tag k="lit" v="no"/>
    <tag k="name" v="Vicarage Lane"/>
    <tag k="smoothness" v="good"/>
    <tag k="source" v="Bing"/>
    <tag k="source:name" v="OS_OpenData_Locator"/>
    <tag k="surface" v="compacted"/>
  </way>
  <way id="282875767" version="2" timestamp="2019-06-11T10:49:31Z" changeset="71135756" uid="705850" user="Cebderby">
    <nd ref="264594126"/>
    <nd ref="1930351505"/>
    <nd ref="264594127"/>
    <nd ref="264594128"/>
    <nd ref="264594129"/>
    <nd ref="1169004247"/>
    <nd ref="255713271"/>
    <tag k="highway" v="tertiary"/>
    <tag k="name" v="Heather Lane"/>
  </way>
  <way id="407449412" version="2" timestamp="2025-09-23T21:27:26Z" changeset="172365148" uid="22079293" user="Packmanton">
    <nd ref="4094970777"/>
    <nd ref="4094970778"/>
    <nd ref="4094970775"/>
    <nd ref="4094970776"/>
    <nd ref="4094970773"/>
    <nd ref="4094970772"/>
    <nd ref="4094970770"/>
    <nd ref="4094970769"/>
    <nd ref="4094970777"/>
    <tag k="addr:city" v="Packington"/>
    <tag k="addr:street" v="Mill Street"/>
    <tag k="building" v="school"/>
    <tag k="name" v="Packington C of E Primary School"/>
    <tag k="source" v="bing"/>
  </way>
  <way id="696355857" version="3" timestamp="2025-09-29T12:29:06Z" changeset="172610682" uid="22079293" user="Packmanton">
    <nd ref="6539275362"/>
    <nd ref="6539275369"/>
    <nd ref="6539275370"/>
    <nd ref="6539275378"/>
    <nd ref="6539275374"/>
    <tag k="highway" v="residential"/>
    <tag k="name" v="Century Drive"/>
    <tag k="source" v="Maxar-Premium"/>
    <tag k="surface" v="asphalt"/>
  </way>
  <way id="696355859" version="3" timestamp="2023-08-31T13:13:05Z" changeset="140635201" uid="8951082" user="AndjelaS">
    <nd ref="6539275381"/>
    <nd ref="6539275373"/>
    <nd ref="6539275366"/>
    <nd ref="8648113925"/>
    <nd ref="6539275363"/>
    <nd ref="6539275360"/>
    <nd ref="8648113934"/>
    <nd ref="6539275362"/>
    <tag k="highway" v="residential"/>
    <tag k="name" v="Century Drive"/>
    <tag k="source" v="Maxar-Premium"/>
    <tag k="surface" v="asphalt"/>
  </way>
  <way id="696355860" version="2" timestamp="2023-08-31T13:13:05Z" changeset="140635201" uid="8951082" user="AndjelaS">
    <nd ref="6539275378"/>
    <nd ref="6539275376"/>
    <tag k="highway" v="residential"/>
    <tag k="source" v="Maxar-Premium"/>
    <tag k="surface" v="asphalt"/>
  </way>
  <way id="696355861" version="3" timestamp="2023-08-31T13:13:05Z" changeset="140635201" uid="8951082" user="AndjelaS">
    <nd ref="255713272"/>
    <nd ref="8648113930"/>
    <nd ref="6539275377"/>
    <nd ref="8648113942"/>
    <nd ref="6539275362"/>
    <tag k="highway" v="residential"/>
    <tag k="name" v="Century Drive"/>
    <tag k="source" v="Maxar-Premium"/>
    <tag k="surface" v="asphalt"/>
  </way>
  <way id="750379765" version="4" timestamp="2024-07-03T21:32:54Z" changeset="153520557" uid="1888163" user="RattusMaximus">
    <nd ref="7677275484"/>
    <nd ref="7677275482"/>
    <nd ref="7677275481"/>
    <nd ref="7677275480"/>
    <nd ref="7677275478"/>
    <nd ref="7677275479"/>
    <nd ref="7677275477"/>
    <nd ref="8648113922"/>
    <tag k="access" v="private"/>
    <tag k="highway" v="residential"/>
    <tag k="name" v="Grove Close"/>
  </way>
  <way id="878876251" version="6" timestamp="2025-10-04T13:40:54Z" changeset="172831429" uid="22079293" user="Packmanton">
    <nd ref="2134928452"/>
    <nd ref="8176181880"/>
    <nd ref="8176181889"/>
    <nd ref="8176181882"/>
    <nd ref="8176181890"/>
    <nd ref="8176181886"/>
    <nd ref="8176181878"/>
    <nd ref="8176181879"/>
    <nd ref="8176181887"/>
    <nd ref="8176181881"/>
    <nd ref="8176181883"/>
    <nd ref="8176181877"/>
    <nd ref="2134928452"/>
    <tag k="addr:city" v="Ashby-de-la-Zouch"/>
    <tag k="addr:postcode" v="LE65 1UZ"/>
    <tag k="addr:village" v="Packington"/>
    <tag k="amenity" v="place_of_worship"/>
    <tag k="building" v="church"/>
    <tag k="denomination" v="anglican"/>
    <tag k="listed_status" v="Grade II*"/>
    <tag k="name" v="The Holy Rood"/>
    <tag k="ref:GB:uprn" v="200003507521"/>
    <tag k="ref:dove" v="10740"/>
    <tag k="religion" v="christian"/>
    <tag k="wikidata" v="Q17542698"/>
  </way>
  <way id="932946349" version="4" timestamp="2025-10-04T13:40:54Z" changeset="172831429" uid="22079293" user="Packmanton">
    <nd ref="8648053214"/>
    <nd ref="1161257402"/>
    <tag k="bridge" v="yes"/>
    <tag k="highway" v="residential"/>
    <tag k="layer" v="1"/>
    <tag k="listed_status" v="Grade II"/>
    <tag k="maxweight" v="18 t"/>
    <tag k="maxweightrating" v="18 t"/>
    <tag k="name" v="Mill Street"/>
    <tag k="note" v="Weak Bridge - Grade II listed historic structure"/>
    <tag k="oneway" v="no"/>
    <tag k="source" v="Bing"/>
    <tag k="source:name" v="OS_OpenData_Locator"/>
  </way>
  <way id="932946350" version="5" timestamp="2025-10-01T14:05:17Z" changeset="172708561" uid="474183" user="ratrun">
    <nd ref="1161257840"/>
    <nd ref="8648113910"/>
    <nd ref="1161257394"/>
    <nd ref="8749749381"/>
    <nd ref="8648113909"/>
    <nd ref="8749749391"/>
    <nd ref="1161257523"/>
    <nd ref="1161257784"/>
    <nd ref="13180304660"/>
    <nd ref="1161257360"/>
    <nd ref="1161257364"/>
    <nd ref="1161257252"/>
    <nd ref="8648053214"/>
    <tag k="highway" v="residential"/>
    <tag k="maxspeed" v="30 mph"/>
    <tag k="name" v="Mill Street"/>
    <tag k="source" v="Bing"/>
    <tag k="source:name" v="OS_OpenData_Locator"/>
    <tag k="surface" v="asphalt"/>
  </way>
  <way id="932946358" version="1" timestamp="2021-04-20T16:43:32Z" changeset="103284342" uid="705850" user="Cebderby">
    <nd ref="8648113867"/>
    <nd ref="8648113866"/>
    <tag k="highway" v="residential"/>
    <tag k="name" v="Home Croft Drive"/>
  </way>
  <way id="932946359" version="1" timestamp="2021-04-20T16:43:32Z" changeset="103284342" uid="705850" user="Cebderby">
    <nd ref="1161257231"/>
    <nd ref="8648113881"/>
    <tag k="highway" v="residential"/>
    <tag k="name" v="The Grange"/>
    <tag k="source" v="Bing"/>
    <tag k="source:name" v="OS_OpenData_Locator"/>
  </way>
  <way id="932946360" version="1" timestamp="2021-04-20T16:43:32Z" changeset="103284342" uid="705850" user="Cebderby">
    <nd ref="1161258041"/>
    <nd ref="1161258087"/>
    <tag k="highway" v="residential"/>
    <tag k="name" v="The Grange"/>
    <tag k="source" v="Bing"/>
  </way>
  <way id="932946361" version="1" timestamp="2021-04-20T16:43:32Z" changeset="103284342" uid="705850" user="Cebderby">
    <nd ref="8648113882"/>
    <nd ref="1161257357"/>
    <tag k="highway" v="residential"/>
    <tag k="name" v="The Grange"/>
  </way>
  <way id="932946364" version="5" timestamp="2024-01-21T11:35:16Z" changeset="146505337" uid="20086345" user="donq1986b">
    <nd ref="1161257857"/>
    <nd ref="8648113901"/>
    <nd ref="8648113900"/>
    <nd ref="8648113899"/>
    <tag k="cycleway:both" v="no"/>
    <tag k="highway" v="unclassified"/>
    <tag k="lane_markings" v="no"/>
    <tag k="name" v="Mill Street"/>
    <tag k="surface" v="asphalt"/>
  </way>
  <way id="932946367" version="1" timestamp="2021-04-20T16:43:32Z" changeset="103284342" uid="705850" user="Cebderby">
    <nd ref="1161257899"/>
    <nd ref="1161257554"/>
    <tag k="highway" v="residential"/>
    <tag k="name" v="Hall Lane"/>
    <tag k="source" v="Bing"/>
    <tag k="source:name" v="OS_OpenData_Locator"/>
  </way>
  <way id="932946368" version="1" timestamp="2021-04-20T16:43:32Z" changeset="103284342" uid="705850" user="Cebderby">
    <nd ref="1161258175"/>
    <nd ref="1161257899"/>
    <tag k="bridge" v="yes"/>
    <tag k="highway" v="residential"/>
    <tag k="layer" v="1"/>
    <tag k="name" v="Hall Lane"/>
    <tag k="source" v="Bing"/>
    <tag k="source:name" v="OS_OpenData_Locator"/>
  </way>
  <way id="932946370" version="2" timestamp="2025-01-25T21:07:50Z" changeset="161761202" uid="1888163" user="RattusMaximus">
    <nd ref="7677275477"/>
    <nd ref="7016394814"/>
    <tag k="access" v="private"/>
    <tag k="highway" v="residential"/>
  </way>
  <way id="932946374" version="2" timestamp="2023-08-31T13:13:05Z" changeset="140635201" uid="8951082" user="AndjelaS">
    <nd ref="8648113939"/>
    <nd ref="6539275373"/>
    <tag k="highway" v="residential"/>
    <tag k="surface" v="asphalt"/>
  </way>
  <way id="953699324" version="2" timestamp="2022-10-06T11:45:33Z" changeset="127098895" uid="17299016" user="Russ (mechanical edit account)">
    <nd ref="8827151518"/>
    <nd ref="8827151517"/>
    <nd ref="8827147116"/>
    <nd ref="8827147115"/>
    <nd ref="8827151518"/>
    <tag k="brand" v="National Grid"/>
    <tag k="brand:wikidata" v="Q1465461"/>
    <tag k="building" v="yes"/>
    <tag k="name" v="Babelake Street Packington Substation"/>
    <tag k="operator" v="National Grid Electricity Distribution Plc"/>
    <tag k="operator:old" v="Western Power Distribution"/>
    <tag k="operator:wikidata" v="Q7988183"/>
    <tag k="owner" v="National Grid Electricity Distribution (East Midlands) Plc"/>
    <tag k="owner:wikidata" v="Q114348127"/>
    <tag k="power" v="substation"/>
    <tag k="voltage" v="33000"/>
  </way>
  <way id="974839014" version="2" timestamp="2022-10-06T11:45:33Z" changeset="127098895" uid="17299016" user="Russ (mechanical edit account)">
    <nd ref="9021345889"/>
    <nd ref="9021345886"/>
    <nd ref="9021345887"/>
    <nd ref="9021345888"/>
    <nd ref="9021345889"/>
    <tag k="brand" v="National Grid"/>
    <tag k="brand:wikidata" v="Q1465461"/>
    <tag k="building" v="yes"/>
    <tag k="name" v="Hill Farm Battery Generation"/>
    <tag k="operator" v="National Grid Electricity Distribution Plc"/>
    <tag k="operator:old" v="Western Power Distribution"/>
    <tag k="operator:wikidata" v="Q7988183"/>
    <tag k="owner" v="National Grid Electricity Distribution (East Midlands) Plc"/>
    <tag k="owner:wikidata" v="Q114348127"/>
    <tag k="power" v="substation"/>
    <tag k="ref:GB:wpd_site" v="939476"/>
    <tag k="voltage" v="33000"/>
  </way>
  <way id="1055433756" version="1" timestamp="2022-04-27T15:05:29Z" changeset="120264364" uid="13341565" user="Falsernet">
    <nd ref="264594117"/>
    <nd ref="264594118"/>
    <nd ref="8648113851"/>
    <nd ref="1161257605"/>
    <tag k="highway" v="tertiary"/>
    <tag k="maxspeed" v="30 mph"/>
    <tag k="name" v="Measham Road"/>
  </way>
  <way id="1175898432" version="1" timestamp="2023-05-25T12:22:57Z" changeset="136541695" uid="3306" user="Russ">
    <nd ref="10926224576"/>
    <nd ref="10926224573"/>
    <nd ref="10926224574"/>
    <nd ref="10926224575"/>
    <nd ref="10926224576"/>
    <tag k="building" v="yes"/>
    <tag k="name" v="Spring Lane Solar Park"/>
    <tag k="power" v="substation"/>
    <tag k="voltage" v="11000"/>
  </way>
  <way id="1298884064" version="1" timestamp="2024-07-03T21:30:53Z" changeset="153520522" uid="1888163" user="RattusMaximus">
    <nd ref="10225319695"/>
    <nd ref="8648113817"/>
    <tag k="highway" v="residential"/>
    <tag k="name" v="Hall Farm Close"/>
  </way>
  <way id="1298884065" version="1" timestamp="2024-07-03T21:30:53Z" changeset="153520522" uid="1888163" user="RattusMaximus">
    <nd ref="8648113817"/>
    <nd ref="8648053216"/>
    <tag k="highway" v="residential"/>
    <tag k="name" v="Hall Farm Close"/>
  </way>
  <way id="1298884466" version="2" timestamp="2025-09-29T12:29:06Z" changeset="172610682" uid="22079293" user="Packmanton">
    <nd ref="7016394812"/>
    <nd ref="8648113921"/>
    <nd ref="7016394813"/>
    <nd ref="7677275483"/>
    <nd ref="7677275484"/>
    <tag k="highway" v="residential"/>
    <tag k="name" v="Grove Close"/>
  </way>
  <way id="1324732539" version="3" timestamp="2025-12-02T17:52:33Z" changeset="175413708" uid="22079293" user="Packmanton">
    <nd ref="12258755031"/>
    <nd ref="12258755027"/>
    <nd ref="13348340013"/>
    <nd ref="12258755028"/>
    <nd ref="13348340014"/>
    <nd ref="12717749787"/>
    <nd ref="12717749786"/>
    <nd ref="12258755029"/>
    <nd ref="12717749784"/>
    <nd ref="12717749785"/>
    <nd ref="13348340015"/>
    <nd ref="12258755030"/>
    <tag k="highway" v="residential"/>
    <tag k="maxspeed" v="30 mph"/>
    <tag k="name" v="Mychecroft Drive"/>
    <tag k="surface" v="paving_stones"/>
  </way>
  <way id="1371903738" version="3" timestamp="2025-12-02T17:52:33Z" changeset="175413708" uid="22079293" user="Packmanton">
    <nd ref="12703529348"/>
    <nd ref="12703529349"/>
    <nd ref="12703529350"/>
    <nd ref="12703529351"/>
    <nd ref="12703529348"/>
    <tag k="addr:city" v="Packington"/>
    <tag k="addr:housenumber" v="6"/>
    <tag k="addr:postcode" v="LE65 1GZ"/>
    <tag k="addr:street" v="Mychecroft Drive"/>
    <tag k="building" v="house"/>
    <tag k="house" v="detached"/>
  </way>
  <way id="1371903740" version="4" timestamp="2025-12-02T17:52:33Z" changeset="175413708" uid="22079293" user="Packmanton">
    <nd ref="12703529356"/>
    <nd ref="12703529357"/>
    <nd ref="12703529358"/>
    <nd ref="12703529359"/>
    <nd ref="12703529360"/>
    <nd ref="12703529361"/>
    <nd ref="12703529362"/>
    <nd ref="12703529363"/>
    <nd ref="12703529364"/>
    <nd ref="12703529365"/>
    <nd ref="12703529366"/>
    <nd ref="12703529367"/>
    <nd ref="12703529356"/>
    <tag k="addr:city" v="Packington"/>
    <tag k="addr:housenumber" v="7"/>
    <tag k="addr:postcode" v="LE65 1GZ"/>
    <tag k="addr:street" v="Mychecroft Drive"/>
    <tag k="building" v="house"/>
    <tag k="house" v="detached"/>
    <tag k="ref:GB:uprn" v="10095742068"/>
  </way>
  <way id="1371903742" version="4" timestamp="2025-12-02T17:52:33Z" changeset="175413708" uid="22079293" user="Packmanton">
    <nd ref="12703529372"/>
    <nd ref="12703529373"/>
    <nd ref="12703529374"/>
    <nd ref="12703529375"/>
    <nd ref="12703529376"/>
    <nd ref="12703529377"/>
    <nd ref="12703529378"/>
    <nd ref="12703529379"/>
    <nd ref="12703529380"/>
    <nd ref="12703529381"/>
    <nd ref="12703529372"/>
    <tag k="addr:city" v="Packington"/>
    <tag k="addr:housenumber" v="5"/>
    <tag k="addr:postcode" v="LE65 1GZ"/>
    <tag k="addr:street" v="Mychecroft Drive"/>
    <tag k="building" v="house"/>
    <tag k="house" v="detached"/>
    <tag k="ref:GB:uprn" v="10095742070"/>
  </way>
  <way id="1430948118" version="2" timestamp="2025-11-23T18:21:15Z" changeset="175036993" uid="22079293" user="Packmanton">
    <nd ref="13153396192"/>
    <nd ref="13326673359"/>
    <nd ref="13153396193"/>
    <nd ref="13326673360"/>
    <nd ref="13153396194"/>
    <nd ref="13153396195"/>
    <tag k="highway" v="residential"/>
    <tag k="name" v="Cooper Close"/>
  </way>
  <way id="1434026206" version="1" timestamp="2025-09-29T12:29:06Z" changeset="172610682" uid="22079293" user="Packmanton">
    <nd ref="1169004638"/>
    <nd ref="13180368768"/>
    <tag k="bridge" v="yes"/>
    <tag k="cycleway:both" v="no"/>
    <tag k="highway" v="tertiary"/>
    <tag k="layer" v="1"/>
    <tag k="name" v="Ashby Road"/>
    <tag k="source:name" v="OS OpenData Locator"/>
    <tag k="surface" v="asphalt"/>
  </way>
  <way id="1434026207" version="1" timestamp="2025-09-29T12:29:06Z" changeset="172610682" uid="22079293" user="Packmanton">
    <nd ref="255713273"/>
    <nd ref="1170589793"/>
    <nd ref="1170589986"/>
    <nd ref="1170589889"/>
    <nd ref="1170589791"/>
    <nd ref="1170589790"/>
    <nd ref="1170589439"/>
    <nd ref="1170589873"/>
    <nd ref="1170589460"/>
    <nd ref="1170589856"/>
    <nd ref="1170589996"/>
    <nd ref="1170589550"/>
    <nd ref="1170589906"/>
    <nd ref="1170589902"/>
    <nd ref="1170589904"/>
    <nd ref="1170589619"/>
    <nd ref="1170589884"/>
    <nd ref="1170589924"/>
    <nd ref="1170589949"/>
    <nd ref="1170589582"/>
    <nd ref="1170589961"/>
    <nd ref="1930357722"/>
    <nd ref="1170589739"/>
    <nd ref="1170589953"/>
    <nd ref="1170589819"/>
    <nd ref="1170589732"/>
    <nd ref="1170589618"/>
    <nd ref="1170589585"/>
    <nd ref="1170589651"/>
    <nd ref="1170589641"/>
    <nd ref="1170589505"/>
    <nd ref="1170589715"/>
    <nd ref="1170589750"/>
    <nd ref="1170589510"/>
    <nd ref="1170589814"/>
    <nd ref="1170589637"/>
    <nd ref="1170589657"/>
    <tag k="highway" v="unclassified"/>
    <tag k="name" v="Redburrow Lane"/>
    <tag k="source" v="Bing"/>
    <tag k="source:name" v="OS_OpenData_Locator"/>
  </way>
  <way id="1434026208" version="1" timestamp="2025-09-29T12:29:06Z" changeset="172610682" uid="22079293" user="Packmanton">
    <nd ref="1170589657"/>
    <nd ref="13180368769"/>
    <tag k="bridge" v="yes"/>
    <tag k="highway" v="unclassified"/>
    <tag k="layer" v="1"/>
    <tag k="name" v="Redburrow Lane"/>
    <tag k="source" v="Bing"/>
    <tag k="source:name" v="OS_OpenData_Locator"/>
  </way>
  <way id="1435309968" version="1" timestamp="2025-10-04T13:40:54Z" changeset="172831429" uid="22079293" user="Packmanton">
    <nd ref="13192519978"/>
    <nd ref="13192519979"/>
    <nd ref="13192519980"/>
    <nd ref="13192519981"/>
    <nd ref="13192519982"/>
    <nd ref="13192519983"/>
    <nd ref="13192519984"/>
    <nd ref="13192519985"/>
    <nd ref="13192519978"/>
    <tag k="addr:city" v="Packington"/>
    <tag k="addr:housename" v="Millcroft"/>
    <tag k="addr:housenumber" v="11"/>
    <tag k="addr:postcode" v="LE65 1WN"/>
    <tag k="addr:street" v="Mill Street"/>
    <tag k="building" v="detached"/>
    <tag k="listed_status" v="Grade II"/>
    <tag k="name" v="11 Millcroft"/>
  </way>
  <way id="1435309969" version="1" timestamp="2025-10-04T13:40:54Z" changeset="172831429" uid="22079293" user="Packmanton">
    <nd ref="13192519986"/>
    <nd ref="13192519987"/>
    <nd ref="13192519988"/>
    <nd ref="13192519989"/>
    <nd ref="13192519986"/>
    <tag k="building" v="detached"/>
    <tag k="name" v="Burnbank"/>
  </way>
  <way id="1435309970" version="1" timestamp="2025-10-04T13:40:54Z" changeset="172831429" uid="22079293" user="Packmanton">
    <nd ref="13192519990"/>
    <nd ref="13192519991"/>
    <nd ref="13192519992"/>
    <nd ref="13192519993"/>
    <nd ref="13192519994"/>
    <nd ref="13192519995"/>
    <nd ref="13192519996"/>
    <nd ref="13192519997"/>
    <nd ref="13192519990"/>
    <tag k="building" v="house"/>
    <tag k="name" v="Brook Field"/>
  </way>
  <way id="1435309971" version="1" timestamp="2025-10-04T13:40:54Z" changeset="172831429" uid="22079293" user="Packmanton">
    <nd ref="13192519998"/>
    <nd ref="13192519999"/>
    <nd ref="13192520000"/>
    <nd ref="13192553801"/>
    <nd ref="13192553802"/>
    <nd ref="13192553803"/>
    <nd ref="13192553804"/>
    <nd ref="13192553805"/>
    <nd ref="13192553806"/>
    <nd ref="13192553807"/>
    <nd ref="13192519998"/>
    <tag k="addr:city" v="Packington"/>
    <tag k="addr:housenumber" v="10"/>
    <tag k="addr:postcode" v="LE65 1WL"/>
    <tag k="addr:street" v="Mill Street"/>
    <tag k="building" v="detached"/>
  </way>
  <way id="1435309972" version="1" timestamp="2025-10-04T13:40:54Z" changeset="172831429" uid="22079293" user="Packmanton">
    <nd ref="13192553808"/>
    <nd ref="13192553809"/>
    <nd ref="13192553810"/>
    <nd ref="13192553811"/>
    <nd ref="13192553812"/>
    <nd ref="13192553813"/>
    <nd ref="13192553814"/>
    <nd ref="13192553808"/>
    <tag k="addr:city" v="Packington"/>
    <tag k="addr:housenumber" v="8"/>
    <tag k="addr:postcode" v="LE65 1WL"/>
    <tag k="addr:street" v="Mill Street"/>
    <tag k="building" v="detached"/>
  </way>
  <way id="1435309973" version="1" timestamp="2025-10-04T13:40:54Z" changeset="172831429" uid="22079293" user="Packmanton">
    <nd ref="13192553815"/>
    <nd ref="13192553816"/>
    <nd ref="13192553817"/>
    <nd ref="13192553818"/>
    <nd ref="13192553819"/>
    <nd ref="13192553820"/>
    <nd ref="13192553821"/>
    <nd ref="13192553822"/>
    <nd ref="13192553815"/>
    <tag k="addr:city" v="Packington"/>
    <tag k="addr:housename" v="Old Watermill"/>
    <tag k="addr:street" v="Mill Street"/>
    <tag k="building" v="detached"/>
    <tag k="listed_status" v="Grade II"/>
    <tag k="name" v="Old Watermill"/>
  </way>
  <way id="1435309974" version="1" timestamp="2025-10-04T13:40:54Z" changeset="172831429" uid="22079293" user="Packmanton">
    <nd ref="13192553823"/>
    <nd ref="13192553824"/>
    <nd ref="13192553825"/>
    <nd ref="13192553826"/>
    <nd ref="13192553827"/>
    <nd ref="13192553828"/>
    <nd ref="13192553829"/>
    <nd ref="13192553830"/>
    <nd ref="13192553823"/>
    <tag k="addr:city" v="Packington"/>
    <tag k="addr:housename" v="Manor House"/>
    <tag k="addr:housenumber" v="22"/>
    <tag k="addr:street" v="Mill Street"/>
    <tag k="building" v="detached"/>
    <tag k="listed_status" v="Grade II"/>
    <tag k="name" v="Manor House"/>
  </way>
  <way id="1450354003" version="1" timestamp="2025-11-13T18:58:05Z" changeset="174619418" uid="22079293" user="Packmanton">
    <nd ref="13302226607"/>
    <nd ref="13302226608"/>
    <nd ref="13302226609"/>
    <nd ref="13302226610"/>
    <nd ref="13302226611"/>
    <nd ref="13302226612"/>
    <nd ref="13302226613"/>
    <nd ref="13302226614"/>
    <nd ref="13302226615"/>
    <nd ref="13302226616"/>
    <nd ref="13302226617"/>
    <nd ref="13302226618"/>
    <nd ref="13302226619"/>
    <nd ref="13302226620"/>
    <nd ref="13302226621"/>
    <nd ref="13302226622"/>
    <nd ref="13302226623"/>
    <nd ref="13302226624"/>
    <nd ref="13302226607"/>
    <tag k="building" v="detached"/>
    <tag k="name" v="Manor Farm"/>
  </way>
  <way id="1450354004" version="1" timestamp="2025-11-13T18:58:05Z" changeset="174619418" uid="22079293" user="Packmanton">
    <nd ref="13302226625"/>
    <nd ref="13302226626"/>
    <nd ref="13302226627"/>
    <nd ref="13302226628"/>
    <nd ref="13302226625"/>
    <tag k="building" v="semidetached_house"/>
    <tag k="name" v="Shippenstone"/>
  </way>
  <way id="1450354005" version="1" timestamp="2025-11-13T18:58:05Z" changeset="174619418" uid="22079293" user="Packmanton">
    <nd ref="13302226627"/>
    <nd ref="13302226629"/>
    <nd ref="13302226635"/>
    <nd ref="13302226636"/>
    <nd ref="13302226630"/>
    <nd ref="13302226631"/>
    <nd ref="13302226632"/>
    <nd ref="13302226633"/>
    <nd ref="13302226634"/>
    <nd ref="13302226628"/>
    <nd ref="13302226627"/>
    <tag k="building" v="semidetached_house"/>
    <tag k="name" v="The Granary"/>
  </way>
  <way id="1450354006" version="1" timestamp="2025-11-13T18:58:05Z" changeset="174619418" uid="22079293" user="Packmanton">
    <nd ref="13302226632"/>
    <nd ref="13302226637"/>
    <nd ref="13302226638"/>
    <nd ref="13302226639"/>
    <nd ref="13302226640"/>
    <nd ref="13302226641"/>
    <nd ref="13302226642"/>
    <nd ref="13302226633"/>
    <nd ref="13302226632"/>
    <tag k="building" v="semidetached_house"/>
    <tag k="name" v="The Byre"/>
  </way>
  <way id="1450354007" version="1" timestamp="2025-11-13T18:58:05Z" changeset="174619418" uid="22079293" user="Packmanton">
    <nd ref="13302226643"/>
    <nd ref="13302226644"/>
    <nd ref="13302226645"/>
    <nd ref="13302226646"/>
    <nd ref="13302226647"/>
    <nd ref="13302226648"/>
    <nd ref="13302226649"/>
    <nd ref="13302226650"/>
    <nd ref="13302226643"/>
    <tag k="building" v="detached"/>
    <tag k="name" v="The Old Dairy"/>
  </way>
  <way id="1450354008" version="1" timestamp="2025-11-13T18:58:05Z" changeset="174619418" uid="22079293" user="Packmanton">
    <nd ref="13302226641"/>
    <nd ref="13302226651"/>
    <nd ref="13302226652"/>
    <nd ref="13302226653"/>
    <nd ref="13302226654"/>
    <nd ref="13302226642"/>
    <nd ref="13302226641"/>
    <tag k="building" v="semidetached_house"/>
    <tag k="name" v="The Old Stables"/>
  </way>
  <way id="1450354009" version="1" timestamp="2025-11-13T18:58:05Z" changeset="174619418" uid="22079293" user="Packmanton">
    <nd ref="13302226655"/>
    <nd ref="13302226656"/>
    <nd ref="13302226657"/>
    <nd ref="13302226658"/>
    <nd ref="13302226659"/>
    <nd ref="13302226660"/>
    <nd ref="13302226655"/>
    <tag k="building" v="detached"/>
    <tag k="name" v="Sabie"/>
  </way>
  <way id="1450360125" version="2" timestamp="2025-12-02T17:52:33Z" changeset="175413708" uid="22079293" user="Packmanton">
    <nd ref="13302261335"/>
    <nd ref="13302261336"/>
    <nd ref="13302261337"/>
    <nd ref="13302261338"/>
    <nd ref="13302261339"/>
    <nd ref="13302261340"/>
    <nd ref="13302261341"/>
    <nd ref="13302261342"/>
    <nd ref="13302261343"/>
    <nd ref="13302261344"/>
    <nd ref="13302261345"/>
    <nd ref="13302261346"/>
    <nd ref="13302261335"/>
    <tag k="addr:city" v="Packington"/>
    <tag k="addr:housenumber" v="4"/>
    <tag k="addr:postcode" v="LE65 1GZ"/>
    <tag k="addr:street" v="Mychecroft Drive"/>
    <tag k="building" v="detached"/>
    <tag k="name" v="4"/>
  </way>
  <way id="1450360129" version="2" timestamp="2025-12-02T17:52:33Z" changeset="175413708" uid="22079293" user="Packmanton">
    <nd ref="13302261359"/>
    <nd ref="13302261360"/>
    <nd ref="13302261361"/>
    <nd ref="13302261362"/>
    <nd ref="13302261363"/>
    <nd ref="13302261364"/>
    <nd ref="13302261359"/>
    <tag k="addr:city" v="Packington"/>
    <tag k="addr:housenumber" v="3"/>
    <tag k="addr:postcode" v="LE65 1GZ"/>
    <tag k="addr:street" v="Mychecroft Drive"/>
    <tag k="building" v="detached"/>
    <tag k="name" v="3"/>
  </way>
  <way id="1450360133" version="2" timestamp="2025-12-02T17:52:33Z" changeset="175413708" uid="22079293" user="Packmanton">
    <nd ref="13302261377"/>
    <nd ref="13302261378"/>
    <nd ref="13302261379"/>
    <nd ref="13302261380"/>
    <nd ref="13302261381"/>
    <nd ref="13302261382"/>
    <nd ref="13302261383"/>
    <nd ref="13302261384"/>
    <nd ref="13302261377"/>
    <tag k="addr:city" v="Packington"/>
    <tag k="addr:housenumber" v="1"/>
    <tag k="addr:postcode" v="LE65 1GZ"/>
    <tag k="addr:street" v="Mychecroft Drive"/>
    <tag k="building" v="detached"/>
  </way>
  <way id="1455523363" version="1" timestamp="2025-12-02T17:52:33Z" changeset="175413708" uid="22079293" user="Packmanton">
    <nd ref="13348338393"/>
    <nd ref="13348338394"/>
    <nd ref="13348340002"/>
    <nd ref="13348340003"/>
    <nd ref="13348340004"/>
    <nd ref="13348340001"/>
    <nd ref="13348338395"/>
    <nd ref="13348338396"/>
    <nd ref="13348338397"/>
    <nd ref="13348338398"/>
    <nd ref="13348338399"/>
    <nd ref="13348338400"/>
    <nd ref="13348338393"/>
    <tag k="addr:city" v="Packington"/>
    <tag k="addr:housenumber" v="2"/>
    <tag k="addr:postcode" v="LE65 1GZ"/>
    <tag k="addr:street" v="Mychecroft Drive"/>
    <tag k="building" v="detached"/>
  </way>
  <way id="1455523364" version="1" timestamp="2025-12-02T17:52:33Z" changeset="175413708" uid="22079293" user="Packmanton">
    <nd ref="13348340015"/>
    <nd ref="13348340016"/>
    <tag k="highway" v="residential"/>
    <tag k="name" v="Mychecroft Drive"/>
  </way>

</osm>
