<?xml version="1.0" encoding="UTF-8"?>
<osm version="0.6" generator="Overpass API 0.7.62.8 e802775f">
<note>The data included in this document is from www.openstreetmap.org. The data is made available under ODbL.</note>
<meta osm_base="2025-12-17T13:10:00Z" areas="2025-12-17T10:32:22Z"/>

  <node id="243861589" lat="52.6776102" lon="-1.5737087" version="12" timestamp="2020-10-17T13:36:45Z" changeset="92628927" uid="705850" user="Cebderby"/>
  <node id="373335934" lat="52.6956699" lon="-1.6298657" version="9" timestamp="2024-04-18T10:24:17Z" changeset="150167663" uid="570650" user="Maptapper"/>
  <node id="440877161" lat="52.6860635" lon="-1.5867921" version="3" timestamp="2011-06-28T08:18:30Z" changeset="8569185" uid="188349" user="MatSmith"/>
  <node id="5302431448" lat="52.7117206" lon="-1.5770023" version="1" timestamp="2017-12-24T18:27:35Z" changeset="54893157" uid="61942" user="SomeoneElse"/>
  <way id="28913798" version="18" timestamp="2021-09-29T23:32:05Z" changeset="111890965" uid="493595" user="Yorvik Prestigitator">
    <nd ref="243861589"/>
    <nd ref="317818356"/>
    <nd ref="317818357"/>
    <nd ref="317818359"/>
    <nd ref="8573500826"/>
    <nd ref="317818361"/>
    <nd ref="317818362"/>
    <nd ref="317818364"/>
    <nd ref="317818366"/>
    <nd ref="1223592786"/>
    <nd ref="317818367"/>
    <nd ref="317818369"/>
    <nd ref="317818371"/>
    <nd ref="317818373"/>
    <nd ref="317818374"/>
    <nd ref="317818376"/>
    <nd ref="6528425989"/>
    <nd ref="317818378"/>
    <nd ref="317818379"/>
    <nd ref="317818383"/>
    <nd ref="6528425990"/>
    <nd ref="6528417874"/>
    <nd ref="317818381"/>
    <nd ref="317818386"/>
    <nd ref="8406900638"/>
    <nd ref="317818384"/>
    <nd ref="317818390"/>
    <nd ref="317818388"/>
    <nd ref="8406900637"/>
    <nd ref="317818393"/>
    <nd ref="317818391"/>
    <nd ref="317818396"/>
    <nd ref="317818395"/>
    <nd ref="317818399"/>
    <nd ref="317818398"/>
    <nd ref="317818403"/>
    <nd ref="317818401"/>
    <nd ref="317818408"/>
    <nd ref="317818406"/>
    <nd ref="317818417"/>
    <nd ref="317818411"/>
    <nd ref="2408850300"/>
    <nd ref="317818413"/>
    <nd ref="8562797757"/>
    <nd ref="317818425"/>
    <nd ref="9133576165"/>
    <nd ref="9133576166"/>
    <nd ref="317818427"/>
    <tag k="highway" v="unclassified"/>
    <tag k="name" v="No Man's Heath Road"/>
    <tag k="note:name" v="No Mans Heath Road"/>
  </way>
  <way id="37612123" version="21" timestamp="2024-04-18T10:24:17Z" changeset="150167663" uid="570650" user="Maptapper">
    <nd ref="373335934"/>
    <nd ref="373335930"/>
    <nd ref="373335927"/>
    <nd ref="9651924443"/>
    <nd ref="373336764"/>
    <nd ref="11827410904"/>
    <nd ref="9651924441"/>
    <nd ref="373336762"/>
    <nd ref="11827410914"/>
    <nd ref="1923946267"/>
    <nd ref="1923946271"/>
    <nd ref="373336759"/>
    <nd ref="9651924431"/>
    <nd ref="5902842785"/>
    <nd ref="1923955523"/>
    <nd ref="373336748"/>
    <nd ref="9651924454"/>
    <nd ref="8763313354"/>
    <nd ref="8763313352"/>
    <nd ref="8763313356"/>
    <nd ref="468403576"/>
    <nd ref="2402558571"/>
    <nd ref="8562817571"/>
    <nd ref="468403575"/>
    <nd ref="9651924453"/>
    <nd ref="468403572"/>
    <nd ref="468403570"/>
    <nd ref="6543849266"/>
    <nd ref="9124286934"/>
    <nd ref="440877218"/>
    <nd ref="440877216"/>
    <nd ref="468403501"/>
    <nd ref="11133502657"/>
    <nd ref="440877214"/>
    <nd ref="440877211"/>
    <nd ref="440877210"/>
    <nd ref="7991536374"/>
    <nd ref="440877205"/>
    <nd ref="440877201"/>
    <nd ref="440877198"/>
    <nd ref="440877196"/>
    <nd ref="440877189"/>
    <nd ref="962097698"/>
    <nd ref="440877187"/>
    <nd ref="440877185"/>
    <nd ref="962097702"/>
    <nd ref="440877182"/>
    <nd ref="2408843756"/>
    <nd ref="440877180"/>
    <nd ref="440877177"/>
    <nd ref="8450419436"/>
    <nd ref="8450419437"/>
    <nd ref="440877175"/>
    <nd ref="440877172"/>
    <nd ref="440877167"/>
    <nd ref="1223592629"/>
    <nd ref="1223592577"/>
    <nd ref="440877163"/>
    <nd ref="440877161"/>
    <nd ref="440877152"/>
    <nd ref="962097728"/>
    <nd ref="440877151"/>
    <nd ref="440876827"/>
    <nd ref="440877150"/>
    <nd ref="8776849063"/>
    <nd ref="6572858886"/>
    <nd ref="440877149"/>
    <nd ref="440877147"/>
    <nd ref="440877146"/>
    <nd ref="440877145"/>
    <nd ref="440877142"/>
    <nd ref="6571783370"/>
    <nd ref="440877133"/>
    <nd ref="440876829"/>
    <nd ref="6571783371"/>
    <nd ref="6571783367"/>
    <nd ref="440877103"/>
    <tag k="highway" v="unclassified"/>
    <tag k="name" v="Main Street"/>
  </way>
  <way id="65539423" version="1" timestamp="2010-07-03T21:27:56Z" changeset="5128213" uid="188349" user="MatSmith">
    <nd ref="440877161"/>
    <nd ref="799616683"/>
    <nd ref="799616687"/>
    <nd ref="799616689"/>
    <nd ref="799616692"/>
    <nd ref="799616700"/>
    <nd ref="799616704"/>
    <nd ref="799616710"/>
    <nd ref="317818371"/>
    <tag k="highway" v="unclassified"/>
    <tag k="name" v="Quarry Berry Lane"/>
  </way>
  <way id="119432086" version="7" timestamp="2021-09-29T23:32:05Z" changeset="111890965" uid="493595" user="Yorvik Prestigitator">
    <nd ref="317818427"/>
    <nd ref="9133576168"/>
    <nd ref="9133576167"/>
    <nd ref="317818438"/>
    <nd ref="317818429"/>
    <nd ref="317818431"/>
    <nd ref="6863837270"/>
    <nd ref="6909328607"/>
    <nd ref="317818439"/>
    <nd ref="317818436"/>
    <nd ref="317818437"/>
    <nd ref="317818443"/>
    <nd ref="317818442"/>
    <nd ref="317818441"/>
    <nd ref="3701916589"/>
    <nd ref="317818440"/>
    <nd ref="317818447"/>
    <nd ref="317818446"/>
    <nd ref="317818445"/>
    <nd ref="317818444"/>
    <nd ref="317818451"/>
    <nd ref="317818450"/>
    <nd ref="317818449"/>
    <nd ref="317818448"/>
    <nd ref="317818455"/>
    <nd ref="317818454"/>
    <nd ref="317818453"/>
    <nd ref="317818452"/>
    <nd ref="317818460"/>
    <nd ref="317818461"/>
    <nd ref="317818462"/>
    <nd ref="317818463"/>
    <nd ref="317818456"/>
    <nd ref="317818457"/>
    <nd ref="317818458"/>
    <nd ref="317818459"/>
    <nd ref="317818468"/>
    <nd ref="317818469"/>
    <nd ref="317818470"/>
    <nd ref="317818471"/>
    <nd ref="6543845994"/>
    <nd ref="317818464"/>
    <nd ref="317818465"/>
    <nd ref="317818466"/>
    <nd ref="317818467"/>
    <nd ref="317818477"/>
    <nd ref="317818476"/>
    <nd ref="317818479"/>
    <nd ref="317818478"/>
    <nd ref="5302431448"/>
    <tag k="highway" v="unclassified"/>
    <tag k="name" v="Netherseal Road"/>
  </way>
  <way id="119432280" version="5" timestamp="2021-09-29T23:32:05Z" changeset="111890965" uid="493595" user="Yorvik Prestigitator">
    <nd ref="1342068928"/>
    <nd ref="1342068929"/>
    <nd ref="1342068933"/>
    <nd ref="6782621317"/>
    <nd ref="1342068936"/>
    <nd ref="1342068938"/>
    <nd ref="1342068941"/>
    <nd ref="1269674985"/>
    <nd ref="1342068944"/>
    <nd ref="3701911135"/>
    <nd ref="4745559956"/>
    <nd ref="9133576164"/>
    <nd ref="317818427"/>
    <tag k="highway" v="unclassified"/>
    <tag k="name" v="Church Lane"/>
  </way>
  <way id="366205744" version="6" timestamp="2023-07-06T15:49:01Z" changeset="138194154" uid="417748" user="Dave Venables">
    <nd ref="3701904572"/>
    <nd ref="3701904575"/>
    <nd ref="3701904576"/>
    <nd ref="3701904577"/>
    <nd ref="9133576158"/>
    <nd ref="9133576157"/>
    <nd ref="9133576159"/>
    <nd ref="9133576161"/>
    <nd ref="9133576162"/>
    <nd ref="9133576160"/>
    <nd ref="3701904572"/>
    <tag k="addr:city" v="Swadlincote"/>
    <tag k="addr:postcode" v="DE12 8DS"/>
    <tag k="addr:village" v="Chilcote"/>
    <tag k="amenity" v="place_of_worship"/>
    <tag k="building" v="church"/>
    <tag k="denomination" v="anglican"/>
    <tag k="name" v="St Matthew"/>
    <tag k="religion" v="christian"/>
    <tag k="source" v="Bing"/>
    <tag k="wikidata" v="Q26336511"/>
  </way>
  <way id="548896055" version="1" timestamp="2017-12-24T18:27:38Z" changeset="54893157" uid="61942" user="SomeoneElse">
    <nd ref="5302431448"/>
    <nd ref="5302431424"/>
    <tag k="bridge" v="yes"/>
    <tag k="highway" v="unclassified"/>
    <tag k="layer" v="1"/>
    <tag k="name" v="Netherseal Road"/>
  </way>

</osm>
