<?xml version="1.0" encoding="UTF-8"?>
<osm version="0.6" generator="Overpass API 0.7.62.8 e802775f">
<note>The data included in this document is from www.openstreetmap.org. The data is made available under ODbL.</note>
<meta osm_base="2025-10-23T17:21:27Z" areas="2025-10-23T14:54:58Z"/>

  <node id="318494299" lat="53.2223322" lon="-0.7592245" version="13" timestamp="2015-12-22T23:09:25Z" changeset="36115546" uid="61942" user="SomeoneElse"/>
  <node id="338762575" lat="53.2072220" lon="-0.7511266" version="4" timestamp="2015-12-27T18:28:13Z" changeset="36202812" uid="61942" user="SomeoneElse"/>
  <node id="375057320" lat="53.2135609" lon="-0.7574341" version="6" timestamp="2015-12-22T22:46:55Z" changeset="36115546" uid="61942" user="SomeoneElse"/>
  <node id="924438333" lat="53.1906006" lon="-0.7621954" version="3" timestamp="2015-12-27T15:19:28Z" changeset="36197983" uid="61942" user="SomeoneElse"/>
  <way id="4469088" version="35" timestamp="2025-05-08T18:28:31Z" changeset="165997674" uid="3199858" user="Mateusz Konieczny - bot account">
    <nd ref="318494299"/>
    <nd ref="318494300"/>
    <nd ref="318494301"/>
    <nd ref="3905596397"/>
    <nd ref="318494302"/>
    <nd ref="3746547240"/>
    <nd ref="646920377"/>
    <nd ref="318494303"/>
    <nd ref="646920381"/>
    <nd ref="3746547230"/>
    <tag k="highway" v="primary"/>
    <tag k="lanes" v="2"/>
    <tag k="lit" v="no"/>
    <tag k="name" v="Gainsborough Road"/>
    <tag k="ref" v="A1133"/>
    <tag k="sidewalk" v="no"/>
    <tag k="source:name" v="NaPTAN"/>
    <tag k="surface" v="asphalt"/>
  </way>
  <way id="30628551" version="26" timestamp="2021-10-03T18:24:34Z" changeset="112044525" uid="2762871" user="Sam888">
    <nd ref="375057320"/>
    <nd ref="338761424"/>
    <nd ref="338761425"/>
    <nd ref="7284156404"/>
    <nd ref="3913195554"/>
    <nd ref="338761426"/>
    <nd ref="3913195551"/>
    <nd ref="330537937"/>
    <nd ref="3913195552"/>
    <nd ref="338761427"/>
    <nd ref="3913195527"/>
    <nd ref="3913195525"/>
    <nd ref="338761428"/>
    <nd ref="3913195526"/>
    <nd ref="338761431"/>
    <nd ref="338761432"/>
    <nd ref="6774701648"/>
    <nd ref="338761433"/>
    <nd ref="7379566535"/>
    <nd ref="7000370345"/>
    <nd ref="338761434"/>
    <nd ref="7729713730"/>
    <nd ref="7729713732"/>
    <nd ref="7648197361"/>
    <nd ref="8507534769"/>
    <nd ref="8507534747"/>
    <nd ref="7127703083"/>
    <nd ref="7300992970"/>
    <nd ref="7802971195"/>
    <nd ref="338761435"/>
    <nd ref="338761436"/>
    <nd ref="338761438"/>
    <nd ref="7988678243"/>
    <nd ref="338761439"/>
    <tag k="highway" v="tertiary"/>
    <tag k="maxspeed" v="60 mph"/>
    <tag k="maxspeed:type" v="GB:nsl_single"/>
    <tag k="name" v="Sand Lane"/>
    <tag k="source" v="NPE"/>
    <tag k="source:name" v="NaPTAN"/>
    <tag k="width" v="4"/>
  </way>
  <way id="30628620" version="9" timestamp="2025-05-08T18:28:37Z" changeset="165997674" uid="3199858" user="Mateusz Konieczny - bot account">
    <nd ref="338761427"/>
    <nd ref="3913195532"/>
    <tag k="highway" v="unclassified"/>
    <tag k="lit" v="no"/>
    <tag k="maxspeed" v="30 mph"/>
    <tag k="name" v="Rabbit Hill Lane"/>
    <tag k="sidewalk" v="no"/>
    <tag k="source" v="NPE"/>
    <tag k="source:name" v="NaPTAN"/>
    <tag k="width" v="3"/>
  </way>
  <way id="44052231" version="13" timestamp="2025-05-08T18:28:46Z" changeset="165997674" uid="3199858" user="Mateusz Konieczny - bot account">
    <nd ref="338762575"/>
    <nd ref="1766800128"/>
    <nd ref="338762578"/>
    <nd ref="338762579"/>
    <nd ref="3938111078"/>
    <nd ref="338762580"/>
    <nd ref="6469639189"/>
    <nd ref="338762581"/>
    <tag k="highway" v="unclassified"/>
    <tag k="lit" v="no"/>
    <tag k="maxspeed" v="60 mph"/>
    <tag k="maxspeed:type" v="GB:nsl_single"/>
    <tag k="name" v="Spalford Lane"/>
    <tag k="sidewalk" v="no"/>
    <tag k="source" v="NPE, View from west"/>
    <tag k="source:name" v="OS_OpenData_Locator"/>
    <tag k="width" v="3"/>
  </way>
  <way id="79113531" version="14" timestamp="2025-05-08T18:28:56Z" changeset="165997674" uid="3199858" user="Mateusz Konieczny - bot account">
    <nd ref="924438333"/>
    <nd ref="924438351"/>
    <nd ref="924438352"/>
    <nd ref="924438353"/>
    <nd ref="924438354"/>
    <nd ref="924438355"/>
    <nd ref="8081165481"/>
    <nd ref="924438356"/>
    <nd ref="924438358"/>
    <nd ref="924438360"/>
    <nd ref="924438362"/>
    <nd ref="6888736236"/>
    <nd ref="924438364"/>
    <nd ref="924438366"/>
    <nd ref="924438368"/>
    <nd ref="924438369"/>
    <nd ref="7325949462"/>
    <nd ref="924438371"/>
    <nd ref="924438372"/>
    <nd ref="924438374"/>
    <nd ref="924438375"/>
    <nd ref="924438376"/>
    <nd ref="924438377"/>
    <nd ref="924438378"/>
    <nd ref="924438379"/>
    <nd ref="924438380"/>
    <nd ref="924438381"/>
    <nd ref="924438384"/>
    <nd ref="924438386"/>
    <nd ref="924438389"/>
    <nd ref="924438391"/>
    <nd ref="924438394"/>
    <nd ref="924438398"/>
    <nd ref="6904686268"/>
    <nd ref="924438399"/>
    <nd ref="924438400"/>
    <nd ref="924438401"/>
    <nd ref="924438402"/>
    <nd ref="924438403"/>
    <nd ref="924438405"/>
    <nd ref="924438408"/>
    <nd ref="924438410"/>
    <nd ref="924438412"/>
    <nd ref="5624216265"/>
    <nd ref="924438414"/>
    <nd ref="924438416"/>
    <nd ref="924438418"/>
    <nd ref="924438419"/>
    <nd ref="924438420"/>
    <nd ref="924438421"/>
    <nd ref="924438422"/>
    <nd ref="924438007"/>
    <nd ref="3912904515"/>
    <nd ref="924438423"/>
    <nd ref="924438429"/>
    <nd ref="924438432"/>
    <nd ref="924438434"/>
    <nd ref="7211010148"/>
    <nd ref="1426066489"/>
    <nd ref="924438435"/>
    <nd ref="924438332"/>
    <tag k="highway" v="unclassified"/>
    <tag k="lit" v="no"/>
    <tag k="maxspeed" v="60 mph"/>
    <tag k="maxspeed:type" v="GB:nsl_single"/>
    <tag k="name" v="New Lane"/>
    <tag k="sidewalk" v="no"/>
    <tag k="source" v="GPS"/>
    <tag k="source:name" v="survey"/>
  </way>
  <way id="129213664" version="3" timestamp="2025-05-08T18:29:00Z" changeset="165997674" uid="3199858" user="Mateusz Konieczny - bot account">
    <nd ref="338762571"/>
    <nd ref="1426063766"/>
    <nd ref="1426063767"/>
    <nd ref="1426063769"/>
    <nd ref="1426063796"/>
    <nd ref="3913195528"/>
    <nd ref="1426063801"/>
    <nd ref="338761428"/>
    <tag k="highway" v="residential"/>
    <tag k="lit" v="no"/>
    <tag k="name" v="Chapel Lane"/>
    <tag k="sidewalk" v="no"/>
    <tag k="source:name" v="Sign"/>
  </way>
  <way id="387239947" version="12" timestamp="2024-01-25T22:10:35Z" changeset="146690295" uid="84681" user="SK53">
    <nd ref="375057320"/>
    <nd ref="3746550449"/>
    <nd ref="318494306"/>
    <nd ref="2612530713"/>
    <nd ref="318494307"/>
    <nd ref="318494308"/>
    <nd ref="646920385"/>
    <nd ref="646920396"/>
    <nd ref="318494309"/>
    <nd ref="318494310"/>
    <nd ref="646920400"/>
    <nd ref="646920404"/>
    <nd ref="646920407"/>
    <nd ref="318494311"/>
    <nd ref="8507534704"/>
    <nd ref="318494312"/>
    <nd ref="318494313"/>
    <nd ref="646920411"/>
    <nd ref="5624657559"/>
    <nd ref="924438332"/>
    <nd ref="318494314"/>
    <nd ref="646920418"/>
    <nd ref="8024149887"/>
    <nd ref="2353190380"/>
    <nd ref="646920421"/>
    <nd ref="8024149895"/>
    <nd ref="6784888850"/>
    <nd ref="8024149892"/>
    <nd ref="646920423"/>
    <nd ref="318494315"/>
    <nd ref="318494316"/>
    <nd ref="646919697"/>
    <nd ref="646919700"/>
    <nd ref="646919702"/>
    <nd ref="3912860741"/>
    <nd ref="646919705"/>
    <nd ref="318494317"/>
    <nd ref="8573501549"/>
    <nd ref="318494318"/>
    <nd ref="3912861503"/>
    <nd ref="646919709"/>
    <nd ref="3912849137"/>
    <nd ref="318494319"/>
    <nd ref="924438333"/>
    <tag k="highway" v="primary"/>
    <tag k="lanes" v="2"/>
    <tag k="name" v="Gainsborough Road"/>
    <tag k="ref" v="A1133"/>
    <tag k="source:name" v="NaPTAN"/>
    <tag k="surface" v="asphalt"/>
  </way>
  <way id="388118601" version="2" timestamp="2025-05-08T18:29:56Z" changeset="165997674" uid="3199858" user="Mateusz Konieczny - bot account">
    <nd ref="338762572"/>
    <nd ref="338762573"/>
    <nd ref="1766800097"/>
    <nd ref="338762575"/>
    <tag k="highway" v="unclassified"/>
    <tag k="lit" v="no"/>
    <tag k="maxspeed" v="60 mph"/>
    <tag k="maxspeed:type" v="GB:nsl_single"/>
    <tag k="name" v="Rabbit Hill Lane"/>
    <tag k="sidewalk" v="no"/>
    <tag k="source" v="NPE"/>
    <tag k="source:name" v="NaPTAN"/>
    <tag k="width" v="3"/>
  </way>
  <way id="388119003" version="2" timestamp="2025-05-08T18:29:57Z" changeset="165997674" uid="3199858" user="Mateusz Konieczny - bot account">
    <nd ref="3913195527"/>
    <nd ref="3913195524"/>
    <nd ref="3913195523"/>
    <nd ref="3913195532"/>
    <nd ref="338762571"/>
    <nd ref="3913180369"/>
    <nd ref="3913195316"/>
    <nd ref="338762572"/>
    <tag k="highway" v="unclassified"/>
    <tag k="lit" v="no"/>
    <tag k="maxspeed" v="30 mph"/>
    <tag k="name" v="Rabbit Hill Lane"/>
    <tag k="sidewalk" v="no"/>
    <tag k="source" v="NPE"/>
    <tag k="source:name" v="NaPTAN"/>
    <tag k="width" v="3"/>
  </way>
  <way id="915915183" version="4" timestamp="2025-05-08T18:30:13Z" changeset="165997674" uid="3199858" user="Mateusz Konieczny - bot account">
    <nd ref="318494304"/>
    <nd ref="318494305"/>
    <nd ref="375057320"/>
    <tag k="highway" v="primary"/>
    <tag k="lanes" v="2"/>
    <tag k="lit" v="no"/>
    <tag k="name" v="Gainsborough Road"/>
    <tag k="ref" v="A1133"/>
    <tag k="sidewalk" v="no"/>
    <tag k="source:name" v="NaPTAN"/>
    <tag k="surface" v="asphalt"/>
  </way>
  <way id="915915184" version="4" timestamp="2025-05-08T18:30:13Z" changeset="165997674" uid="3199858" user="Mateusz Konieczny - bot account">
    <nd ref="3746547230"/>
    <nd ref="318494304"/>
    <tag k="designation" v="public_footpath"/>
    <tag k="foot" v="designated"/>
    <tag k="highway" v="primary"/>
    <tag k="lanes" v="2"/>
    <tag k="lit" v="no"/>
    <tag k="name" v="Gainsborough Road"/>
    <tag k="prow_ref" v="156/1A"/>
    <tag k="ref" v="A1133"/>
    <tag k="sidewalk" v="no"/>
    <tag k="source:name" v="NaPTAN"/>
    <tag k="surface" v="asphalt"/>
  </way>

</osm>
