<?xml version="1.0" encoding="UTF-8"?>
<osm version="0.6" generator="Overpass API 0.7.62.8 e802775f">
<note>The data included in this document is from www.openstreetmap.org. The data is made available under ODbL.</note>
<meta osm_base="2025-10-23T17:20:26Z" areas="2025-10-23T12:46:58Z"/>

  <node id="318494299" lat="53.2223322" lon="-0.7592245" version="13" timestamp="2015-12-22T23:09:25Z" changeset="36115546" uid="61942" user="SomeoneElse"/>
  <node id="649391902" lat="53.2340815" lon="-0.7604734" version="3" timestamp="2014-12-11T23:33:43Z" changeset="27411770" uid="24119" user="Mauls"/>
  <node id="3453043187" lat="53.2318701" lon="-0.7742031" version="1" timestamp="2015-04-13T00:48:21Z" changeset="30176068" uid="61942" user="SomeoneElse"/>
  <way id="29288081" version="14" timestamp="2022-12-29T15:54:58Z" changeset="130652090" uid="49323" user="Ben Page">
    <nd ref="318494299"/>
    <nd ref="6785007750"/>
    <nd ref="646920942"/>
    <nd ref="416971165"/>
    <nd ref="646920945"/>
    <nd ref="646920946"/>
    <nd ref="646920947"/>
    <nd ref="646920949"/>
    <nd ref="322073962"/>
    <nd ref="7477357040"/>
    <nd ref="646920950"/>
    <nd ref="322073963"/>
    <nd ref="646920952"/>
    <nd ref="322073964"/>
    <nd ref="649394594"/>
    <nd ref="322073965"/>
    <nd ref="649394608"/>
    <nd ref="6785672241"/>
    <nd ref="646920954"/>
    <tag k="highway" v="primary"/>
    <tag k="lanes" v="2"/>
    <tag k="ref" v="A1133"/>
    <tag k="source" v="GPS"/>
    <tag k="surface" v="asphalt"/>
  </way>
  <way id="50927080" version="13" timestamp="2025-05-08T18:28:50Z" changeset="165997674" uid="3199858" user="Mateusz Konieczny - bot account">
    <nd ref="649391902"/>
    <nd ref="322073966"/>
    <nd ref="2612530763"/>
    <nd ref="2612530764"/>
    <nd ref="2612530765"/>
    <nd ref="646920955"/>
    <nd ref="7999119737"/>
    <nd ref="6782569767"/>
    <nd ref="2612530766"/>
    <nd ref="2612530767"/>
    <nd ref="322073967"/>
    <nd ref="2612530768"/>
    <nd ref="2612530769"/>
    <nd ref="646920956"/>
    <nd ref="646920957"/>
    <nd ref="6379930216"/>
    <nd ref="8107182872"/>
    <nd ref="646921307"/>
    <nd ref="2612530770"/>
    <nd ref="646921315"/>
    <nd ref="2612530771"/>
    <nd ref="646921318"/>
    <nd ref="2612530772"/>
    <nd ref="2612530773"/>
    <nd ref="322073968"/>
    <nd ref="2612530774"/>
    <nd ref="646921322"/>
    <nd ref="322073969"/>
    <nd ref="2612530775"/>
    <nd ref="646921326"/>
    <nd ref="646921329"/>
    <nd ref="646921331"/>
    <nd ref="322073970"/>
    <nd ref="6785809011"/>
    <nd ref="2612530776"/>
    <nd ref="322073971"/>
    <nd ref="2612530777"/>
    <nd ref="646921334"/>
    <nd ref="2612530778"/>
    <nd ref="2612530779"/>
    <nd ref="322073972"/>
    <nd ref="3642829155"/>
    <nd ref="3642829797"/>
    <nd ref="3642829172"/>
    <nd ref="12741699335"/>
    <nd ref="12741699334"/>
    <nd ref="322073975"/>
    <nd ref="12741699333"/>
    <nd ref="3642829180"/>
    <nd ref="646921495"/>
    <nd ref="646921500"/>
    <nd ref="322073976"/>
    <tag k="highway" v="primary"/>
    <tag k="lanes" v="2"/>
    <tag k="lit" v="no"/>
    <tag k="name" v="Collingham Road"/>
    <tag k="ref" v="A1133"/>
    <tag k="sidewalk" v="no"/>
    <tag k="source" v="NPE"/>
    <tag k="source:name" v="Sign"/>
    <tag k="surface" v="asphalt"/>
    <tag k="width" v="5"/>
  </way>
  <way id="50927083" version="5" timestamp="2025-07-07T15:04:53Z" changeset="168610379" uid="808803" user="Andidy">
    <nd ref="646920954"/>
    <nd ref="649391902"/>
    <tag k="bridge" v="yes"/>
    <tag k="highway" v="primary"/>
    <tag k="lanes" v="2"/>
    <tag k="layer" v="1"/>
    <tag k="maxweight:signed" v="no"/>
    <tag k="ref" v="A1133"/>
    <tag k="source" v="GPS"/>
    <tag k="surface" v="asphalt"/>
  </way>
  <way id="52834762" version="8" timestamp="2021-01-27T07:10:27Z" changeset="98206935" uid="10170582" user="priymose">
    <nd ref="1426058562"/>
    <nd ref="5339570446"/>
    <nd ref="8366456869"/>
    <nd ref="5339570451"/>
    <nd ref="5339570502"/>
    <tag k="highway" v="unclassified"/>
    <tag k="lit" v="no"/>
    <tag k="maxspeed" v="30 mph"/>
    <tag k="name" v="Church Lane"/>
    <tag k="source" v="NPE"/>
    <tag k="verge" v="left"/>
    <tag k="width" v="2"/>
  </way>
  <way id="129213314" version="2" timestamp="2013-06-25T08:44:02Z" changeset="16695669" uid="1383105" user="Gavrielo">
    <nd ref="1426058313"/>
    <nd ref="1426058332"/>
    <tag k="highway" v="residential"/>
    <tag k="name" v="Watson Close"/>
    <tag k="source:name" v="OS_OpenData_Locator"/>
  </way>
  <way id="129213315" version="4" timestamp="2021-03-11T15:40:24Z" changeset="100851261" uid="5443821" user="◪ Jarv">
    <nd ref="1426058353"/>
    <nd ref="2841896190"/>
    <nd ref="1426058356"/>
    <nd ref="1426058357"/>
    <nd ref="6739052844"/>
    <nd ref="1426058358"/>
    <nd ref="6739052843"/>
    <nd ref="6739052842"/>
    <nd ref="1426058359"/>
    <nd ref="6739052841"/>
    <nd ref="1426058360"/>
    <nd ref="1426058363"/>
    <nd ref="6739052851"/>
    <tag k="bicycle" v="designated"/>
    <tag k="designation" v="byway_open_to_all_traffic"/>
    <tag k="foot" v="designated"/>
    <tag k="highway" v="unclassified"/>
    <tag k="horse" v="designated"/>
    <tag k="motor_vehicle" v="yes"/>
    <tag k="name" v="Trent Lane"/>
    <tag k="prow_ref" v="151/9"/>
  </way>
  <way id="129213316" version="3" timestamp="2021-03-11T15:40:24Z" changeset="100851261" uid="5443821" user="◪ Jarv">
    <nd ref="1426058388"/>
    <nd ref="1426058395"/>
    <tag k="designation" v="public_footpath"/>
    <tag k="foot" v="designated"/>
    <tag k="highway" v="residential"/>
    <tag k="prow_ref" v="151/6"/>
  </way>
  <way id="129213317" version="2" timestamp="2018-01-14T20:37:34Z" changeset="55441370" uid="61942" user="SomeoneElse">
    <nd ref="1426058411"/>
    <nd ref="1426058417"/>
    <nd ref="1426058421"/>
    <nd ref="1426058425"/>
    <nd ref="5339603746"/>
    <nd ref="5339603730"/>
    <nd ref="5339603731"/>
    <tag k="highway" v="unclassified"/>
    <tag k="name" v="Cottage Lane"/>
  </way>
  <way id="129213320" version="2" timestamp="2019-08-23T15:41:45Z" changeset="73674217" uid="4948143" user="doublah">
    <nd ref="1426058550"/>
    <nd ref="1426058551"/>
    <tag k="highway" v="residential"/>
  </way>
  <way id="129213321" version="3" timestamp="2019-08-23T15:41:45Z" changeset="73674217" uid="4948143" user="doublah">
    <nd ref="6739052830"/>
    <nd ref="6739052828"/>
    <nd ref="6739052827"/>
    <nd ref="1426058562"/>
    <tag k="highway" v="residential"/>
    <tag k="maxspeed" v="30 mph"/>
  </way>
  <way id="129213322" version="4" timestamp="2022-01-08T21:41:37Z" changeset="115924731" uid="493595" user="Yorvik Prestigitator">
    <nd ref="1426058562"/>
    <nd ref="9403599344"/>
    <nd ref="1426058574"/>
    <nd ref="6739052826"/>
    <nd ref="1426058578"/>
    <tag k="highway" v="unclassified"/>
    <tag k="maxspeed" v="30 mph"/>
  </way>
  <way id="129213324" version="2" timestamp="2019-08-23T15:41:45Z" changeset="73674217" uid="4948143" user="doublah">
    <nd ref="1426058578"/>
    <nd ref="1426058550"/>
    <nd ref="6739052831"/>
    <nd ref="330538966"/>
    <tag k="highway" v="residential"/>
    <tag k="name" v="Silver Street"/>
  </way>
  <way id="129213326" version="5" timestamp="2021-03-11T15:40:24Z" changeset="100851261" uid="5443821" user="◪ Jarv">
    <nd ref="322073966"/>
    <nd ref="1426058691"/>
    <nd ref="5339595301"/>
    <tag k="bicycle" v="designated"/>
    <tag k="designation" v="byway_open_to_all_traffic"/>
    <tag k="foot" v="designated"/>
    <tag k="highway" v="unclassified"/>
    <tag k="horse" v="designated"/>
    <tag k="motor_vehicle" v="yes"/>
    <tag k="name" v="Moor Lane"/>
    <tag k="prow_ref" v="151/12"/>
    <tag k="source:designation" v="Sign at west"/>
    <tag k="vehicle" v="yes"/>
  </way>
  <way id="129213327" version="3" timestamp="2014-01-06T17:58:36Z" changeset="19848706" uid="8857" user="philipcullen">
    <nd ref="1426058411"/>
    <nd ref="1426058707"/>
    <nd ref="1766800111"/>
    <nd ref="1426058710"/>
    <nd ref="1426058712"/>
    <nd ref="1426058717"/>
    <nd ref="1426058723"/>
    <nd ref="1426058726"/>
    <nd ref="2612530767"/>
    <tag k="highway" v="unclassified"/>
    <tag k="name" v="Mill Lane"/>
  </way>
  <way id="129213328" version="4" timestamp="2021-03-11T15:40:24Z" changeset="100851261" uid="5443821" user="◪ Jarv">
    <nd ref="1426058371"/>
    <nd ref="1426058764"/>
    <nd ref="6739052824"/>
    <nd ref="8507534693"/>
    <nd ref="1426058766"/>
    <nd ref="6739052840"/>
    <nd ref="8366456875"/>
    <nd ref="6739052839"/>
    <nd ref="1426058769"/>
    <nd ref="1426058313"/>
    <nd ref="6739052830"/>
    <tag k="highway" v="residential"/>
    <tag k="name" v="High Street"/>
  </way>
  <way id="160099042" version="5" timestamp="2015-04-13T00:48:23Z" changeset="30176068" uid="61942" user="SomeoneElse">
    <nd ref="1426059524"/>
    <nd ref="670008920"/>
    <nd ref="3230715133"/>
    <nd ref="3453020404"/>
    <tag k="cycleway" v="track"/>
    <tag k="highway" v="unclassified"/>
    <tag k="maxspeed" v="60 mph"/>
    <tag k="maxspeed:type" v="GB:nsl_single"/>
    <tag k="name" v="Church Lane"/>
    <tag k="source" v="survey"/>
    <tag k="width" v="2"/>
  </way>
  <way id="227306898" version="3" timestamp="2020-11-03T10:38:06Z" changeset="93475401" uid="10455637" user="mounicb">
    <nd ref="2360115936"/>
    <nd ref="8077476325"/>
    <nd ref="1426058707"/>
    <tag k="fixme" v="suggestion this is a service road from OSSV"/>
    <tag k="highway" v="unclassified"/>
    <tag k="name" v="Northfield Lane"/>
    <tag k="source" v="Bing"/>
    <tag k="source:name" v="OS_OpenData_Locator"/>
  </way>
  <way id="255571996" version="2" timestamp="2019-08-23T15:41:45Z" changeset="73674217" uid="4948143" user="doublah">
    <nd ref="322073967"/>
    <nd ref="1426058731"/>
    <nd ref="1426058733"/>
    <nd ref="6739052875"/>
    <nd ref="6739052825"/>
    <nd ref="1426058578"/>
    <nd ref="6739052829"/>
    <nd ref="6739052830"/>
    <tag k="highway" v="unclassified"/>
    <tag k="name" v="Mill Lane"/>
  </way>
  <way id="338230601" version="2" timestamp="2016-01-17T14:12:11Z" changeset="36634140" uid="616774" user="mueschel">
    <nd ref="3453020404"/>
    <nd ref="3453043178"/>
    <nd ref="670008921"/>
    <nd ref="3453043190"/>
    <nd ref="3453043166"/>
    <nd ref="3453043161"/>
    <nd ref="670008922"/>
    <nd ref="3453043160"/>
    <nd ref="3453043153"/>
    <nd ref="670008923"/>
    <nd ref="3453043187"/>
    <tag k="cycleway" v="track"/>
    <tag k="highway" v="unclassified"/>
    <tag k="maxspeed" v="60 mph"/>
    <tag k="maxspeed:advisory" v="20 mph"/>
    <tag k="maxspeed:type" v="GB:nsl_single"/>
    <tag k="name" v="Church Lane"/>
    <tag k="sidewalk" v="left"/>
    <tag k="source" v="survey"/>
    <tag k="width" v="2"/>
  </way>
  <way id="338230605" version="3" timestamp="2019-08-23T15:27:54Z" changeset="73673804" uid="4948143" user="doublah">
    <nd ref="3453043157"/>
    <nd ref="3453043158"/>
    <nd ref="3453043181"/>
    <nd ref="3453043180"/>
    <nd ref="3453043179"/>
    <nd ref="3453043185"/>
    <nd ref="3453043186"/>
    <nd ref="3453043183"/>
    <nd ref="3453043157"/>
    <tag k="amenity" v="place_of_worship"/>
    <tag k="building" v="church"/>
    <tag k="denomination" v="anglican"/>
    <tag k="name" v="St George's Church, North and South Clifton"/>
    <tag k="religion" v="christian"/>
    <tag k="wikidata" v="Q15979345"/>
    <tag k="wikipedia" v="en:St George the Martyr's Church, North &amp; South Clifton"/>
  </way>
  <way id="338230608" version="3" timestamp="2016-01-17T14:12:11Z" changeset="36634140" uid="616774" user="mueschel">
    <nd ref="3453043187"/>
    <nd ref="3453043173"/>
    <nd ref="670008924"/>
    <nd ref="670008926"/>
    <nd ref="3453043189"/>
    <nd ref="3453048594"/>
    <nd ref="3453048595"/>
    <nd ref="670008927"/>
    <nd ref="2169413454"/>
    <nd ref="3453072488"/>
    <tag k="highway" v="unclassified"/>
    <tag k="maxspeed" v="60 mph"/>
    <tag k="maxspeed:advisory" v="20 mph"/>
    <tag k="maxspeed:type" v="GB:nsl_single"/>
    <tag k="name" v="Church Lane"/>
    <tag k="source" v="survey"/>
    <tag k="width" v="2"/>
  </way>
  <way id="386841027" version="4" timestamp="2021-03-11T15:40:24Z" changeset="100851261" uid="5443821" user="◪ Jarv">
    <nd ref="1426058431"/>
    <nd ref="5339603731"/>
    <tag k="bicycle" v="designated"/>
    <tag k="designation" v="byway_open_to_all_traffic"/>
    <tag k="foot" v="designated"/>
    <tag k="highway" v="unclassified"/>
    <tag k="horse" v="designated"/>
    <tag k="motor_vehicle" v="yes"/>
    <tag k="name" v="Moor Lane"/>
    <tag k="prow_ref" v="151/12"/>
  </way>
  <way id="553115722" version="2" timestamp="2018-01-14T20:15:04Z" changeset="55441370" uid="61942" user="SomeoneElse">
    <nd ref="5339570502"/>
    <nd ref="1426059507"/>
    <nd ref="670008917"/>
    <nd ref="5339570444"/>
    <nd ref="5339570469"/>
    <nd ref="670008918"/>
    <nd ref="5339570441"/>
    <nd ref="5339570463"/>
    <tag k="highway" v="unclassified"/>
    <tag k="lit" v="no"/>
    <tag k="maxspeed" v="60 mph"/>
    <tag k="maxspeed:type" v="GB:nsl_single"/>
    <tag k="name" v="Church Lane"/>
    <tag k="source" v="gps"/>
    <tag k="verge" v="left"/>
  </way>
  <way id="553115723" version="2" timestamp="2018-01-14T20:15:04Z" changeset="55441370" uid="61942" user="SomeoneElse">
    <nd ref="5339570463"/>
    <nd ref="5339570438"/>
    <nd ref="5339570437"/>
    <nd ref="670008919"/>
    <nd ref="5339570435"/>
    <nd ref="1426059524"/>
    <tag k="highway" v="unclassified"/>
    <tag k="lit" v="no"/>
    <tag k="maxspeed" v="60 mph"/>
    <tag k="maxspeed:type" v="GB:nsl_single"/>
    <tag k="name" v="Church Lane"/>
    <tag k="sidewalk" v="separate"/>
    <tag k="source" v="gps"/>
    <tag k="width" v="2"/>
  </way>
  <way id="553118283" version="3" timestamp="2021-03-11T15:40:24Z" changeset="100851261" uid="5443821" user="◪ Jarv">
    <nd ref="5339595301"/>
    <nd ref="5339595281"/>
    <nd ref="8366372952"/>
    <nd ref="8366372933"/>
    <nd ref="5339595319"/>
    <tag k="bicycle" v="designated"/>
    <tag k="designation" v="byway_open_to_all_traffic"/>
    <tag k="foot" v="designated"/>
    <tag k="highway" v="unclassified"/>
    <tag k="horse" v="designated"/>
    <tag k="motor_vehicle" v="yes"/>
    <tag k="name" v="Moor Lane"/>
    <tag k="prow_ref" v="151/12"/>
    <tag k="source:designation" v="Sign at west"/>
    <tag k="surface" v="gravel"/>
    <tag k="vehicle" v="yes"/>
  </way>
  <way id="553118295" version="2" timestamp="2021-03-11T15:40:24Z" changeset="100851261" uid="5443821" user="◪ Jarv">
    <nd ref="5339595319"/>
    <nd ref="1426058431"/>
    <tag k="bicycle" v="designated"/>
    <tag k="designation" v="byway_open_to_all_traffic"/>
    <tag k="foot" v="designated"/>
    <tag k="highway" v="unclassified"/>
    <tag k="horse" v="designated"/>
    <tag k="motor_vehicle" v="yes"/>
    <tag k="name" v="Moor Lane"/>
    <tag k="prow_ref" v="151/12"/>
    <tag k="source:designation" v="Sign at west"/>
    <tag k="vehicle" v="yes"/>
  </way>
  <way id="553119347" version="2" timestamp="2018-01-14T20:44:14Z" changeset="55441370" uid="61942" user="SomeoneElse">
    <nd ref="5339603743"/>
    <nd ref="1426058697"/>
    <tag k="highway" v="unclassified"/>
    <tag k="name" v="Moor Lane"/>
  </way>
  <way id="553119348" version="2" timestamp="2018-01-14T20:44:14Z" changeset="55441370" uid="61942" user="SomeoneElse">
    <nd ref="5339603742"/>
    <nd ref="5339603743"/>
    <tag k="bridge" v="yes"/>
    <tag k="highway" v="unclassified"/>
    <tag k="layer" v="1"/>
    <tag k="name" v="Moor Lane"/>
  </way>
  <way id="553120302" version="1" timestamp="2018-01-14T20:44:14Z" changeset="55441370" uid="61942" user="SomeoneElse">
    <nd ref="1426058697"/>
    <nd ref="5339613564"/>
    <tag k="highway" v="unclassified"/>
    <tag k="name" v="Moor Lane"/>
    <tag k="surface" v="gravel"/>
  </way>
  <way id="553120304" version="1" timestamp="2018-01-14T20:44:14Z" changeset="55441370" uid="61942" user="SomeoneElse">
    <nd ref="5339603731"/>
    <nd ref="1426058694"/>
    <nd ref="5339603742"/>
    <tag k="highway" v="unclassified"/>
    <tag k="name" v="Moor Lane"/>
  </way>
  <way id="717610813" version="1" timestamp="2019-08-23T15:41:45Z" changeset="73674217" uid="4948143" user="doublah">
    <nd ref="6739052879"/>
    <nd ref="6739052880"/>
    <nd ref="1426058332"/>
    <nd ref="6739052881"/>
    <nd ref="6739052882"/>
    <nd ref="6739052883"/>
    <nd ref="6739052884"/>
    <tag k="highway" v="residential"/>
    <tag k="name" v="Watson Close"/>
  </way>
  <way id="915915175" version="1" timestamp="2021-03-11T15:40:24Z" changeset="100851261" uid="5443821" user="◪ Jarv">
    <nd ref="6739052851"/>
    <nd ref="1426058367"/>
    <nd ref="6739052823"/>
    <nd ref="6739052863"/>
    <nd ref="1426058371"/>
    <tag k="highway" v="unclassified"/>
    <tag k="name" v="Trent Lane"/>
  </way>
  <way id="915915177" version="1" timestamp="2021-03-11T15:40:24Z" changeset="100851261" uid="5443821" user="◪ Jarv">
    <nd ref="1426058395"/>
    <nd ref="1426058371"/>
    <tag k="highway" v="residential"/>
    <tag k="name" v="Back Lane"/>
  </way>

</osm>
