<?xml version="1.0" encoding="UTF-8"?>
<osm version="0.6" generator="Overpass API 0.7.62.8 e802775f">
<note>The data included in this document is from www.openstreetmap.org. The data is made available under ODbL.</note>
<meta osm_base="2025-10-23T17:31:43Z" areas="2025-10-23T12:46:58Z"/>

  <node id="282316699" lat="53.0001371" lon="-0.8776661" version="9" timestamp="2025-04-22T09:40:02Z" changeset="165275546" uid="5229644" user="Nathan_A_RF"/>
  <node id="282316897" lat="52.9978677" lon="-0.9039274" version="3" timestamp="2011-02-08T20:14:02Z" changeset="7230295" uid="84075" user="kevjs1982"/>
  <node id="867534328" lat="53.0269060" lon="-0.8843031" version="3" timestamp="2012-02-20T18:09:09Z" changeset="10743049" uid="600015" user="CartogLarry"/>
  <node id="1120448922" lat="53.0192966" lon="-0.8990567" version="8" timestamp="2024-01-01T20:06:52Z" changeset="145774402" uid="165" user="Richard"/>
  <node id="1640839880" lat="53.0149577" lon="-0.9042023" version="2" timestamp="2017-06-03T22:03:32Z" changeset="49230320" uid="6115408" user="LAW3"/>
  <node id="1640949582" lat="52.9978781" lon="-0.9238811" version="3" timestamp="2025-04-21T18:36:24Z" changeset="165253542" uid="5229644" user="Nathan_A_RF"/>
  <node id="1640976767" lat="53.0153910" lon="-0.9039298" version="2" timestamp="2017-06-06T15:03:57Z" changeset="49308077" uid="6115408" user="LAW3"/>
  <node id="4715638754" lat="53.0242036" lon="-0.9031005" version="3" timestamp="2025-03-12T14:37:31Z" changeset="163530825" uid="14117764" user="JonnyW03">
    <tag k="barrier" v="gate"/>
  </node>
  <node id="5840626295" lat="52.9959576" lon="-0.8695722" version="1" timestamp="2018-08-18T23:24:51Z" changeset="61782033" uid="8857" user="philipcullen"/>
  <way id="41523709" version="16" timestamp="2025-04-21T20:17:42Z" changeset="165256891" uid="5229644" user="Nathan_A_RF">
    <nd ref="1120448795"/>
    <nd ref="1120448799"/>
    <nd ref="1120448804"/>
    <nd ref="1120448808"/>
    <nd ref="1120448811"/>
    <nd ref="1120448814"/>
    <nd ref="1120448817"/>
    <nd ref="1120448822"/>
    <nd ref="1120448825"/>
    <nd ref="1120448829"/>
    <nd ref="1120448833"/>
    <nd ref="1120448835"/>
    <nd ref="1120448838"/>
    <nd ref="1120448842"/>
    <nd ref="1120448848"/>
    <nd ref="1120448855"/>
    <nd ref="1120448861"/>
    <nd ref="1120448863"/>
    <nd ref="1136493087"/>
    <nd ref="1120448864"/>
    <nd ref="1120448893"/>
    <nd ref="1120448922"/>
    <tag k="alt_name" v="Foss Way"/>
    <tag k="highway" v="tertiary"/>
    <tag k="lit" v="no"/>
    <tag k="maxspeed" v="60 mph"/>
    <tag k="maxspeed:type" v="GB:nsl_single"/>
    <tag k="name" v="Fosse Road"/>
    <tag k="sidewalk" v="no"/>
    <tag k="source" v="NaPTAN;gps"/>
  </way>
  <way id="60959065" version="11" timestamp="2024-01-12T13:07:55Z" changeset="146180541" uid="1713634" user="b-unicycling">
    <nd ref="282316683"/>
    <nd ref="4894694207"/>
    <nd ref="282316684"/>
    <nd ref="282316903"/>
    <nd ref="2211432865"/>
    <nd ref="2211432871"/>
    <nd ref="2211432880"/>
    <nd ref="7904778966"/>
    <nd ref="2211432925"/>
    <nd ref="6907748283"/>
    <nd ref="2211432893"/>
    <nd ref="282316908"/>
    <nd ref="1136492859"/>
    <nd ref="6905314069"/>
    <nd ref="282316686"/>
    <nd ref="2211432922"/>
    <nd ref="2211432896"/>
    <nd ref="7976268486"/>
    <nd ref="7976268487"/>
    <nd ref="282317130"/>
    <nd ref="2211432899"/>
    <nd ref="1136493276"/>
    <nd ref="2211432911"/>
    <nd ref="282316689"/>
    <nd ref="2211432878"/>
    <nd ref="2211432854"/>
    <nd ref="11510805228"/>
    <nd ref="282316690"/>
    <tag k="highway" v="tertiary"/>
    <tag k="maxspeed" v="30 mph"/>
    <tag k="name" v="Main Street"/>
    <tag k="source" v="GPS"/>
    <tag k="source:maxspeed" v="survey"/>
    <tag k="source:name" v="OS OpenData StreetView"/>
  </way>
  <way id="60959066" version="6" timestamp="2024-01-20T11:34:30Z" changeset="146475290" uid="242345" user="confusedbuffalo">
    <nd ref="282316690"/>
    <nd ref="1142738041"/>
    <nd ref="2211432928"/>
    <tag k="highway" v="tertiary"/>
    <tag k="maxspeed" v="30 mph"/>
    <tag k="name" v="Town End Lane"/>
    <tag k="source:maxspeed" v="survey"/>
    <tag k="source:name" v="OS OpenData StreetView"/>
  </way>
  <way id="96451928" version="8" timestamp="2018-10-17T16:58:43Z" changeset="63617983" uid="111135" user="Pete Owens">
    <nd ref="1117574198"/>
    <nd ref="4894704016"/>
    <nd ref="1117574205"/>
    <nd ref="1117574213"/>
    <nd ref="1165744041"/>
    <nd ref="4894223973"/>
    <nd ref="4894465925"/>
    <nd ref="4892708603"/>
    <nd ref="1117574218"/>
    <nd ref="1117574221"/>
    <nd ref="4894223982"/>
    <nd ref="4894505418"/>
    <nd ref="1117574224"/>
    <nd ref="4894505420"/>
    <nd ref="4894505419"/>
    <nd ref="1117574226"/>
    <nd ref="1117574198"/>
    <tag k="highway" v="residential"/>
    <tag k="maxspeed" v="30 mph"/>
    <tag k="name" v="Coney Grey Spinney"/>
  </way>
  <way id="96451930" version="7" timestamp="2018-10-17T16:58:44Z" changeset="63617983" uid="111135" user="Pete Owens">
    <nd ref="1117574226"/>
    <nd ref="1165743930"/>
    <nd ref="4894505421"/>
    <nd ref="1117574213"/>
    <tag k="highway" v="residential"/>
    <tag k="maxspeed" v="30 mph"/>
    <tag k="name" v="Coney Grey Spinney"/>
    <tag k="source:name" v="OS Open Locator"/>
  </way>
  <way id="96451938" version="3" timestamp="2018-10-17T16:58:43Z" changeset="63617983" uid="111135" user="Pete Owens">
    <nd ref="1117574218"/>
    <nd ref="1117574240"/>
    <tag k="highway" v="residential"/>
    <tag k="maxspeed" v="30 mph"/>
  </way>
  <way id="96759929" version="12" timestamp="2018-10-17T16:58:43Z" changeset="63617983" uid="111135" user="Pete Owens">
    <nd ref="1117574240"/>
    <nd ref="4892743060"/>
    <nd ref="2388473604"/>
    <nd ref="4894497692"/>
    <nd ref="2388473606"/>
    <nd ref="2388473605"/>
    <nd ref="4894497687"/>
    <tag k="highway" v="residential"/>
    <tag k="maxspeed" v="30 mph"/>
    <tag k="source" v="GPS Survey"/>
  </way>
  <way id="98238395" version="7" timestamp="2025-04-22T09:40:02Z" changeset="165275546" uid="5229644" user="Nathan_A_RF">
    <nd ref="282316699"/>
    <nd ref="12775086590"/>
    <nd ref="7305563956"/>
    <nd ref="7305563955"/>
    <nd ref="282316917"/>
    <nd ref="12775086588"/>
    <nd ref="12775086589"/>
    <nd ref="12775086584"/>
    <nd ref="1136492867"/>
    <nd ref="12775086587"/>
    <nd ref="282317135"/>
    <nd ref="282316702"/>
    <nd ref="282317295"/>
    <nd ref="12775086582"/>
    <nd ref="1136492846"/>
    <nd ref="12775086583"/>
    <nd ref="282316704"/>
    <nd ref="282316922"/>
    <nd ref="2294008203"/>
    <nd ref="2211385803"/>
    <nd ref="282316706"/>
    <nd ref="2211385808"/>
    <nd ref="195932612"/>
    <tag k="highway" v="unclassified"/>
    <tag k="maxspeed" v="60 mph"/>
    <tag k="maxspeed:type" v="GB:nsl_single"/>
    <tag k="name" v="Flintham Lane"/>
    <tag k="source:maxspeed" v="survey"/>
    <tag k="source:name" v="OS OpenData StreetView"/>
  </way>
  <way id="98238410" version="2" timestamp="2017-06-03T22:04:49Z" changeset="49230342" uid="6115408" user="LAW3">
    <nd ref="1136492994"/>
    <nd ref="4894434092"/>
    <nd ref="1136493324"/>
    <nd ref="1136493328"/>
    <nd ref="1136492800"/>
    <nd ref="4894434106"/>
    <nd ref="1136492976"/>
    <nd ref="282316679"/>
    <tag k="highway" v="residential"/>
    <tag k="name" v="Inholms Gardens"/>
    <tag k="source" v="bing"/>
    <tag k="source:name" v="OS Open Locator"/>
  </way>
  <way id="98238414" version="3" timestamp="2013-03-20T15:23:27Z" changeset="15433105" uid="84681" user="SK53">
    <nd ref="282316897"/>
    <nd ref="282316898"/>
    <nd ref="282316899"/>
    <nd ref="1136493040"/>
    <nd ref="1136493067"/>
    <nd ref="282316900"/>
    <nd ref="282316902"/>
    <nd ref="1142738038"/>
    <nd ref="282316903"/>
    <tag k="highway" v="unclassified"/>
    <tag k="name" v="Spring Lane"/>
    <tag k="source:name" v="survey"/>
  </way>
  <way id="98238417" version="8" timestamp="2025-10-09T09:15:08Z" changeset="173039381" uid="54831" user="Mex">
    <nd ref="4715638754"/>
    <nd ref="12656699604"/>
    <nd ref="4715638756"/>
    <nd ref="4715638764"/>
    <nd ref="4715638761"/>
    <nd ref="13204485750"/>
    <nd ref="4715638765"/>
    <nd ref="4715638760"/>
    <nd ref="4715638762"/>
    <nd ref="4715638758"/>
    <nd ref="4715638759"/>
    <nd ref="1136493142"/>
    <nd ref="4715638755"/>
    <nd ref="4715639603"/>
    <nd ref="4715638763"/>
    <nd ref="4715638753"/>
    <nd ref="4715638752"/>
    <tag k="highway" v="residential"/>
    <tag k="name" v="Longhedge Lane"/>
  </way>
  <way id="98238422" version="3" timestamp="2019-10-22T11:02:55Z" changeset="76043297" uid="10170569" user="poodoshi">
    <nd ref="1815256952"/>
    <nd ref="1136493335"/>
    <nd ref="1136492988"/>
    <nd ref="1136492886"/>
    <nd ref="1136492787"/>
    <nd ref="1136493036"/>
    <nd ref="6905314071"/>
    <nd ref="1136493174"/>
    <nd ref="1136492859"/>
    <tag k="highway" v="residential"/>
    <tag k="name" v="Wood's Lane"/>
    <tag k="source" v="bing"/>
    <tag k="source:name" v="OS Open Locator"/>
  </way>
  <way id="98238426" version="1" timestamp="2011-02-04T22:34:23Z" changeset="7188076" uid="84075" user="kevjs1982">
    <nd ref="1136493279"/>
    <nd ref="1136492976"/>
    <tag k="highway" v="residential"/>
    <tag k="name" v="Inholms Gardens"/>
    <tag k="source" v="bing"/>
    <tag k="source:name" v="OS Open Locator"/>
  </way>
  <way id="98238428" version="1" timestamp="2011-02-04T22:34:24Z" changeset="7188076" uid="84075" user="kevjs1982">
    <nd ref="1136493301"/>
    <nd ref="1136492994"/>
    <tag k="highway" v="residential"/>
    <tag k="name" v="Inholms Gardens"/>
    <tag k="source" v="bing"/>
    <tag k="source:name" v="OS Open Locator"/>
  </way>
  <way id="98238430" version="4" timestamp="2018-10-17T16:58:44Z" changeset="63617983" uid="111135" user="Pete Owens">
    <nd ref="1117574240"/>
    <nd ref="4894505417"/>
    <nd ref="4894505416"/>
    <nd ref="1117574242"/>
    <nd ref="1117574245"/>
    <nd ref="1117574248"/>
    <tag k="access" v="private"/>
    <tag k="highway" v="residential"/>
    <tag k="maxspeed" v="30 mph"/>
    <tag k="name" v="Oakwood"/>
    <tag k="source:name" v="survey"/>
  </way>
  <way id="100872922" version="2" timestamp="2018-10-17T16:58:44Z" changeset="63617983" uid="111135" user="Pete Owens">
    <nd ref="1165743923"/>
    <nd ref="1165744041"/>
    <tag k="highway" v="residential"/>
    <tag k="maxspeed" v="30 mph"/>
    <tag k="name" v="Woodland Spinney"/>
    <tag k="source:name" v="OS Open Locator"/>
  </way>
  <way id="115023663" version="2" timestamp="2017-06-04T05:39:21Z" changeset="49233751" uid="322785" user="BCNorwich">
    <nd ref="1301274721"/>
    <nd ref="4894694204"/>
    <nd ref="282316683"/>
    <tag k="highway" v="unclassified"/>
    <tag k="source" v="Bing"/>
  </way>
  <way id="115252385" version="6" timestamp="2018-10-17T16:58:43Z" changeset="63617983" uid="111135" user="Pete Owens">
    <nd ref="1302982199"/>
    <nd ref="1302982200"/>
    <tag k="bridge" v="yes"/>
    <tag k="highway" v="tertiary"/>
    <tag k="layer" v="1"/>
    <tag k="lit" v="no"/>
    <tag k="maxspeed" v="40 mph"/>
    <tag k="source" v="GPS Survey"/>
  </way>
  <way id="151261481" version="9" timestamp="2023-09-05T20:57:15Z" changeset="140868593" uid="13341565" user="Falsernet">
    <nd ref="1640808955"/>
    <nd ref="1640808987"/>
    <nd ref="5005876562"/>
    <nd ref="1640808966"/>
    <nd ref="5005876559"/>
    <nd ref="1640808961"/>
    <nd ref="1640808958"/>
    <tag k="bicycle" v="yes"/>
    <tag k="expressway" v="yes"/>
    <tag k="highway" v="trunk_link"/>
    <tag k="lit" v="no"/>
    <tag k="maxspeed" v="70 mph"/>
    <tag k="maxspeed:type" v="GB:nsl_dual"/>
    <tag k="national_highways:area" v="7"/>
    <tag k="oneway" v="yes"/>
    <tag k="operator" v="National Highways"/>
    <tag k="operator:wikidata" v="Q5760006"/>
  </way>
  <way id="151261482" version="7" timestamp="2024-11-07T14:59:14Z" changeset="158859786" uid="5229644" user="Nathan_A_RF">
    <nd ref="1302982190"/>
    <nd ref="3003284049"/>
    <nd ref="1302982191"/>
    <nd ref="1302982192"/>
    <nd ref="1302982193"/>
    <nd ref="1302982194"/>
    <nd ref="1302982195"/>
    <nd ref="1302982196"/>
    <tag k="bicycle" v="yes"/>
    <tag k="highway" v="trunk_link"/>
    <tag k="lit" v="no"/>
    <tag k="maxspeed" v="60 mph"/>
    <tag k="maxspeed:type" v="GB:nsl_single"/>
  </way>
  <way id="151261637" version="5" timestamp="2018-10-17T16:58:42Z" changeset="63617983" uid="111135" user="Pete Owens">
    <nd ref="1136492877"/>
    <nd ref="4894217728"/>
    <nd ref="5993755582"/>
    <nd ref="1640816108"/>
    <nd ref="1640816113"/>
    <nd ref="1640816103"/>
    <nd ref="1640816101"/>
    <nd ref="1640808983"/>
    <nd ref="1302982200"/>
    <tag k="highway" v="tertiary"/>
    <tag k="lit" v="no"/>
    <tag k="maxspeed" v="40 mph"/>
    <tag k="source" v="GPS Survey"/>
  </way>
  <way id="151264330" version="3" timestamp="2018-10-17T16:58:43Z" changeset="63617983" uid="111135" user="Pete Owens">
    <nd ref="1136492877"/>
    <nd ref="1136493300"/>
    <nd ref="1640837791"/>
    <tag k="highway" v="tertiary"/>
    <tag k="maxspeed" v="40 mph"/>
    <tag k="name" v="Inholms Gardens"/>
    <tag k="source" v="bing"/>
    <tag k="source:name" v="OS Open Locator"/>
  </way>
  <way id="151264332" version="7" timestamp="2025-04-21T20:17:42Z" changeset="165256891" uid="5229644" user="Nathan_A_RF">
    <nd ref="1640837791"/>
    <nd ref="12772997357"/>
    <nd ref="12772997356"/>
    <nd ref="282316679"/>
    <nd ref="1274887346"/>
    <nd ref="2211432944"/>
    <nd ref="2211432934"/>
    <nd ref="7145614627"/>
    <nd ref="282316906"/>
    <nd ref="2211432855"/>
    <tag k="highway" v="tertiary"/>
    <tag k="maxspeed" v="60 mph"/>
    <tag k="maxspeed:type" v="GB:nsl_single"/>
    <tag k="name" v="Inholms Road"/>
    <tag k="sidewalk" v="both"/>
    <tag k="source:maxspeed" v="survey"/>
    <tag k="source:name" v="OS OpenData StreetView"/>
  </way>
  <way id="151264584" version="8" timestamp="2023-09-05T20:57:15Z" changeset="140868593" uid="13341565" user="Falsernet">
    <nd ref="1640808958"/>
    <nd ref="1640839870"/>
    <nd ref="1640839873"/>
    <nd ref="1640839876"/>
    <nd ref="1640839878"/>
    <nd ref="1640839880"/>
    <tag k="bicycle" v="yes"/>
    <tag k="expressway" v="yes"/>
    <tag k="highway" v="trunk_link"/>
    <tag k="lit" v="no"/>
    <tag k="maxspeed" v="70 mph"/>
    <tag k="maxspeed:type" v="GB:nsl_dual"/>
    <tag k="national_highways:area" v="7"/>
    <tag k="oneway" v="yes"/>
    <tag k="operator" v="National Highways"/>
    <tag k="operator:wikidata" v="Q5760006"/>
  </way>
  <way id="151264587" version="6" timestamp="2025-04-21T20:17:42Z" changeset="165256891" uid="5229644" user="Nathan_A_RF">
    <nd ref="1640808958"/>
    <nd ref="7308137955"/>
    <nd ref="1640808952"/>
    <nd ref="5005876557"/>
    <nd ref="1640808968"/>
    <nd ref="5005876560"/>
    <nd ref="1640808985"/>
    <nd ref="1640808964"/>
    <nd ref="1640808983"/>
    <tag k="bicycle" v="yes"/>
    <tag k="highway" v="trunk_link"/>
    <tag k="lit" v="no"/>
  </way>
  <way id="151269155" version="17" timestamp="2024-01-23T10:51:35Z" changeset="146587467" uid="84681" user="SK53">
    <nd ref="867534328"/>
    <nd ref="1272527754"/>
    <nd ref="1272527756"/>
    <nd ref="11170470863"/>
    <nd ref="11170470866"/>
    <nd ref="1272527758"/>
    <nd ref="1272527759"/>
    <nd ref="11542539458"/>
    <nd ref="1640742694"/>
    <nd ref="1272527780"/>
    <nd ref="11542539459"/>
    <nd ref="1272527783"/>
    <nd ref="1640742693"/>
    <nd ref="1640742695"/>
    <nd ref="5993757685"/>
    <nd ref="1640808955"/>
    <nd ref="1640839880"/>
    <tag k="bicycle" v="yes"/>
    <tag k="expressway" v="yes"/>
    <tag k="highway" v="trunk"/>
    <tag k="lanes" v="2"/>
    <tag k="lit" v="no"/>
    <tag k="maxspeed" v="70 mph"/>
    <tag k="maxspeed:type" v="GB:nsl_dual"/>
    <tag k="national_highways:area" v="7"/>
    <tag k="oneway" v="yes"/>
    <tag k="operator" v="National Highways"/>
    <tag k="operator:wikidata" v="Q5760006"/>
    <tag k="ref" v="A46"/>
    <tag k="source" v="GPS Survey"/>
    <tag k="surface" v="asphalt"/>
  </way>
  <way id="151278504" version="16" timestamp="2025-07-07T13:52:26Z" changeset="168606840" uid="808803" user="Andidy">
    <nd ref="1640976767"/>
    <nd ref="1640976759"/>
    <nd ref="1640976760"/>
    <nd ref="1640976765"/>
    <nd ref="1640976771"/>
    <nd ref="1640976752"/>
    <nd ref="1640976764"/>
    <nd ref="2579410654"/>
    <nd ref="1640976766"/>
    <nd ref="1640976751"/>
    <nd ref="1640976762"/>
    <nd ref="1640976761"/>
    <nd ref="1640976763"/>
    <tag k="bicycle" v="yes"/>
    <tag k="expressway" v="yes"/>
    <tag k="highway" v="trunk"/>
    <tag k="lanes" v="2"/>
    <tag k="lit" v="no"/>
    <tag k="maxheight:signed" v="no"/>
    <tag k="maxspeed" v="70 mph"/>
    <tag k="maxspeed:type" v="GB:nsl_dual"/>
    <tag k="national_highways:area" v="7"/>
    <tag k="oneway" v="yes"/>
    <tag k="operator" v="National Highways"/>
    <tag k="operator:wikidata" v="Q5760006"/>
    <tag k="ref" v="A46"/>
    <tag k="surface" v="asphalt"/>
  </way>
  <way id="151278505" version="10" timestamp="2023-09-05T20:57:15Z" changeset="140868593" uid="13341565" user="Falsernet">
    <nd ref="1302982196"/>
    <nd ref="4894434776"/>
    <nd ref="1640976738"/>
    <nd ref="1640976770"/>
    <nd ref="1640976744"/>
    <tag k="bicycle" v="yes"/>
    <tag k="expressway" v="yes"/>
    <tag k="highway" v="trunk_link"/>
    <tag k="lanes" v="1"/>
    <tag k="lit" v="no"/>
    <tag k="maxspeed" v="70 mph"/>
    <tag k="maxspeed:type" v="GB:nsl_dual"/>
    <tag k="national_highways:area" v="7"/>
    <tag k="oneway" v="yes"/>
    <tag k="operator" v="National Highways"/>
    <tag k="operator:wikidata" v="Q5760006"/>
  </way>
  <way id="151281834" version="10" timestamp="2023-09-05T20:57:15Z" changeset="140868593" uid="13341565" user="Falsernet">
    <nd ref="1641015031"/>
    <nd ref="1641014999"/>
    <nd ref="1641015035"/>
    <nd ref="1641015029"/>
    <nd ref="1641015033"/>
    <nd ref="1302982196"/>
    <tag k="bicycle" v="yes"/>
    <tag k="expressway" v="yes"/>
    <tag k="highway" v="trunk_link"/>
    <tag k="lanes" v="1"/>
    <tag k="lit" v="no"/>
    <tag k="maxspeed" v="70 mph"/>
    <tag k="maxspeed:type" v="GB:nsl_dual"/>
    <tag k="national_highways:area" v="7"/>
    <tag k="oneway" v="yes"/>
    <tag k="operator" v="National Highways"/>
    <tag k="operator:wikidata" v="Q5760006"/>
    <tag k="shoulder" v="left"/>
  </way>
  <way id="170147545" version="6" timestamp="2022-10-10T18:16:17Z" changeset="127317864" uid="16517305" user="Evan_Cho">
    <nd ref="1302982190"/>
    <nd ref="3003284057"/>
    <nd ref="1302982199"/>
    <tag k="highway" v="tertiary"/>
    <tag k="lit" v="no"/>
    <tag k="maxspeed" v="40 mph"/>
    <tag k="source" v="GPS Survey"/>
  </way>
  <way id="170147546" version="4" timestamp="2020-04-20T12:14:56Z" changeset="83821690" uid="705850" user="Cebderby">
    <nd ref="1120448795"/>
    <nd ref="1811407824"/>
    <tag k="highway" v="tertiary"/>
    <tag k="lit" v="no"/>
    <tag k="maxspeed" v="40 mph"/>
    <tag k="source" v="GPS Survey"/>
  </way>
  <way id="211139051" version="4" timestamp="2020-04-10T15:33:13Z" changeset="83372458" uid="9196089" user="hemasvn">
    <nd ref="2211432855"/>
    <nd ref="282316681"/>
    <nd ref="282317292"/>
    <nd ref="7389792187"/>
    <nd ref="1274887335"/>
    <nd ref="1274887347"/>
    <nd ref="4894694203"/>
    <nd ref="364138124"/>
    <nd ref="4894694202"/>
    <nd ref="2211432888"/>
    <nd ref="4894694206"/>
    <nd ref="4894694205"/>
    <nd ref="282316683"/>
    <tag k="highway" v="tertiary"/>
    <tag k="maxspeed" v="30 mph"/>
    <tag k="name" v="Inholms Road"/>
    <tag k="source:maxspeed" v="survey"/>
    <tag k="source:name" v="OS OpenData StreetView"/>
  </way>
  <way id="211139064" version="6" timestamp="2024-01-12T13:07:55Z" changeset="146180541" uid="1713634" user="b-unicycling">
    <nd ref="2211432928"/>
    <nd ref="8254804998"/>
    <nd ref="11510805221"/>
    <nd ref="282316912"/>
    <nd ref="11510805236"/>
    <nd ref="8733928116"/>
    <nd ref="282316692"/>
    <nd ref="11510805222"/>
    <nd ref="1136492825"/>
    <nd ref="11510805223"/>
    <nd ref="1136492910"/>
    <nd ref="1136492930"/>
    <nd ref="1136493213"/>
    <nd ref="282317294"/>
    <nd ref="282316694"/>
    <nd ref="1136492772"/>
    <nd ref="1136492906"/>
    <nd ref="282316914"/>
    <nd ref="282316915"/>
    <nd ref="1136492897"/>
    <nd ref="7305563954"/>
    <nd ref="282316697"/>
    <nd ref="1136493107"/>
    <nd ref="7305563957"/>
    <nd ref="282317134"/>
    <nd ref="282316699"/>
    <tag k="highway" v="tertiary"/>
    <tag k="name" v="Town End Lane"/>
    <tag k="source:name" v="OS OpenData StreetView"/>
  </way>
  <way id="334363098" version="12" timestamp="2025-04-21T20:17:42Z" changeset="165256891" uid="5229644" user="Nathan_A_RF">
    <nd ref="1120448922"/>
    <nd ref="4715638752"/>
    <nd ref="1136493030"/>
    <nd ref="4715639599"/>
    <nd ref="4715639600"/>
    <nd ref="4715639601"/>
    <nd ref="4715639602"/>
    <nd ref="4715639597"/>
    <nd ref="4715639598"/>
    <nd ref="4715639596"/>
    <nd ref="27045005"/>
    <nd ref="1272527781"/>
    <nd ref="4715639432"/>
    <nd ref="4715639595"/>
    <nd ref="7788422538"/>
    <nd ref="7788422534"/>
    <nd ref="4715639594"/>
    <nd ref="4715639593"/>
    <nd ref="1302982222"/>
    <nd ref="4715639592"/>
    <nd ref="7907392064"/>
    <nd ref="4715639591"/>
    <nd ref="27045004"/>
    <nd ref="6903229795"/>
    <nd ref="5005876558"/>
    <nd ref="5005876556"/>
    <nd ref="5005876561"/>
    <nd ref="5005876555"/>
    <nd ref="5005876554"/>
    <nd ref="2388465630"/>
    <tag k="alt_name" v="Foss Way"/>
    <tag k="highway" v="tertiary"/>
    <tag k="lit" v="no"/>
    <tag k="maxspeed" v="60 mph"/>
    <tag k="maxspeed:type" v="GB:nsl_single"/>
    <tag k="name" v="Fosse Road"/>
    <tag k="sidewalk" v="no"/>
    <tag k="source" v="NaPTAN;gps"/>
    <tag k="traffic_restriction" v="no_stopping"/>
  </way>
  <way id="497752959" version="2" timestamp="2017-06-03T18:40:52Z" changeset="49226704" uid="6115408" user="LAW3">
    <nd ref="4892702408"/>
    <nd ref="4892702409"/>
    <nd ref="4892702410"/>
    <nd ref="4892702411"/>
    <nd ref="4892702408"/>
    <tag k="building" v="yes"/>
    <tag k="name" v="Flintham Pavilion"/>
  </way>
  <way id="497924194" version="4" timestamp="2024-01-20T00:12:22Z" changeset="146461970" uid="13445" user="zorque">
    <nd ref="4894207730"/>
    <nd ref="4894207731"/>
    <nd ref="4894207732"/>
    <nd ref="4894207733"/>
    <nd ref="4894207734"/>
    <nd ref="4894207735"/>
    <nd ref="4894207736"/>
    <nd ref="4894207737"/>
    <nd ref="4894207730"/>
    <tag k="addr:city" v="Newark"/>
    <tag k="addr:housenumber" v="2"/>
    <tag k="addr:postcode" v="NG23 5LG"/>
    <tag k="addr:street" v="Inholms Road"/>
    <tag k="addr:suburb" v="Flintham"/>
    <tag k="amenity" v="community_centre"/>
    <tag k="building" v="public"/>
    <tag k="community_centre" v="village_hall"/>
    <tag k="name" v="Flintham Village Hall"/>
    <tag k="website" v="http://www.flinthamvillage.co.uk/"/>
  </way>
  <way id="497924496" version="3" timestamp="2021-08-18T16:02:21Z" changeset="109884447" uid="9838310" user="BradleySans">
    <nd ref="4894209962"/>
    <nd ref="4894209963"/>
    <nd ref="4894209964"/>
    <nd ref="4894209965"/>
    <nd ref="4894209962"/>
    <tag k="building" v="yes"/>
    <tag k="name" v="Flintham Village Shop"/>
    <tag k="shop" v="convenience"/>
  </way>
  <way id="497934949" version="3" timestamp="2017-06-14T06:02:19Z" changeset="49518356" uid="322785" user="BCNorwich">
    <nd ref="1811407828"/>
    <nd ref="4894304803"/>
    <nd ref="4894316019"/>
    <nd ref="4894304805"/>
    <nd ref="1640837791"/>
    <tag k="access" v="permissive"/>
    <tag k="bicycle" v="yes"/>
    <tag k="foot" v="yes"/>
    <tag k="highway" v="unclassified"/>
    <tag k="name" v="Inholms Road"/>
  </way>
  <way id="497938274" version="7" timestamp="2024-11-17T15:13:51Z" changeset="159247079" uid="95856" user="⇄ john paul jones &amp; gringo">
    <nd ref="4894332969"/>
    <nd ref="4894723886"/>
    <nd ref="4894723887"/>
    <nd ref="4894723888"/>
    <nd ref="2211432841"/>
    <nd ref="2211432843"/>
    <nd ref="2211432956"/>
    <nd ref="4894723882"/>
    <nd ref="1301274719"/>
    <nd ref="4894723881"/>
    <nd ref="4894723880"/>
    <nd ref="4894723883"/>
    <nd ref="2211432800"/>
    <nd ref="4894332972"/>
    <nd ref="4894332973"/>
    <nd ref="4894332974"/>
    <nd ref="4894723884"/>
    <nd ref="4894332969"/>
    <tag k="addr:city" v="Newark"/>
    <tag k="addr:country" v="GB"/>
    <tag k="addr:postcode" v="NG23 5LA"/>
    <tag k="addr:street" v="Main Street"/>
    <tag k="addr:suburb" v="Flintham"/>
    <tag k="amenity" v="pub"/>
    <tag k="building" v="yes"/>
    <tag k="fhrs:id" v="1587322"/>
    <tag k="name" v="Boot and Shoe Inn"/>
    <tag k="source" v="survey"/>
    <tag k="source:name" v="survey"/>
  </way>
  <way id="497947677" version="2" timestamp="2022-07-27T03:06:32Z" changeset="124118158" uid="10219386" user="bathines">
    <nd ref="4894434777"/>
    <nd ref="1136492992"/>
    <nd ref="1136492994"/>
    <nd ref="1136493134"/>
    <nd ref="9913627317"/>
    <tag k="highway" v="residential"/>
    <tag k="name" v="Inholms Gardens"/>
    <tag k="source" v="bing"/>
    <tag k="source:name" v="OS Open Locator"/>
  </way>
  <way id="497948218" version="3" timestamp="2019-03-06T17:30:28Z" changeset="67852629" uid="9451067" user="b-jazz-bot">
    <nd ref="4894438356"/>
    <nd ref="4894438357"/>
    <nd ref="4892723700"/>
    <nd ref="4894438359"/>
    <nd ref="4894438356"/>
    <tag k="amenity" v="scout_hall"/>
    <tag k="building" v="yes"/>
    <tag k="fixme" v="Approximate position, needs local knowledge"/>
    <tag k="name" v="1st Flintham Scout Group"/>
    <tag k="website" v="https://flinthamscouts.org.uk/"/>
  </way>
  <way id="497950319" version="2" timestamp="2017-06-03T23:13:25Z" changeset="49231049" uid="6115408" user="LAW3">
    <nd ref="4894259200"/>
    <nd ref="4894437483"/>
    <nd ref="4894437484"/>
    <nd ref="4894497679"/>
    <nd ref="4894259200"/>
    <tag k="building" v="yes"/>
    <tag k="name" v="LAW3"/>
    <tag k="office" v="it"/>
  </way>
  <way id="617892995" version="2" timestamp="2025-04-22T09:40:02Z" changeset="165275546" uid="5229644" user="Nathan_A_RF">
    <nd ref="5840626295"/>
    <nd ref="2295077322"/>
    <nd ref="282318000"/>
    <nd ref="2295077321"/>
    <nd ref="2295077320"/>
    <nd ref="282318001"/>
    <nd ref="282318003"/>
    <nd ref="12775086592"/>
    <nd ref="12775086591"/>
    <nd ref="282316699"/>
    <tag k="highway" v="tertiary"/>
    <tag k="name" v="Longhedge Lane"/>
    <tag k="source:name" v="OS OpenData StreetView"/>
  </way>
  <way id="635386933" version="2" timestamp="2025-03-11T10:54:55Z" changeset="163479374" uid="14117764" user="JonnyW03">
    <nd ref="4894497687"/>
    <nd ref="1120448728"/>
    <nd ref="1120448741"/>
    <nd ref="1120448746"/>
    <nd ref="12652077011"/>
    <nd ref="1120448755"/>
    <nd ref="12652077010"/>
    <nd ref="1120448760"/>
    <nd ref="12652077007"/>
    <nd ref="12652077008"/>
    <nd ref="12652077009"/>
    <nd ref="1120448788"/>
    <nd ref="1120448795"/>
    <tag k="highway" v="residential"/>
    <tag k="maxspeed" v="40 mph"/>
    <tag k="source" v="GPS Survey"/>
  </way>
  <way id="737542535" version="1" timestamp="2019-10-22T11:02:55Z" changeset="76043297" uid="10170569" user="poodoshi">
    <nd ref="6905314071"/>
    <nd ref="6905314072"/>
    <tag k="highway" v="residential"/>
  </way>
  <way id="881276413" version="2" timestamp="2024-11-17T15:13:51Z" changeset="159247079" uid="95856" user="⇄ john paul jones &amp; gringo">
    <nd ref="2211434919"/>
    <nd ref="8196432365"/>
    <nd ref="8196432361"/>
    <nd ref="8196432360"/>
    <nd ref="2211434919"/>
    <tag k="addr:city" v="Newark"/>
    <tag k="addr:country" v="GB"/>
    <tag k="addr:postcode" v="NG23 5LE"/>
    <tag k="addr:suburb" v="Flintham"/>
    <tag k="amenity" v="place_of_worship"/>
    <tag k="building" v="church"/>
    <tag k="denomination" v="anglican"/>
    <tag k="name" v="St Augustine of Canterbury"/>
    <tag k="religion" v="christian"/>
    <tag k="source" v="Bing"/>
    <tag k="wikidata" v="Q17528024"/>
  </way>
  <way id="1093170555" version="5" timestamp="2025-07-07T13:51:37Z" changeset="168606652" uid="808803" user="Andidy">
    <nd ref="1640949582"/>
    <nd ref="12772863757"/>
    <nd ref="12772863756"/>
    <nd ref="1640949584"/>
    <nd ref="1640949565"/>
    <nd ref="1640949611"/>
    <nd ref="2579410643"/>
    <nd ref="1640949586"/>
    <nd ref="2579410648"/>
    <nd ref="1640949605"/>
    <nd ref="1640949572"/>
    <nd ref="6421654025"/>
    <nd ref="6421654031"/>
    <nd ref="1640949569"/>
    <nd ref="1641015031"/>
    <nd ref="1640976744"/>
    <nd ref="1640976767"/>
    <tag k="bicycle" v="yes"/>
    <tag k="expressway" v="yes"/>
    <tag k="highway" v="trunk"/>
    <tag k="lanes" v="2"/>
    <tag k="lit" v="no"/>
    <tag k="maxheight:signed" v="no"/>
    <tag k="maxspeed" v="70 mph"/>
    <tag k="maxspeed:type" v="GB:nsl_dual"/>
    <tag k="national_highways:area" v="7"/>
    <tag k="oneway" v="yes"/>
    <tag k="operator" v="National Highways"/>
    <tag k="operator:wikidata" v="Q5760006"/>
    <tag k="ref" v="A46"/>
    <tag k="source" v="GPS Survey"/>
    <tag k="surface" v="asphalt"/>
  </way>
  <way id="1102681161" version="1" timestamp="2022-10-10T18:16:17Z" changeset="127317864" uid="16517305" user="Evan_Cho">
    <nd ref="1811407824"/>
    <nd ref="1302982190"/>
    <tag k="highway" v="tertiary"/>
    <tag k="lit" v="no"/>
    <tag k="maxspeed" v="40 mph"/>
    <tag k="source" v="GPS Survey"/>
  </way>
  <way id="1366194392" version="1" timestamp="2025-03-11T10:38:42Z" changeset="163478710" uid="14117764" user="JonnyW03">
    <nd ref="12652052766"/>
    <nd ref="12652052767"/>
    <nd ref="12652052768"/>
    <nd ref="12652052769"/>
    <nd ref="12652052763"/>
    <nd ref="12652054722"/>
    <nd ref="12652052764"/>
    <nd ref="12652052770"/>
    <nd ref="12652052771"/>
    <nd ref="12652052772"/>
    <nd ref="12652052773"/>
    <nd ref="12652052765"/>
    <nd ref="12652054718"/>
    <nd ref="12652052762"/>
    <nd ref="12652052766"/>
    <tag k="building" v="yes"/>
    <tag k="military" v="office"/>
    <tag k="name" v="№ 2 Flying Training School"/>
  </way>
  <way id="1379392899" version="2" timestamp="2025-07-07T13:51:44Z" changeset="168606652" uid="808803" user="Andidy">
    <nd ref="1640839880"/>
    <nd ref="1640742696"/>
    <nd ref="6421654023"/>
    <nd ref="6421654024"/>
    <nd ref="1640745517"/>
    <nd ref="1640745510"/>
    <nd ref="1640745522"/>
    <nd ref="1640745518"/>
    <nd ref="1640745519"/>
    <nd ref="1640745520"/>
    <nd ref="12772863755"/>
    <nd ref="12772863758"/>
    <tag k="bicycle" v="yes"/>
    <tag k="expressway" v="yes"/>
    <tag k="highway" v="trunk"/>
    <tag k="lanes" v="2"/>
    <tag k="lit" v="no"/>
    <tag k="maxheight:signed" v="no"/>
    <tag k="maxspeed" v="70 mph"/>
    <tag k="maxspeed:type" v="GB:nsl_dual"/>
    <tag k="national_highways:area" v="7"/>
    <tag k="oneway" v="yes"/>
    <tag k="operator" v="National Highways"/>
    <tag k="operator:wikidata" v="Q5760006"/>
    <tag k="ref" v="A46"/>
    <tag k="source" v="GPS Survey"/>
    <tag k="surface" v="asphalt"/>
  </way>

</osm>
