<?xml version="1.0" encoding="UTF-8"?>
<osm version="0.6" generator="Overpass API 0.7.62.8 e802775f">
<note>The data included in this document is from www.openstreetmap.org. The data is made available under ODbL.</note>
<meta osm_base="2025-10-23T17:27:27Z" areas="2025-10-23T12:46:58Z"/>

  <node id="390288924" lat="52.8363962" lon="-1.1035458" version="1" timestamp="2009-05-04T11:30:18Z" changeset="1072883" uid="84681" user="SK53"/>
  <node id="702431967" lat="52.8335847" lon="-1.1238210" version="3" timestamp="2013-03-03T22:44:40Z" changeset="15240759" uid="207845" user="will_p"/>
  <node id="791167072" lat="52.8203197" lon="-1.1050812" version="3" timestamp="2017-06-19T11:42:35Z" changeset="49664669" uid="1431482" user="JonOrchard"/>
  <way id="34059297" version="14" timestamp="2022-05-30T14:30:34Z" changeset="121721735" uid="12924534" user="Stephen Shanks">
    <nd ref="9782291202"/>
    <nd ref="4924168854"/>
    <nd ref="324780231"/>
    <nd ref="4924168856"/>
    <nd ref="4924168857"/>
    <nd ref="324780232"/>
    <nd ref="4924168858"/>
    <nd ref="1198254163"/>
    <nd ref="4924168863"/>
    <nd ref="4924168859"/>
    <nd ref="4924168860"/>
    <nd ref="324780233"/>
    <nd ref="4924168861"/>
    <nd ref="4924168862"/>
    <nd ref="324780234"/>
    <nd ref="791167072"/>
    <tag k="highway" v="tertiary"/>
    <tag k="name" v="Wymeswold Road"/>
    <tag k="source:name" v="OS OpenData StreetView"/>
  </way>
  <way id="55955740" version="11" timestamp="2024-01-19T19:32:09Z" changeset="146455440" uid="242345" user="confusedbuffalo">
    <nd ref="702431967"/>
    <nd ref="702432015"/>
    <nd ref="256318070"/>
    <nd ref="4889442790"/>
    <nd ref="4889442801"/>
    <nd ref="3973456495"/>
    <nd ref="324780510"/>
    <nd ref="3973456494"/>
    <nd ref="3973456492"/>
    <nd ref="3973456493"/>
    <nd ref="256318072"/>
    <nd ref="3973456491"/>
    <nd ref="3973456488"/>
    <nd ref="3973456490"/>
    <nd ref="702432019"/>
    <nd ref="8831978215"/>
    <nd ref="3973456489"/>
    <nd ref="4924070490"/>
    <nd ref="3973456487"/>
    <nd ref="702432021"/>
    <nd ref="3973456486"/>
    <nd ref="702432023"/>
    <nd ref="256318075"/>
    <nd ref="702432030"/>
    <nd ref="702432035"/>
    <nd ref="8761796283"/>
    <nd ref="3973456485"/>
    <nd ref="702432037"/>
    <nd ref="1199077967"/>
    <nd ref="256318077"/>
    <nd ref="702432049"/>
    <nd ref="3973456484"/>
    <nd ref="702432054"/>
    <nd ref="2385309563"/>
    <nd ref="2385309564"/>
    <nd ref="4128329737"/>
    <nd ref="702432061"/>
    <nd ref="2385309562"/>
    <nd ref="2385309560"/>
    <nd ref="2385309561"/>
    <nd ref="256318079"/>
    <nd ref="2385309559"/>
    <nd ref="2385309558"/>
    <nd ref="702432069"/>
    <nd ref="2385309557"/>
    <nd ref="4128329738"/>
    <tag k="highway" v="tertiary"/>
    <tag k="maxspeed" v="60 mph"/>
    <tag k="maxspeed:type" v="GB:nsl_single"/>
    <tag k="name" v="Costock Road"/>
    <tag k="source:name" v="survey"/>
  </way>
  <way id="64224144" version="17" timestamp="2023-06-24T08:30:24Z" changeset="137713181" uid="242345" user="confusedbuffalo">
    <nd ref="791167072"/>
    <nd ref="4924178382"/>
    <nd ref="4924178383"/>
    <nd ref="324780235"/>
    <nd ref="4924178384"/>
    <nd ref="4924178385"/>
    <nd ref="2335286165"/>
    <nd ref="324780236"/>
    <nd ref="3974665038"/>
    <nd ref="4924186422"/>
    <nd ref="3974665039"/>
    <nd ref="3974665040"/>
    <nd ref="324780237"/>
    <nd ref="3974665042"/>
    <nd ref="3974665041"/>
    <nd ref="3974665043"/>
    <nd ref="3974665044"/>
    <nd ref="324780239"/>
    <nd ref="324780240"/>
    <nd ref="3974665045"/>
    <nd ref="324780241"/>
    <nd ref="324780242"/>
    <nd ref="2031569294"/>
    <nd ref="3974707732"/>
    <nd ref="1198254225"/>
    <nd ref="3974707734"/>
    <nd ref="324780243"/>
    <nd ref="3974707733"/>
    <nd ref="2031569323"/>
    <nd ref="8290107361"/>
    <nd ref="324780244"/>
    <nd ref="324780245"/>
    <nd ref="3425084552"/>
    <nd ref="7987886636"/>
    <nd ref="3424499202"/>
    <nd ref="3423787312"/>
    <tag k="highway" v="tertiary"/>
    <tag k="maxspeed" v="60 mph"/>
    <tag k="maxspeed:type" v="GB:nsl_single"/>
    <tag k="name" v="Wysall Lane"/>
    <tag k="source:maxspeed" v="survey"/>
  </way>
  <way id="103797940" version="4" timestamp="2022-05-30T14:30:34Z" changeset="121721735" uid="12924534" user="Stephen Shanks">
    <nd ref="324780234"/>
    <nd ref="4924168881"/>
    <nd ref="4924168882"/>
    <nd ref="4924168883"/>
    <nd ref="4924168884"/>
    <nd ref="4924168885"/>
    <nd ref="1198290299"/>
    <nd ref="4924168886"/>
    <nd ref="4924168887"/>
    <nd ref="4924168888"/>
    <nd ref="4924168889"/>
    <nd ref="1198290286"/>
    <nd ref="9782291193"/>
    <tag k="highway" v="unclassified"/>
  </way>
  <way id="501680402" version="2" timestamp="2018-12-20T07:18:49Z" changeset="65632098" uid="364" user="Edward">
    <nd ref="4924168905"/>
    <nd ref="4924168906"/>
    <nd ref="4924168907"/>
    <nd ref="4924168908"/>
    <nd ref="4924168905"/>
    <tag k="building" v="yes"/>
    <tag k="name" v="Church Site Farm"/>
    <tag k="wikidata" v="Q26535211"/>
  </way>
  <way id="1012455378" version="1" timestamp="2021-12-15T13:11:04Z" changeset="114964421" uid="1431482" user="JonOrchard">
    <nd ref="9340632567"/>
    <nd ref="9340632568"/>
    <nd ref="9340632569"/>
    <nd ref="9340632570"/>
    <nd ref="9340632571"/>
    <nd ref="9340632572"/>
    <nd ref="9340632573"/>
    <nd ref="9340632596"/>
    <nd ref="9340632591"/>
    <nd ref="9340632574"/>
    <nd ref="9340632575"/>
    <nd ref="9340632576"/>
    <nd ref="9340632577"/>
    <nd ref="9340632578"/>
    <nd ref="9340632579"/>
    <nd ref="9340632567"/>
    <tag k="building" v="house"/>
    <tag k="name" v="Thorpe Lodge Farm"/>
  </way>
  <way id="1065191035" version="1" timestamp="2022-05-30T14:30:34Z" changeset="121721735" uid="12924534" user="Stephen Shanks">
    <nd ref="9782291192"/>
    <nd ref="1198290284"/>
    <nd ref="1198290288"/>
    <nd ref="4924168891"/>
    <nd ref="4924168890"/>
    <nd ref="4924168892"/>
    <nd ref="4924168893"/>
    <nd ref="330546127"/>
    <nd ref="8273273804"/>
    <nd ref="4924168894"/>
    <nd ref="1198290290"/>
    <tag k="highway" v="unclassified"/>
  </way>
  <way id="1065191036" version="1" timestamp="2022-05-30T14:30:34Z" changeset="121721735" uid="12924534" user="Stephen Shanks">
    <nd ref="9782291193"/>
    <nd ref="9782291192"/>
    <tag k="bridge" v="yes"/>
    <tag k="highway" v="unclassified"/>
    <tag k="layer" v="1"/>
  </way>
  <way id="1065191041" version="1" timestamp="2022-05-30T14:30:34Z" changeset="121721735" uid="12924534" user="Stephen Shanks">
    <nd ref="390288924"/>
    <nd ref="324780221"/>
    <nd ref="324780222"/>
    <nd ref="2385310400"/>
    <nd ref="2385310402"/>
    <nd ref="702431991"/>
    <nd ref="4924130046"/>
    <nd ref="9782291199"/>
    <tag k="highway" v="tertiary"/>
    <tag k="name" v="Wymeswold Road"/>
    <tag k="source:name" v="OS OpenData StreetView"/>
  </way>
  <way id="1065191042" version="1" timestamp="2022-05-30T14:30:34Z" changeset="121721735" uid="12924534" user="Stephen Shanks">
    <nd ref="9782291199"/>
    <nd ref="9782291198"/>
    <tag k="bridge" v="yes"/>
    <tag k="highway" v="tertiary"/>
    <tag k="layer" v="1"/>
    <tag k="name" v="Wymeswold Road"/>
    <tag k="source:name" v="OS OpenData StreetView"/>
  </way>
  <way id="1065191043" version="1" timestamp="2022-05-30T14:30:34Z" changeset="121721735" uid="12924534" user="Stephen Shanks">
    <nd ref="9782291198"/>
    <nd ref="702431992"/>
    <nd ref="1198254167"/>
    <nd ref="2385310404"/>
    <nd ref="324780223"/>
    <nd ref="2385310406"/>
    <nd ref="2385310408"/>
    <nd ref="2385310410"/>
    <nd ref="324780224"/>
    <nd ref="8973864746"/>
    <nd ref="2385310411"/>
    <nd ref="324780225"/>
    <nd ref="1198297390"/>
    <nd ref="324780226"/>
    <nd ref="2335286176"/>
    <nd ref="9782291201"/>
    <tag k="highway" v="tertiary"/>
    <tag k="name" v="Wymeswold Road"/>
    <tag k="source:name" v="OS OpenData StreetView"/>
  </way>
  <way id="1065191044" version="1" timestamp="2022-05-30T14:30:34Z" changeset="121721735" uid="12924534" user="Stephen Shanks">
    <nd ref="9782291201"/>
    <nd ref="9782291200"/>
    <tag k="bridge" v="yes"/>
    <tag k="highway" v="tertiary"/>
    <tag k="layer" v="1"/>
    <tag k="name" v="Wymeswold Road"/>
    <tag k="source:name" v="OS OpenData StreetView"/>
  </way>
  <way id="1065191045" version="1" timestamp="2022-05-30T14:30:34Z" changeset="121721735" uid="12924534" user="Stephen Shanks">
    <nd ref="9782291200"/>
    <nd ref="324780227"/>
    <nd ref="2335286167"/>
    <nd ref="8095883369"/>
    <nd ref="8095883367"/>
    <nd ref="324780228"/>
    <nd ref="4924168851"/>
    <nd ref="4924168852"/>
    <nd ref="4924168853"/>
    <nd ref="324780230"/>
    <nd ref="4924168855"/>
    <nd ref="9782291203"/>
    <tag k="highway" v="tertiary"/>
    <tag k="name" v="Wymeswold Road"/>
    <tag k="source:name" v="OS OpenData StreetView"/>
  </way>
  <way id="1065191046" version="1" timestamp="2022-05-30T14:30:34Z" changeset="121721735" uid="12924534" user="Stephen Shanks">
    <nd ref="9782291203"/>
    <nd ref="9782291202"/>
    <tag k="bridge" v="yes"/>
    <tag k="highway" v="tertiary"/>
    <tag k="layer" v="1"/>
    <tag k="name" v="Wymeswold Road"/>
    <tag k="source:name" v="OS OpenData StreetView"/>
  </way>

</osm>
