<?xml version="1.0" encoding="UTF-8"?>
<osm version="0.6" generator="Overpass API 0.7.62.8 e802775f">
<note>The data included in this document is from www.openstreetmap.org. The data is made available under ODbL.</note>
<meta osm_base="2025-10-23T17:28:33Z" areas="2025-10-23T14:54:58Z"/>

  <node id="36428813" lat="52.8691218" lon="-1.0742449" version="4" timestamp="2015-07-13T23:09:27Z" changeset="32616299" uid="207845" user="will_p"/>
  <node id="36428817" lat="52.8722626" lon="-1.0719855" version="4" timestamp="2015-07-13T23:09:27Z" changeset="32616299" uid="207845" user="will_p"/>
  <node id="324399068" lat="52.8538920" lon="-1.0467931" version="4" timestamp="2016-04-17T22:17:55Z" changeset="38653385" uid="207845" user="will_p"/>
  <node id="390303494" lat="52.8612599" lon="-1.0710267" version="2" timestamp="2013-01-13T16:55:09Z" changeset="14637171" uid="207845" user="will_p"/>
  <node id="390310341" lat="52.8824870" lon="-1.0472499" version="3" timestamp="2014-07-17T19:49:41Z" changeset="24208361" uid="1431482" user="JonOrchard"/>
  <node id="1199241903" lat="52.8808318" lon="-1.0595598" version="4" timestamp="2016-03-12T20:33:38Z" changeset="37789883" uid="84681" user="SK53"/>
  <node id="1203890296" lat="52.8579541" lon="-1.0316632" version="4" timestamp="2017-07-31T22:02:12Z" changeset="50733060" uid="5296090" user="TR42"/>
  <node id="1524656878" lat="52.9181323" lon="-1.0093998" version="4" timestamp="2022-12-16T15:41:47Z" changeset="130161494" uid="24119" user="Mauls"/>
  <node id="1638500833" lat="52.8675331" lon="-1.0294185" version="5" timestamp="2017-07-31T21:49:53Z" changeset="50733060" uid="5296090" user="TR42">
    <tag k="exit_to" v="Kinoulton"/>
    <tag k="highway" v="motorway_junction"/>
    <tag k="name" v="Roehoe"/>
    <tag k="source:name" v="survey"/>
  </node>
  <node id="1638500839" lat="52.8665284" lon="-1.0297119" version="3" timestamp="2017-07-31T21:49:53Z" changeset="50733060" uid="5296090" user="TR42"/>
  <node id="1638514646" lat="52.8680613" lon="-1.0296463" version="3" timestamp="2013-05-13T19:58:25Z" changeset="16116083" uid="1431482" user="JonOrchard"/>
  <node id="1638514652" lat="52.8671588" lon="-1.0287229" version="4" timestamp="2021-03-17T19:42:19Z" changeset="101210705" uid="1983103" user="Jorisbo"/>
  <node id="2109163311" lat="52.8689936" lon="-1.0740275" version="2" timestamp="2015-07-13T23:09:22Z" changeset="32616299" uid="207845" user="will_p"/>
  <node id="2296841735" lat="52.8674486" lon="-1.0455614" version="2" timestamp="2014-07-17T19:51:57Z" changeset="24208411" uid="1431482" user="JonOrchard"/>
  <node id="8529717784" lat="52.8671886" lon="-1.0289784" version="2" timestamp="2025-03-27T18:17:00Z" changeset="164176628" uid="5229644" user="Nathan_A_RF"/>
  <node id="12771091196" lat="52.8661092" lon="-1.0721568" version="1" timestamp="2025-04-20T22:11:25Z" changeset="165214032" uid="22685556" user="AH9999"/>
  <way id="5206536" version="16" timestamp="2021-08-23T10:14:35Z" changeset="110106091" uid="10127749" user="nbhiss">
    <nd ref="36428817"/>
    <nd ref="3649763035"/>
    <nd ref="3649762994"/>
    <nd ref="9028376492"/>
    <nd ref="9028376488"/>
    <nd ref="36428818"/>
    <nd ref="3649762936"/>
    <nd ref="6453564847"/>
    <nd ref="324399161"/>
    <nd ref="3649762737"/>
    <nd ref="3253741586"/>
    <nd ref="390292570"/>
    <nd ref="324399160"/>
    <nd ref="7528087321"/>
    <nd ref="3649762640"/>
    <nd ref="8256720257"/>
    <tag k="highway" v="tertiary"/>
    <tag k="lit" v="yes"/>
    <tag k="maxspeed" v="30 mph"/>
    <tag k="name" v="Stanton Lane"/>
    <tag k="sidewalk" v="right"/>
    <tag k="source" v="GPS"/>
    <tag k="surface" v="asphalt"/>
    <tag k="verge" v="left"/>
  </way>
  <way id="29434479" version="11" timestamp="2019-10-14T13:40:22Z" changeset="75668644" uid="9310280" user="rsakunth">
    <nd ref="324399068"/>
    <nd ref="324399149"/>
    <nd ref="324399150"/>
    <nd ref="4923928954"/>
    <nd ref="2026098778"/>
    <nd ref="3804073241"/>
    <nd ref="2026098780"/>
    <nd ref="3804073240"/>
    <nd ref="2305970020"/>
    <nd ref="2312455122"/>
    <nd ref="2026098781"/>
    <nd ref="2026098782"/>
    <nd ref="4923928952"/>
    <nd ref="324399151"/>
    <nd ref="4923928953"/>
    <nd ref="324399152"/>
    <nd ref="4923928951"/>
    <nd ref="4923928950"/>
    <nd ref="2370317918"/>
    <nd ref="324399153"/>
    <nd ref="2312471116"/>
    <nd ref="2312471118"/>
    <nd ref="6878336042"/>
    <nd ref="324399154"/>
    <nd ref="2370309033"/>
    <nd ref="324399155"/>
    <nd ref="2370309031"/>
    <nd ref="2370309030"/>
    <nd ref="324399156"/>
    <nd ref="324399157"/>
    <nd ref="324399158"/>
    <nd ref="5522390517"/>
    <nd ref="324399159"/>
    <tag k="highway" v="unclassified"/>
    <tag k="name" v="Thurlby Lane"/>
    <tag k="source:name" v="survey"/>
  </way>
  <way id="29434481" version="17" timestamp="2024-01-19T19:32:09Z" changeset="146455440" uid="242345" user="confusedbuffalo">
    <nd ref="324399159"/>
    <nd ref="3649752109"/>
    <nd ref="2370308860"/>
    <nd ref="2370308859"/>
    <nd ref="5521249775"/>
    <nd ref="4008190639"/>
    <nd ref="4008190636"/>
    <nd ref="2370308857"/>
    <nd ref="3649752114"/>
    <nd ref="2370308858"/>
    <nd ref="324399177"/>
    <nd ref="2373086543"/>
    <nd ref="2373086577"/>
    <nd ref="4170961323"/>
    <nd ref="2373086565"/>
    <nd ref="2370308856"/>
    <nd ref="3102560101"/>
    <nd ref="4008190644"/>
    <nd ref="4008190650"/>
    <nd ref="4008190646"/>
    <nd ref="324399178"/>
    <nd ref="4008190648"/>
    <nd ref="4008190641"/>
    <nd ref="2370308853"/>
    <nd ref="2370308854"/>
    <nd ref="2370308855"/>
    <nd ref="4008190652"/>
    <nd ref="390291623"/>
    <nd ref="4008190656"/>
    <nd ref="2370308852"/>
    <nd ref="324399179"/>
    <nd ref="2370308851"/>
    <nd ref="2370308850"/>
    <nd ref="5521249784"/>
    <nd ref="2370308849"/>
    <nd ref="324399181"/>
    <nd ref="3378362194"/>
    <tag k="highway" v="tertiary"/>
    <tag k="lit" v="no"/>
    <tag k="maxspeed" v="60 mph"/>
    <tag k="maxspeed:type" v="GB:nsl_single"/>
    <tag k="name" v="Browns Lane"/>
    <tag k="sidewalk" v="right"/>
    <tag k="source" v="GPS"/>
    <tag k="source:name" v="survey"/>
  </way>
  <way id="34059836" version="6" timestamp="2019-10-16T13:38:14Z" changeset="75782616" uid="10252539" user="shravyp">
    <nd ref="390292570"/>
    <nd ref="6885946009"/>
    <nd ref="3649762756"/>
    <nd ref="4129054471"/>
    <nd ref="390292669"/>
    <nd ref="4129054483"/>
    <tag k="highway" v="unclassified"/>
    <tag k="name" v="Golf Course Road"/>
    <tag k="source" v="NPE;survey"/>
  </way>
  <way id="34060697" version="14" timestamp="2023-06-23T09:42:18Z" changeset="137680912" uid="242345" user="confusedbuffalo">
    <nd ref="390303494"/>
    <nd ref="315749991"/>
    <nd ref="2070582286"/>
    <nd ref="3975922932"/>
    <nd ref="1198954795"/>
    <nd ref="2109163226"/>
    <nd ref="315749993"/>
    <nd ref="2109163166"/>
    <nd ref="315749994"/>
    <nd ref="2109163163"/>
    <nd ref="4923903627"/>
    <nd ref="315749995"/>
    <nd ref="2109163161"/>
    <nd ref="315749997"/>
    <nd ref="1138733358"/>
    <nd ref="315749998"/>
    <nd ref="390303313"/>
    <nd ref="315749999"/>
    <nd ref="4129009407"/>
    <nd ref="2109163153"/>
    <nd ref="4129009399"/>
    <nd ref="315750000"/>
    <nd ref="1198960006"/>
    <nd ref="4129009355"/>
    <nd ref="2109163140"/>
    <nd ref="315750001"/>
    <nd ref="4129009337"/>
    <nd ref="3378391618"/>
    <nd ref="2109163114"/>
    <nd ref="324398926"/>
    <tag k="highway" v="tertiary"/>
    <tag k="maxspeed" v="60 mph"/>
    <tag k="maxspeed:type" v="GB:nsl_single"/>
    <tag k="name" v="Keyworth Road"/>
    <tag k="note" v="name changed presumed to occur at parish boundary as per NPE"/>
    <tag k="postal_code" v="NG12 5PQ"/>
    <tag k="source:name" v="survey"/>
  </way>
  <way id="34061002" version="7" timestamp="2015-07-13T23:09:01Z" changeset="32616299" uid="207845" user="will_p">
    <nd ref="36428813"/>
    <nd ref="3649762593"/>
    <nd ref="2109163311"/>
    <tag k="highway" v="tertiary"/>
    <tag k="maxspeed" v="30 mph"/>
    <tag k="name" v="Widmerpool Lane"/>
    <tag k="note" v="name changed presumed to occur at parish boundary as per NPE"/>
    <tag k="source" v="GPS"/>
    <tag k="source:name" v="survey"/>
  </way>
  <way id="34061630" version="13" timestamp="2014-07-17T19:49:41Z" changeset="24208361" uid="1431482" user="JonOrchard">
    <nd ref="390310341"/>
    <nd ref="2968013362"/>
    <nd ref="390310342"/>
    <nd ref="2968013361"/>
    <nd ref="390310343"/>
    <nd ref="2968013358"/>
    <nd ref="2968013360"/>
    <nd ref="2968013359"/>
    <nd ref="1163512802"/>
    <nd ref="390310344"/>
    <nd ref="2968013357"/>
    <nd ref="390310345"/>
    <nd ref="2968013356"/>
    <nd ref="2370619842"/>
    <nd ref="390310346"/>
    <nd ref="390310347"/>
    <nd ref="390310348"/>
    <nd ref="1948065294"/>
    <nd ref="390310349"/>
    <nd ref="2968013355"/>
    <nd ref="2968013354"/>
    <nd ref="1778178272"/>
    <nd ref="1813958501"/>
    <tag k="highway" v="unclassified"/>
    <tag k="name" v="Laming Gap Lane"/>
    <tag k="source" v="NPE"/>
    <tag k="source:name" v="OS OpenData StreetView"/>
  </way>
  <way id="39449285" version="7" timestamp="2025-06-07T11:27:08Z" changeset="167304626" uid="8857" user="philipcullen">
    <nd ref="472481950"/>
    <nd ref="3649762649"/>
    <nd ref="3649762650"/>
    <nd ref="472481951"/>
    <nd ref="472481952"/>
    <nd ref="472481953"/>
    <nd ref="2083501619"/>
    <nd ref="2083501618"/>
    <nd ref="472481950"/>
    <tag k="addr:city" v="Nottingham"/>
    <tag k="addr:country" v="GB"/>
    <tag k="addr:postcode" v="NG12 5BB"/>
    <tag k="addr:street" v="Willow Brook"/>
    <tag k="addr:suburb" v="Stanton on the Wolds"/>
    <tag k="amenity" v="place_of_worship"/>
    <tag k="building" v="church"/>
    <tag k="denomination" v="roman_catholic"/>
    <tag k="name" v="St Margaret Clitherow"/>
    <tag k="ref:GB:uprn" v="3040029794"/>
    <tag k="religion" v="christian"/>
    <tag k="website" v="http://www.eastleakeandkeyworthrcp.co.uk/"/>
  </way>
  <way id="103860119" version="2" timestamp="2016-04-17T22:17:46Z" changeset="38653385" uid="207845" user="will_p">
    <nd ref="4129009440"/>
    <nd ref="4129009437"/>
    <nd ref="4129009434"/>
    <nd ref="4129009436"/>
    <nd ref="1198954944"/>
    <nd ref="4129009438"/>
    <nd ref="4129009439"/>
    <nd ref="1198955087"/>
    <nd ref="4129009440"/>
    <tag k="building" v="yes"/>
    <tag k="name" v="Guys Wood House"/>
  </way>
  <way id="150997461" version="17" timestamp="2022-10-28T19:15:02Z" changeset="128188196" uid="13666626" user="RedAuburn">
    <nd ref="1203890296"/>
    <nd ref="1035732392"/>
    <nd ref="5005992427"/>
    <nd ref="1035731806"/>
    <nd ref="2302897211"/>
    <nd ref="1035731815"/>
    <nd ref="2302897209"/>
    <nd ref="2302897207"/>
    <nd ref="1035731871"/>
    <nd ref="2302897205"/>
    <nd ref="1035731875"/>
    <nd ref="1035731879"/>
    <nd ref="1035731884"/>
    <nd ref="2302897220"/>
    <nd ref="2302897221"/>
    <nd ref="1638514656"/>
    <nd ref="1638514658"/>
    <nd ref="1035731922"/>
    <nd ref="1638500820"/>
    <nd ref="2302897222"/>
    <nd ref="1035731938"/>
    <nd ref="2302897223"/>
    <nd ref="2302897224"/>
    <nd ref="1035731947"/>
    <nd ref="1035731950"/>
    <nd ref="1035731999"/>
    <nd ref="1035732013"/>
    <nd ref="5005977658"/>
    <nd ref="1203890858"/>
    <nd ref="1035732054"/>
    <nd ref="5005977668"/>
    <nd ref="5005977660"/>
    <nd ref="1035732023"/>
    <nd ref="5005977657"/>
    <nd ref="1638500842"/>
    <nd ref="768053273"/>
    <tag k="expressway" v="yes"/>
    <tag k="highway" v="trunk"/>
    <tag k="lanes" v="2"/>
    <tag k="lit" v="no"/>
    <tag k="maxheight" v="default"/>
    <tag k="maxspeed" v="70 mph"/>
    <tag k="maxspeed:type" v="GB:nsl_dual"/>
    <tag k="national_highways:area" v="7"/>
    <tag k="oneway" v="yes"/>
    <tag k="operator" v="National Highways"/>
    <tag k="operator:wikidata" v="Q5760006"/>
    <tag k="ref" v="A46"/>
    <tag k="shoulder" v="no"/>
    <tag k="source" v="GPS Survey"/>
    <tag k="source:maxspeed" v="Stats19"/>
  </way>
  <way id="150999934" version="8" timestamp="2025-03-27T18:17:00Z" changeset="164176628" uid="5229644" user="Nathan_A_RF">
    <nd ref="8529717784"/>
    <nd ref="1638536557"/>
    <nd ref="8529717787"/>
    <nd ref="8529717786"/>
    <nd ref="8529717785"/>
    <nd ref="1638514653"/>
    <nd ref="1638514655"/>
    <tag k="expressway" v="yes"/>
    <tag k="highway" v="trunk_link"/>
    <tag k="lit" v="no"/>
    <tag k="maxspeed" v="70 mph"/>
    <tag k="maxspeed:type" v="GB:nsl_dual"/>
    <tag k="national_highways:area" v="7"/>
    <tag k="oneway" v="yes"/>
    <tag k="operator" v="National Highways"/>
    <tag k="operator:wikidata" v="Q5760006"/>
    <tag k="ref" v="A46"/>
  </way>
  <way id="150999935" version="11" timestamp="2025-03-27T18:17:00Z" changeset="164176628" uid="5229644" user="Nathan_A_RF">
    <nd ref="1638514640"/>
    <nd ref="1813960621"/>
    <nd ref="1638514637"/>
    <nd ref="2302897175"/>
    <nd ref="1638514664"/>
    <nd ref="2302897167"/>
    <nd ref="1638514642"/>
    <nd ref="2302897166"/>
    <nd ref="1638514644"/>
    <nd ref="2302897165"/>
    <nd ref="2584069193"/>
    <tag k="highway" v="trunk_link"/>
    <tag k="lit" v="no"/>
    <tag k="maxspeed" v="60 mph"/>
    <tag k="maxspeed:type" v="GB:nsl_single"/>
    <tag k="national_highways:area" v="7"/>
    <tag k="operator" v="National Highways"/>
    <tag k="operator:wikidata" v="Q5760006"/>
    <tag k="ref" v="A46"/>
  </way>
  <way id="150999936" version="7" timestamp="2025-03-27T18:17:00Z" changeset="164176628" uid="5229644" user="Nathan_A_RF">
    <nd ref="1638500833"/>
    <nd ref="5005977661"/>
    <nd ref="1638514661"/>
    <nd ref="8529717783"/>
    <nd ref="1638514659"/>
    <nd ref="8529717784"/>
    <tag k="expressway" v="yes"/>
    <tag k="highway" v="trunk_link"/>
    <tag k="lane_markings" v="no"/>
    <tag k="lit" v="no"/>
    <tag k="maxspeed" v="70 mph"/>
    <tag k="maxspeed:type" v="GB:nsl_dual"/>
    <tag k="national_highways:area" v="7"/>
    <tag k="oneway" v="yes"/>
    <tag k="operator" v="National Highways"/>
    <tag k="operator:wikidata" v="Q5760006"/>
    <tag k="ref" v="A46"/>
  </way>
  <way id="150999937" version="6" timestamp="2025-03-27T18:17:00Z" changeset="164176628" uid="5229644" user="Nathan_A_RF">
    <nd ref="1638514656"/>
    <nd ref="8529717781"/>
    <nd ref="1638514639"/>
    <nd ref="8529717780"/>
    <nd ref="8529717779"/>
    <nd ref="8529717778"/>
    <nd ref="1638514640"/>
    <tag k="expressway" v="yes"/>
    <tag k="highway" v="trunk_link"/>
    <tag k="lit" v="no"/>
    <tag k="maxspeed" v="70 mph"/>
    <tag k="maxspeed:type" v="GB:nsl_dual"/>
    <tag k="national_highways:area" v="7"/>
    <tag k="oneway" v="yes"/>
    <tag k="operator" v="National Highways"/>
    <tag k="operator:wikidata" v="Q5760006"/>
    <tag k="ref" v="A46"/>
  </way>
  <way id="150999938" version="7" timestamp="2025-03-27T18:17:00Z" changeset="164176628" uid="5229644" user="Nathan_A_RF">
    <nd ref="1638514640"/>
    <nd ref="5005977664"/>
    <nd ref="1638514657"/>
    <nd ref="1638514660"/>
    <nd ref="8529717782"/>
    <nd ref="1638514658"/>
    <tag k="expressway" v="yes"/>
    <tag k="highway" v="trunk_link"/>
    <tag k="lit" v="no"/>
    <tag k="maxspeed" v="70 mph"/>
    <tag k="maxspeed:type" v="GB:nsl_dual"/>
    <tag k="national_highways:area" v="7"/>
    <tag k="oneway" v="yes"/>
    <tag k="operator" v="National Highways"/>
    <tag k="operator:wikidata" v="Q5760006"/>
    <tag k="ref" v="A46"/>
  </way>
  <way id="151000359" version="7" timestamp="2025-03-27T18:17:00Z" changeset="164176628" uid="5229644" user="Nathan_A_RF">
    <nd ref="1638514646"/>
    <nd ref="1638514647"/>
    <tag k="bridge" v="yes"/>
    <tag k="highway" v="tertiary"/>
    <tag k="layer" v="1"/>
    <tag k="lit" v="no"/>
    <tag k="maxspeed" v="60 mph"/>
    <tag k="maxspeed:type" v="GB:nsl_single"/>
  </way>
  <way id="151000417" version="11" timestamp="2025-03-27T18:17:00Z" changeset="164176628" uid="5229644" user="Nathan_A_RF">
    <nd ref="1638514652"/>
    <nd ref="1638536563"/>
    <nd ref="1638530174"/>
    <nd ref="1638530172"/>
    <nd ref="2302897201"/>
    <nd ref="8529717790"/>
    <nd ref="1638530171"/>
    <nd ref="5005992426"/>
    <nd ref="2303453745"/>
    <nd ref="1638530170"/>
    <tag k="highway" v="tertiary"/>
    <tag k="lit" v="no"/>
    <tag k="maxspeed" v="60 mph"/>
    <tag k="maxspeed:type" v="GB:nsl_single"/>
    <tag k="source" v="GPS Survey"/>
  </way>
  <way id="151662370" version="19" timestamp="2023-09-05T20:57:15Z" changeset="140868593" uid="13341565" user="Falsernet">
    <nd ref="1524656878"/>
    <nd ref="5005966369"/>
    <nd ref="1524656854"/>
    <nd ref="1659727711"/>
    <nd ref="5005966362"/>
    <nd ref="5005966380"/>
    <nd ref="1524656851"/>
    <nd ref="5005966363"/>
    <nd ref="5005966357"/>
    <nd ref="1524656845"/>
    <nd ref="2010789412"/>
    <nd ref="5005966379"/>
    <nd ref="1524656842"/>
    <nd ref="5005966361"/>
    <nd ref="5005966359"/>
    <nd ref="5005966364"/>
    <nd ref="5005966356"/>
    <nd ref="5005966372"/>
    <nd ref="1524656837"/>
    <nd ref="1524656834"/>
    <nd ref="5005977679"/>
    <nd ref="1524656830"/>
    <nd ref="1524656828"/>
    <nd ref="1524656824"/>
    <nd ref="2612258331"/>
    <nd ref="1524656567"/>
    <nd ref="2612258334"/>
    <nd ref="1524656558"/>
    <nd ref="1638500821"/>
    <nd ref="1638514643"/>
    <nd ref="1638500822"/>
    <nd ref="5005977671"/>
    <nd ref="1638500823"/>
    <nd ref="5005977673"/>
    <nd ref="1638500824"/>
    <nd ref="5005977663"/>
    <nd ref="1638500825"/>
    <nd ref="5005977675"/>
    <nd ref="5005977667"/>
    <nd ref="1638500826"/>
    <nd ref="5005977659"/>
    <nd ref="1638500827"/>
    <nd ref="5005977669"/>
    <nd ref="1638500828"/>
    <nd ref="5005977678"/>
    <nd ref="5005977676"/>
    <nd ref="5005977672"/>
    <nd ref="1638500829"/>
    <nd ref="2978036027"/>
    <nd ref="1638500830"/>
    <nd ref="5005977674"/>
    <nd ref="1638500837"/>
    <nd ref="5005977670"/>
    <nd ref="1638500841"/>
    <nd ref="5005977655"/>
    <nd ref="1638500833"/>
    <nd ref="1638514655"/>
    <nd ref="1638500839"/>
    <tag k="expressway" v="yes"/>
    <tag k="highway" v="trunk"/>
    <tag k="lanes" v="2"/>
    <tag k="lit" v="no"/>
    <tag k="maxheight" v="default"/>
    <tag k="maxspeed" v="70 mph"/>
    <tag k="maxspeed:type" v="GB:nsl_dual"/>
    <tag k="national_highways:area" v="7"/>
    <tag k="oneway" v="yes"/>
    <tag k="operator" v="National Highways"/>
    <tag k="operator:wikidata" v="Q5760006"/>
    <tag k="ref" v="A46"/>
    <tag k="shoulder" v="no"/>
    <tag k="source" v="GPS Survey"/>
    <tag k="source:maxspeed" v="Stats19"/>
  </way>
  <way id="166369186" version="2" timestamp="2021-01-23T08:05:08Z" changeset="98009119" uid="1431482" user="JonOrchard">
    <nd ref="1778178470"/>
    <nd ref="1778178471"/>
    <nd ref="8354060027"/>
    <nd ref="8354060026"/>
    <nd ref="8354060025"/>
    <nd ref="8354060024"/>
    <nd ref="1778178472"/>
    <nd ref="1778178474"/>
    <nd ref="1778178476"/>
    <nd ref="1778178478"/>
    <nd ref="1778178470"/>
    <tag k="building" v="house"/>
    <tag k="name" v="Wolds Farm House"/>
    <tag k="source" v="Bing"/>
  </way>
  <way id="200960389" version="9" timestamp="2025-04-20T22:11:25Z" changeset="165214032" uid="22685556" user="AH9999">
    <nd ref="12771091196"/>
    <nd ref="9085406047"/>
    <nd ref="2109163276"/>
    <nd ref="9085406044"/>
    <nd ref="9085406038"/>
    <nd ref="2109163265"/>
    <nd ref="315749990"/>
    <nd ref="6537860752"/>
    <nd ref="390303494"/>
    <tag k="highway" v="tertiary"/>
    <tag k="maxspeed" v="60 mph"/>
    <tag k="maxspeed:type" v="GB:nsl_single"/>
    <tag k="name" v="Widmerpool Lane"/>
    <tag k="note" v="name changed presumed to occur at parish boundary as per NPE"/>
    <tag k="sidewalk" v="no"/>
    <tag k="source" v="GPS"/>
    <tag k="source:name" v="survey"/>
    <tag k="verge" v="both"/>
  </way>
  <way id="220573124" version="13" timestamp="2025-03-27T18:17:00Z" changeset="164176628" uid="5229644" user="Nathan_A_RF">
    <nd ref="2296841735"/>
    <nd ref="2296841732"/>
    <nd ref="2968028223"/>
    <nd ref="14569896"/>
    <nd ref="5006016565"/>
    <nd ref="2296841733"/>
    <nd ref="5006016564"/>
    <nd ref="2368427590"/>
    <nd ref="5006016563"/>
    <nd ref="14569895"/>
    <nd ref="14569894"/>
    <nd ref="2296841734"/>
    <nd ref="2368427577"/>
    <nd ref="2368427580"/>
    <nd ref="2368427578"/>
    <nd ref="14569893"/>
    <nd ref="2368427579"/>
    <nd ref="14569892"/>
    <nd ref="324399042"/>
    <tag k="highway" v="trunk"/>
    <tag k="lanes" v="2"/>
    <tag k="lit" v="no"/>
    <tag k="maxspeed" v="50 mph"/>
    <tag k="maxspeed:type" v="sign"/>
    <tag k="name" v="Melton Road"/>
    <tag k="ref" v="A606"/>
    <tag k="shoulder" v="no"/>
    <tag k="sidewalk" v="no"/>
    <tag k="source" v="GPS"/>
    <tag k="source:name" v="NaPTAN"/>
    <tag k="surface" v="asphalt"/>
  </way>
  <way id="220573125" version="12" timestamp="2022-08-10T09:42:04Z" changeset="124716849" uid="350183" user="Belseybob">
    <nd ref="2296841739"/>
    <nd ref="2296841738"/>
    <nd ref="2296841737"/>
    <nd ref="6477944387"/>
    <nd ref="4170956991"/>
    <nd ref="2359328024"/>
    <tag k="highway" v="trunk"/>
    <tag k="lanes" v="2"/>
    <tag k="lit" v="no"/>
    <tag k="maxspeed" v="40 mph"/>
    <tag k="name" v="Melton Road"/>
    <tag k="ref" v="A606"/>
    <tag k="shoulder" v="no"/>
    <tag k="sidewalk" v="right"/>
    <tag k="source" v="GPS"/>
    <tag k="source:name" v="NaPTAN"/>
    <tag k="surface" v="asphalt"/>
  </way>
  <way id="220593558" version="6" timestamp="2025-03-08T14:55:14Z" changeset="163367482" uid="95856" user="⇄ john paul jones &amp; gringo">
    <nd ref="2296967968"/>
    <nd ref="2296967969"/>
    <nd ref="2296967970"/>
    <nd ref="2296967971"/>
    <nd ref="2296967972"/>
    <nd ref="2296967973"/>
    <nd ref="2296967968"/>
    <tag k="addr:city" v="Nottingham"/>
    <tag k="addr:country" v="GB"/>
    <tag k="addr:postcode" v="NG12 3HG"/>
    <tag k="addr:street" v="Fosse Way"/>
    <tag k="building" v="house"/>
    <tag k="guest_house" v="bed_and_breakfast"/>
    <tag k="name" v="Jerico Farm"/>
    <tag k="old_fhrs:id" v="265831"/>
    <tag k="tourism" v="guest_house"/>
    <tag k="website" v="https://www.jericofarm.co.uk/"/>
  </way>
  <way id="221323899" version="2" timestamp="2024-01-31T16:23:19Z" changeset="146911691" uid="1431482" user="JonOrchard">
    <nd ref="2303580918"/>
    <nd ref="2303580919"/>
    <nd ref="2303580920"/>
    <nd ref="2303580921"/>
    <nd ref="2303580922"/>
    <nd ref="2303580923"/>
    <nd ref="2303580924"/>
    <nd ref="2303580925"/>
    <nd ref="2303580918"/>
    <tag k="building" v="yes"/>
    <tag k="name" v="Lodge on the Wolds"/>
  </way>
  <way id="222262588" version="1" timestamp="2013-05-20T07:11:35Z" changeset="16203584" uid="1431482" user="JonOrchard">
    <nd ref="2312465412"/>
    <nd ref="2312465414"/>
    <nd ref="2312465416"/>
    <nd ref="2312465418"/>
    <nd ref="2312465420"/>
    <nd ref="2312465422"/>
    <nd ref="2312465425"/>
    <nd ref="2312465427"/>
    <nd ref="2312465429"/>
    <nd ref="2312465431"/>
    <nd ref="2312465433"/>
    <nd ref="2312465435"/>
    <nd ref="2312465437"/>
    <nd ref="2312465439"/>
    <nd ref="2312465441"/>
    <nd ref="2312465443"/>
    <nd ref="2312465445"/>
    <nd ref="2312465447"/>
    <nd ref="2312465449"/>
    <nd ref="2312465451"/>
    <nd ref="2312465453"/>
    <nd ref="2312465455"/>
    <nd ref="2312465412"/>
    <tag k="building" v="yes"/>
    <tag k="name" v="Charleswold Court"/>
  </way>
  <way id="227220026" version="2" timestamp="2018-06-04T14:02:27Z" changeset="59539094" uid="84681" user="SK53">
    <nd ref="2359335331"/>
    <nd ref="5663912332"/>
    <nd ref="5663912359"/>
    <nd ref="5663911774"/>
    <nd ref="5663911813"/>
    <nd ref="5663911804"/>
    <nd ref="5663912358"/>
    <nd ref="5663911801"/>
    <nd ref="5663911814"/>
    <nd ref="2359335333"/>
    <nd ref="5663911770"/>
    <nd ref="5663912322"/>
    <nd ref="2359335335"/>
    <nd ref="5663912380"/>
    <nd ref="5663911776"/>
    <nd ref="2359335336"/>
    <nd ref="2359335331"/>
    <tag k="building" v="yes"/>
    <tag k="name" v="Highthorne Lodge"/>
  </way>
  <way id="227220072" version="2" timestamp="2013-06-24T20:15:49Z" changeset="16690061" uid="1431482" user="JonOrchard">
    <nd ref="2359336802"/>
    <nd ref="2359336805"/>
    <nd ref="2359336808"/>
    <nd ref="2359336811"/>
    <nd ref="2359336815"/>
    <nd ref="2359336818"/>
    <nd ref="2359336822"/>
    <nd ref="2359336826"/>
    <nd ref="2359336802"/>
    <tag k="building" v="yes"/>
    <tag k="name" v="Hill Farm"/>
  </way>
  <way id="228345334" version="9" timestamp="2025-03-08T14:53:45Z" changeset="163367433" uid="95856" user="⇄ john paul jones &amp; gringo">
    <nd ref="2370306738"/>
    <nd ref="2370306739"/>
    <nd ref="2370306740"/>
    <nd ref="2370306741"/>
    <nd ref="2370306738"/>
    <tag k="addr:city" v="Nottingham"/>
    <tag k="addr:country" v="GB"/>
    <tag k="addr:housenumber" v="198"/>
    <tag k="addr:postcode" v="NG12 5BQ"/>
    <tag k="addr:street" v="Melton Road"/>
    <tag k="addr:suburb" v="Stanton on the Wolds"/>
    <tag k="amenity" v="fuel"/>
    <tag k="brand" v="Byford Power"/>
    <tag k="building" v="roof"/>
    <tag k="layer" v="1"/>
    <tag k="name" v="Wolds Service Station"/>
    <tag k="old_brand" v="Texaco"/>
    <tag k="old_fhrs:id" v="1172843"/>
    <tag k="operator" v="Byford Power"/>
  </way>
  <way id="228346845" version="1" timestamp="2013-07-02T08:23:46Z" changeset="16787956" uid="1431482" user="JonOrchard">
    <nd ref="2370316306"/>
    <nd ref="2370316307"/>
    <nd ref="2370316308"/>
    <nd ref="2370316309"/>
    <nd ref="2370316310"/>
    <nd ref="2370316311"/>
    <nd ref="2370316306"/>
    <tag k="building" v="yes"/>
    <tag k="name" v="Rowan Lodge"/>
  </way>
  <way id="228349861" version="4" timestamp="2025-03-08T14:53:45Z" changeset="163367433" uid="95856" user="⇄ john paul jones &amp; gringo">
    <nd ref="2370320004"/>
    <nd ref="2370320005"/>
    <nd ref="2370320006"/>
    <nd ref="2370320007"/>
    <nd ref="2370320004"/>
    <tag k="addr:city" v="Nottingham"/>
    <tag k="addr:country" v="GB"/>
    <tag k="addr:housenumber" v="140"/>
    <tag k="addr:postcode" v="NG12 5BN"/>
    <tag k="addr:street" v="Brown's Lane"/>
    <tag k="addr:suburb" v="Stanton on the Wolds"/>
    <tag k="building" v="yes"/>
    <tag k="name" v="The Wolds Nurseries"/>
    <tag k="source:addr" v="Companies House Open Data"/>
  </way>
  <way id="228373850" version="1" timestamp="2013-07-02T12:04:54Z" changeset="16790594" uid="1431482" user="JonOrchard">
    <nd ref="2370574549"/>
    <nd ref="2370574550"/>
    <nd ref="2370574551"/>
    <nd ref="2370574552"/>
    <nd ref="2370574549"/>
    <tag k="building" v="yes"/>
    <tag k="name" v="Hillcrest"/>
  </way>
  <way id="228374060" version="3" timestamp="2025-06-07T11:27:15Z" changeset="167304988" uid="8857" user="philipcullen">
    <nd ref="2370576864"/>
    <nd ref="2370576867"/>
    <nd ref="2370576868"/>
    <nd ref="2370576871"/>
    <nd ref="2370576864"/>
    <tag k="addr:housenumber" v="124"/>
    <tag k="addr:street" v="Melton Road"/>
    <tag k="building" v="house"/>
    <tag k="ref:GB:uprn" v="3040030488"/>
    <tag k="source:addr" v="survey"/>
  </way>
  <way id="228374333" version="3" timestamp="2025-06-07T11:27:15Z" changeset="167304988" uid="8857" user="philipcullen">
    <nd ref="2370581456"/>
    <nd ref="2370581458"/>
    <nd ref="2370581460"/>
    <nd ref="2370581462"/>
    <nd ref="2370581456"/>
    <tag k="addr:housenumber" v="122"/>
    <tag k="addr:street" v="Melton Road"/>
    <tag k="building" v="house"/>
    <tag k="ref:GB:uprn" v="3040030487"/>
    <tag k="source:addr" v="survey"/>
  </way>
  <way id="228375879" version="4" timestamp="2025-03-08T14:51:21Z" changeset="163367353" uid="95856" user="⇄ john paul jones &amp; gringo">
    <nd ref="2370595597"/>
    <nd ref="4129054486"/>
    <nd ref="4129054477"/>
    <nd ref="4129054482"/>
    <nd ref="4129054481"/>
    <nd ref="4129054478"/>
    <nd ref="2370595599"/>
    <nd ref="2370595601"/>
    <nd ref="2370595604"/>
    <nd ref="2370595606"/>
    <nd ref="2370595607"/>
    <nd ref="2370595608"/>
    <nd ref="2370595610"/>
    <nd ref="2370595612"/>
    <nd ref="2370595615"/>
    <nd ref="4129054476"/>
    <nd ref="2370595617"/>
    <nd ref="4129054484"/>
    <nd ref="4129054479"/>
    <nd ref="2370595619"/>
    <nd ref="2370595597"/>
    <tag k="addr:city" v="Nottingham"/>
    <tag k="addr:country" v="GB"/>
    <tag k="addr:postcode" v="NG12 5BH"/>
    <tag k="addr:street" v="Golf Course Road"/>
    <tag k="addr:suburb" v="Stanton on the Wolds"/>
    <tag k="amenity" v="clubhouse"/>
    <tag k="building" v="yes"/>
    <tag k="club" v="sport"/>
    <tag k="fhrs:id" v="265819"/>
    <tag k="name" v="Stanton-on-the-Wolds Golf Club"/>
    <tag k="sport" v="golf"/>
  </way>
  <way id="228651674" version="2" timestamp="2013-07-04T09:34:24Z" changeset="16819155" uid="1431482" user="JonOrchard">
    <nd ref="2373082333"/>
    <nd ref="2373082334"/>
    <nd ref="2373082335"/>
    <nd ref="2373082336"/>
    <nd ref="2373082337"/>
    <nd ref="2373082338"/>
    <nd ref="2373082339"/>
    <nd ref="2373082340"/>
    <nd ref="2373082333"/>
    <tag k="building" v="yes"/>
    <tag k="name" v="Glebe Farm"/>
  </way>
  <way id="228652245" version="7" timestamp="2025-06-07T11:27:15Z" changeset="167304988" uid="8857" user="philipcullen">
    <nd ref="2373086539"/>
    <nd ref="3649762631"/>
    <nd ref="3649762630"/>
    <nd ref="3649762632"/>
    <nd ref="3649762633"/>
    <nd ref="3649762634"/>
    <nd ref="3649762635"/>
    <nd ref="3649762637"/>
    <nd ref="3649762638"/>
    <nd ref="3649762636"/>
    <nd ref="2373086541"/>
    <nd ref="2373086542"/>
    <nd ref="3649762629"/>
    <nd ref="3649762628"/>
    <nd ref="3649762627"/>
    <nd ref="2373086539"/>
    <tag k="addr:city" v="Nottingham"/>
    <tag k="addr:country" v="GB"/>
    <tag k="addr:postcode" v="NG12 5BL"/>
    <tag k="addr:suburb" v="Stanton on the Wolds"/>
    <tag k="amenity" v="place_of_worship"/>
    <tag k="building" v="church"/>
    <tag k="denomination" v="anglican"/>
    <tag k="listed_status" v="Grade II"/>
    <tag k="name" v="All Saints Parish Church"/>
    <tag k="ref:GB:uprn" v="3040063515"/>
    <tag k="religion" v="christian"/>
    <tag k="source:listed_status" v="English Heritage"/>
    <tag k="wikidata" v="Q15179410"/>
    <tag k="wikipedia" v="en:All Saints' Church, Stanton on the Wolds"/>
  </way>
  <way id="228656272" version="2" timestamp="2025-06-07T11:27:15Z" changeset="167304988" uid="8857" user="philipcullen">
    <nd ref="2373131887"/>
    <nd ref="2373131888"/>
    <nd ref="2373131889"/>
    <nd ref="2373131890"/>
    <nd ref="2373131891"/>
    <nd ref="2373131892"/>
    <nd ref="2373131887"/>
    <tag k="building" v="yes"/>
    <tag k="name" v="Manor Farm House"/>
    <tag k="ref:GB:uprn" v="3040050555"/>
  </way>
  <way id="228656339" version="3" timestamp="2025-06-07T11:27:15Z" changeset="167304988" uid="8857" user="philipcullen">
    <nd ref="2373132413"/>
    <nd ref="2373132414"/>
    <nd ref="2373132415"/>
    <nd ref="2373132416"/>
    <nd ref="2373132417"/>
    <nd ref="2373132418"/>
    <nd ref="2373132419"/>
    <nd ref="2373132420"/>
    <nd ref="2373132421"/>
    <nd ref="2373132413"/>
    <tag k="addr:housenumber" v="31a"/>
    <tag k="addr:street" v="Stanton Lane"/>
    <tag k="building" v="detached"/>
    <tag k="ref:GB:uprn" v="3040029735"/>
    <tag k="source" v="survey"/>
  </way>
  <way id="228656385" version="2" timestamp="2018-04-02T10:12:45Z" changeset="57734886" uid="84681" user="SK53">
    <nd ref="2373132775"/>
    <nd ref="2373132777"/>
    <nd ref="2373132779"/>
    <nd ref="2373132781"/>
    <nd ref="2373132784"/>
    <nd ref="2373132786"/>
    <nd ref="2373132775"/>
    <tag k="addr:housenumber" v="31b"/>
    <tag k="addr:street" v="Stanton Lane"/>
    <tag k="building" v="detached"/>
    <tag k="source" v="survey"/>
  </way>
  <way id="228656592" version="3" timestamp="2025-06-07T11:27:15Z" changeset="167304988" uid="8857" user="philipcullen">
    <nd ref="2373133805"/>
    <nd ref="2373133806"/>
    <nd ref="2373133807"/>
    <nd ref="2373133809"/>
    <nd ref="2373133810"/>
    <nd ref="2373133811"/>
    <nd ref="2373133805"/>
    <tag k="addr:housenumber" v="40"/>
    <tag k="addr:street" v="Stanton Lane"/>
    <tag k="building" v="house"/>
    <tag k="ref:GB:uprn" v="3040029782"/>
    <tag k="source" v="survey"/>
    <tag k="source:geometry" v="Bing"/>
  </way>
  <way id="228656594" version="2" timestamp="2018-04-02T11:00:08Z" changeset="57735922" uid="84681" user="SK53">
    <nd ref="2373133818"/>
    <nd ref="2373133819"/>
    <nd ref="2373133820"/>
    <nd ref="2373133821"/>
    <nd ref="2373133822"/>
    <nd ref="2373133823"/>
    <nd ref="2373133824"/>
    <nd ref="2373133825"/>
    <nd ref="2373133826"/>
    <nd ref="2373133827"/>
    <nd ref="2373133828"/>
    <nd ref="2373133829"/>
    <nd ref="2373133818"/>
    <tag k="addr:housename" v="Hillcot"/>
    <tag k="addr:housenumber" v="44"/>
    <tag k="addr:street" v="Stanton Lane"/>
    <tag k="building" v="house"/>
    <tag k="source" v="survey"/>
    <tag k="source:geometry" v="Bing"/>
  </way>
  <way id="330832058" version="5" timestamp="2018-04-01T22:20:42Z" changeset="57723857" uid="84681" user="SK53">
    <nd ref="3378362194"/>
    <nd ref="5521249859"/>
    <tag k="hgv" v="destination"/>
    <tag k="highway" v="tertiary"/>
    <tag k="lit" v="no"/>
    <tag k="maxspeed" v="30 mph"/>
    <tag k="name" v="Browns Lane"/>
    <tag k="sidewalk" v="right"/>
    <tag k="source" v="GPS"/>
    <tag k="source:maxspeed" v="survey"/>
    <tag k="source:name" v="survey"/>
  </way>
  <way id="334365660" version="8" timestamp="2023-09-05T21:09:03Z" changeset="140868858" uid="13341565" user="Falsernet">
    <nd ref="1638500839"/>
    <nd ref="5005977662"/>
    <nd ref="1638500840"/>
    <nd ref="2302897218"/>
    <nd ref="1638500832"/>
    <nd ref="1638500835"/>
    <nd ref="1638500834"/>
    <nd ref="2302897217"/>
    <nd ref="1638500836"/>
    <nd ref="2302897215"/>
    <nd ref="1638500818"/>
    <nd ref="1638500831"/>
    <nd ref="1638484976"/>
    <tag k="expressway" v="yes"/>
    <tag k="highway" v="trunk"/>
    <tag k="lanes" v="2"/>
    <tag k="lit" v="no"/>
    <tag k="maxspeed" v="70 mph"/>
    <tag k="maxspeed:type" v="GB:nsl_dual"/>
    <tag k="national_highways:area" v="7"/>
    <tag k="oneway" v="yes"/>
    <tag k="operator" v="National Highways"/>
    <tag k="operator:wikidata" v="Q5760006"/>
    <tag k="ref" v="A46"/>
    <tag k="shoulder" v="no"/>
    <tag k="source" v="GPS Survey"/>
    <tag k="source:maxspeed" v="Stats19"/>
  </way>
  <way id="360430078" version="4" timestamp="2024-01-19T19:32:09Z" changeset="146455440" uid="242345" user="confusedbuffalo">
    <nd ref="3649762555"/>
    <nd ref="3649762544"/>
    <nd ref="390291469"/>
    <nd ref="2373086564"/>
    <tag k="highway" v="tertiary"/>
    <tag k="maxspeed" v="60 mph"/>
    <tag k="maxspeed:type" v="GB:nsl_single"/>
    <tag k="name" v="Stanton Lane"/>
    <tag k="sidewalk" v="right"/>
    <tag k="source" v="GPS"/>
  </way>
  <way id="402521424" version="2" timestamp="2017-07-31T22:30:25Z" changeset="50733060" uid="5296090" user="TR42">
    <nd ref="3649762586"/>
    <nd ref="4049177195"/>
    <nd ref="14569897"/>
    <nd ref="2296841735"/>
    <tag k="highway" v="trunk"/>
    <tag k="lanes" v="2"/>
    <tag k="lit" v="no"/>
    <tag k="maxspeed" v="40 mph"/>
    <tag k="name" v="Melton Road"/>
    <tag k="ref" v="A606"/>
    <tag k="source" v="GPS"/>
    <tag k="source:name" v="NaPTAN"/>
    <tag k="surface" v="asphalt"/>
  </way>
  <way id="402521425" version="6" timestamp="2022-08-10T09:41:17Z" changeset="124716849" uid="350183" user="Belseybob">
    <nd ref="2359328024"/>
    <nd ref="2968025087"/>
    <nd ref="1199283014"/>
    <nd ref="6477942683"/>
    <nd ref="7462119724"/>
    <nd ref="2968025088"/>
    <nd ref="6477942680"/>
    <nd ref="2968025089"/>
    <nd ref="4049176964"/>
    <nd ref="2373361507"/>
    <nd ref="2373361457"/>
    <nd ref="14569898"/>
    <nd ref="2373361513"/>
    <nd ref="2373361517"/>
    <nd ref="1199282941"/>
    <nd ref="9452736387"/>
    <nd ref="3413428277"/>
    <nd ref="2296841736"/>
    <nd ref="2968025090"/>
    <nd ref="2968025091"/>
    <nd ref="3649762586"/>
    <tag k="highway" v="trunk"/>
    <tag k="lanes" v="2"/>
    <tag k="lit" v="no"/>
    <tag k="maxspeed" v="40 mph"/>
    <tag k="name" v="Melton Road"/>
    <tag k="ref" v="A606"/>
    <tag k="shoulder" v="no"/>
    <tag k="sidewalk" v="right"/>
    <tag k="source" v="GPS"/>
    <tag k="source:name" v="NaPTAN"/>
    <tag k="surface" v="asphalt"/>
  </way>
  <way id="411175223" version="1" timestamp="2016-04-17T22:17:39Z" changeset="38653385" uid="207845" user="will_p">
    <nd ref="4129009447"/>
    <nd ref="1198955002"/>
    <nd ref="1198955156"/>
    <nd ref="4129009441"/>
    <nd ref="4129009444"/>
    <nd ref="4129009446"/>
    <nd ref="4129009448"/>
    <nd ref="4129009445"/>
    <nd ref="4129009447"/>
    <tag k="building" v="yes"/>
    <tag k="name" v="Guys Wood House"/>
  </way>
  <way id="501643025" version="2" timestamp="2025-06-07T11:27:19Z" changeset="167304988" uid="8857" user="philipcullen">
    <nd ref="4923909685"/>
    <nd ref="4923909686"/>
    <nd ref="4923909687"/>
    <nd ref="4923909688"/>
    <nd ref="4923909689"/>
    <nd ref="4923909690"/>
    <nd ref="4923909685"/>
    <tag k="building" v="yes"/>
    <tag k="name" v="Fairfield House"/>
    <tag k="ref:GB:uprn" v="3040050572"/>
  </way>
  <way id="501643032" version="2" timestamp="2025-06-07T11:27:19Z" changeset="167304988" uid="8857" user="philipcullen">
    <nd ref="4923909705"/>
    <nd ref="4923909706"/>
    <nd ref="4923909707"/>
    <nd ref="4923909708"/>
    <nd ref="4923909709"/>
    <nd ref="4923909710"/>
    <nd ref="4923909711"/>
    <nd ref="4923909712"/>
    <nd ref="4923909713"/>
    <nd ref="4923909714"/>
    <nd ref="4923909705"/>
    <tag k="building" v="yes"/>
    <tag k="name" v="High View"/>
    <tag k="ref:GB:uprn" v="3040054565"/>
  </way>
  <way id="511847281" version="5" timestamp="2025-03-27T18:17:00Z" changeset="164176628" uid="5229644" user="Nathan_A_RF">
    <nd ref="2584069193"/>
    <nd ref="1638514645"/>
    <nd ref="1638514646"/>
    <tag k="highway" v="tertiary"/>
    <tag k="lit" v="no"/>
    <tag k="maxspeed" v="60 mph"/>
    <tag k="maxspeed:type" v="GB:nsl_single"/>
  </way>
  <way id="511851849" version="4" timestamp="2021-01-15T10:21:37Z" changeset="97551339" uid="1431482" user="JonOrchard">
    <nd ref="5006016566"/>
    <nd ref="2373335553"/>
    <nd ref="2370308848"/>
    <nd ref="2373336818"/>
    <nd ref="2370308847"/>
    <nd ref="2373338248"/>
    <nd ref="2373345923"/>
    <nd ref="2370308846"/>
    <nd ref="2373345935"/>
    <nd ref="2370308844"/>
    <nd ref="2370308845"/>
    <nd ref="3649762583"/>
    <nd ref="3649762586"/>
    <tag k="hgv" v="destination"/>
    <tag k="highway" v="tertiary"/>
    <tag k="lit" v="yes"/>
    <tag k="maxspeed" v="30 mph"/>
    <tag k="name" v="Browns Lane"/>
    <tag k="sidewalk" v="left"/>
    <tag k="source" v="GPS"/>
    <tag k="source:maxspeed" v="survey"/>
    <tag k="source:name" v="survey"/>
  </way>
  <way id="575376324" version="1" timestamp="2018-04-01T22:20:37Z" changeset="57723857" uid="84681" user="SK53">
    <nd ref="5521249859"/>
    <nd ref="3378362193"/>
    <nd ref="5521249820"/>
    <nd ref="5006016566"/>
    <tag k="hgv" v="destination"/>
    <tag k="highway" v="tertiary"/>
    <tag k="lit" v="no"/>
    <tag k="maxspeed" v="30 mph"/>
    <tag k="name" v="Browns Lane"/>
    <tag k="sidewalk" v="left"/>
    <tag k="source" v="GPS"/>
    <tag k="source:maxspeed" v="survey"/>
    <tag k="source:name" v="survey"/>
  </way>
  <way id="575506305" version="1" timestamp="2018-04-02T10:12:39Z" changeset="57734886" uid="84681" user="SK53">
    <nd ref="5522186644"/>
    <nd ref="2968025085"/>
    <nd ref="5522186700"/>
    <tag k="highway" v="trunk"/>
    <tag k="lit" v="no"/>
    <tag k="maxspeed" v="50 mph"/>
    <tag k="name" v="Melton Road"/>
    <tag k="oneway" v="no"/>
    <tag k="ref" v="A606"/>
    <tag k="sidewalk" v="both"/>
    <tag k="source" v="GPS"/>
    <tag k="source:maxspeed" v="survey"/>
    <tag k="source:name" v="NaPTAN"/>
    <tag k="surface" v="asphalt"/>
  </way>
  <way id="575506312" version="3" timestamp="2022-08-10T09:42:24Z" changeset="124716849" uid="350183" user="Belseybob">
    <nd ref="5522186700"/>
    <nd ref="1199282950"/>
    <nd ref="14569899"/>
    <nd ref="2968025086"/>
    <nd ref="2296841739"/>
    <tag k="highway" v="trunk"/>
    <tag k="lanes" v="2"/>
    <tag k="lit" v="no"/>
    <tag k="maxspeed" v="50 mph"/>
    <tag k="name" v="Melton Road"/>
    <tag k="oneway" v="no"/>
    <tag k="ref" v="A606"/>
    <tag k="shoulder" v="no"/>
    <tag k="sidewalk" v="right"/>
    <tag k="source" v="GPS"/>
    <tag k="source:maxspeed" v="survey"/>
    <tag k="source:name" v="NaPTAN"/>
    <tag k="surface" v="asphalt"/>
  </way>
  <way id="575506320" version="3" timestamp="2022-08-10T09:42:36Z" changeset="124716849" uid="350183" user="Belseybob">
    <nd ref="1199241903"/>
    <nd ref="14569901"/>
    <nd ref="2968025082"/>
    <nd ref="2968025081"/>
    <nd ref="14569900"/>
    <nd ref="2968025084"/>
    <nd ref="2968025083"/>
    <nd ref="5522186644"/>
    <tag k="highway" v="trunk"/>
    <tag k="lanes" v="2"/>
    <tag k="lit" v="no"/>
    <tag k="maxspeed" v="50 mph"/>
    <tag k="name" v="Melton Road"/>
    <tag k="oneway" v="no"/>
    <tag k="ref" v="A606"/>
    <tag k="shoulder" v="no"/>
    <tag k="sidewalk" v="right"/>
    <tag k="source" v="GPS"/>
    <tag k="source:maxspeed" v="survey"/>
    <tag k="source:name" v="NaPTAN"/>
    <tag k="surface" v="asphalt"/>
  </way>
  <way id="575527190" version="2" timestamp="2024-01-19T19:32:09Z" changeset="146455440" uid="242345" user="confusedbuffalo">
    <nd ref="2373086564"/>
    <nd ref="390291468"/>
    <nd ref="3649752113"/>
    <nd ref="5521249753"/>
    <nd ref="2026098676"/>
    <nd ref="3649752112"/>
    <nd ref="2370308861"/>
    <nd ref="3649752110"/>
    <nd ref="324399159"/>
    <tag k="highway" v="tertiary"/>
    <tag k="maxspeed" v="60 mph"/>
    <tag k="maxspeed:type" v="GB:nsl_single"/>
    <tag k="name" v="Stanton Lane"/>
    <tag k="sidewalk" v="left"/>
    <tag k="source" v="GPS"/>
  </way>
  <way id="696177655" version="1" timestamp="2019-06-10T15:28:29Z" changeset="71107413" uid="9310278" user="mdnade">
    <nd ref="6537365226"/>
    <nd ref="6537365227"/>
    <nd ref="6537365228"/>
    <nd ref="6537365229"/>
    <nd ref="6537365230"/>
    <tag k="highway" v="residential"/>
  </way>
  <way id="888069625" version="1" timestamp="2020-12-24T07:54:31Z" changeset="96368321" uid="10126647" user="ansukess">
    <nd ref="8256720257"/>
    <nd ref="2373133277"/>
    <nd ref="2373133278"/>
    <nd ref="6885946011"/>
    <nd ref="390291470"/>
    <nd ref="3649762555"/>
    <tag k="highway" v="tertiary"/>
    <tag k="lit" v="yes"/>
    <tag k="maxspeed" v="30 mph"/>
    <tag k="name" v="Stanton Lane"/>
    <tag k="sidewalk" v="right"/>
    <tag k="source" v="GPS"/>
    <tag k="surface" v="asphalt"/>
    <tag k="verge" v="left"/>
  </way>
  <way id="1379194887" version="1" timestamp="2025-04-20T22:11:25Z" changeset="165214032" uid="22685556" user="AH9999">
    <nd ref="2109163311"/>
    <nd ref="3649762567"/>
    <nd ref="9050781189"/>
    <nd ref="315749988"/>
    <nd ref="1198960014"/>
    <nd ref="315749989"/>
    <nd ref="2109163309"/>
    <nd ref="6537365226"/>
    <nd ref="12771091196"/>
    <tag k="highway" v="tertiary"/>
    <tag k="maxspeed" v="40 mph"/>
    <tag k="name" v="Widmerpool Lane"/>
    <tag k="note" v="name changed presumed to occur at parish boundary as per NPE"/>
    <tag k="sidewalk" v="no"/>
    <tag k="source" v="GPS"/>
    <tag k="source:name" v="survey"/>
    <tag k="verge" v="both"/>
  </way>

</osm>
