<?xml version="1.0" encoding="UTF-8"?>
<osm version="0.6" generator="Overpass API 0.7.62.8 e802775f">
<note>The data included in this document is from www.openstreetmap.org. The data is made available under ODbL.</note>
<meta osm_base="2025-10-23T17:33:45Z" areas="2025-10-23T14:54:58Z"/>

  <node id="153395965" lat="52.9701284" lon="-0.9014424" version="6" timestamp="2022-09-02T15:58:51Z" changeset="125705174" uid="2762871" user="Sam888"/>
  <node id="195932551" lat="52.9809588" lon="-0.8825350" version="4" timestamp="2022-09-02T15:58:51Z" changeset="125705174" uid="2762871" user="Sam888"/>
  <node id="256777014" lat="52.9608699" lon="-0.9013960" version="2" timestamp="2008-09-21T22:05:28Z" changeset="676772" uid="51454" user="flint"/>
  <node id="298892942" lat="52.9728560" lon="-0.9118992" version="1" timestamp="2008-09-21T22:04:42Z" changeset="676772" uid="51454" user="flint"/>
  <node id="1149303231" lat="52.9547615" lon="-0.9121450" version="3" timestamp="2017-05-25T08:30:26Z" changeset="48966378" uid="1431482" user="JonOrchard"/>
  <way id="15456648" version="9" timestamp="2019-10-14T15:37:35Z" changeset="75675807" uid="9310280" user="rsakunth">
    <nd ref="153395965"/>
    <nd ref="5660987714"/>
    <nd ref="5660987713"/>
    <nd ref="153395967"/>
    <nd ref="5660987710"/>
    <nd ref="5660987711"/>
    <nd ref="1149303129"/>
    <nd ref="5660987712"/>
    <nd ref="1149303279"/>
    <nd ref="6878749410"/>
    <nd ref="153582531"/>
    <tag k="highway" v="tertiary"/>
    <tag k="name" v="Longmoor Lane"/>
    <tag k="source:name" v="OS OpenData Locator"/>
  </way>
  <way id="15456685" version="17" timestamp="2022-09-02T15:58:51Z" changeset="125705174" uid="2762871" user="Sam888">
    <nd ref="195932551"/>
    <nd ref="2211501422"/>
    <nd ref="8690710372"/>
    <nd ref="6903142273"/>
    <nd ref="8690710381"/>
    <nd ref="2211501432"/>
    <nd ref="2211501431"/>
    <nd ref="5660990008"/>
    <nd ref="5660990006"/>
    <nd ref="330491537"/>
    <nd ref="235264888"/>
    <nd ref="1559786507"/>
    <nd ref="5660989990"/>
    <nd ref="6556683891"/>
    <nd ref="2681024225"/>
    <nd ref="153438603"/>
    <nd ref="153395965"/>
    <tag k="highway" v="tertiary"/>
    <tag k="name" v="Hawksworth Lane"/>
    <tag k="source:name" v="NaPTAN"/>
  </way>
  <way id="18755203" version="6" timestamp="2022-09-02T15:58:51Z" changeset="125705174" uid="2762871" user="Sam888">
    <nd ref="153395963"/>
    <nd ref="298892922"/>
    <nd ref="298892920"/>
    <nd ref="298892921"/>
    <nd ref="153439178"/>
    <nd ref="298892919"/>
    <nd ref="193586547"/>
    <nd ref="298892918"/>
    <nd ref="193586548"/>
    <nd ref="5650160321"/>
    <nd ref="298892915"/>
    <nd ref="298892916"/>
    <nd ref="193586549"/>
    <nd ref="298892914"/>
    <nd ref="193586550"/>
    <tag k="highway" v="tertiary"/>
    <tag k="name" v="Hawksworth Road"/>
    <tag k="source" v="gps"/>
  </way>
  <way id="23713522" version="11" timestamp="2024-01-12T00:25:42Z" changeset="146162137" uid="1713634" user="b-unicycling">
    <nd ref="193586550"/>
    <nd ref="193588888"/>
    <nd ref="256777005"/>
    <nd ref="298892913"/>
    <nd ref="256777006"/>
    <nd ref="298892912"/>
    <nd ref="256777007"/>
    <nd ref="330523503"/>
    <nd ref="298892911"/>
    <nd ref="256777008"/>
    <nd ref="298892907"/>
    <nd ref="298892906"/>
    <tag k="highway" v="unclassified"/>
    <tag k="name" v="Aslockton Road"/>
    <tag k="source" v="gps"/>
    <tag k="surface" v="asphalt"/>
  </way>
  <way id="26257549" version="7" timestamp="2017-05-25T08:21:32Z" changeset="48966188" uid="1431482" user="JonOrchard">
    <nd ref="256777014"/>
    <nd ref="4875545190"/>
    <nd ref="298892896"/>
    <nd ref="279004843"/>
    <tag k="highway" v="unclassified"/>
    <tag k="name" v="Mill Lane"/>
    <tag k="source" v="gps"/>
  </way>
  <way id="26525028" version="10" timestamp="2022-09-02T15:58:51Z" changeset="125705174" uid="2762871" user="Sam888">
    <nd ref="1149303231"/>
    <nd ref="9995355861"/>
    <nd ref="290726927"/>
    <nd ref="193588874"/>
    <nd ref="4875558239"/>
    <nd ref="2211844301"/>
    <nd ref="193588875"/>
    <nd ref="299140170"/>
    <nd ref="299140171"/>
    <nd ref="193588876"/>
    <nd ref="299140169"/>
    <nd ref="6293100882"/>
    <nd ref="299140167"/>
    <nd ref="193588877"/>
    <tag k="highway" v="tertiary"/>
    <tag k="name" v="New Lane"/>
    <tag k="source" v="gps"/>
  </way>
  <way id="27234214" version="5" timestamp="2018-08-16T15:43:43Z" changeset="61720005" uid="3482573" user="GlossySpongy">
    <nd ref="298892906"/>
    <nd ref="256777009"/>
    <nd ref="298892910"/>
    <nd ref="298892909"/>
    <nd ref="256777010"/>
    <nd ref="298892905"/>
    <nd ref="256777011"/>
    <nd ref="298892903"/>
    <nd ref="298892901"/>
    <nd ref="298892902"/>
    <nd ref="256777012"/>
    <nd ref="298892900"/>
    <nd ref="298892899"/>
    <nd ref="256777013"/>
    <nd ref="298892897"/>
    <nd ref="298892898"/>
    <nd ref="256777014"/>
    <tag k="highway" v="unclassified"/>
    <tag k="name" v="Mill Lane"/>
    <tag k="source" v="gps"/>
    <tag k="surface" v="asphalt"/>
  </way>
  <way id="27234215" version="2" timestamp="2008-12-18T13:54:21Z" changeset="455260" uid="5121" user="user_5121">
    <nd ref="298892942"/>
    <nd ref="298892931"/>
    <nd ref="298892946"/>
    <tag k="bridge" v="yes"/>
    <tag k="created_by" v="JOSM"/>
    <tag k="highway" v="tertiary"/>
    <tag k="layer" v="1"/>
    <tag k="source" v="gps"/>
  </way>
  <way id="27234216" version="2" timestamp="2017-05-25T08:18:56Z" changeset="48966135" uid="1431482" user="JonOrchard">
    <nd ref="298892946"/>
    <nd ref="298892935"/>
    <nd ref="298892934"/>
    <nd ref="298892928"/>
    <nd ref="298892925"/>
    <nd ref="298892926"/>
    <nd ref="4875539247"/>
    <nd ref="298892923"/>
    <nd ref="298892924"/>
    <nd ref="153395963"/>
    <tag k="highway" v="tertiary"/>
    <tag k="source" v="gps"/>
  </way>
  <way id="27255603" version="10" timestamp="2022-09-02T15:58:51Z" changeset="125705174" uid="2762871" user="Sam888">
    <nd ref="193588877"/>
    <nd ref="193588878"/>
    <nd ref="4875558238"/>
    <nd ref="193588879"/>
    <nd ref="2211844303"/>
    <nd ref="4875558237"/>
    <nd ref="193588880"/>
    <nd ref="2211844322"/>
    <nd ref="6942971856"/>
    <nd ref="299140151"/>
    <nd ref="1149303149"/>
    <nd ref="299140152"/>
    <nd ref="193588881"/>
    <nd ref="299140154"/>
    <nd ref="1149303178"/>
    <nd ref="193588882"/>
    <nd ref="299140155"/>
    <nd ref="299140157"/>
    <nd ref="6293102193"/>
    <nd ref="193588884"/>
    <nd ref="6970074576"/>
    <nd ref="193588885"/>
    <nd ref="6970074568"/>
    <nd ref="299140158"/>
    <nd ref="193588886"/>
    <nd ref="299140160"/>
    <nd ref="193588887"/>
    <nd ref="299140161"/>
    <nd ref="6970074566"/>
    <nd ref="193586550"/>
    <tag k="highway" v="tertiary"/>
    <tag k="maxspeed" v="30 mph"/>
    <tag k="name" v="Main Street"/>
    <tag k="source" v="gps"/>
    <tag k="source:maxspeed" v="Bing painting on road"/>
  </way>
  <way id="99366161" version="2" timestamp="2024-04-25T16:16:50Z" changeset="150504461" uid="15197552" user="Andrew John Wright">
    <nd ref="1149303192"/>
    <nd ref="1149303141"/>
    <nd ref="1149303216"/>
    <nd ref="11847807978"/>
    <nd ref="1149303149"/>
    <tag k="access" v="private"/>
    <tag k="highway" v="residential"/>
    <tag k="name" v="The Saucers"/>
    <tag k="source" v="bing"/>
    <tag k="source:name" v="OS OpenData Locator"/>
  </way>
  <way id="262441542" version="1" timestamp="2014-02-19T19:03:29Z" changeset="20660896" uid="453695" user="RR81">
    <nd ref="153395965"/>
    <nd ref="2681024219"/>
    <nd ref="153395963"/>
    <tag k="highway" v="tertiary"/>
    <tag k="name" v="Hawksworth Lane"/>
    <tag k="source:name" v="NaPTAN"/>
  </way>
  <way id="398806476" version="3" timestamp="2018-05-29T18:50:27Z" changeset="59376424" uid="51454" user="flint">
    <nd ref="1149303138"/>
    <nd ref="5650160333"/>
    <nd ref="330488991"/>
    <nd ref="1149303178"/>
    <tag k="highway" v="residential"/>
    <tag k="name" v="Chapel Lane"/>
    <tag k="source" v="bing"/>
    <tag k="source:name" v="OS OpenData Locator"/>
  </way>
  <way id="591884297" version="7" timestamp="2025-06-07T11:27:19Z" changeset="167304988" uid="8857" user="philipcullen">
    <nd ref="5650159009"/>
    <nd ref="5650159010"/>
    <nd ref="5650159011"/>
    <nd ref="5650159012"/>
    <nd ref="5650159013"/>
    <nd ref="5650159014"/>
    <nd ref="5650159015"/>
    <nd ref="5650159016"/>
    <nd ref="5650159019"/>
    <nd ref="5650159020"/>
    <nd ref="5650159018"/>
    <nd ref="5650159017"/>
    <nd ref="5650159009"/>
    <tag k="addr:city" v="Nottingham"/>
    <tag k="addr:country" v="GB"/>
    <tag k="addr:postcode" v="NG13 9BP"/>
    <tag k="addr:suburb" v="Scarrington"/>
    <tag k="amenity" v="place_of_worship"/>
    <tag k="building" v="yes"/>
    <tag k="denomination" v="anglican"/>
    <tag k="name" v="St John of Beverley"/>
    <tag k="ref:GB:uprn" v="3040070109;3040060309"/>
    <tag k="ref:dove" v="13563"/>
    <tag k="religion" v="christian"/>
    <tag k="wikidata" v="Q5117241"/>
    <tag k="wikipedia" v="en:Church of St John of Beverley, Scarrington"/>
  </way>
  <way id="591884299" version="4" timestamp="2025-06-07T11:27:19Z" changeset="167304988" uid="8857" user="philipcullen">
    <nd ref="5650160329"/>
    <nd ref="5650160330"/>
    <nd ref="5650160331"/>
    <nd ref="5650160332"/>
    <nd ref="5650160329"/>
    <tag k="addr:city" v="Nottingham"/>
    <tag k="addr:country" v="GB"/>
    <tag k="addr:postcode" v="NG13 9BX"/>
    <tag k="addr:suburb" v="Scarrington"/>
    <tag k="amenity" v="place_of_worship"/>
    <tag k="building" v="yes"/>
    <tag k="denomination" v="methodist"/>
    <tag k="name" v="Scarrington Methodist Church"/>
    <tag k="ref:GB:uprn" v="3040045191"/>
    <tag k="religion" v="christian"/>
  </way>
  <way id="672012593" version="2" timestamp="2021-01-04T10:00:45Z" changeset="96897021" uid="11734027" user="kukarana">
    <nd ref="6293100882"/>
    <nd ref="6293100883"/>
    <nd ref="6293100884"/>
    <nd ref="6293102185"/>
    <nd ref="8289085261"/>
    <nd ref="6293102186"/>
    <nd ref="6293102187"/>
    <nd ref="6293102188"/>
    <nd ref="6293102189"/>
    <nd ref="5650160355"/>
    <tag k="highway" v="unclassified"/>
    <tag k="motor_vehicle" v="yes"/>
  </way>
  <way id="672012594" version="1" timestamp="2019-02-21T12:38:01Z" changeset="67427834" uid="9268825" user="sushredd">
    <nd ref="6293102186"/>
    <nd ref="6293102190"/>
    <nd ref="6293102191"/>
    <nd ref="6293102192"/>
    <tag k="highway" v="unclassified"/>
  </way>

</osm>
