<?xml version="1.0" encoding="UTF-8"?>
<osm version="0.6" generator="Overpass API 0.7.62.8 e802775f">
<note>The data included in this document is from www.openstreetmap.org. The data is made available under ODbL.</note>
<meta osm_base="2025-10-23T17:28:33Z" areas="2025-10-23T12:46:58Z"/>

  <node id="186094201" lat="52.9518360" lon="-1.0030934" version="7" timestamp="2025-04-21T14:19:09Z" changeset="165242598" uid="5008136" user="JayTurnr"/>
  <node id="186099157" lat="52.9532853" lon="-1.0044801" version="2" timestamp="2013-04-10T21:33:10Z" changeset="15683241" uid="1192444" user="Pyrope"/>
  <node id="186099159" lat="52.9535413" lon="-1.0045750" version="3" timestamp="2020-03-31T14:33:39Z" changeset="82876489" uid="84075" user="kevjs1982"/>
  <node id="366515956" lat="52.9510288" lon="-1.0024550" version="10" timestamp="2023-12-22T16:40:12Z" changeset="145413101" uid="11922250" user="mattfry">
    <tag k="access" v="no"/>
    <tag k="barrier" v="bollard"/>
    <tag k="bicycle" v="yes"/>
    <tag k="bollard" v="fixed"/>
    <tag k="foot" v="yes"/>
    <tag k="height" v="1"/>
    <tag k="horse" v="yes"/>
    <tag k="material" v="concrete"/>
    <tag k="motor_vehicle" v="no"/>
  </node>
  <node id="973696617" lat="52.9510925" lon="-0.9948356" version="3" timestamp="2016-04-03T17:00:32Z" changeset="38270939" uid="207845" user="will_p"/>
  <node id="1075268139" lat="52.9549712" lon="-0.9724995" version="4" timestamp="2016-05-15T18:22:32Z" changeset="39336574" uid="207845" user="will_p"/>
  <node id="1262305856" lat="52.9508544" lon="-0.9836615" version="3" timestamp="2025-04-21T14:26:16Z" changeset="165242923" uid="5008136" user="JayTurnr"/>
  <node id="1524656767" lat="52.9517124" lon="-0.9782710" version="5" timestamp="2017-05-24T13:15:41Z" changeset="48947556" uid="2773866" user="kreuzschnabel"/>
  <node id="1524656956" lat="52.9517954" lon="-0.9784179" version="8" timestamp="2022-03-15T22:16:50Z" changeset="118529195" uid="705850" user="Cebderby"/>
  <node id="1524657301" lat="52.9503850" lon="-0.9813189" version="7" timestamp="2012-11-30T18:03:33Z" changeset="14102077" uid="174796" user="General Dreedle"/>
  <node id="1645045030" lat="52.9498443" lon="-0.9817247" version="7" timestamp="2022-03-15T22:16:50Z" changeset="118529195" uid="705850" user="Cebderby"/>
  <node id="1811495868" lat="52.9980451" lon="-0.9234462" version="3" timestamp="2025-04-21T18:36:24Z" changeset="165253542" uid="5229644" user="Nathan_A_RF">
    <tag k="exit_to" v="Kneeton"/>
    <tag k="highway" v="motorway_junction"/>
    <tag k="name" v="Red Lodge"/>
  </node>
  <node id="2194705349" lat="52.9534029" lon="-0.9756337" version="5" timestamp="2022-03-15T22:16:50Z" changeset="118529195" uid="705850" user="Cebderby">
    <tag k="exit_to" v="THE SOUTH (A1);(M1 North);Grantham A52;Nottingham A52;East Midlands Airport;Whatton;Radcliffe on Trent;Cropwell Butler;Bingham;Saxondale;National Water Sports Centre"/>
    <tag k="highway" v="motorway_junction"/>
    <tag k="name" v="Bingham Interchange"/>
    <tag k="source:name" v="Survey"/>
  </node>
  <node id="2195089244" lat="52.9497831" lon="-0.9781849" version="2" timestamp="2014-07-30T18:48:49Z" changeset="24449566" uid="1091339" user="King Sad"/>
  <node id="3236603864" lat="52.9613658" lon="-0.9649886" version="3" timestamp="2025-03-26T18:30:12Z" changeset="164133956" uid="5229644" user="Nathan_A_RF"/>
  <node id="12703270752" lat="52.9548210" lon="-0.9726606" version="1" timestamp="2025-03-26T18:30:12Z" changeset="164133956" uid="5229644" user="Nathan_A_RF"/>
  <node id="12772259704" lat="52.9518465" lon="-1.0028094" version="1" timestamp="2025-04-21T14:19:09Z" changeset="165242598" uid="5008136" user="JayTurnr"/>
  <way id="17978351" version="7" timestamp="2020-03-31T14:33:29Z" changeset="82876489" uid="84075" user="kevjs1982">
    <nd ref="186094201"/>
    <nd ref="1659799902"/>
    <nd ref="2262072168"/>
    <nd ref="7351105670"/>
    <nd ref="2262072171"/>
    <nd ref="7351105672"/>
    <nd ref="7351105662"/>
    <nd ref="186099157"/>
    <tag k="highway" v="unclassified"/>
    <tag k="lanes" v="1"/>
    <tag k="name" v="Oatfield Lane"/>
    <tag k="note" v="single track road with passing places"/>
    <tag k="source:name" v="survey"/>
    <tag k="surface" v="asphalt"/>
  </way>
  <way id="38961853" version="2" timestamp="2016-04-03T17:00:22Z" changeset="38270939" uid="207845" user="will_p">
    <nd ref="366515956"/>
    <nd ref="4095702796"/>
    <nd ref="4095702804"/>
    <nd ref="463204923"/>
    <tag k="highway" v="unclassified"/>
    <tag k="name" v="Henson Lane"/>
    <tag k="noexit" v="yes"/>
    <tag k="source" v="NPE"/>
    <tag k="source:name" v="survey"/>
  </way>
  <way id="51520413" version="26" timestamp="2025-03-26T18:30:12Z" changeset="164133956" uid="5229644" user="Nathan_A_RF">
    <nd ref="12703270752"/>
    <nd ref="658778800"/>
    <nd ref="658778797"/>
    <nd ref="897564703"/>
    <nd ref="658778794"/>
    <nd ref="658778791"/>
    <nd ref="27044996"/>
    <tag k="cycleway:both" v="no"/>
    <tag k="highway" v="secondary"/>
    <tag k="lanes" v="2"/>
    <tag k="maxspeed" v="60 mph"/>
    <tag k="maxspeed:type" v="GB:nsl_single"/>
    <tag k="name" v="Fosse Road"/>
    <tag k="old_ref" v="A46"/>
    <tag k="ref" v="B692"/>
    <tag k="source" v="GPS"/>
    <tag k="surface" v="asphalt"/>
  </way>
  <way id="74051981" version="9" timestamp="2022-10-28T19:14:34Z" changeset="128188162" uid="13666626" user="RedAuburn">
    <nd ref="876206176"/>
    <nd ref="4095702807"/>
    <tag k="bicycle" v="yes"/>
    <tag k="cyclestreets_id" v="58770"/>
    <tag k="cycleway:left" v="share_busway"/>
    <tag k="highway" v="trunk"/>
    <tag k="lanes" v="2"/>
    <tag k="lanes:psv" v="1"/>
    <tag k="lit" v="yes"/>
    <tag k="maxspeed" v="50 mph"/>
    <tag k="name" v="Grantham Road"/>
    <tag k="national_highways:area" v="7"/>
    <tag k="operator" v="National Highways"/>
    <tag k="operator:wikidata" v="Q5760006"/>
    <tag k="ref" v="A52"/>
    <tag k="source:name" v="OS OpenData StreetView"/>
    <tag k="surface" v="asphalt"/>
    <tag k="url" v="https://www.cyclestreets.net/location/58770/"/>
  </way>
  <way id="74051986" version="13" timestamp="2023-06-23T09:57:08Z" changeset="137681513" uid="242345" user="confusedbuffalo">
    <nd ref="876206174"/>
    <nd ref="4095702794"/>
    <nd ref="27044961"/>
    <nd ref="973696617"/>
    <tag k="highway" v="trunk"/>
    <tag k="lanes" v="2"/>
    <tag k="lit" v="yes"/>
    <tag k="maxspeed" v="60 mph"/>
    <tag k="maxspeed:type" v="GB:nsl_single"/>
    <tag k="name" v="Grantham Road"/>
    <tag k="national_highways:area" v="7"/>
    <tag k="operator" v="National Highways"/>
    <tag k="operator:wikidata" v="Q5760006"/>
    <tag k="ref" v="A52"/>
    <tag k="shoulder" v="no"/>
    <tag k="source:name" v="OS OpenData StreetView"/>
  </way>
  <way id="74051990" version="8" timestamp="2022-10-28T19:14:34Z" changeset="128188162" uid="13666626" user="RedAuburn">
    <nd ref="463204923"/>
    <nd ref="4095702815"/>
    <nd ref="27044960"/>
    <nd ref="876206176"/>
    <tag k="hazard:backward" v="queues_likely"/>
    <tag k="highway" v="trunk"/>
    <tag k="lit" v="yes"/>
    <tag k="maxspeed" v="50 mph"/>
    <tag k="name" v="Grantham Road"/>
    <tag k="national_highways:area" v="7"/>
    <tag k="operator" v="National Highways"/>
    <tag k="operator:wikidata" v="Q5760006"/>
    <tag k="ref" v="A52"/>
    <tag k="source:name" v="OS OpenData StreetView"/>
  </way>
  <way id="83608607" version="16" timestamp="2023-06-23T09:57:08Z" changeset="137681513" uid="242345" user="confusedbuffalo">
    <nd ref="973696617"/>
    <nd ref="4095701183"/>
    <nd ref="973696668"/>
    <nd ref="973696695"/>
    <nd ref="4095701179"/>
    <nd ref="4095701174"/>
    <nd ref="973696703"/>
    <nd ref="4095701164"/>
    <nd ref="4095701161"/>
    <nd ref="973696706"/>
    <nd ref="973696711"/>
    <nd ref="973696716"/>
    <nd ref="2277737086"/>
    <nd ref="973696719"/>
    <nd ref="973696722"/>
    <tag k="bicycle" v="yes"/>
    <tag k="highway" v="trunk"/>
    <tag k="lanes" v="2"/>
    <tag k="lit" v="yes"/>
    <tag k="maxspeed" v="60 mph"/>
    <tag k="maxspeed:type" v="GB:nsl_single"/>
    <tag k="national_highways:area" v="7"/>
    <tag k="operator" v="National Highways"/>
    <tag k="operator:wikidata" v="Q5760006"/>
    <tag k="ref" v="A52"/>
    <tag k="shoulder" v="no"/>
  </way>
  <way id="110558484" version="7" timestamp="2024-08-25T13:41:37Z" changeset="155737857" uid="2295875" user="cb44">
    <nd ref="1262305851"/>
    <nd ref="6720638679"/>
    <nd ref="897450326"/>
    <nd ref="11348850816"/>
    <nd ref="973696151"/>
    <nd ref="897670782"/>
    <nd ref="463204665"/>
    <nd ref="4095702827"/>
    <nd ref="4095702839"/>
    <nd ref="4095702854"/>
    <nd ref="4095702858"/>
    <nd ref="4095702860"/>
    <nd ref="4095702862"/>
    <nd ref="463204664"/>
    <nd ref="4095702863"/>
    <nd ref="4095702864"/>
    <nd ref="4095702861"/>
    <nd ref="463204699"/>
    <nd ref="4095702855"/>
    <nd ref="463204698"/>
    <nd ref="12135778030"/>
    <nd ref="12135778062"/>
    <nd ref="4095702849"/>
    <nd ref="4095702846"/>
    <nd ref="4095702844"/>
    <nd ref="463204684"/>
    <nd ref="4095702840"/>
    <nd ref="4095702838"/>
    <nd ref="12135753866"/>
    <nd ref="8256584591"/>
    <nd ref="4095702826"/>
    <nd ref="4095702813"/>
    <nd ref="1262306203"/>
    <nd ref="4095702803"/>
    <nd ref="4095702797"/>
    <nd ref="463204689"/>
    <nd ref="2262081915"/>
    <nd ref="4095701182"/>
    <nd ref="6720675591"/>
    <nd ref="463204692"/>
    <tag k="access" v="yes"/>
    <tag k="highway" v="unclassified"/>
    <tag k="name" v="Main Street"/>
    <tag k="source" v="NPE"/>
    <tag k="source:name" v="survey"/>
  </way>
  <way id="116459867" version="9" timestamp="2019-08-18T11:07:41Z" changeset="73461229" uid="84075" user="kevjs1982">
    <nd ref="1659799876"/>
    <nd ref="6720638684"/>
    <nd ref="5078042275"/>
    <nd ref="2293574807"/>
    <nd ref="1659799879"/>
    <nd ref="4095701171"/>
    <nd ref="1262305856"/>
    <tag k="highway" v="unclassified"/>
    <tag k="lit" v="yes"/>
    <tag k="maxspeed" v="30 mph"/>
    <tag k="source" v="GPS"/>
  </way>
  <way id="151266231" version="37" timestamp="2025-07-07T13:48:51Z" changeset="168606652" uid="808803" user="Andidy">
    <nd ref="1811495868"/>
    <nd ref="12772863761"/>
    <nd ref="1811495870"/>
    <nd ref="1640745511"/>
    <nd ref="12772863769"/>
    <nd ref="1640745509"/>
    <nd ref="1640745513"/>
    <nd ref="8152193806"/>
    <nd ref="8152193802"/>
    <nd ref="1640745521"/>
    <nd ref="1640745512"/>
    <nd ref="2036578980"/>
    <nd ref="2036579000"/>
    <nd ref="1640745514"/>
    <nd ref="1640887194"/>
    <nd ref="1640745515"/>
    <nd ref="4883586426"/>
    <nd ref="1640896184"/>
    <nd ref="4883586434"/>
    <nd ref="1640923820"/>
    <nd ref="11989736795"/>
    <nd ref="11989736794"/>
    <nd ref="1640923802"/>
    <nd ref="10202626910"/>
    <nd ref="10202626912"/>
    <nd ref="10202626909"/>
    <nd ref="1640923837"/>
    <nd ref="10202626913"/>
    <nd ref="10202626919"/>
    <nd ref="1640923818"/>
    <nd ref="1640923821"/>
    <nd ref="2211816462"/>
    <nd ref="10202626960"/>
    <nd ref="2211816688"/>
    <nd ref="1640923822"/>
    <nd ref="10202626961"/>
    <nd ref="10202626963"/>
    <nd ref="1640923824"/>
    <nd ref="1645053863"/>
    <nd ref="10202627017"/>
    <nd ref="1640923835"/>
    <nd ref="4666430931"/>
    <nd ref="4666430928"/>
    <nd ref="1640923826"/>
    <nd ref="10202627019"/>
    <nd ref="1640923830"/>
    <nd ref="1640923833"/>
    <nd ref="1640945150"/>
    <nd ref="2194705349"/>
    <nd ref="1640945152"/>
    <nd ref="1524656767"/>
    <tag k="bicycle" v="yes"/>
    <tag k="expressway" v="yes"/>
    <tag k="highway" v="trunk"/>
    <tag k="lanes" v="2"/>
    <tag k="lit" v="no"/>
    <tag k="maxheight:signed" v="no"/>
    <tag k="maxspeed" v="70 mph"/>
    <tag k="maxspeed:type" v="GB:nsl_dual"/>
    <tag k="national_highways:area" v="7"/>
    <tag k="oneway" v="yes"/>
    <tag k="operator" v="National Highways"/>
    <tag k="operator:wikidata" v="Q5760006"/>
    <tag k="ref" v="A46"/>
    <tag k="source" v="GPS Survey"/>
    <tag k="surface" v="asphalt"/>
  </way>
  <way id="151275208" version="17" timestamp="2023-09-05T20:57:15Z" changeset="140868593" uid="13341565" user="Falsernet">
    <nd ref="1524656767"/>
    <nd ref="1524656772"/>
    <nd ref="1645045025"/>
    <tag k="bicycle" v="yes"/>
    <tag k="expressway" v="yes"/>
    <tag k="highway" v="trunk"/>
    <tag k="lanes" v="2"/>
    <tag k="lit" v="no"/>
    <tag k="maxspeed" v="70 mph"/>
    <tag k="maxspeed:type" v="GB:nsl_dual"/>
    <tag k="national_highways:area" v="7"/>
    <tag k="oneway" v="yes"/>
    <tag k="operator" v="National Highways"/>
    <tag k="operator:wikidata" v="Q5760006"/>
    <tag k="ref" v="A46"/>
    <tag k="shoulder" v="no"/>
    <tag k="surface" v="asphalt"/>
  </way>
  <way id="151276252" version="36" timestamp="2025-07-07T13:48:44Z" changeset="168606652" uid="808803" user="Andidy">
    <nd ref="1524656956"/>
    <nd ref="9581722677"/>
    <nd ref="1640949590"/>
    <nd ref="1640949555"/>
    <nd ref="1640949574"/>
    <nd ref="1640949615"/>
    <nd ref="1640970876"/>
    <nd ref="1640949594"/>
    <nd ref="4666430930"/>
    <nd ref="4666430932"/>
    <nd ref="1640949563"/>
    <nd ref="10202626965"/>
    <nd ref="1640949576"/>
    <nd ref="1640970869"/>
    <nd ref="2211816718"/>
    <nd ref="10202626962"/>
    <nd ref="1640949601"/>
    <nd ref="2211816660"/>
    <nd ref="10202626959"/>
    <nd ref="2211816708"/>
    <nd ref="1640949618"/>
    <nd ref="1640949599"/>
    <nd ref="10202626920"/>
    <nd ref="10202626914"/>
    <nd ref="10202626915"/>
    <nd ref="1640970867"/>
    <nd ref="10202626911"/>
    <nd ref="1640949557"/>
    <nd ref="1640949553"/>
    <nd ref="4883586433"/>
    <nd ref="1640949578"/>
    <nd ref="4883586435"/>
    <nd ref="1640949595"/>
    <nd ref="1640949580"/>
    <nd ref="1640949607"/>
    <nd ref="2036578977"/>
    <nd ref="2579410637"/>
    <nd ref="1640949561"/>
    <nd ref="2579410642"/>
    <nd ref="1640949616"/>
    <nd ref="1640949588"/>
    <nd ref="1640949597"/>
    <nd ref="12772863768"/>
    <nd ref="12772863767"/>
    <tag k="bicycle" v="yes"/>
    <tag k="expressway" v="yes"/>
    <tag k="highway" v="trunk"/>
    <tag k="lanes" v="2"/>
    <tag k="lit" v="no"/>
    <tag k="maxheight:signed" v="no"/>
    <tag k="maxspeed" v="70 mph"/>
    <tag k="maxspeed:type" v="GB:nsl_dual"/>
    <tag k="national_highways:area" v="7"/>
    <tag k="oneway" v="yes"/>
    <tag k="operator" v="National Highways"/>
    <tag k="operator:wikidata" v="Q5760006"/>
    <tag k="ref" v="A46"/>
    <tag k="source" v="GPS Survey"/>
    <tag k="surface" v="asphalt"/>
  </way>
  <way id="151665246" version="18" timestamp="2023-09-05T20:57:15Z" changeset="140868593" uid="13341565" user="Falsernet">
    <nd ref="1645045030"/>
    <nd ref="1659810636"/>
    <nd ref="1524656956"/>
    <tag k="bicycle" v="yes"/>
    <tag k="expressway" v="yes"/>
    <tag k="highway" v="trunk"/>
    <tag k="lanes" v="2"/>
    <tag k="lit" v="no"/>
    <tag k="maxspeed" v="70 mph"/>
    <tag k="maxspeed:type" v="GB:nsl_dual"/>
    <tag k="national_highways:area" v="7"/>
    <tag k="oneway" v="yes"/>
    <tag k="operator" v="National Highways"/>
    <tag k="operator:wikidata" v="Q5760006"/>
    <tag k="ref" v="A46"/>
    <tag k="shoulder" v="no"/>
    <tag k="surface" v="asphalt"/>
  </way>
  <way id="153273448" version="8" timestamp="2025-03-26T18:30:12Z" changeset="164133956" uid="5229644" user="Nathan_A_RF">
    <nd ref="1262305856"/>
    <nd ref="1659799898"/>
    <nd ref="1262305851"/>
    <nd ref="4095701163"/>
    <nd ref="4095701162"/>
    <nd ref="1659799899"/>
    <nd ref="463204692"/>
    <nd ref="4095701170"/>
    <tag k="highway" v="unclassified"/>
    <tag k="lit" v="yes"/>
    <tag k="maxspeed" v="30 mph"/>
    <tag k="source" v="GPS;OS OpenData BoundaryLine"/>
  </way>
  <way id="169990860" version="10" timestamp="2025-04-21T14:23:59Z" changeset="165242816" uid="5008136" user="JayTurnr">
    <nd ref="1262305856"/>
    <nd ref="1262305897"/>
    <tag k="highway" v="unclassified"/>
    <tag k="lanes" v="2"/>
    <tag k="lit" v="yes"/>
    <tag k="maxspeed" v="30 mph"/>
    <tag k="maxweightrating:hgv" v="7.5"/>
    <tag k="maxweightrating:hgv:conditional" v="none @ destination"/>
    <tag k="source" v="GPS"/>
  </way>
  <way id="209245153" version="7" timestamp="2023-09-05T20:57:15Z" changeset="140868593" uid="13341565" user="Falsernet">
    <nd ref="2194705349"/>
    <nd ref="9581722679"/>
    <nd ref="2194705352"/>
    <nd ref="2194705338"/>
    <nd ref="2194705341"/>
    <nd ref="2194705358"/>
    <nd ref="2670745269"/>
    <tag k="bicycle" v="yes"/>
    <tag k="expressway" v="yes"/>
    <tag k="highway" v="trunk_link"/>
    <tag k="lanes" v="2"/>
    <tag k="lit" v="no"/>
    <tag k="maxheight" v="default"/>
    <tag k="maxspeed" v="70 mph"/>
    <tag k="oneway" v="yes"/>
  </way>
  <way id="216883837" version="5" timestamp="2022-01-20T21:40:42Z" changeset="116404223" uid="4806533" user="PeterPan99">
    <nd ref="186099157"/>
    <nd ref="186099159"/>
    <tag k="bridge" v="yes"/>
    <tag k="highway" v="unclassified"/>
    <tag k="lanes" v="1"/>
    <tag k="layer" v="1"/>
    <tag k="name" v="Oatfield Lane"/>
    <tag k="note" v="single track road with passing places"/>
    <tag k="source:name" v="survey"/>
    <tag k="surface" v="asphalt"/>
  </way>
  <way id="216883838" version="5" timestamp="2020-03-31T17:22:49Z" changeset="82883531" uid="30525" user="Colin Smale">
    <nd ref="186099159"/>
    <nd ref="7351105655"/>
    <nd ref="7351105638"/>
    <nd ref="7351105669"/>
    <nd ref="186099160"/>
    <nd ref="2275687835"/>
    <nd ref="7351105654"/>
    <nd ref="2262072165"/>
    <nd ref="7351105653"/>
    <nd ref="186099162"/>
    <nd ref="2262076203"/>
    <nd ref="2262072170"/>
    <nd ref="7351105652"/>
    <nd ref="2262072172"/>
    <nd ref="7351105651"/>
    <nd ref="2275687809"/>
    <nd ref="7351887249"/>
    <nd ref="7351887248"/>
    <nd ref="7351105647"/>
    <nd ref="2262072175"/>
    <nd ref="7351105645"/>
    <nd ref="2262072169"/>
    <nd ref="7351105644"/>
    <nd ref="2275687844"/>
    <nd ref="186099163"/>
    <nd ref="7351105643"/>
    <nd ref="7351105676"/>
    <nd ref="7351105677"/>
    <nd ref="7351105641"/>
    <nd ref="7351105679"/>
    <nd ref="7351105681"/>
    <nd ref="2262072167"/>
    <nd ref="186099166"/>
    <nd ref="2262072173"/>
    <nd ref="186099167"/>
    <nd ref="7351105675"/>
    <nd ref="7351105678"/>
    <nd ref="7351105665"/>
    <nd ref="7351105636"/>
    <nd ref="2262072174"/>
    <nd ref="7351105633"/>
    <nd ref="7351105631"/>
    <nd ref="7351105635"/>
    <nd ref="7351105632"/>
    <nd ref="186099168"/>
    <nd ref="7351105634"/>
    <nd ref="7351105658"/>
    <nd ref="7351105673"/>
    <nd ref="7351105680"/>
    <nd ref="7351105663"/>
    <nd ref="7351105674"/>
    <nd ref="7351105682"/>
    <nd ref="7351105642"/>
    <nd ref="7351105649"/>
    <nd ref="186099171"/>
    <tag k="highway" v="unclassified"/>
    <tag k="lanes" v="1"/>
    <tag k="name" v="Oatfield Lane"/>
    <tag k="note" v="single track road with passing places"/>
    <tag k="source:name" v="survey"/>
    <tag k="surface" v="asphalt"/>
  </way>
  <way id="407517421" version="3" timestamp="2025-06-07T11:27:19Z" changeset="167304988" uid="8857" user="philipcullen">
    <nd ref="4095702831"/>
    <nd ref="12135753867"/>
    <nd ref="4095702836"/>
    <nd ref="4095702835"/>
    <nd ref="4095702830"/>
    <nd ref="4095702831"/>
    <tag k="addr:street" v="Main Road"/>
    <tag k="building" v="yes"/>
    <tag k="mot" v="yes"/>
    <tag k="name" v="Saxondale Garage"/>
    <tag k="ref:GB:uprn" v="3040072194"/>
    <tag k="shop" v="car_repair"/>
    <tag k="source" v="survey"/>
  </way>
  <way id="460950266" version="6" timestamp="2022-10-28T19:15:37Z" changeset="128188196" uid="13666626" user="RedAuburn">
    <nd ref="4095702807"/>
    <nd ref="876206174"/>
    <tag k="highway" v="trunk"/>
    <tag k="lanes" v="2"/>
    <tag k="lit" v="yes"/>
    <tag k="maxspeed" v="50 mph"/>
    <tag k="name" v="Grantham Road"/>
    <tag k="national_highways:area" v="7"/>
    <tag k="operator" v="National Highways"/>
    <tag k="operator:wikidata" v="Q5760006"/>
    <tag k="ref" v="A52"/>
    <tag k="shoulder" v="no"/>
    <tag k="source:name" v="OS OpenData StreetView"/>
  </way>
  <way id="472430140" version="10" timestamp="2025-03-26T18:30:12Z" changeset="164133956" uid="5229644" user="Nathan_A_RF">
    <nd ref="3236603864"/>
    <nd ref="6635021160"/>
    <nd ref="414230860"/>
    <nd ref="414230851"/>
    <nd ref="27044997"/>
    <nd ref="1075268139"/>
    <tag k="fixme" v="refinement required - check bus routes, parking, footpaths"/>
    <tag k="highway" v="secondary"/>
    <tag k="lanes" v="2"/>
    <tag k="lit" v="no"/>
    <tag k="maxspeed" v="60 mph"/>
    <tag k="maxspeed:type" v="GB:nsl_single"/>
    <tag k="name" v="Fosse Road"/>
    <tag k="old_ref" v="A46"/>
    <tag k="ref" v="B692"/>
    <tag k="shoulder" v="no"/>
    <tag k="source:maxspeed" v="survey"/>
    <tag k="surface" v="asphalt"/>
  </way>
  <way id="472430414" version="8" timestamp="2023-09-05T20:57:15Z" changeset="140868593" uid="13341565" user="Falsernet">
    <nd ref="1524657301"/>
    <nd ref="1524657304"/>
    <nd ref="9581722678"/>
    <nd ref="9581722677"/>
    <tag k="bicycle" v="yes"/>
    <tag k="expressway" v="yes"/>
    <tag k="highway" v="trunk_link"/>
    <tag k="lane_markings" v="no"/>
    <tag k="lit" v="no"/>
    <tag k="maxspeed" v="70 mph"/>
    <tag k="national_highways:area" v="7"/>
    <tag k="oneway" v="yes"/>
    <tag k="operator" v="National Highways"/>
    <tag k="operator:wikidata" v="Q5760006"/>
    <tag k="ref" v="A46"/>
  </way>
  <way id="1371873148" version="1" timestamp="2025-03-26T18:30:12Z" changeset="164133956" uid="5229644" user="Nathan_A_RF">
    <nd ref="1075268139"/>
    <nd ref="12703270752"/>
    <tag k="cycleway:both" v="no"/>
    <tag k="highway" v="secondary"/>
    <tag k="lanes" v="2"/>
    <tag k="maxheight" v="4.6"/>
    <tag k="maxspeed" v="60 mph"/>
    <tag k="maxspeed:type" v="GB:nsl_single"/>
    <tag k="name" v="Fosse Road"/>
    <tag k="old_ref" v="A46"/>
    <tag k="ref" v="B692"/>
    <tag k="source" v="GPS"/>
    <tag k="surface" v="asphalt"/>
  </way>
  <way id="1379325373" version="1" timestamp="2025-04-21T14:19:09Z" changeset="165242598" uid="5008136" user="JayTurnr">
    <nd ref="12772259704"/>
    <nd ref="463204923"/>
    <tag k="highway" v="trunk"/>
    <tag k="lanes" v="3"/>
    <tag k="lanes:backward" v="1"/>
    <tag k="lanes:forward" v="2"/>
    <tag k="lit" v="yes"/>
    <tag k="maxspeed" v="50 mph"/>
    <tag k="name" v="Grantham Road"/>
    <tag k="national_highways:area" v="7"/>
    <tag k="note" v="Cycleway/footway on pavement"/>
    <tag k="operator" v="National Highways"/>
    <tag k="operator:wikidata" v="Q5760006"/>
    <tag k="ref" v="A52"/>
    <tag k="sidewalk" v="left"/>
    <tag k="source:name" v="OS OpenData StreetView"/>
  </way>
  <way id="1379327985" version="1" timestamp="2025-04-21T14:30:58Z" changeset="165243157" uid="5008136" user="JayTurnr">
    <nd ref="2195089244"/>
    <nd ref="2195089330"/>
    <nd ref="2195089278"/>
    <nd ref="2195089270"/>
    <nd ref="2195089315"/>
    <nd ref="2195089255"/>
    <nd ref="768055966"/>
    <nd ref="2195089288"/>
    <nd ref="2195089296"/>
    <nd ref="2195089321"/>
    <nd ref="2195089301"/>
    <nd ref="2195089210"/>
    <nd ref="2195089247"/>
    <nd ref="2195089333"/>
    <tag k="bicycle" v="yes"/>
    <tag k="highway" v="trunk"/>
    <tag k="junction" v="roundabout"/>
    <tag k="lanes" v="2"/>
    <tag k="lit" v="yes"/>
    <tag k="maxspeed" v="60 mph"/>
    <tag k="maxspeed:type" v="GB:nsl_single"/>
    <tag k="name" v="Saxondale Roundabout"/>
    <tag k="national_highways:area" v="7"/>
    <tag k="operator" v="National Highways"/>
    <tag k="operator:wikidata" v="Q5760006"/>
    <tag k="sidewalk" v="no"/>
    <tag k="source:maxspeed" v="survey"/>
    <tag k="surface" v="asphalt"/>
  </way>

</osm>
