<?xml version="1.0" encoding="UTF-8"?>
<osm version="0.6" generator="Overpass API 0.7.62.8 e802775f">
<note>The data included in this document is from www.openstreetmap.org. The data is made available under ODbL.</note>
<meta osm_base="2025-10-23T17:32:45Z" areas="2025-10-23T14:54:58Z"/>

  <node id="279034160" lat="52.9950894" lon="-0.9262472" version="8" timestamp="2020-11-22T20:24:14Z" changeset="94597629" uid="84075" user="kevjs1982"/>
  <node id="1524656956" lat="52.9517954" lon="-0.9784179" version="8" timestamp="2022-03-15T22:16:50Z" changeset="118529195" uid="705850" user="Cebderby"/>
  <node id="1640839880" lat="53.0149577" lon="-0.9042023" version="2" timestamp="2017-06-03T22:03:32Z" changeset="49230320" uid="6115408" user="LAW3"/>
  <node id="1640949582" lat="52.9978781" lon="-0.9238811" version="3" timestamp="2025-04-21T18:36:24Z" changeset="165253542" uid="5229644" user="Nathan_A_RF"/>
  <node id="1811407712" lat="52.9959762" lon="-0.9251879" version="3" timestamp="2020-11-22T20:24:14Z" changeset="94597629" uid="84075" user="kevjs1982"/>
  <node id="1811407721" lat="52.9966556" lon="-0.9238592" version="3" timestamp="2025-04-21T18:36:24Z" changeset="165253542" uid="5229644" user="Nathan_A_RF"/>
  <node id="1811407733" lat="52.9974064" lon="-0.9232333" version="5" timestamp="2025-04-21T18:36:24Z" changeset="165253542" uid="5229644" user="Nathan_A_RF"/>
  <node id="1811495868" lat="52.9980451" lon="-0.9234462" version="3" timestamp="2025-04-21T18:36:24Z" changeset="165253542" uid="5229644" user="Nathan_A_RF">
    <tag k="exit_to" v="Kneeton"/>
    <tag k="highway" v="motorway_junction"/>
    <tag k="name" v="Red Lodge"/>
  </node>
  <node id="7205538760" lat="52.9956204" lon="-0.9495338" version="1" timestamp="2020-02-12T09:11:05Z" changeset="80894907" uid="10126647" user="ansukess"/>
  <way id="15714019" version="6" timestamp="2016-05-09T22:19:38Z" changeset="39202844" uid="207845" user="will_p">
    <nd ref="150544965"/>
    <nd ref="4174951696"/>
    <nd ref="4174951697"/>
    <nd ref="3113547042"/>
    <nd ref="3113547086"/>
    <nd ref="157043019"/>
    <nd ref="4174951698"/>
    <nd ref="3113547165"/>
    <nd ref="157043020"/>
    <nd ref="3113547066"/>
    <nd ref="3113546887"/>
    <nd ref="157043022"/>
    <nd ref="157043024"/>
    <tag k="highway" v="residential"/>
    <tag k="maxspeed" v="30 mph"/>
    <tag k="source:maxspeed" v="survey"/>
  </way>
  <way id="15714026" version="6" timestamp="2014-10-07T12:18:24Z" changeset="25916165" uid="84681" user="SK53">
    <nd ref="262648707"/>
    <nd ref="262648708"/>
    <nd ref="262648709"/>
    <nd ref="262648710"/>
    <nd ref="3116442898"/>
    <nd ref="3116442907"/>
    <nd ref="157043207"/>
    <nd ref="157043022"/>
    <tag k="highway" v="residential"/>
    <tag k="maxspeed" v="30 mph"/>
    <tag k="name" v="Vicarage Lane"/>
    <tag k="source:maxspeed" v="survey"/>
    <tag k="source:name" v="OS OpenData StreetView"/>
  </way>
  <way id="15714098" version="11" timestamp="2014-10-05T20:51:22Z" changeset="25884855" uid="84681" user="SK53">
    <nd ref="157043020"/>
    <nd ref="3113547062"/>
    <nd ref="157044498"/>
    <nd ref="3113546918"/>
    <nd ref="3113547041"/>
    <nd ref="3113546897"/>
    <nd ref="3113547048"/>
    <nd ref="157044499"/>
    <nd ref="3113547065"/>
    <nd ref="157044501"/>
    <nd ref="3113547087"/>
    <nd ref="3113547068"/>
    <nd ref="3113547077"/>
    <tag k="highway" v="unclassified"/>
    <tag k="maxspeed" v="30 mph"/>
    <tag k="name" v="Slack's Lane"/>
    <tag k="source:maxspeed" v="survey"/>
    <tag k="source:name" v="OS OpenData StreetView"/>
  </way>
  <way id="19095822" version="10" timestamp="2024-01-19T19:32:09Z" changeset="146455440" uid="242345" user="confusedbuffalo">
    <nd ref="157042567"/>
    <nd ref="197992934"/>
    <nd ref="197992935"/>
    <nd ref="197992936"/>
    <nd ref="197992937"/>
    <nd ref="197992938"/>
    <nd ref="3113546920"/>
    <nd ref="197992940"/>
    <nd ref="197992941"/>
    <nd ref="197992942"/>
    <nd ref="197992943"/>
    <nd ref="1811407725"/>
    <tag k="highway" v="unclassified"/>
    <tag k="lanes" v="1"/>
    <tag k="lit" v="no"/>
    <tag k="maxspeed" v="60 mph"/>
    <tag k="maxspeed:type" v="GB:nsl_single"/>
    <tag k="maxweight" v="7.5"/>
    <tag k="name" v="Red Lodge Lane"/>
    <tag k="source:maxspeed" v="survey"/>
    <tag k="source:name" v="OS OpenData StreetView"/>
    <tag k="surface" v="asphalt"/>
  </way>
  <way id="25598704" version="10" timestamp="2024-01-19T19:32:09Z" changeset="146455440" uid="242345" user="confusedbuffalo">
    <nd ref="279034160"/>
    <nd ref="8152101884"/>
    <nd ref="8152101883"/>
    <nd ref="8152101885"/>
    <nd ref="279034400"/>
    <nd ref="1165744097"/>
    <nd ref="5840625138"/>
    <nd ref="5840625139"/>
    <nd ref="5840625137"/>
    <nd ref="279034401"/>
    <nd ref="5840625136"/>
    <nd ref="1165743799"/>
    <nd ref="5840625135"/>
    <nd ref="1165743875"/>
    <nd ref="1165743842"/>
    <nd ref="279034402"/>
    <nd ref="279034403"/>
    <nd ref="279034404"/>
    <nd ref="279034405"/>
    <nd ref="279034406"/>
    <nd ref="4176918565"/>
    <nd ref="4176918564"/>
    <nd ref="4176918561"/>
    <nd ref="4176918560"/>
    <tag k="highway" v="unclassified"/>
    <tag k="lit" v="no"/>
    <tag k="maxspeed" v="60 mph"/>
    <tag k="maxspeed:type" v="GB:nsl_single"/>
    <tag k="name" v="Lodge Lane"/>
    <tag k="source" v="image"/>
    <tag k="source:name" v="OS Open Locator"/>
  </way>
  <way id="60685261" version="9" timestamp="2023-06-24T08:30:24Z" changeset="137713181" uid="242345" user="confusedbuffalo">
    <nd ref="759716142"/>
    <nd ref="4174951694"/>
    <nd ref="157042565"/>
    <nd ref="282315775"/>
    <nd ref="4174951695"/>
    <nd ref="150544963"/>
    <nd ref="3113546921"/>
    <nd ref="3113547116"/>
    <nd ref="3113547114"/>
    <nd ref="3113546907"/>
    <nd ref="1301274720"/>
    <nd ref="157042567"/>
    <nd ref="3116308001"/>
    <nd ref="3116326048"/>
    <nd ref="3116307998"/>
    <nd ref="3113151790"/>
    <nd ref="150544964"/>
    <nd ref="3113547104"/>
    <nd ref="3113546906"/>
    <nd ref="150544965"/>
    <tag k="highway" v="unclassified"/>
    <tag k="lanes" v="1"/>
    <tag k="lit" v="no"/>
    <tag k="maxspeed" v="60 mph"/>
    <tag k="maxspeed:type" v="GB:nsl_single"/>
    <tag k="name" v="Bridgford Road"/>
    <tag k="source:name" v="OS OpenData StreetView"/>
    <tag k="surface" v="asphalt"/>
  </way>
  <way id="151266231" version="37" timestamp="2025-07-07T13:48:51Z" changeset="168606652" uid="808803" user="Andidy">
    <nd ref="1811495868"/>
    <nd ref="12772863761"/>
    <nd ref="1811495870"/>
    <nd ref="1640745511"/>
    <nd ref="12772863769"/>
    <nd ref="1640745509"/>
    <nd ref="1640745513"/>
    <nd ref="8152193806"/>
    <nd ref="8152193802"/>
    <nd ref="1640745521"/>
    <nd ref="1640745512"/>
    <nd ref="2036578980"/>
    <nd ref="2036579000"/>
    <nd ref="1640745514"/>
    <nd ref="1640887194"/>
    <nd ref="1640745515"/>
    <nd ref="4883586426"/>
    <nd ref="1640896184"/>
    <nd ref="4883586434"/>
    <nd ref="1640923820"/>
    <nd ref="11989736795"/>
    <nd ref="11989736794"/>
    <nd ref="1640923802"/>
    <nd ref="10202626910"/>
    <nd ref="10202626912"/>
    <nd ref="10202626909"/>
    <nd ref="1640923837"/>
    <nd ref="10202626913"/>
    <nd ref="10202626919"/>
    <nd ref="1640923818"/>
    <nd ref="1640923821"/>
    <nd ref="2211816462"/>
    <nd ref="10202626960"/>
    <nd ref="2211816688"/>
    <nd ref="1640923822"/>
    <nd ref="10202626961"/>
    <nd ref="10202626963"/>
    <nd ref="1640923824"/>
    <nd ref="1645053863"/>
    <nd ref="10202627017"/>
    <nd ref="1640923835"/>
    <nd ref="4666430931"/>
    <nd ref="4666430928"/>
    <nd ref="1640923826"/>
    <nd ref="10202627019"/>
    <nd ref="1640923830"/>
    <nd ref="1640923833"/>
    <nd ref="1640945150"/>
    <nd ref="2194705349"/>
    <nd ref="1640945152"/>
    <nd ref="1524656767"/>
    <tag k="bicycle" v="yes"/>
    <tag k="expressway" v="yes"/>
    <tag k="highway" v="trunk"/>
    <tag k="lanes" v="2"/>
    <tag k="lit" v="no"/>
    <tag k="maxheight:signed" v="no"/>
    <tag k="maxspeed" v="70 mph"/>
    <tag k="maxspeed:type" v="GB:nsl_dual"/>
    <tag k="national_highways:area" v="7"/>
    <tag k="oneway" v="yes"/>
    <tag k="operator" v="National Highways"/>
    <tag k="operator:wikidata" v="Q5760006"/>
    <tag k="ref" v="A46"/>
    <tag k="source" v="GPS Survey"/>
    <tag k="surface" v="asphalt"/>
  </way>
  <way id="151276252" version="36" timestamp="2025-07-07T13:48:44Z" changeset="168606652" uid="808803" user="Andidy">
    <nd ref="1524656956"/>
    <nd ref="9581722677"/>
    <nd ref="1640949590"/>
    <nd ref="1640949555"/>
    <nd ref="1640949574"/>
    <nd ref="1640949615"/>
    <nd ref="1640970876"/>
    <nd ref="1640949594"/>
    <nd ref="4666430930"/>
    <nd ref="4666430932"/>
    <nd ref="1640949563"/>
    <nd ref="10202626965"/>
    <nd ref="1640949576"/>
    <nd ref="1640970869"/>
    <nd ref="2211816718"/>
    <nd ref="10202626962"/>
    <nd ref="1640949601"/>
    <nd ref="2211816660"/>
    <nd ref="10202626959"/>
    <nd ref="2211816708"/>
    <nd ref="1640949618"/>
    <nd ref="1640949599"/>
    <nd ref="10202626920"/>
    <nd ref="10202626914"/>
    <nd ref="10202626915"/>
    <nd ref="1640970867"/>
    <nd ref="10202626911"/>
    <nd ref="1640949557"/>
    <nd ref="1640949553"/>
    <nd ref="4883586433"/>
    <nd ref="1640949578"/>
    <nd ref="4883586435"/>
    <nd ref="1640949595"/>
    <nd ref="1640949580"/>
    <nd ref="1640949607"/>
    <nd ref="2036578977"/>
    <nd ref="2579410637"/>
    <nd ref="1640949561"/>
    <nd ref="2579410642"/>
    <nd ref="1640949616"/>
    <nd ref="1640949588"/>
    <nd ref="1640949597"/>
    <nd ref="12772863768"/>
    <nd ref="12772863767"/>
    <tag k="bicycle" v="yes"/>
    <tag k="expressway" v="yes"/>
    <tag k="highway" v="trunk"/>
    <tag k="lanes" v="2"/>
    <tag k="lit" v="no"/>
    <tag k="maxheight:signed" v="no"/>
    <tag k="maxspeed" v="70 mph"/>
    <tag k="maxspeed:type" v="GB:nsl_dual"/>
    <tag k="national_highways:area" v="7"/>
    <tag k="oneway" v="yes"/>
    <tag k="operator" v="National Highways"/>
    <tag k="operator:wikidata" v="Q5760006"/>
    <tag k="ref" v="A46"/>
    <tag k="source" v="GPS Survey"/>
    <tag k="surface" v="asphalt"/>
  </way>
  <way id="169993807" version="4" timestamp="2020-11-22T20:24:14Z" changeset="94597629" uid="84075" user="kevjs1982">
    <nd ref="279034160"/>
    <nd ref="8152101881"/>
    <nd ref="8152101882"/>
    <nd ref="8152101880"/>
    <nd ref="1811407712"/>
    <tag k="highway" v="unclassified"/>
    <tag k="lit" v="no"/>
    <tag k="surface" v="asphalt"/>
  </way>
  <way id="169993810" version="5" timestamp="2025-04-21T18:36:24Z" changeset="165253542" uid="5229644" user="Nathan_A_RF">
    <nd ref="1640887195"/>
    <nd ref="7187025644"/>
    <nd ref="6421607010"/>
    <nd ref="1811407713"/>
    <tag k="alt_name" v="Foss Way"/>
    <tag k="highway" v="unclassified"/>
    <tag k="lit" v="no"/>
    <tag k="name" v="Fosse Way"/>
    <tag k="old_ref" v="A46"/>
    <tag k="source" v="NaPTAN"/>
  </way>
  <way id="169993812" version="6" timestamp="2025-04-21T18:36:24Z" changeset="165253542" uid="5229644" user="Nathan_A_RF">
    <nd ref="1811407712"/>
    <nd ref="8152101879"/>
    <nd ref="1811407714"/>
    <nd ref="1811407715"/>
    <nd ref="6421654019"/>
    <nd ref="1811407716"/>
    <nd ref="1811407717"/>
    <nd ref="6421654015"/>
    <nd ref="6421654018"/>
    <nd ref="1811407718"/>
    <nd ref="1811407719"/>
    <nd ref="1811407726"/>
    <tag k="highway" v="unclassified"/>
    <tag k="lit" v="no"/>
    <tag k="maxspeed" v="60 mph"/>
    <tag k="maxspeed:type" v="GB:nsl_single"/>
  </way>
  <way id="169993834" version="6" timestamp="2024-11-07T14:59:14Z" changeset="158859786" uid="5229644" user="Nathan_A_RF">
    <nd ref="1811407722"/>
    <nd ref="1811407723"/>
    <tag k="bridge" v="yes"/>
    <tag k="bridge:name" v="Red Lodge Overbridge"/>
    <tag k="highway" v="unclassified"/>
    <tag k="lanes" v="2"/>
    <tag k="layer" v="1"/>
    <tag k="lit" v="no"/>
    <tag k="maxspeed" v="60 mph"/>
    <tag k="maxspeed:type" v="GB:nsl_single"/>
    <tag k="source:name" v="survey during construction"/>
  </way>
  <way id="169993835" version="7" timestamp="2024-11-07T14:59:14Z" changeset="158859786" uid="5229644" user="Nathan_A_RF">
    <nd ref="1811407723"/>
    <nd ref="1811407742"/>
    <nd ref="8656615886"/>
    <nd ref="1811407724"/>
    <nd ref="1811407744"/>
    <tag k="highway" v="unclassified"/>
    <tag k="lanes" v="2"/>
    <tag k="lit" v="no"/>
    <tag k="maxspeed" v="60 mph"/>
    <tag k="maxspeed:type" v="GB:nsl_single"/>
  </way>
  <way id="170000122" version="8" timestamp="2024-11-07T14:59:14Z" changeset="158859786" uid="5229644" user="Nathan_A_RF">
    <nd ref="1811407737"/>
    <nd ref="1811407738"/>
    <nd ref="2987873444"/>
    <nd ref="2987873439"/>
    <nd ref="1811407739"/>
    <nd ref="1811407740"/>
    <nd ref="1811407741"/>
    <nd ref="1811407742"/>
    <tag k="bicycle" v="yes"/>
    <tag k="designation" v="public_footpath"/>
    <tag k="foot" v="designated"/>
    <tag k="highway" v="trunk_link"/>
    <tag k="lit" v="no"/>
    <tag k="maxspeed" v="60 mph"/>
    <tag k="maxspeed:type" v="GB:nsl_single"/>
    <tag k="maxweight" v="7.5"/>
  </way>
  <way id="170000123" version="6" timestamp="2024-11-07T14:59:14Z" changeset="158859786" uid="5229644" user="Nathan_A_RF">
    <nd ref="1811407737"/>
    <nd ref="1811495855"/>
    <tag k="bicycle" v="yes"/>
    <tag k="highway" v="trunk_link"/>
    <tag k="maxspeed" v="60 mph"/>
    <tag k="maxspeed:type" v="GB:nsl_single"/>
    <tag k="maxweight" v="7.5"/>
  </way>
  <way id="170000124" version="9" timestamp="2025-04-21T18:36:24Z" changeset="165253542" uid="5229644" user="Nathan_A_RF">
    <nd ref="1811495864"/>
    <nd ref="12772863766"/>
    <nd ref="2987873443"/>
    <nd ref="1811495862"/>
    <nd ref="2987873442"/>
    <nd ref="1811495855"/>
    <tag k="bicycle" v="yes"/>
    <tag k="expressway" v="yes"/>
    <tag k="highway" v="trunk_link"/>
    <tag k="lane_markings" v="no"/>
    <tag k="lit" v="no"/>
    <tag k="maxspeed" v="70 mph"/>
    <tag k="maxspeed:type" v="GB:nsl_dual"/>
    <tag k="maxweight" v="7.5"/>
    <tag k="oneway" v="yes"/>
  </way>
  <way id="170000125" version="8" timestamp="2025-04-21T18:36:24Z" changeset="165253542" uid="5229644" user="Nathan_A_RF">
    <nd ref="1811495855"/>
    <nd ref="2987873441"/>
    <nd ref="2987873440"/>
    <nd ref="12772863752"/>
    <nd ref="12772863753"/>
    <nd ref="1811495861"/>
    <tag k="bicycle" v="yes"/>
    <tag k="expressway" v="yes"/>
    <tag k="highway" v="trunk_link"/>
    <tag k="lanes" v="1"/>
    <tag k="lit" v="no"/>
    <tag k="maxspeed" v="70 mph"/>
    <tag k="maxspeed:type" v="GB:nsl_dual"/>
    <tag k="maxweight" v="7.5"/>
    <tag k="oneway" v="yes"/>
  </way>
  <way id="170000126" version="5" timestamp="2025-04-21T18:36:24Z" changeset="165253542" uid="5229644" user="Nathan_A_RF">
    <nd ref="1811407733"/>
    <nd ref="1811495866"/>
    <tag k="bicycle" v="yes"/>
    <tag k="highway" v="trunk_link"/>
    <tag k="lanes" v="2"/>
    <tag k="maxspeed" v="60 mph"/>
    <tag k="maxspeed:type" v="GB:nsl_single"/>
    <tag k="maxweight" v="7.5"/>
  </way>
  <way id="170000127" version="7" timestamp="2025-04-21T18:36:24Z" changeset="165253542" uid="5229644" user="Nathan_A_RF">
    <nd ref="1811495866"/>
    <nd ref="6720909664"/>
    <nd ref="1811495869"/>
    <nd ref="6720909662"/>
    <nd ref="12772863765"/>
    <nd ref="12772863764"/>
    <nd ref="1811495870"/>
    <tag k="bicycle" v="yes"/>
    <tag k="expressway" v="yes"/>
    <tag k="highway" v="trunk_link"/>
    <tag k="lit" v="no"/>
    <tag k="maxspeed" v="70 mph"/>
    <tag k="maxspeed:type" v="GB:nsl_dual"/>
    <tag k="maxweight" v="7.5"/>
    <tag k="oneway" v="yes"/>
  </way>
  <way id="170000128" version="7" timestamp="2025-04-21T18:36:24Z" changeset="165253542" uid="5229644" user="Nathan_A_RF">
    <nd ref="1811495868"/>
    <nd ref="12772863762"/>
    <nd ref="12772863763"/>
    <nd ref="1811495867"/>
    <nd ref="6720909663"/>
    <nd ref="1811495866"/>
    <tag k="bicycle" v="yes"/>
    <tag k="expressway" v="yes"/>
    <tag k="highway" v="trunk_link"/>
    <tag k="lit" v="no"/>
    <tag k="maxspeed" v="70 mph"/>
    <tag k="maxspeed:type" v="GB:nsl_dual"/>
    <tag k="maxweight" v="7.5"/>
    <tag k="oneway" v="yes"/>
  </way>
  <way id="170147543" version="4" timestamp="2025-04-21T18:36:24Z" changeset="165253542" uid="5229644" user="Nathan_A_RF">
    <nd ref="1811407744"/>
    <nd ref="1811407725"/>
    <tag k="highway" v="unclassified"/>
    <tag k="lanes" v="2"/>
    <tag k="lit" v="no"/>
    <tag k="maxspeed" v="60 mph"/>
    <tag k="maxspeed:type" v="GB:nsl_single"/>
  </way>
  <way id="306447869" version="2" timestamp="2016-05-09T22:19:42Z" changeset="39202844" uid="207845" user="will_p">
    <nd ref="3113547066"/>
    <nd ref="3113547112"/>
    <nd ref="3113547062"/>
    <tag k="highway" v="residential"/>
    <tag k="maxspeed" v="30 mph"/>
    <tag k="source" v="Bing"/>
  </way>
  <way id="334363087" version="5" timestamp="2025-04-21T18:36:24Z" changeset="165253542" uid="5229644" user="Nathan_A_RF">
    <nd ref="1811407733"/>
    <nd ref="12772863770"/>
    <nd ref="1640887195"/>
    <tag k="highway" v="unclassified"/>
    <tag k="lit" v="no"/>
    <tag k="maxspeed" v="60 mph"/>
    <tag k="maxspeed:type" v="GB:nsl_single"/>
  </way>
  <way id="416797902" version="5" timestamp="2025-02-02T12:56:49Z" changeset="162045182" uid="95856" user="⇄ john paul jones &amp; gringo">
    <nd ref="3116442916"/>
    <nd ref="3116442912"/>
    <nd ref="3116442903"/>
    <nd ref="3116442918"/>
    <nd ref="3116442913"/>
    <nd ref="3116442917"/>
    <nd ref="3116442908"/>
    <nd ref="3116442901"/>
    <nd ref="3116442911"/>
    <nd ref="3116442914"/>
    <nd ref="3116442895"/>
    <nd ref="3116442896"/>
    <nd ref="3116442894"/>
    <nd ref="3116442897"/>
    <nd ref="3116442909"/>
    <nd ref="3116442915"/>
    <nd ref="3116442904"/>
    <nd ref="3116442916"/>
    <tag k="HE_ref" v="1272706"/>
    <tag k="addr:city" v="Nottingham"/>
    <tag k="addr:postcode" v="NG13 8JS"/>
    <tag k="addr:street" v="Vicarage Lane"/>
    <tag k="addr:suburb" v="Kneeton"/>
    <tag k="addr:village" v="Kneeton"/>
    <tag k="amenity" v="place_of_worship"/>
    <tag k="building" v="church"/>
    <tag k="denomination" v="anglican"/>
    <tag k="listed_status" v="Grade II"/>
    <tag k="name" v="St Helen's Church"/>
    <tag k="religion" v="christian"/>
    <tag k="source" v="OS OpenData StreetView"/>
    <tag k="source:listed_status" v="Historic England"/>
    <tag k="source:name" v="survey"/>
    <tag k="wikidata" v="Q15979358"/>
    <tag k="wikipedia" v="en:St Helen's Church, Kneeton"/>
  </way>
  <way id="685290764" version="4" timestamp="2025-04-21T18:36:24Z" changeset="165253542" uid="5229644" user="Nathan_A_RF">
    <nd ref="1811407721"/>
    <nd ref="1811407722"/>
    <tag k="highway" v="unclassified"/>
    <tag k="lanes" v="2"/>
    <tag k="lit" v="no"/>
    <tag k="maxspeed" v="60 mph"/>
    <tag k="maxspeed:type" v="GB:nsl_single"/>
  </way>
  <way id="771839833" version="4" timestamp="2024-01-19T19:32:09Z" changeset="146455440" uid="242345" user="confusedbuffalo">
    <nd ref="7205538760"/>
    <nd ref="150544962"/>
    <nd ref="6488919807"/>
    <nd ref="4174951383"/>
    <nd ref="6887959025"/>
    <nd ref="4174951384"/>
    <nd ref="157041834"/>
    <nd ref="4174951385"/>
    <nd ref="157041835"/>
    <nd ref="8360654281"/>
    <nd ref="4174951386"/>
    <nd ref="4174951387"/>
    <nd ref="157041836"/>
    <nd ref="4174951388"/>
    <nd ref="4174951689"/>
    <nd ref="4174951690"/>
    <nd ref="4174951691"/>
    <nd ref="157041837"/>
    <nd ref="4174951692"/>
    <nd ref="4174951693"/>
    <nd ref="759716142"/>
    <tag k="highway" v="unclassified"/>
    <tag k="lanes" v="1"/>
    <tag k="maxspeed" v="60 mph"/>
    <tag k="maxspeed:type" v="GB:nsl_single"/>
    <tag k="name" v="Kneeton Road"/>
    <tag k="surface" v="asphalt"/>
  </way>
  <way id="1093170555" version="5" timestamp="2025-07-07T13:51:37Z" changeset="168606652" uid="808803" user="Andidy">
    <nd ref="1640949582"/>
    <nd ref="12772863757"/>
    <nd ref="12772863756"/>
    <nd ref="1640949584"/>
    <nd ref="1640949565"/>
    <nd ref="1640949611"/>
    <nd ref="2579410643"/>
    <nd ref="1640949586"/>
    <nd ref="2579410648"/>
    <nd ref="1640949605"/>
    <nd ref="1640949572"/>
    <nd ref="6421654025"/>
    <nd ref="6421654031"/>
    <nd ref="1640949569"/>
    <nd ref="1641015031"/>
    <nd ref="1640976744"/>
    <nd ref="1640976767"/>
    <tag k="bicycle" v="yes"/>
    <tag k="expressway" v="yes"/>
    <tag k="highway" v="trunk"/>
    <tag k="lanes" v="2"/>
    <tag k="lit" v="no"/>
    <tag k="maxheight:signed" v="no"/>
    <tag k="maxspeed" v="70 mph"/>
    <tag k="maxspeed:type" v="GB:nsl_dual"/>
    <tag k="national_highways:area" v="7"/>
    <tag k="oneway" v="yes"/>
    <tag k="operator" v="National Highways"/>
    <tag k="operator:wikidata" v="Q5760006"/>
    <tag k="ref" v="A46"/>
    <tag k="source" v="GPS Survey"/>
    <tag k="surface" v="asphalt"/>
  </way>
  <way id="1093170556" version="4" timestamp="2025-07-07T13:50:43Z" changeset="168606652" uid="808803" user="Andidy">
    <nd ref="1811495861"/>
    <nd ref="1640949582"/>
    <tag k="bicycle" v="yes"/>
    <tag k="expressway" v="yes"/>
    <tag k="highway" v="trunk"/>
    <tag k="lanes" v="2"/>
    <tag k="lit" v="no"/>
    <tag k="maxheight:signed" v="no"/>
    <tag k="maxspeed" v="70 mph"/>
    <tag k="maxspeed:type" v="GB:nsl_dual"/>
    <tag k="national_highways:area" v="7"/>
    <tag k="oneway" v="yes"/>
    <tag k="operator" v="National Highways"/>
    <tag k="operator:wikidata" v="Q5760006"/>
    <tag k="ref" v="A46"/>
    <tag k="source" v="GPS Survey"/>
    <tag k="surface" v="asphalt"/>
  </way>
  <way id="1379392899" version="2" timestamp="2025-07-07T13:51:44Z" changeset="168606652" uid="808803" user="Andidy">
    <nd ref="1640839880"/>
    <nd ref="1640742696"/>
    <nd ref="6421654023"/>
    <nd ref="6421654024"/>
    <nd ref="1640745517"/>
    <nd ref="1640745510"/>
    <nd ref="1640745522"/>
    <nd ref="1640745518"/>
    <nd ref="1640745519"/>
    <nd ref="1640745520"/>
    <nd ref="12772863755"/>
    <nd ref="12772863758"/>
    <tag k="bicycle" v="yes"/>
    <tag k="expressway" v="yes"/>
    <tag k="highway" v="trunk"/>
    <tag k="lanes" v="2"/>
    <tag k="lit" v="no"/>
    <tag k="maxheight:signed" v="no"/>
    <tag k="maxspeed" v="70 mph"/>
    <tag k="maxspeed:type" v="GB:nsl_dual"/>
    <tag k="national_highways:area" v="7"/>
    <tag k="oneway" v="yes"/>
    <tag k="operator" v="National Highways"/>
    <tag k="operator:wikidata" v="Q5760006"/>
    <tag k="ref" v="A46"/>
    <tag k="source" v="GPS Survey"/>
    <tag k="surface" v="asphalt"/>
  </way>
  <way id="1379392900" version="1" timestamp="2025-04-21T18:36:24Z" changeset="165253542" uid="5229644" user="Nathan_A_RF">
    <nd ref="12772863758"/>
    <nd ref="1811495868"/>
    <tag k="bicycle" v="yes"/>
    <tag k="expressway" v="yes"/>
    <tag k="highway" v="trunk"/>
    <tag k="lanes" v="3"/>
    <tag k="lit" v="no"/>
    <tag k="maxspeed" v="70 mph"/>
    <tag k="maxspeed:type" v="GB:nsl_dual"/>
    <tag k="national_highways:area" v="7"/>
    <tag k="oneway" v="yes"/>
    <tag k="operator" v="National Highways"/>
    <tag k="operator:wikidata" v="Q5760006"/>
    <tag k="ref" v="A46"/>
    <tag k="source" v="GPS Survey"/>
    <tag k="surface" v="asphalt"/>
  </way>
  <way id="1379392902" version="1" timestamp="2025-04-21T18:36:24Z" changeset="165253542" uid="5229644" user="Nathan_A_RF">
    <nd ref="1811495864"/>
    <nd ref="12772863754"/>
    <nd ref="1811495861"/>
    <tag k="bicycle" v="yes"/>
    <tag k="expressway" v="yes"/>
    <tag k="highway" v="trunk"/>
    <tag k="lanes" v="2"/>
    <tag k="lit" v="no"/>
    <tag k="maxspeed" v="70 mph"/>
    <tag k="maxspeed:type" v="GB:nsl_dual"/>
    <tag k="national_highways:area" v="7"/>
    <tag k="oneway" v="yes"/>
    <tag k="operator" v="National Highways"/>
    <tag k="operator:wikidata" v="Q5760006"/>
    <tag k="ref" v="A46"/>
    <tag k="source" v="GPS Survey"/>
    <tag k="surface" v="asphalt"/>
  </way>
  <way id="1379392903" version="1" timestamp="2025-04-21T18:36:24Z" changeset="165253542" uid="5229644" user="Nathan_A_RF">
    <nd ref="12772863767"/>
    <nd ref="1811495864"/>
    <tag k="bicycle" v="yes"/>
    <tag k="expressway" v="yes"/>
    <tag k="highway" v="trunk"/>
    <tag k="lanes" v="3"/>
    <tag k="lit" v="no"/>
    <tag k="maxspeed" v="70 mph"/>
    <tag k="maxspeed:type" v="GB:nsl_dual"/>
    <tag k="national_highways:area" v="7"/>
    <tag k="oneway" v="yes"/>
    <tag k="operator" v="National Highways"/>
    <tag k="operator:wikidata" v="Q5760006"/>
    <tag k="ref" v="A46"/>
    <tag k="source" v="GPS Survey"/>
    <tag k="surface" v="asphalt"/>
  </way>

</osm>
