<?xml version="1.0" encoding="UTF-8"?>
<osm version="0.6" generator="Overpass API 0.7.62.8 e802775f">
<note>The data included in this document is from www.openstreetmap.org. The data is made available under ODbL.</note>
<meta osm_base="2025-10-23T17:36:51Z" areas="2025-10-23T12:46:58Z"/>

  <node id="68507620" lat="53.1277091" lon="-0.8861015" version="16" timestamp="2011-03-15T03:00:22Z" changeset="7562999" uid="61942" user="SomeoneElse"/>
  <node id="253632870" lat="53.0940940" lon="-0.8864042" version="24" timestamp="2025-06-03T11:54:49Z" changeset="167132047" uid="6714692" user="Fingrmouse"/>
  <node id="291521237" lat="53.1006795" lon="-0.8336208" version="1" timestamp="2008-08-27T08:46:26Z" changeset="424194" uid="54910" user="Marcin Floryan"/>
  <node id="307417400" lat="53.0963435" lon="-0.8470413" version="2" timestamp="2011-07-16T06:30:29Z" changeset="8736819" uid="244459" user="Artyomka"/>
  <node id="307417401" lat="53.0983954" lon="-0.8471235" version="3" timestamp="2021-04-08T01:48:23Z" changeset="102512750" uid="5443821" user="◪ Jarv"/>
  <node id="307417915" lat="53.1122083" lon="-0.9107361" version="5" timestamp="2015-04-17T22:29:09Z" changeset="30297276" uid="61942" user="SomeoneElse"/>
  <node id="324368792" lat="53.1032356" lon="-0.8790425" version="5" timestamp="2015-04-17T22:49:44Z" changeset="30297276" uid="61942" user="SomeoneElse"/>
  <node id="759793978" lat="53.0973530" lon="-0.8253262" version="3" timestamp="2019-01-17T19:31:55Z" changeset="66405884" uid="52797" user="hofoen"/>
  <node id="1410340760" lat="53.0882512" lon="-0.8233816" version="3" timestamp="2021-04-08T01:48:23Z" changeset="102512750" uid="5443821" user="◪ Jarv">
    <tag k="barrier" v="bollard"/>
    <tag k="bollard" v="fixed"/>
    <tag k="height" v="1"/>
    <tag k="material" v="concrete"/>
    <tag k="motor_vehicle" v="no"/>
  </node>
  <node id="2402859135" lat="53.0931989" lon="-0.8229713" version="1" timestamp="2013-07-31T21:04:49Z" changeset="17171980" uid="464727" user="CompactDstrxion"/>
  <node id="8656271462" lat="53.0845189" lon="-0.8651208" version="2" timestamp="2025-05-30T17:40:58Z" changeset="166983859" uid="6714692" user="Fingrmouse"/>
  <node id="12849286301" lat="53.0843405" lon="-0.8325877" version="1" timestamp="2025-05-19T16:22:50Z" changeset="166485535" uid="6714692" user="Fingrmouse"/>
  <way id="23422554" version="6" timestamp="2021-01-08T04:05:44Z" changeset="97139805" uid="322039" user="MacLondon">
    <nd ref="233163"/>
    <nd ref="253631289"/>
    <tag k="bridge" v="yes"/>
    <tag k="bridge:name" v="Kelham Bridge"/>
    <tag k="highway" v="trunk"/>
    <tag k="lanes" v="2"/>
    <tag k="layer" v="1"/>
    <tag k="lit" v="yes"/>
    <tag k="maxspeed" v="30 mph"/>
    <tag k="ref" v="A617"/>
    <tag k="wikidata" v="Q26298099"/>
  </way>
  <way id="23422555" version="5" timestamp="2024-12-18T12:56:35Z" changeset="160350078" uid="22299871" user="Mappam-12">
    <nd ref="253631289"/>
    <nd ref="253631291"/>
    <nd ref="253631292"/>
    <nd ref="253631294"/>
    <nd ref="267428359"/>
    <tag k="highway" v="trunk"/>
    <tag k="lit" v="yes"/>
    <tag k="maxspeed" v="20 mph"/>
    <tag k="ref" v="A617"/>
  </way>
  <way id="24601343" version="12" timestamp="2025-05-16T14:14:31Z" changeset="166353710" uid="6714692" user="Fingrmouse">
    <nd ref="267428358"/>
    <nd ref="602650685"/>
    <nd ref="233167"/>
    <nd ref="602654871"/>
    <nd ref="12842280319"/>
    <nd ref="253632366"/>
    <nd ref="12842280320"/>
    <nd ref="1210373752"/>
    <nd ref="12842280321"/>
    <nd ref="233166"/>
    <nd ref="602652452"/>
    <nd ref="12842268666"/>
    <tag k="highway" v="trunk"/>
    <tag k="lanes" v="2"/>
    <tag k="lit" v="yes"/>
    <tag k="maxspeed" v="30 mph"/>
    <tag k="name" v="Main Road"/>
    <tag k="oneway" v="no"/>
    <tag k="ref" v="A617"/>
    <tag k="source:name" v="OS OpenData StreetView"/>
  </way>
  <way id="24601344" version="17" timestamp="2025-06-02T12:45:08Z" changeset="167090688" uid="6714692" user="Fingrmouse">
    <nd ref="8656271462"/>
    <nd ref="12875773714"/>
    <nd ref="233176"/>
    <nd ref="12875773713"/>
    <nd ref="233175"/>
    <nd ref="8656271464"/>
    <nd ref="12875773712"/>
    <nd ref="8656271465"/>
    <nd ref="12875773711"/>
    <nd ref="233174"/>
    <nd ref="8656271466"/>
    <nd ref="12875773724"/>
    <nd ref="12875773731"/>
    <nd ref="8656271467"/>
    <nd ref="324368687"/>
    <nd ref="233173"/>
    <nd ref="8656271468"/>
    <nd ref="12875773709"/>
    <nd ref="253632372"/>
    <nd ref="324365009"/>
    <nd ref="253632374"/>
    <nd ref="12875773710"/>
    <nd ref="324368682"/>
    <nd ref="8656271469"/>
    <nd ref="6905404481"/>
    <nd ref="253632375"/>
    <nd ref="8656271470"/>
    <nd ref="233172"/>
    <nd ref="8656271471"/>
    <nd ref="8656271472"/>
    <nd ref="233171"/>
    <nd ref="8656271473"/>
    <nd ref="8656271474"/>
    <nd ref="253632371"/>
    <nd ref="6785055014"/>
    <nd ref="253632370"/>
    <nd ref="8656271475"/>
    <nd ref="253632368"/>
    <nd ref="8656271476"/>
    <nd ref="253632367"/>
    <nd ref="233170"/>
    <nd ref="12880878860"/>
    <nd ref="233169"/>
    <nd ref="233168"/>
    <nd ref="267428358"/>
    <tag k="highway" v="trunk"/>
    <tag k="lit" v="yes"/>
    <tag k="maxspeed" v="50 mph"/>
    <tag k="name" v="Main Road"/>
    <tag k="ref" v="A617"/>
    <tag k="source:name" v="OS OpenData StreetView"/>
  </way>
  <way id="24601345" version="16" timestamp="2025-05-19T13:24:02Z" changeset="166476744" uid="6714692" user="Fingrmouse">
    <nd ref="267428359"/>
    <nd ref="253631295"/>
    <nd ref="253631296"/>
    <nd ref="267428360"/>
    <nd ref="233162"/>
    <nd ref="12848904476"/>
    <nd ref="253631298"/>
    <nd ref="12848904477"/>
    <nd ref="233161"/>
    <nd ref="12848904478"/>
    <nd ref="253631287"/>
    <nd ref="12848904479"/>
    <nd ref="267428361"/>
    <nd ref="253631288"/>
    <nd ref="12848904480"/>
    <nd ref="12848904481"/>
    <nd ref="12848904482"/>
    <nd ref="12848904483"/>
    <nd ref="253631284"/>
    <nd ref="12848904484"/>
    <nd ref="4666225406"/>
    <nd ref="253631285"/>
    <tag k="highway" v="trunk"/>
    <tag k="lanes" v="2"/>
    <tag k="lit" v="yes"/>
    <tag k="maxspeed" v="50 mph"/>
    <tag k="name" v="Kelham Road"/>
    <tag k="ref" v="A617"/>
    <tag k="source" v="survey"/>
    <tag k="source:ref" v="voice"/>
    <tag k="surface" v="asphalt"/>
  </way>
  <way id="27995448" version="9" timestamp="2021-04-30T05:49:37Z" changeset="103883715" uid="10126622" user="hvannere">
    <nd ref="291521314"/>
    <nd ref="291521305"/>
    <nd ref="291521304"/>
    <nd ref="291521303"/>
    <nd ref="291521302"/>
    <nd ref="8682059447"/>
    <nd ref="7933780377"/>
    <nd ref="291521301"/>
    <nd ref="291521300"/>
    <nd ref="291521298"/>
    <nd ref="7933780378"/>
    <nd ref="291521299"/>
    <nd ref="307417400"/>
    <tag k="highway" v="tertiary"/>
    <tag k="lit" v="yes"/>
    <tag k="maxspeed" v="30 mph"/>
    <tag k="name" v="Ollerton Road"/>
    <tag k="oneway" v="no"/>
  </way>
  <way id="29431388" version="10" timestamp="2019-07-11T11:21:50Z" changeset="72130638" uid="9259471" user="ppgne">
    <nd ref="253632870"/>
    <nd ref="324368784"/>
    <nd ref="665685872"/>
    <nd ref="324368785"/>
    <nd ref="324368786"/>
    <nd ref="6605039648"/>
    <nd ref="324368787"/>
    <nd ref="1328033075"/>
    <nd ref="324368788"/>
    <nd ref="324368789"/>
    <nd ref="324368790"/>
    <nd ref="665685873"/>
    <nd ref="3462444738"/>
    <nd ref="324368791"/>
    <nd ref="3462444739"/>
    <nd ref="324368792"/>
    <tag k="highway" v="unclassified"/>
    <tag k="maxspeed" v="60 mph"/>
    <tag k="name" v="Broadgate Lane"/>
    <tag k="oneway" v="no"/>
    <tag k="source" v="GPS"/>
  </way>
  <way id="29431410" version="5" timestamp="2021-04-08T01:48:23Z" changeset="102512750" uid="5443821" user="◪ Jarv">
    <nd ref="307417401"/>
    <nd ref="324368999"/>
    <nd ref="324369000"/>
    <nd ref="8604462293"/>
    <nd ref="8604462292"/>
    <nd ref="324369001"/>
    <nd ref="324369002"/>
    <nd ref="8604462291"/>
    <nd ref="8410617690"/>
    <nd ref="324369003"/>
    <nd ref="324369004"/>
    <nd ref="324369005"/>
    <nd ref="8604462290"/>
    <nd ref="324369006"/>
    <tag k="highway" v="unclassified"/>
    <tag k="lit" v="no"/>
    <tag k="maxspeed" v="60 mph"/>
    <tag k="oneway" v="no"/>
  </way>
  <way id="29431434" version="8" timestamp="2017-07-31T18:49:13Z" changeset="50730653" uid="5296090" user="TR42">
    <nd ref="324368792"/>
    <nd ref="3462444751"/>
    <nd ref="665685860"/>
    <nd ref="324369215"/>
    <nd ref="324369216"/>
    <nd ref="324369217"/>
    <nd ref="665685861"/>
    <nd ref="1328033074"/>
    <nd ref="324369218"/>
    <nd ref="324369219"/>
    <nd ref="3501782965"/>
    <nd ref="324369220"/>
    <nd ref="665685862"/>
    <nd ref="324369221"/>
    <nd ref="665685863"/>
    <nd ref="324369222"/>
    <nd ref="324369223"/>
    <nd ref="324369224"/>
    <nd ref="3462505047"/>
    <nd ref="3462505044"/>
    <nd ref="3462505045"/>
    <nd ref="3462505043"/>
    <nd ref="3462505042"/>
    <nd ref="3462505046"/>
    <nd ref="324369225"/>
    <tag k="highway" v="unclassified"/>
    <tag k="lit" v="no"/>
    <tag k="maxspeed" v="60 mph"/>
    <tag k="oneway" v="no"/>
    <tag k="source" v="GPS;Bing"/>
  </way>
  <way id="41223661" version="6" timestamp="2025-05-16T14:14:31Z" changeset="166353710" uid="6714692" user="Fingrmouse">
    <nd ref="503701080"/>
    <nd ref="3462444721"/>
    <nd ref="9014426228"/>
    <nd ref="12842280712"/>
    <nd ref="324368806"/>
    <nd ref="12842280711"/>
    <nd ref="12842280709"/>
    <nd ref="12842280710"/>
    <nd ref="503699695"/>
    <nd ref="12842280705"/>
    <nd ref="12842280706"/>
    <nd ref="12842280707"/>
    <nd ref="12842280708"/>
    <nd ref="12842280699"/>
    <nd ref="12842280702"/>
    <nd ref="12842280703"/>
    <nd ref="12842280704"/>
    <nd ref="12842280701"/>
    <nd ref="12842280700"/>
    <nd ref="12842280698"/>
    <nd ref="253632357"/>
    <tag k="highway" v="unclassified"/>
    <tag k="maxspeed" v="30 mph"/>
    <tag k="name" v="Broadgate Lane"/>
    <tag k="oneway" v="no"/>
    <tag k="source" v="npe"/>
  </way>
  <way id="41223667" version="6" timestamp="2025-05-16T14:14:31Z" changeset="166353710" uid="6714692" user="Fingrmouse">
    <nd ref="253632357"/>
    <nd ref="12842280695"/>
    <nd ref="12842280694"/>
    <nd ref="253632359"/>
    <nd ref="12842280693"/>
    <nd ref="12842280692"/>
    <nd ref="253632360"/>
    <nd ref="12842280691"/>
    <nd ref="253632361"/>
    <nd ref="12842280809"/>
    <nd ref="12842280690"/>
    <nd ref="233164"/>
    <nd ref="12842280689"/>
    <nd ref="291521314"/>
    <tag k="highway" v="trunk"/>
    <tag k="lanes" v="2"/>
    <tag k="lit" v="yes"/>
    <tag k="maxspeed" v="30 mph"/>
    <tag k="name" v="Main Road"/>
    <tag k="ref" v="A617"/>
  </way>
  <way id="47312035" version="7" timestamp="2025-05-16T14:14:31Z" changeset="166353710" uid="6714692" user="Fingrmouse">
    <nd ref="602652447"/>
    <nd ref="602652448"/>
    <nd ref="8682059446"/>
    <nd ref="12842280765"/>
    <nd ref="12842280764"/>
    <nd ref="12842280775"/>
    <nd ref="602652449"/>
    <nd ref="12842280777"/>
    <nd ref="12842280781"/>
    <nd ref="602652450"/>
    <tag k="highway" v="residential"/>
    <tag k="maxspeed" v="30 mph"/>
    <tag k="name" v="Home Farm Close"/>
    <tag k="oneway" v="no"/>
  </way>
  <way id="47312036" version="4" timestamp="2025-05-16T14:14:31Z" changeset="166353710" uid="6714692" user="Fingrmouse">
    <nd ref="602652455"/>
    <nd ref="12842280779"/>
    <nd ref="12842280763"/>
    <nd ref="602652449"/>
    <tag k="highway" v="residential"/>
    <tag k="maxspeed" v="30 mph"/>
    <tag k="oneway" v="no"/>
  </way>
  <way id="47312037" version="3" timestamp="2015-12-30T12:33:37Z" changeset="36261015" uid="161875" user="Willumm">
    <nd ref="602652456"/>
    <nd ref="602652448"/>
    <tag k="highway" v="residential"/>
    <tag k="maxspeed" v="30 mph"/>
    <tag k="oneway" v="no"/>
  </way>
  <way id="47312080" version="5" timestamp="2025-05-16T14:14:31Z" changeset="166353710" uid="6714692" user="Fingrmouse">
    <nd ref="602652868"/>
    <nd ref="12842280686"/>
    <nd ref="602652869"/>
    <nd ref="602652870"/>
    <nd ref="602652872"/>
    <nd ref="602652874"/>
    <nd ref="602652876"/>
    <nd ref="602652879"/>
    <nd ref="602652948"/>
    <nd ref="602652881"/>
    <nd ref="291521304"/>
    <tag k="highway" v="residential"/>
    <tag k="maxspeed" v="30 mph"/>
    <tag k="name" v="Blacksmith Lane"/>
    <tag k="oneway" v="no"/>
  </way>
  <way id="47312086" version="2" timestamp="2010-01-01T18:07:49Z" changeset="3512296" uid="161875" user="Willumm">
    <nd ref="291521303"/>
    <nd ref="602652948"/>
    <tag k="highway" v="residential"/>
    <tag k="name" v="Blacksmith Lane"/>
  </way>
  <way id="47312494" version="5" timestamp="2019-02-17T15:30:56Z" changeset="67282944" uid="8857" user="philipcullen">
    <nd ref="291521237"/>
    <nd ref="291521261"/>
    <nd ref="291521281"/>
    <nd ref="291521293"/>
    <nd ref="6284499035"/>
    <nd ref="6284499033"/>
    <nd ref="6284499034"/>
    <nd ref="6284499032"/>
    <nd ref="6284499036"/>
    <nd ref="6284499031"/>
    <nd ref="291521294"/>
    <nd ref="6284499029"/>
    <nd ref="6284499030"/>
    <nd ref="291521295"/>
    <nd ref="6284499037"/>
    <nd ref="6284499038"/>
    <nd ref="291521296"/>
    <nd ref="291521297"/>
    <nd ref="3918464047"/>
    <tag k="highway" v="tertiary"/>
    <tag k="lit" v="no"/>
    <tag k="maxspeed" v="60 mph"/>
    <tag k="name" v="Trent Lane"/>
    <tag k="oneway" v="no"/>
  </way>
  <way id="52323521" version="5" timestamp="2020-10-08T05:39:33Z" changeset="92145115" uid="10305811" user="kumrnls">
    <nd ref="324368792"/>
    <nd ref="3462444749"/>
    <nd ref="3462444752"/>
    <nd ref="324368793"/>
    <nd ref="3462444755"/>
    <nd ref="3462444758"/>
    <nd ref="3462444759"/>
    <nd ref="3462444761"/>
    <nd ref="3462444762"/>
    <nd ref="3462444765"/>
    <nd ref="3462444766"/>
    <nd ref="3462444768"/>
    <nd ref="324368794"/>
    <nd ref="3462444770"/>
    <nd ref="324368795"/>
    <nd ref="3462444771"/>
    <nd ref="3462439968"/>
    <nd ref="3462439975"/>
    <nd ref="3462439972"/>
    <nd ref="3462439970"/>
    <nd ref="324368796"/>
    <nd ref="3462439971"/>
    <nd ref="3462439974"/>
    <nd ref="324368797"/>
    <nd ref="3462439988"/>
    <nd ref="324368798"/>
    <nd ref="3462444706"/>
    <nd ref="3462439973"/>
    <nd ref="3462439981"/>
    <nd ref="7324715692"/>
    <nd ref="324368799"/>
    <nd ref="3462439979"/>
    <nd ref="3462439986"/>
    <nd ref="324368800"/>
    <nd ref="3462439990"/>
    <nd ref="3462439985"/>
    <nd ref="324368801"/>
    <nd ref="3462439980"/>
    <nd ref="7986817173"/>
    <nd ref="324368802"/>
    <nd ref="3462439977"/>
    <nd ref="3462439984"/>
    <nd ref="324368803"/>
    <nd ref="3462439976"/>
    <nd ref="3462439978"/>
    <nd ref="324368804"/>
    <nd ref="3462444708"/>
    <nd ref="3462444903"/>
    <nd ref="3462444923"/>
    <nd ref="324368805"/>
    <nd ref="3462444703"/>
    <nd ref="3462444730"/>
    <nd ref="3462444748"/>
    <nd ref="3462444948"/>
    <nd ref="503701080"/>
    <tag k="highway" v="unclassified"/>
    <tag k="maxspeed" v="60 mph"/>
    <tag k="name" v="Broadgate Lane"/>
    <tag k="oneway" v="no"/>
    <tag k="source" v="npe;Bing"/>
  </way>
  <way id="60690043" version="11" timestamp="2024-05-23T15:25:44Z" changeset="151728782" uid="8288084" user="AKTheKnight">
    <nd ref="759793978"/>
    <nd ref="286753836"/>
    <nd ref="286753839"/>
    <nd ref="30857688"/>
    <nd ref="7648073958"/>
    <nd ref="2402859135"/>
    <tag k="highway" v="primary"/>
    <tag k="lanes" v="2"/>
    <tag k="lit" v="no"/>
    <tag k="maxspeed" v="60 mph"/>
    <tag k="name" v="Great North Road"/>
    <tag k="ref" v="A616"/>
    <tag k="source:name" v="OS OpenData StreetView"/>
    <tag k="surface" v="asphalt"/>
  </way>
  <way id="104219340" version="10" timestamp="2022-03-09T22:29:03Z" changeset="118296705" uid="242345" user="confusedbuffalo">
    <nd ref="307417915"/>
    <nd ref="3462417894"/>
    <nd ref="3462417936"/>
    <nd ref="3462417932"/>
    <nd ref="1202553576"/>
    <nd ref="3462417898"/>
    <nd ref="1202553579"/>
    <nd ref="3462417915"/>
    <nd ref="307417916"/>
    <nd ref="3462417896"/>
    <nd ref="3462417918"/>
    <nd ref="3462417935"/>
    <nd ref="3462417912"/>
    <nd ref="3462417916"/>
    <nd ref="1202553586"/>
    <nd ref="7984618773"/>
    <nd ref="1835921372"/>
    <nd ref="307417917"/>
    <nd ref="3462417920"/>
    <nd ref="1202553594"/>
    <nd ref="6481272759"/>
    <nd ref="1202553598"/>
    <nd ref="3462417923"/>
    <nd ref="3462417938"/>
    <nd ref="1202553605"/>
    <nd ref="3462417921"/>
    <nd ref="3462417909"/>
    <nd ref="1202553610"/>
    <nd ref="3462417937"/>
    <nd ref="1202553612"/>
    <nd ref="1202553614"/>
    <nd ref="1328033076"/>
    <nd ref="3462417899"/>
    <nd ref="307417918"/>
    <nd ref="1202553617"/>
    <nd ref="307417919"/>
    <nd ref="1202553623"/>
    <tag k="highway" v="tertiary"/>
    <tag k="lit" v="no"/>
    <tag k="maxspeed" v="60 mph"/>
    <tag k="name" v="Caunton Road"/>
    <tag k="oneway" v="no"/>
    <tag k="sidewalk" v="no"/>
    <tag k="source" v="Bing"/>
    <tag k="source:name" v="OS_OpenData_Locator"/>
    <tag k="width" v="4"/>
  </way>
  <way id="127414311" version="4" timestamp="2022-07-31T17:24:35Z" changeset="124312162" uid="15410663" user="James Beeching">
    <nd ref="1410340760"/>
    <nd ref="1410340824"/>
    <nd ref="7370600458"/>
    <nd ref="7370600456"/>
    <nd ref="1410340789"/>
    <nd ref="1410340735"/>
    <tag k="bicycle" v="designated"/>
    <tag k="designation" v="public_bridleway"/>
    <tag k="foot" v="designated"/>
    <tag k="highway" v="residential"/>
    <tag k="horse" v="designated"/>
    <tag k="name" v="Kelham Lane"/>
    <tag k="prow_ref" v="239/15"/>
    <tag k="source" v="OS_OpenData_StreetView"/>
  </way>
  <way id="142217172" version="13" timestamp="2021-02-01T16:56:06Z" changeset="98524508" uid="10170582" user="priymose">
    <nd ref="68507620"/>
    <nd ref="4289592700"/>
    <nd ref="1202553292"/>
    <nd ref="3462502840"/>
    <nd ref="1202553312"/>
    <nd ref="3462503254"/>
    <nd ref="1202553328"/>
    <nd ref="3462503219"/>
    <nd ref="1202553337"/>
    <nd ref="3462503235"/>
    <nd ref="307417908"/>
    <nd ref="3462503216"/>
    <nd ref="1835921375"/>
    <nd ref="1202553344"/>
    <nd ref="1202553347"/>
    <nd ref="1835921377"/>
    <nd ref="1835921376"/>
    <nd ref="307417909"/>
    <nd ref="3462520383"/>
    <nd ref="1202553355"/>
    <nd ref="3462521300"/>
    <nd ref="307417910"/>
    <nd ref="3462520391"/>
    <nd ref="1202553363"/>
    <nd ref="3462521299"/>
    <nd ref="3462521298"/>
    <nd ref="1202553368"/>
    <nd ref="473227710"/>
    <nd ref="307417911"/>
    <nd ref="3462520386"/>
    <nd ref="3462520385"/>
    <nd ref="1202553377"/>
    <nd ref="1202553382"/>
    <nd ref="1202553387"/>
    <nd ref="3463244099"/>
    <nd ref="1202553393"/>
    <nd ref="3463244167"/>
    <nd ref="3463244111"/>
    <nd ref="307417912"/>
    <nd ref="3463244149"/>
    <nd ref="1202553398"/>
    <nd ref="3463239263"/>
    <nd ref="1202553404"/>
    <nd ref="3463244163"/>
    <nd ref="1835921373"/>
    <nd ref="3463239270"/>
    <nd ref="307417913"/>
    <nd ref="3463244128"/>
    <nd ref="1202553408"/>
    <nd ref="3463239268"/>
    <nd ref="8384582641"/>
    <nd ref="307417914"/>
    <nd ref="3462417905"/>
    <nd ref="3462417914"/>
    <nd ref="1202553425"/>
    <nd ref="1202553447"/>
    <nd ref="3462417906"/>
    <nd ref="6581840606"/>
    <nd ref="3462417901"/>
    <nd ref="307417915"/>
    <tag k="highway" v="tertiary"/>
    <tag k="lit" v="no"/>
    <tag k="maxspeed" v="60 mph"/>
    <tag k="name" v="Caunton Road"/>
    <tag k="oneway" v="no"/>
    <tag k="source" v="Bing"/>
    <tag k="source:name" v="OS_OpenData_Locator"/>
  </way>
  <way id="231964380" version="2" timestamp="2017-02-05T21:24:34Z" changeset="45839570" uid="2762871" user="Sam888">
    <nd ref="2402859135"/>
    <nd ref="1410340781"/>
    <nd ref="4666225404"/>
    <tag k="highway" v="primary"/>
    <tag k="lit" v="no"/>
    <tag k="maxspeed" v="50 mph"/>
    <tag k="name" v="Great North Road"/>
    <tag k="ref" v="A616"/>
    <tag k="source:name" v="OS OpenData StreetView"/>
  </way>
  <way id="339054591" version="4" timestamp="2021-04-08T01:48:23Z" changeset="102512750" uid="5443821" user="◪ Jarv">
    <nd ref="3462444949"/>
    <nd ref="3462444951"/>
    <nd ref="324369190"/>
    <nd ref="3462444952"/>
    <nd ref="324369191"/>
    <nd ref="3462444953"/>
    <nd ref="3462444954"/>
    <nd ref="3462492087"/>
    <nd ref="324369192"/>
    <nd ref="3462444956"/>
    <tag k="bicycle" v="designated"/>
    <tag k="designation" v="public_bridleway"/>
    <tag k="foot" v="designated"/>
    <tag k="highway" v="unclassified"/>
    <tag k="horse" v="designated"/>
    <tag k="prow_ref" v="190/3"/>
    <tag k="source" v="GPS;Bing"/>
  </way>
  <way id="339059809" version="3" timestamp="2021-04-08T01:48:23Z" changeset="102512750" uid="5443821" user="◪ Jarv">
    <nd ref="3462444956"/>
    <nd ref="3462444957"/>
    <nd ref="3462444958"/>
    <nd ref="324369193"/>
    <nd ref="3462444959"/>
    <nd ref="3462444960"/>
    <nd ref="3462444961"/>
    <nd ref="3462444962"/>
    <nd ref="3462444725"/>
    <nd ref="324369194"/>
    <nd ref="3462444728"/>
    <nd ref="3462444729"/>
    <nd ref="3462444732"/>
    <nd ref="3462444733"/>
    <nd ref="3462444735"/>
    <nd ref="3462444742"/>
    <nd ref="3462444745"/>
    <nd ref="3462444747"/>
    <nd ref="3462444739"/>
    <tag k="bicycle" v="designated"/>
    <tag k="designation" v="public_bridleway"/>
    <tag k="foot" v="designated"/>
    <tag k="highway" v="unclassified"/>
    <tag k="horse" v="designated"/>
    <tag k="maxspeed" v="60 mph"/>
    <tag k="prow_ref" v="190/3"/>
    <tag k="source" v="View from west;Bing"/>
  </way>
  <way id="388679954" version="3" timestamp="2021-04-08T01:48:23Z" changeset="102512750" uid="5443821" user="◪ Jarv">
    <nd ref="307417400"/>
    <nd ref="307417401"/>
    <nd ref="307417402"/>
    <nd ref="8604462288"/>
    <nd ref="307417403"/>
    <nd ref="8604462289"/>
    <nd ref="307417404"/>
    <nd ref="129999593"/>
    <tag k="highway" v="tertiary"/>
    <tag k="lit" v="no"/>
    <tag k="maxspeed" v="60 mph"/>
    <tag k="name" v="Ollerton Road"/>
    <tag k="oneway" v="no"/>
  </way>
  <way id="388679957" version="1" timestamp="2015-12-30T12:33:33Z" changeset="36261015" uid="161875" user="Willumm">
    <nd ref="3918464047"/>
    <nd ref="291521298"/>
    <tag k="highway" v="tertiary"/>
    <tag k="maxspeed" v="30 mph"/>
    <tag k="name" v="Trent Lane"/>
    <tag k="oneway" v="no"/>
  </way>
  <way id="464563107" version="6" timestamp="2025-05-19T16:22:50Z" changeset="166485535" uid="6714692" user="Fingrmouse">
    <nd ref="12849286301"/>
    <nd ref="12849281300"/>
    <nd ref="253631277"/>
    <nd ref="12849286302"/>
    <nd ref="12849286303"/>
    <nd ref="253631278"/>
    <nd ref="12849286304"/>
    <nd ref="3425569326"/>
    <nd ref="12849286305"/>
    <nd ref="12849286757"/>
    <nd ref="233155"/>
    <nd ref="12849286760"/>
    <nd ref="12849286306"/>
    <nd ref="12849286307"/>
    <nd ref="12849286474"/>
    <nd ref="12849286473"/>
    <nd ref="233154"/>
    <nd ref="602659728"/>
    <nd ref="12849286472"/>
    <nd ref="12849286471"/>
    <nd ref="12849286470"/>
    <nd ref="12849286469"/>
    <nd ref="2211573300"/>
    <nd ref="2211573303"/>
    <nd ref="233153"/>
    <nd ref="2195096489"/>
    <nd ref="253631272"/>
    <nd ref="2211573294"/>
    <nd ref="2211573305"/>
    <nd ref="2211573301"/>
    <nd ref="253631274"/>
    <nd ref="233152"/>
    <nd ref="2211573298"/>
    <nd ref="253631271"/>
    <nd ref="233151"/>
    <nd ref="1880768383"/>
    <nd ref="1880768476"/>
    <nd ref="1880768413"/>
    <nd ref="1880768307"/>
    <nd ref="1880768403"/>
    <nd ref="1880768408"/>
    <nd ref="1880768415"/>
    <nd ref="1880768414"/>
    <nd ref="1880768373"/>
    <nd ref="1880768331"/>
    <nd ref="12771984566"/>
    <nd ref="253631264"/>
    <tag k="highway" v="trunk"/>
    <tag k="lit" v="no"/>
    <tag k="maxspeed" v="50 mph"/>
    <tag k="maxspeed:type" v="sign"/>
    <tag k="name" v="Kelham Road"/>
    <tag k="ref" v="A617"/>
    <tag k="source" v="survey"/>
  </way>
  <way id="867988445" version="4" timestamp="2025-05-16T14:14:31Z" changeset="166353710" uid="6714692" user="Fingrmouse">
    <nd ref="602651994"/>
    <nd ref="12842280225"/>
    <nd ref="12842280226"/>
    <nd ref="12842280228"/>
    <nd ref="12842280227"/>
    <nd ref="8090636939"/>
    <nd ref="8090636938"/>
    <nd ref="12842280215"/>
    <nd ref="12842280216"/>
    <nd ref="12842280217"/>
    <nd ref="12842280218"/>
    <nd ref="8090636937"/>
    <nd ref="12842280219"/>
    <nd ref="12842280220"/>
    <nd ref="12842280221"/>
    <nd ref="12842280222"/>
    <nd ref="12842280223"/>
    <nd ref="12842280224"/>
    <nd ref="602651994"/>
    <tag k="amenity" v="place_of_worship"/>
    <tag k="building" v="church"/>
    <tag k="denomination" v="anglican"/>
    <tag k="name" v="St Wilfrid Church"/>
    <tag k="ref:dove" v="13207"/>
    <tag k="religion" v="christian"/>
    <tag k="wikidata" v="Q7592153"/>
    <tag k="wikipedia" v="en:St Wilfrid's Church, Kelham"/>
  </way>
  <way id="1100908295" version="2" timestamp="2025-05-16T14:14:31Z" changeset="166353710" uid="6714692" user="Fingrmouse">
    <nd ref="291521314"/>
    <nd ref="12842280688"/>
    <nd ref="12842280687"/>
    <nd ref="253632363"/>
    <nd ref="602652868"/>
    <nd ref="12842280137"/>
    <nd ref="12842280136"/>
    <nd ref="12842280135"/>
    <nd ref="253632364"/>
    <nd ref="12842280133"/>
    <nd ref="12842280134"/>
    <nd ref="233163"/>
    <tag k="highway" v="trunk"/>
    <tag k="lanes" v="2"/>
    <tag k="lit" v="yes"/>
    <tag k="maxspeed" v="30 mph"/>
    <tag k="name" v="Main Road"/>
    <tag k="ref" v="A617"/>
  </way>
  <way id="1387295796" version="1" timestamp="2025-05-16T14:14:31Z" changeset="166353710" uid="6714692" user="Fingrmouse">
    <nd ref="602652451"/>
    <nd ref="12842268665"/>
    <nd ref="602652452"/>
    <tag k="highway" v="residential"/>
    <tag k="maxspeed" v="30 mph"/>
    <tag k="name" v="Home Farm Close"/>
    <tag k="oneway" v="no"/>
  </way>
  <way id="1387295797" version="1" timestamp="2025-05-16T14:14:31Z" changeset="166353710" uid="6714692" user="Fingrmouse">
    <nd ref="602652450"/>
    <nd ref="602652451"/>
    <tag k="bridge" v="yes"/>
    <tag k="highway" v="residential"/>
    <tag k="layer" v="1"/>
    <tag k="maxspeed" v="30 mph"/>
    <tag k="name" v="Home Farm Close"/>
    <tag k="oneway" v="no"/>
  </way>
  <way id="1387295798" version="1" timestamp="2025-05-16T14:14:31Z" changeset="166353710" uid="6714692" user="Fingrmouse">
    <nd ref="233165"/>
    <nd ref="12842280696"/>
    <nd ref="12842280697"/>
    <nd ref="253632357"/>
    <tag k="highway" v="trunk"/>
    <tag k="lanes" v="2"/>
    <tag k="lit" v="yes"/>
    <tag k="maxspeed" v="30 mph"/>
    <tag k="name" v="Main Road"/>
    <tag k="oneway" v="no"/>
    <tag k="ref" v="A617"/>
    <tag k="source:name" v="OS OpenData StreetView"/>
  </way>
  <way id="1387295799" version="1" timestamp="2025-05-16T14:14:31Z" changeset="166353710" uid="6714692" user="Fingrmouse">
    <nd ref="12842268666"/>
    <nd ref="233165"/>
    <tag k="bridge" v="yes"/>
    <tag k="highway" v="trunk"/>
    <tag k="lanes" v="2"/>
    <tag k="layer" v="1"/>
    <tag k="lit" v="yes"/>
    <tag k="maxspeed" v="30 mph"/>
    <tag k="name" v="Main Road"/>
    <tag k="oneway" v="no"/>
    <tag k="ref" v="A617"/>
    <tag k="source:name" v="OS OpenData StreetView"/>
  </way>
  <way id="1388052510" version="1" timestamp="2025-05-19T16:22:50Z" changeset="166485535" uid="6714692" user="Fingrmouse">
    <nd ref="253631285"/>
    <nd ref="12848928893"/>
    <nd ref="233160"/>
    <nd ref="233159"/>
    <nd ref="12848929075"/>
    <nd ref="3425569325"/>
    <nd ref="253631280"/>
    <nd ref="12848929076"/>
    <nd ref="253631281"/>
    <nd ref="12848929077"/>
    <nd ref="12848929078"/>
    <nd ref="12848929079"/>
    <nd ref="12848929080"/>
    <nd ref="253631282"/>
    <nd ref="4666225405"/>
    <nd ref="12848929081"/>
    <nd ref="12848929082"/>
    <nd ref="233158"/>
    <nd ref="12848929083"/>
    <nd ref="233157"/>
    <nd ref="12849281275"/>
    <nd ref="233156"/>
    <nd ref="12849281299"/>
    <nd ref="253631275"/>
    <tag k="highway" v="trunk"/>
    <tag k="lit" v="no"/>
    <tag k="maxspeed" v="50 mph"/>
    <tag k="maxspeed:type" v="sign"/>
    <tag k="name" v="Kelham Road"/>
    <tag k="ref" v="A617"/>
    <tag k="source" v="survey"/>
  </way>
  <way id="1388052511" version="1" timestamp="2025-05-19T16:22:50Z" changeset="166485535" uid="6714692" user="Fingrmouse">
    <nd ref="253631275"/>
    <nd ref="12849286301"/>
    <tag k="bridge" v="yes"/>
    <tag k="highway" v="trunk"/>
    <tag k="layer" v="1"/>
    <tag k="lit" v="no"/>
    <tag k="maxspeed" v="50 mph"/>
    <tag k="maxspeed:type" v="sign"/>
    <tag k="name" v="Kelham Road"/>
    <tag k="ref" v="A617"/>
    <tag k="source" v="survey"/>
  </way>

</osm>
