<?xml version="1.0" encoding="UTF-8"?>
<osm version="0.6" generator="Overpass API 0.7.62.8 e802775f">
<note>The data included in this document is from www.openstreetmap.org. The data is made available under ODbL.</note>
<meta osm_base="2025-10-23T17:37:55Z" areas="2025-10-23T12:46:58Z"/>

  <node id="307420044" lat="53.1455122" lon="-0.9377455" version="17" timestamp="2010-11-14T21:42:48Z" changeset="6370957" uid="84681" user="SK53"/>
  <node id="324764360" lat="53.1202965" lon="-0.9929531" version="4" timestamp="2023-01-12T17:39:39Z" changeset="131198843" uid="6714692" user="Fingrmouse"/>
  <node id="497306339" lat="53.1375522" lon="-1.0273100" version="2" timestamp="2015-05-07T19:56:10Z" changeset="30883825" uid="61942" user="SomeoneElse"/>
  <node id="1535576395" lat="53.1537709" lon="-0.9769885" version="1" timestamp="2011-12-07T18:38:47Z" changeset="10059901" uid="61942" user="SomeoneElse"/>
  <node id="1596555110" lat="53.1559528" lon="-0.9959539" version="1" timestamp="2012-01-18T18:34:02Z" changeset="10429883" uid="61942" user="SomeoneElse"/>
  <node id="1880193948" lat="53.1519033" lon="-1.0134531" version="1" timestamp="2012-08-24T00:34:36Z" changeset="12839733" uid="61942" user="SomeoneElse"/>
  <way id="29432240" version="24" timestamp="2022-02-22T14:52:59Z" changeset="117730989" uid="5589" user="user_5589">
    <nd ref="307420062"/>
    <nd ref="814795432"/>
    <nd ref="4596231789"/>
    <nd ref="324375832"/>
    <nd ref="1596555172"/>
    <tag k="highway" v="tertiary"/>
    <tag k="maxspeed" v="30 mph"/>
    <tag k="name" v="Wellow Road"/>
    <tag k="sidewalk" v="right"/>
    <tag k="source:name" v="Sign at S"/>
  </way>
  <way id="36733805" version="9" timestamp="2020-12-16T12:48:56Z" changeset="95942695" uid="11734036" user="prreddyz">
    <nd ref="497306339"/>
    <nd ref="497305703"/>
    <nd ref="426966842"/>
    <nd ref="426966849"/>
    <nd ref="426966856"/>
    <nd ref="3523521137"/>
    <nd ref="426966860"/>
    <nd ref="426966874"/>
    <nd ref="3523521113"/>
    <nd ref="426966875"/>
    <nd ref="3523521149"/>
    <nd ref="8234451659"/>
    <nd ref="426966880"/>
    <tag k="highway" v="unclassified"/>
    <tag k="lit" v="yes"/>
    <tag k="maxspeed" v="30 mph"/>
    <tag k="name" v="Brailwood Road"/>
    <tag k="oneway" v="no"/>
    <tag k="sidewalk" v="left"/>
    <tag k="source:name" v="Sign at west"/>
  </way>
  <way id="36734378" version="4" timestamp="2016-01-09T18:38:56Z" changeset="36468814" uid="161875" user="Willumm">
    <nd ref="426976658"/>
    <nd ref="426976679"/>
    <tag k="bridge" v="yes"/>
    <tag k="highway" v="tertiary"/>
    <tag k="layer" v="0"/>
    <tag k="maxspeed" v="60 mph"/>
    <tag k="oneway" v="no"/>
  </way>
  <way id="36735564" version="19" timestamp="2022-02-22T14:52:59Z" changeset="117730989" uid="5589" user="user_5589">
    <nd ref="324764404"/>
    <nd ref="6505169083"/>
    <nd ref="307426340"/>
    <nd ref="9043954431"/>
    <nd ref="307420061"/>
    <nd ref="532521280"/>
    <nd ref="532513303"/>
    <nd ref="426994591"/>
    <tag k="highway" v="tertiary"/>
    <tag k="maxspeed" v="30 mph"/>
    <tag k="name" v="Main Street"/>
    <tag k="oneway" v="no"/>
    <tag k="sidewalk" v="right"/>
    <tag k="source" v="survey"/>
    <tag k="source:name" v="Sign at E"/>
  </way>
  <way id="36735570" version="11" timestamp="2022-02-22T14:52:59Z" changeset="117730989" uid="5589" user="user_5589">
    <nd ref="426994591"/>
    <nd ref="426994605"/>
    <nd ref="426994606"/>
    <tag k="highway" v="residential"/>
    <tag k="maxspeed" v="30 mph"/>
    <tag k="name" v="Church Lane"/>
    <tag k="oneway" v="no"/>
    <tag k="sidewalk" v="no"/>
    <tag k="source:name" v="Sign at N"/>
  </way>
  <way id="36735571" version="7" timestamp="2019-10-18T06:26:34Z" changeset="75873113" uid="10219370" user="rathjoth">
    <nd ref="426994636"/>
    <nd ref="426994643"/>
    <nd ref="497313028"/>
    <nd ref="497313031"/>
    <nd ref="6894722965"/>
    <nd ref="532511813"/>
    <nd ref="532506026"/>
    <nd ref="497313035"/>
    <nd ref="497313036"/>
    <tag k="highway" v="residential"/>
    <tag k="maxspeed" v="30 mph"/>
    <tag k="name" v="Back Lane"/>
    <tag k="oneway" v="no"/>
    <tag k="source:name" v="Sign at S"/>
  </way>
  <way id="36735572" version="5" timestamp="2016-01-02T21:51:40Z" changeset="36327806" uid="161875" user="Willumm">
    <nd ref="426994578"/>
    <nd ref="497314373"/>
    <nd ref="426994644"/>
    <tag k="designation" v="public_footpath"/>
    <tag k="highway" v="residential"/>
    <tag k="maxspeed" v="30 mph"/>
    <tag k="name" v="Triumph Road"/>
    <tag k="oneway" v="no"/>
    <tag k="source:designation" v="Sign at W"/>
  </way>
  <way id="36735573" version="7" timestamp="2022-03-09T22:12:26Z" changeset="118296305" uid="242345" user="confusedbuffalo">
    <nd ref="426994576"/>
    <nd ref="3523465419"/>
    <nd ref="426994645"/>
    <nd ref="497313036"/>
    <tag k="highway" v="residential"/>
    <tag k="maxspeed" v="30 mph"/>
    <tag k="name" v="Side Lane"/>
    <tag k="oneway" v="no"/>
    <tag k="sidewalk" v="no"/>
    <tag k="source:name" v="Sign at west"/>
  </way>
  <way id="40869737" version="4" timestamp="2016-01-02T21:51:41Z" changeset="36327806" uid="161875" user="Willumm">
    <nd ref="497314373"/>
    <nd ref="497314377"/>
    <nd ref="497314327"/>
    <tag k="highway" v="residential"/>
    <tag k="maxspeed" v="30 mph"/>
    <tag k="name" v="Triumph Close"/>
    <tag k="oneway" v="no"/>
  </way>
  <way id="42623872" version="4" timestamp="2016-01-09T18:38:58Z" changeset="36468814" uid="161875" user="Willumm">
    <nd ref="532515014"/>
    <nd ref="532515019"/>
    <nd ref="532513303"/>
    <tag k="designation" v="public_footpath"/>
    <tag k="foot" v="yes"/>
    <tag k="highway" v="residential"/>
    <tag k="maxspeed" v="30 mph"/>
    <tag k="name" v="School Lane"/>
    <tag k="oneway" v="no"/>
    <tag k="source:name" v="Sign at S"/>
  </way>
  <way id="42626817" version="8" timestamp="2021-02-01T04:12:49Z" changeset="98476701" uid="10455629" user="jgopatho">
    <nd ref="426994576"/>
    <nd ref="8382596202"/>
    <nd ref="3523465421"/>
    <nd ref="324764400"/>
    <nd ref="426994578"/>
    <nd ref="532506022"/>
    <nd ref="1596904835"/>
    <nd ref="324764401"/>
    <nd ref="497313589"/>
    <nd ref="1596898649"/>
    <nd ref="324764402"/>
    <nd ref="426994580"/>
    <nd ref="324764404"/>
    <tag k="highway" v="tertiary"/>
    <tag k="maxspeed" v="30 mph"/>
    <tag k="name" v="Kirklington Road"/>
    <tag k="oneway" v="no"/>
    <tag k="source" v="survey"/>
    <tag k="source:NB" v="Sign at N"/>
    <tag k="source:name" v="Sign at N"/>
  </way>
  <way id="42626824" version="2" timestamp="2021-06-08T00:15:57Z" changeset="105999114" uid="3199858" user="Mateusz Konieczny - bot account">
    <nd ref="426994574"/>
    <nd ref="426994576"/>
    <tag k="highway" v="tertiary"/>
  </way>
  <way id="42626985" version="3" timestamp="2017-01-08T12:34:12Z" changeset="44998218" uid="84681" user="SK53">
    <nd ref="426994606"/>
    <nd ref="426994609"/>
    <nd ref="426994615"/>
    <nd ref="532511799"/>
    <nd ref="532513319"/>
    <nd ref="426994619"/>
    <nd ref="426994628"/>
    <nd ref="426994636"/>
    <nd ref="426994640"/>
    <nd ref="4596231571"/>
    <nd ref="426994641"/>
    <nd ref="426994580"/>
    <tag k="highway" v="residential"/>
    <tag k="maxspeed" v="30 mph"/>
    <tag k="name" v="Church Lane"/>
    <tag k="oneway" v="no"/>
  </way>
  <way id="42627024" version="11" timestamp="2022-02-22T14:52:59Z" changeset="117730989" uid="5589" user="user_5589">
    <nd ref="506823191"/>
    <nd ref="1596555110"/>
    <tag k="highway" v="tertiary"/>
    <tag k="maxspeed" v="30 mph"/>
    <tag k="name" v="Wellow Road"/>
    <tag k="sidewalk" v="no"/>
  </way>
  <way id="42627088" version="12" timestamp="2022-02-22T14:52:59Z" changeset="117730989" uid="5589" user="user_5589">
    <nd ref="426994591"/>
    <nd ref="7097882689"/>
    <nd ref="307420062"/>
    <tag k="highway" v="tertiary"/>
    <tag k="maxspeed" v="30 mph"/>
    <tag k="name" v="Main Street"/>
    <tag k="oneway" v="no"/>
    <tag k="sidewalk" v="right"/>
    <tag k="source:name" v="Sign at W"/>
  </way>
  <way id="64932286" version="5" timestamp="2021-06-08T00:16:01Z" changeset="105999114" uid="3199858" user="Mateusz Konieczny - bot account">
    <nd ref="324764396"/>
    <nd ref="324764397"/>
    <nd ref="3523465425"/>
    <nd ref="324764398"/>
    <nd ref="3523465430"/>
    <nd ref="8382596205"/>
    <nd ref="324764399"/>
    <nd ref="426994574"/>
    <tag k="highway" v="tertiary"/>
    <tag k="lit" v="yes"/>
    <tag k="maxspeed" v="30 mph"/>
    <tag k="name" v="Kirklington Road"/>
    <tag k="oneway" v="no"/>
    <tag k="sidewalk" v="right"/>
    <tag k="source:name" v="Sign"/>
  </way>
  <way id="64932290" version="6" timestamp="2016-01-02T21:51:41Z" changeset="36327806" uid="161875" user="Willumm">
    <nd ref="307420058"/>
    <nd ref="307426337"/>
    <nd ref="477085773"/>
    <nd ref="307426338"/>
    <nd ref="3924393210"/>
    <tag k="highway" v="tertiary"/>
    <tag k="maxspeed" v="60 mph"/>
    <tag k="name" v="Newark Road"/>
    <tag k="oneway" v="no"/>
    <tag k="source:NB" v="Joining the signs"/>
    <tag k="source:name" v="OS OpenData StreetView"/>
  </way>
  <way id="66292152" version="7" timestamp="2021-08-28T18:10:19Z" changeset="110390121" uid="493595" user="Yorvik Prestigitator">
    <nd ref="307420059"/>
    <nd ref="803664321"/>
    <nd ref="803664323"/>
    <nd ref="803664324"/>
    <nd ref="803664325"/>
    <nd ref="803664326"/>
    <nd ref="9043954454"/>
    <nd ref="307420060"/>
    <nd ref="9043954453"/>
    <nd ref="324764404"/>
    <tag k="highway" v="tertiary"/>
    <tag k="maxspeed" v="30 mph"/>
    <tag k="name" v="Newark Road"/>
    <tag k="oneway" v="no"/>
    <tag k="source" v="GPS and OS_OpenData_StreetView"/>
    <tag k="source:NB" v="Joining the signs"/>
    <tag k="source:name" v="Sign at W"/>
  </way>
  <way id="85333314" version="16" timestamp="2022-03-09T22:12:26Z" changeset="118296305" uid="242345" user="confusedbuffalo">
    <nd ref="307420044"/>
    <nd ref="1535576318"/>
    <nd ref="1535576314"/>
    <nd ref="1535576315"/>
    <nd ref="1535576316"/>
    <nd ref="1535576367"/>
    <nd ref="1535576320"/>
    <nd ref="1535576331"/>
    <nd ref="1535576322"/>
    <nd ref="1535576332"/>
    <nd ref="1535576333"/>
    <nd ref="1535576335"/>
    <nd ref="3253865453"/>
    <nd ref="1535576334"/>
    <nd ref="988363728"/>
    <nd ref="3252695495"/>
    <nd ref="3252710283"/>
    <nd ref="535860895"/>
    <nd ref="1535576340"/>
    <nd ref="3298706662"/>
    <nd ref="1535576350"/>
    <nd ref="1460900246"/>
    <nd ref="6488805311"/>
    <nd ref="1535576370"/>
    <nd ref="1535576352"/>
    <nd ref="1535576355"/>
    <nd ref="1535576353"/>
    <nd ref="1535576354"/>
    <nd ref="1535576358"/>
    <nd ref="1535576356"/>
    <nd ref="803665020"/>
    <nd ref="1535576357"/>
    <nd ref="1535576390"/>
    <nd ref="1535576377"/>
    <nd ref="803665028"/>
    <nd ref="1535576372"/>
    <nd ref="1535576388"/>
    <nd ref="803665032"/>
    <nd ref="1535576375"/>
    <nd ref="1535576376"/>
    <nd ref="1535576378"/>
    <nd ref="1535576379"/>
    <nd ref="1535576392"/>
    <nd ref="1535576395"/>
    <tag k="highway" v="tertiary"/>
    <tag k="lit" v="no"/>
    <tag k="maxspeed" v="60 mph"/>
    <tag k="maxspeed:type" v="GB:nsl_single"/>
    <tag k="sidewalk" v="no"/>
    <tag k="width" v="4"/>
  </way>
  <way id="135107701" version="7" timestamp="2016-01-02T21:51:41Z" changeset="36327806" uid="161875" user="Willumm">
    <nd ref="1535576395"/>
    <nd ref="1535576396"/>
    <nd ref="307420056"/>
    <nd ref="532528935"/>
    <nd ref="307426729"/>
    <nd ref="1535576397"/>
    <nd ref="307426730"/>
    <nd ref="307420057"/>
    <nd ref="307426336"/>
    <nd ref="1881002403"/>
    <nd ref="1881019568"/>
    <nd ref="307420058"/>
    <tag k="highway" v="tertiary"/>
    <tag k="maxspeed" v="60 mph"/>
    <tag k="oneway" v="no"/>
    <tag k="source:NB" v="Joining the signs"/>
  </way>
  <way id="142219172" version="2" timestamp="2014-08-10T20:21:04Z" changeset="24663184" uid="61942" user="SomeoneElse">
    <nd ref="1535576395"/>
    <nd ref="1458091325"/>
    <nd ref="1458091326"/>
    <nd ref="324373218"/>
    <nd ref="324373221"/>
    <nd ref="1458091327"/>
    <nd ref="1556563249"/>
    <nd ref="1458091328"/>
    <nd ref="1460894866"/>
    <nd ref="324373222"/>
    <nd ref="324373224"/>
    <nd ref="324373226"/>
    <tag k="highway" v="unclassified"/>
    <tag k="source" v="View from South;Bing"/>
    <tag k="source:NB" v="Sign at S"/>
    <tag k="source:ref" v="Lack of sign at S"/>
  </way>
  <way id="146383025" version="8" timestamp="2022-02-22T14:52:59Z" changeset="117730989" uid="5589" user="user_5589">
    <nd ref="1596555172"/>
    <nd ref="506823191"/>
    <tag k="highway" v="tertiary"/>
    <tag k="maxspeed" v="30 mph"/>
    <tag k="name" v="Wellow Road"/>
    <tag k="sidewalk" v="no"/>
    <tag k="source:name" v="Sign at S"/>
  </way>
  <way id="146383030" version="11" timestamp="2023-06-23T09:55:21Z" changeset="137681456" uid="242345" user="confusedbuffalo">
    <nd ref="1596555110"/>
    <nd ref="324375833"/>
    <nd ref="814795456"/>
    <nd ref="532516467"/>
    <nd ref="324375834"/>
    <nd ref="324375836"/>
    <nd ref="1596898633"/>
    <nd ref="324375837"/>
    <nd ref="324375838"/>
    <nd ref="324375839"/>
    <nd ref="506823814"/>
    <nd ref="506823796"/>
    <tag k="highway" v="tertiary"/>
    <tag k="maxspeed" v="60 mph"/>
    <tag k="maxspeed:type" v="GB:nsl_single"/>
    <tag k="name" v="Wellow Road"/>
    <tag k="sidewalk" v="no"/>
  </way>
  <way id="146390162" version="11" timestamp="2022-02-22T14:52:59Z" changeset="117730989" uid="5589" user="user_5589">
    <nd ref="426976679"/>
    <nd ref="1880193915"/>
    <nd ref="324764973"/>
    <nd ref="1880193944"/>
    <tag k="highway" v="tertiary"/>
    <tag k="maxspeed" v="60 mph"/>
    <tag k="oneway" v="no"/>
    <tag k="sidewalk" v="no"/>
    <tag k="source" v="GPS;Bing"/>
  </way>
  <way id="146390168" version="10" timestamp="2022-02-22T14:52:59Z" changeset="117730989" uid="5589" user="user_5589">
    <nd ref="1596635896"/>
    <nd ref="324764969"/>
    <nd ref="1931119540"/>
    <nd ref="324764971"/>
    <nd ref="1880193911"/>
    <nd ref="1880193987"/>
    <nd ref="307420065"/>
    <nd ref="1880193956"/>
    <nd ref="324764681"/>
    <nd ref="307420066"/>
    <nd ref="1880193953"/>
    <nd ref="1880193913"/>
    <nd ref="426976658"/>
    <tag k="highway" v="tertiary"/>
    <tag k="maxspeed" v="60 mph"/>
    <tag k="name" v="Stonish Hill"/>
    <tag k="oneway" v="no"/>
    <tag k="sidewalk" v="no"/>
    <tag k="source" v="GPs;Bing;local_knowledge"/>
    <tag k="source:name" v="OS_OpenData_StreetView"/>
  </way>
  <way id="146390176" version="10" timestamp="2022-02-22T14:52:59Z" changeset="117730989" uid="5589" user="user_5589">
    <nd ref="307420062"/>
    <nd ref="1596635893"/>
    <nd ref="1880187698"/>
    <nd ref="324764605"/>
    <nd ref="1880187666"/>
    <nd ref="1881019579"/>
    <nd ref="506823734"/>
    <nd ref="1880187693"/>
    <nd ref="426978429"/>
    <tag k="highway" v="tertiary"/>
    <tag k="maxspeed" v="30 mph"/>
    <tag k="name" v="Bilsthorpe Road"/>
    <tag k="oneway" v="no"/>
    <tag k="sidewalk" v="right"/>
    <tag k="source" v="GPs;Bing;local_knowledge"/>
    <tag k="source:name" v="OS_OpenData_StreetView;Sign at E"/>
  </way>
  <way id="146415947" version="1" timestamp="2012-01-19T00:07:10Z" changeset="10432985" uid="61942" user="SomeoneElse">
    <nd ref="497314322"/>
    <nd ref="497314327"/>
    <nd ref="497314333"/>
    <tag k="highway" v="residential"/>
    <tag k="name" v="Triumph Close"/>
  </way>
  <way id="177597491" version="7" timestamp="2022-02-22T14:52:59Z" changeset="117730989" uid="5589" user="user_5589">
    <nd ref="426978429"/>
    <nd ref="324764679"/>
    <nd ref="307420064"/>
    <nd ref="1596635896"/>
    <tag k="highway" v="tertiary"/>
    <tag k="maxspeed" v="60 mph"/>
    <tag k="name" v="Bilsthorpe Road"/>
    <tag k="oneway" v="no"/>
    <tag k="sidewalk" v="no"/>
    <tag k="source" v="GPs;Bing;local_knowledge"/>
    <tag k="source:name" v="OS_OpenData_StreetView"/>
  </way>
  <way id="177598141" version="8" timestamp="2022-02-22T14:52:59Z" changeset="117730989" uid="5589" user="user_5589">
    <nd ref="1880193944"/>
    <nd ref="1880193948"/>
    <tag k="bridge" v="yes"/>
    <tag k="highway" v="tertiary"/>
    <tag k="maxspeed" v="60 mph"/>
    <tag k="oneway" v="no"/>
    <tag k="sidewalk" v="no"/>
    <tag k="source" v="GPS;Bing"/>
  </way>
  <way id="304444617" version="7" timestamp="2022-01-16T14:36:08Z" changeset="116216366" uid="5589" user="user_5589">
    <nd ref="1880193948"/>
    <nd ref="307420067"/>
    <nd ref="665685851"/>
    <nd ref="324764975"/>
    <nd ref="665685852"/>
    <nd ref="307420068"/>
    <nd ref="665685853"/>
    <nd ref="665685854"/>
    <nd ref="324765026"/>
    <nd ref="506822857"/>
    <nd ref="307420069"/>
    <nd ref="1265829418"/>
    <nd ref="665685855"/>
    <nd ref="333257752"/>
    <tag k="highway" v="tertiary"/>
    <tag k="maxspeed" v="60 mph"/>
    <tag k="oneway" v="no"/>
    <tag k="sidewalk" v="no"/>
    <tag k="source" v="GPS;Bing"/>
  </way>
  <way id="316544587" version="7" timestamp="2023-01-12T17:39:39Z" changeset="131198843" uid="6714692" user="Fingrmouse">
    <nd ref="324764360"/>
    <nd ref="10543533856"/>
    <nd ref="324764361"/>
    <nd ref="7838764073"/>
    <nd ref="1866952534"/>
    <nd ref="7838764072"/>
    <nd ref="324764362"/>
    <nd ref="1866952548"/>
    <nd ref="10543533857"/>
    <nd ref="324764364"/>
    <nd ref="7838764074"/>
    <nd ref="7838764075"/>
    <nd ref="7838764076"/>
    <nd ref="1866952535"/>
    <nd ref="1866952529"/>
    <nd ref="7838764077"/>
    <nd ref="3226679587"/>
    <nd ref="324764366"/>
    <nd ref="7838764078"/>
    <nd ref="324764368"/>
    <nd ref="7838764080"/>
    <nd ref="7838764079"/>
    <nd ref="7838764081"/>
    <nd ref="10543533858"/>
    <nd ref="324764370"/>
    <nd ref="7838764082"/>
    <nd ref="10543533859"/>
    <nd ref="10543533860"/>
    <nd ref="7838764083"/>
    <nd ref="7838764084"/>
    <nd ref="324764372"/>
    <nd ref="10543533861"/>
    <nd ref="10543533862"/>
    <nd ref="3226666314"/>
    <nd ref="10543533863"/>
    <nd ref="10543533864"/>
    <nd ref="10543533865"/>
    <nd ref="324764373"/>
    <nd ref="10543533866"/>
    <nd ref="1866952533"/>
    <nd ref="1866952530"/>
    <nd ref="324764374"/>
    <nd ref="6300395959"/>
    <nd ref="6300395965"/>
    <nd ref="6300395962"/>
    <nd ref="324764375"/>
    <nd ref="1556567464"/>
    <nd ref="324764376"/>
    <nd ref="324764378"/>
    <nd ref="324764379"/>
    <nd ref="1866952539"/>
    <nd ref="1866952541"/>
    <nd ref="324764380"/>
    <nd ref="1866952550"/>
    <nd ref="324764381"/>
    <nd ref="1866952547"/>
    <nd ref="324764382"/>
    <nd ref="1866952546"/>
    <nd ref="324764383"/>
    <nd ref="1866952543"/>
    <nd ref="1866952538"/>
    <nd ref="324764384"/>
    <nd ref="324764386"/>
    <nd ref="1866952542"/>
    <nd ref="324764387"/>
    <nd ref="1866952540"/>
    <nd ref="1866952537"/>
    <nd ref="324764388"/>
    <nd ref="1866952544"/>
    <nd ref="324764389"/>
    <nd ref="476519453"/>
    <nd ref="324764390"/>
    <nd ref="6471639762"/>
    <nd ref="6471639765"/>
    <nd ref="803664314"/>
    <nd ref="324764391"/>
    <nd ref="1866952532"/>
    <nd ref="3633359881"/>
    <nd ref="324764392"/>
    <nd ref="1866952549"/>
    <nd ref="1866952545"/>
    <nd ref="324764393"/>
    <nd ref="1866952536"/>
    <nd ref="1866952531"/>
    <nd ref="324764394"/>
    <nd ref="1556567853"/>
    <nd ref="324764395"/>
    <tag k="highway" v="tertiary"/>
    <tag k="maxspeed" v="60 mph"/>
    <tag k="oneway" v="no"/>
    <tag k="source" v="GPS;Bing"/>
  </way>
  <way id="345706286" version="1" timestamp="2015-05-17T13:21:14Z" changeset="31224464" uid="61942" user="SomeoneElse">
    <nd ref="426966880"/>
    <nd ref="426966914"/>
    <nd ref="497308416"/>
    <nd ref="3523507822"/>
    <nd ref="497308435"/>
    <nd ref="497308449"/>
    <nd ref="497308459"/>
    <tag k="highway" v="unclassified"/>
    <tag k="name" v="Brailwood Road"/>
    <tag k="source:name" v="Sign at west"/>
  </way>
  <way id="389278760" version="1" timestamp="2016-01-02T21:51:36Z" changeset="36327806" uid="161875" user="Willumm">
    <nd ref="324764395"/>
    <nd ref="3633360195"/>
    <nd ref="324764396"/>
    <tag k="highway" v="tertiary"/>
    <tag k="maxspeed" v="30 mph"/>
    <tag k="oneway" v="no"/>
    <tag k="source" v="GPS;Bing"/>
  </way>
  <way id="389278761" version="1" timestamp="2016-01-02T21:51:37Z" changeset="36327806" uid="161875" user="Willumm">
    <nd ref="3924393210"/>
    <nd ref="307420059"/>
    <tag k="highway" v="tertiary"/>
    <tag k="maxspeed" v="30 mph"/>
    <tag k="name" v="Newark Road"/>
    <tag k="oneway" v="no"/>
    <tag k="source:NB" v="Joining the signs"/>
    <tag k="source:name" v="OS OpenData StreetView"/>
  </way>
  <way id="860091853" version="3" timestamp="2023-11-30T19:33:36Z" changeset="144637738" uid="504708" user="HillWithSmallFields">
    <nd ref="426994552"/>
    <nd ref="9043954435"/>
    <nd ref="9043954436"/>
    <nd ref="8016380986"/>
    <nd ref="9043954437"/>
    <nd ref="9043954438"/>
    <nd ref="9043954439"/>
    <nd ref="9043954440"/>
    <nd ref="8016380988"/>
    <nd ref="9043954441"/>
    <nd ref="9043954433"/>
    <nd ref="9043954432"/>
    <nd ref="8016380987"/>
    <nd ref="9043954434"/>
    <nd ref="426994552"/>
    <tag k="amenity" v="place_of_worship"/>
    <tag k="building" v="church"/>
    <tag k="denomination" v="anglican"/>
    <tag k="name" v="St Andrew's"/>
    <tag k="ref:dove" v="16754"/>
    <tag k="religion" v="christian"/>
    <tag k="wikidata" v="Q15979308"/>
  </way>
  <way id="974978509" version="3" timestamp="2022-10-06T11:45:36Z" changeset="127098901" uid="17299016" user="Russ (mechanical edit account)">
    <nd ref="9022694827"/>
    <nd ref="9022694824"/>
    <nd ref="9022694825"/>
    <nd ref="9022694826"/>
    <nd ref="9022694827"/>
    <tag k="brand" v="National Grid"/>
    <tag k="brand:wikidata" v="Q1465461"/>
    <tag k="building" v="yes"/>
    <tag k="name" v="Eakring Solar Farm"/>
    <tag k="operator" v="National Grid Electricity Distribution Plc"/>
    <tag k="operator:old" v="Western Power Distribution"/>
    <tag k="operator:wikidata" v="Q7988183"/>
    <tag k="owner" v="National Grid Electricity Distribution (East Midlands) Plc"/>
    <tag k="owner:wikidata" v="Q114348127"/>
    <tag k="power" v="substation"/>
    <tag k="ref:GB:wpd_site" v="898340"/>
    <tag k="voltage" v="33000"/>
  </way>
  <way id="974978513" version="3" timestamp="2022-10-06T11:45:36Z" changeset="127098901" uid="17299016" user="Russ (mechanical edit account)">
    <nd ref="9022694843"/>
    <nd ref="9022694840"/>
    <nd ref="9022694841"/>
    <nd ref="9022694842"/>
    <nd ref="9022694843"/>
    <tag k="brand" v="National Grid"/>
    <tag k="brand:wikidata" v="Q1465461"/>
    <tag k="building" v="yes"/>
    <tag k="name" v="Bilsthorpe Solar Substation"/>
    <tag k="operator" v="National Grid Electricity Distribution Plc"/>
    <tag k="operator:old" v="Western Power Distribution"/>
    <tag k="operator:wikidata" v="Q7988183"/>
    <tag k="owner" v="National Grid Electricity Distribution (East Midlands) Plc"/>
    <tag k="owner:wikidata" v="Q114348127"/>
    <tag k="power" v="substation"/>
    <tag k="ref:GB:wpd_site" v="898326"/>
    <tag k="voltage" v="33000"/>
  </way>
  <way id="977392582" version="1" timestamp="2021-08-28T18:10:19Z" changeset="110390121" uid="493595" user="Yorvik Prestigitator">
    <nd ref="9043954442"/>
    <nd ref="9043954443"/>
    <nd ref="9043954444"/>
    <nd ref="9043954445"/>
    <nd ref="9043954446"/>
    <nd ref="9043954447"/>
    <nd ref="9043954448"/>
    <nd ref="9043954449"/>
    <nd ref="9043954450"/>
    <nd ref="9043954451"/>
    <nd ref="9043954442"/>
    <tag k="amenity" v="community_centre"/>
    <tag k="building" v="public"/>
    <tag k="name" v="Cator Hall"/>
  </way>

</osm>
