<?xml version="1.0" encoding="UTF-8"?>
<osm version="0.6" generator="Overpass API 0.7.62.8 e802775f">
<note>The data included in this document is from www.openstreetmap.org. The data is made available under ODbL.</note>
<meta osm_base="2025-10-23T17:37:55Z" areas="2025-10-23T14:54:58Z"/>

  <node id="59746453" lat="53.1201652" lon="-1.0617866" version="6" timestamp="2025-04-22T10:21:53Z" changeset="165277389" uid="5229644" user="Nathan_A_RF"/>
  <node id="253639211" lat="53.1201289" lon="-1.0612601" version="12" timestamp="2024-01-04T16:56:28Z" changeset="145890091" uid="6714692" user="Fingrmouse"/>
  <node id="324765026" lat="53.1515970" lon="-1.0270579" version="8" timestamp="2010-03-14T02:31:01Z" changeset="4120695" uid="61942" user="SomeoneElse"/>
  <node id="333257752" lat="53.1512440" lon="-1.0333320" version="7" timestamp="2015-11-09T15:26:37Z" changeset="35194728" uid="456047" user="axc97c"/>
  <node id="333257999" lat="53.1417769" lon="-1.0306498" version="4" timestamp="2015-05-09T23:46:17Z" changeset="30950417" uid="61942" user="SomeoneElse"/>
  <node id="349285340" lat="53.1093455" lon="-1.0432607" version="6" timestamp="2023-12-20T17:47:17Z" changeset="145340659" uid="6714692" user="Fingrmouse"/>
  <node id="366393530" lat="53.1225011" lon="-1.0210256" version="7" timestamp="2024-01-04T17:26:56Z" changeset="145891027" uid="6714692" user="Fingrmouse"/>
  <node id="497306339" lat="53.1375522" lon="-1.0273100" version="2" timestamp="2015-05-07T19:56:10Z" changeset="30883825" uid="61942" user="SomeoneElse"/>
  <node id="658746939" lat="53.1206521" lon="-1.0616939" version="2" timestamp="2014-05-08T07:30:36Z" changeset="22202868" uid="2011702" user="krd_mapper"/>
  <node id="1880193948" lat="53.1519033" lon="-1.0134531" version="1" timestamp="2012-08-24T00:34:36Z" changeset="12839733" uid="61942" user="SomeoneElse"/>
  <node id="3523303648" lat="53.1281594" lon="-1.0228151" version="1" timestamp="2015-05-17T10:42:23Z" changeset="31222974" uid="61942" user="SomeoneElse"/>
  <way id="7982484" version="10" timestamp="2025-04-22T10:21:53Z" changeset="165277389" uid="5229644" user="Nathan_A_RF">
    <nd ref="59746453"/>
    <nd ref="59746454"/>
    <nd ref="2194135794"/>
    <nd ref="59746455"/>
    <nd ref="3957436358"/>
    <nd ref="59746456"/>
    <nd ref="59746457"/>
    <nd ref="2194135814"/>
    <nd ref="59746458"/>
    <nd ref="2194135792"/>
    <nd ref="59746459"/>
    <nd ref="2194135804"/>
    <nd ref="59746460"/>
    <nd ref="2194135796"/>
    <nd ref="59746461"/>
    <nd ref="2194135827"/>
    <nd ref="59746462"/>
    <nd ref="2194135828"/>
    <nd ref="59746463"/>
    <nd ref="3957436359"/>
    <nd ref="59746464"/>
    <nd ref="59746465"/>
    <nd ref="2194135822"/>
    <nd ref="59746466"/>
    <nd ref="2194135818"/>
    <nd ref="59746467"/>
    <nd ref="2194135829"/>
    <nd ref="59746469"/>
    <nd ref="2194135800"/>
    <nd ref="59746470"/>
    <nd ref="2194135833"/>
    <nd ref="59746471"/>
    <nd ref="2194135837"/>
    <nd ref="59746472"/>
    <nd ref="2194135816"/>
    <nd ref="59746451"/>
    <nd ref="2843486567"/>
    <nd ref="59746452"/>
    <nd ref="59746453"/>
    <tag k="highway" v="trunk"/>
    <tag k="junction" v="roundabout"/>
    <tag k="lit" v="yes"/>
    <tag k="maxspeed" v="50 mph"/>
    <tag k="maxspeed:type" v="sign"/>
    <tag k="sidewalk" v="no"/>
    <tag k="source:maxspeed" v="survey"/>
  </way>
  <way id="29467802" version="14" timestamp="2022-01-16T14:36:08Z" changeset="116216366" uid="5589" user="user_5589">
    <nd ref="324765026"/>
    <nd ref="324765193"/>
    <nd ref="324765194"/>
    <nd ref="324765195"/>
    <tag k="highway" v="unclassified"/>
    <tag k="maxspeed" v="60 mph"/>
    <tag k="name" v="Swish Lane"/>
    <tag k="oneway" v="no"/>
    <tag k="sidewalk" v="no"/>
    <tag k="source:name" v="OS_OpenData_Locator"/>
  </way>
  <way id="30250632" version="14" timestamp="2016-01-09T18:38:50Z" changeset="36468814" uid="161875" user="Willumm">
    <nd ref="333257999"/>
    <nd ref="3507795905"/>
    <nd ref="532385064"/>
    <nd ref="333258214"/>
    <nd ref="532428309"/>
    <nd ref="497311428"/>
    <nd ref="532412671"/>
    <nd ref="333258217"/>
    <nd ref="532391734"/>
    <nd ref="532426759"/>
    <nd ref="1880176470"/>
    <nd ref="333258218"/>
    <nd ref="1880176506"/>
    <nd ref="532436555"/>
    <nd ref="333258220"/>
    <tag k="highway" v="tertiary"/>
    <tag k="lit" v="yes"/>
    <tag k="maxspeed" v="30 mph"/>
    <tag k="name" v="Mickledale Lane"/>
    <tag k="oneway" v="no"/>
    <tag k="source:name" v="NaPTAN"/>
  </way>
  <way id="30250711" version="8" timestamp="2025-03-21T08:45:39Z" changeset="163894577" uid="19497186" user="Maryna Makarava">
    <nd ref="333258867"/>
    <nd ref="333259636"/>
    <nd ref="333259641"/>
    <nd ref="7932996626"/>
    <nd ref="3522179598"/>
    <nd ref="6558109656"/>
    <nd ref="333259647"/>
    <nd ref="3522179625"/>
    <nd ref="532471441"/>
    <nd ref="333259651"/>
    <nd ref="3522179613"/>
    <nd ref="3522179647"/>
    <tag k="highway" v="tertiary"/>
    <tag k="lit" v="yes"/>
    <tag k="maxspeed" v="30 mph"/>
    <tag k="name" v="Kirklington Road"/>
  </way>
  <way id="31359624" version="9" timestamp="2025-04-22T17:50:32Z" changeset="165297780" uid="5229644" user="Nathan_A_RF">
    <nd ref="349285340"/>
    <nd ref="324355161"/>
    <nd ref="5464273085"/>
    <nd ref="324355163"/>
    <nd ref="426959969"/>
    <nd ref="324355165"/>
    <nd ref="324355167"/>
    <nd ref="6694492695"/>
    <nd ref="6694492696"/>
    <nd ref="324355169"/>
    <nd ref="6694492717"/>
    <nd ref="6694492697"/>
    <nd ref="324355171"/>
    <nd ref="6694492698"/>
    <nd ref="324355173"/>
    <nd ref="4666187556"/>
    <nd ref="4666187555"/>
    <nd ref="324355175"/>
    <nd ref="10543471436"/>
    <nd ref="324355177"/>
    <tag k="highway" v="tertiary"/>
    <tag k="maxspeed" v="60 mph"/>
    <tag k="maxspeed:type" v="GB:nsl_single"/>
    <tag k="name" v="Cockett Lane"/>
  </way>
  <way id="31360350" version="33" timestamp="2025-04-22T10:21:53Z" changeset="165277389" uid="5229644" user="Nathan_A_RF">
    <nd ref="349290557"/>
    <nd ref="11491882888"/>
    <nd ref="11435462661"/>
    <nd ref="10543471421"/>
    <nd ref="324765481"/>
    <tag k="highway" v="trunk"/>
    <tag k="lit" v="no"/>
    <tag k="maxspeed" v="50 mph"/>
    <tag k="maxspeed:type" v="sign"/>
    <tag k="name" v="Kirklington Road"/>
    <tag k="ref" v="A617"/>
    <tag k="source" v="survey"/>
  </way>
  <way id="31360355" version="6" timestamp="2025-04-22T10:21:53Z" changeset="165277389" uid="5229644" user="Nathan_A_RF">
    <nd ref="233429"/>
    <nd ref="349290557"/>
    <tag k="bridge" v="yes"/>
    <tag k="highway" v="trunk"/>
    <tag k="layer" v="1"/>
    <tag k="lit" v="no"/>
    <tag k="maxspeed" v="50 mph"/>
    <tag k="maxspeed:type" v="sign"/>
    <tag k="name" v="Kirklington Road"/>
    <tag k="ref" v="A617"/>
    <tag k="source" v="survey"/>
  </way>
  <way id="34146153" version="7" timestamp="2013-06-24T12:30:04Z" changeset="16682940" uid="1383105" user="Gavrielo">
    <nd ref="349306219"/>
    <nd ref="391568156"/>
    <nd ref="391566322"/>
    <tag k="designation" v="byway_open_to_all_traffic"/>
    <tag k="highway" v="unclassified"/>
    <tag k="layer" v="1"/>
    <tag k="name" v="Forest Lane"/>
    <tag k="source:name" v="OS_OpenData_Locator"/>
  </way>
  <way id="34146184" version="6" timestamp="2013-06-24T12:30:04Z" changeset="16682940" uid="1383105" user="Gavrielo">
    <nd ref="391566322"/>
    <nd ref="391568679"/>
    <nd ref="324765473"/>
    <tag k="designation" v="byway_open_to_all_traffic"/>
    <tag k="highway" v="unclassified"/>
    <tag k="name" v="Forest Lane"/>
    <tag k="source:name" v="OS_OpenData_Locator"/>
  </way>
  <way id="34146249" version="2" timestamp="2009-05-06T21:35:18Z" changeset="1101459" uid="61942" user="SomeoneElse">
    <nd ref="349306218"/>
    <nd ref="349306219"/>
    <tag k="bridge" v="yes"/>
    <tag k="created_by" v="Potlatch 0.10f"/>
    <tag k="designation" v="byway"/>
    <tag k="highway" v="unclassified"/>
    <tag k="layer" v="1"/>
  </way>
  <way id="34146427" version="7" timestamp="2013-06-24T12:30:05Z" changeset="16682940" uid="1383105" user="Gavrielo">
    <nd ref="391572821"/>
    <nd ref="391572495"/>
    <tag k="designation" v="byway_open_to_all_traffic"/>
    <tag k="highway" v="unclassified"/>
    <tag k="layer" v="1"/>
    <tag k="name" v="Forest Lane"/>
    <tag k="source:name" v="OS_OpenData_Locator"/>
  </way>
  <way id="34146506" version="3" timestamp="2009-05-06T21:17:36Z" changeset="1101111" uid="61942" user="SomeoneElse">
    <nd ref="391571665"/>
    <nd ref="391583163"/>
    <nd ref="391583168"/>
    <tag k="access" v="unknown"/>
    <tag k="foot" v="yes"/>
    <tag k="highway" v="unclassified"/>
    <tag k="layer" v="1"/>
  </way>
  <way id="34146524" version="3" timestamp="2011-04-29T21:13:55Z" changeset="8006980" uid="51722" user="Chris Parker">
    <nd ref="391583168"/>
    <nd ref="391583171"/>
    <nd ref="1265819908"/>
    <nd ref="391563167"/>
    <tag k="access" v="unknown"/>
    <tag k="foot" v="yes"/>
    <tag k="highway" v="unclassified"/>
  </way>
  <way id="34146564" version="2" timestamp="2009-05-06T21:18:30Z" changeset="1101111" uid="61942" user="SomeoneElse">
    <nd ref="391563167"/>
    <nd ref="391586113"/>
    <tag k="access" v="unknown"/>
    <tag k="highway" v="unclassified"/>
  </way>
  <way id="35356720" version="4" timestamp="2024-01-19T13:24:16Z" changeset="146444018" uid="6714692" user="Fingrmouse">
    <nd ref="366393530"/>
    <nd ref="768196238"/>
    <nd ref="414591870"/>
    <nd ref="9930401916"/>
    <nd ref="414591872"/>
    <nd ref="768196254"/>
    <nd ref="414591874"/>
    <nd ref="768196343"/>
    <nd ref="768196366"/>
    <nd ref="414591877"/>
    <nd ref="768196330"/>
    <nd ref="414591878"/>
    <nd ref="9930522919"/>
    <nd ref="414591881"/>
    <nd ref="414591882"/>
    <nd ref="414591884"/>
    <nd ref="414591886"/>
    <nd ref="768196308"/>
    <nd ref="414591888"/>
    <nd ref="768196317"/>
    <nd ref="414591890"/>
    <nd ref="768196291"/>
    <nd ref="414591900"/>
    <nd ref="414591903"/>
    <nd ref="414591906"/>
    <nd ref="414591908"/>
    <nd ref="768196139"/>
    <nd ref="333259662"/>
    <tag k="highway" v="tertiary"/>
    <tag k="name" v="Brackner Lane"/>
  </way>
  <way id="36733540" version="3" timestamp="2015-05-16T16:38:27Z" changeset="31205483" uid="61942" user="SomeoneElse">
    <nd ref="333258867"/>
    <nd ref="324765249"/>
    <nd ref="391553301"/>
    <tag k="highway" v="tertiary"/>
    <tag k="name" v="Farnsfield Road"/>
    <tag k="sidewalk" v="right"/>
  </way>
  <way id="36733541" version="6" timestamp="2019-11-20T08:48:17Z" changeset="77310306" uid="10252557" user="anuvashi">
    <nd ref="426962711"/>
    <nd ref="426962750"/>
    <nd ref="497302068"/>
    <nd ref="6991750384"/>
    <nd ref="497302072"/>
    <nd ref="497302077"/>
    <nd ref="497302081"/>
    <nd ref="497302982"/>
    <nd ref="497302085"/>
    <nd ref="497302100"/>
    <nd ref="497302117"/>
    <nd ref="497302126"/>
    <nd ref="497302128"/>
    <tag k="highway" v="residential"/>
    <tag k="maxspeed" v="30 mph"/>
    <tag k="name" v="Oaktree Drive"/>
    <tag k="oneway" v="no"/>
  </way>
  <way id="36733542" version="8" timestamp="2016-01-08T21:33:40Z" changeset="36454208" uid="161875" user="Willumm">
    <nd ref="426962709"/>
    <nd ref="426962756"/>
    <nd ref="497301856"/>
    <nd ref="497301861"/>
    <nd ref="2358606136"/>
    <nd ref="497301864"/>
    <nd ref="497301867"/>
    <nd ref="497301869"/>
    <nd ref="497301874"/>
    <nd ref="497301876"/>
    <nd ref="497301879"/>
    <nd ref="497301881"/>
    <nd ref="497301883"/>
    <nd ref="497301886"/>
    <nd ref="497304210"/>
    <nd ref="497304159"/>
    <tag k="highway" v="residential"/>
    <tag k="maxspeed" v="30 mph"/>
    <tag k="name" v="Highfields Drive"/>
    <tag k="oneway" v="no"/>
  </way>
  <way id="36733543" version="4" timestamp="2016-01-09T18:38:43Z" changeset="36468814" uid="161875" user="Willumm">
    <nd ref="426962703"/>
    <nd ref="426962761"/>
    <nd ref="2358605490"/>
    <nd ref="2358605492"/>
    <nd ref="2358605515"/>
    <nd ref="2358605489"/>
    <tag k="highway" v="residential"/>
    <tag k="maxspeed" v="30 mph"/>
    <tag k="name" v="Wycar Road"/>
    <tag k="oneway" v="no"/>
    <tag k="source" v="Bing;OS_OpenData_StreetView"/>
  </way>
  <way id="36733737" version="4" timestamp="2016-01-09T18:38:44Z" changeset="36468814" uid="161875" user="Willumm">
    <nd ref="426965449"/>
    <nd ref="426965453"/>
    <nd ref="2358605499"/>
    <tag k="highway" v="residential"/>
    <tag k="maxspeed" v="30 mph"/>
    <tag k="name" v="Benet Drive"/>
    <tag k="oneway" v="no"/>
    <tag k="source" v="Bing"/>
  </way>
  <way id="36733738" version="3" timestamp="2018-12-09T00:17:40Z" changeset="65303990" uid="61942" user="SomeoneElse">
    <nd ref="426965447"/>
    <nd ref="6125754373"/>
    <nd ref="426965454"/>
    <tag k="highway" v="residential"/>
    <tag k="maxspeed" v="30 mph"/>
    <tag k="name" v="The Gables"/>
    <tag k="note" v="FIXME - longer than this"/>
    <tag k="oneway" v="no"/>
  </way>
  <way id="36733739" version="7" timestamp="2019-10-15T08:29:20Z" changeset="75705801" uid="10219379" user="jaravn">
    <nd ref="426965445"/>
    <nd ref="6880926472"/>
    <nd ref="532473301"/>
    <nd ref="2358605512"/>
    <nd ref="532473305"/>
    <nd ref="532473320"/>
    <tag k="highway" v="residential"/>
    <tag k="maxspeed" v="30 mph"/>
    <tag k="name" v="Church Hill"/>
    <tag k="oneway" v="no"/>
  </way>
  <way id="36733805" version="9" timestamp="2020-12-16T12:48:56Z" changeset="95942695" uid="11734036" user="prreddyz">
    <nd ref="497306339"/>
    <nd ref="497305703"/>
    <nd ref="426966842"/>
    <nd ref="426966849"/>
    <nd ref="426966856"/>
    <nd ref="3523521137"/>
    <nd ref="426966860"/>
    <nd ref="426966874"/>
    <nd ref="3523521113"/>
    <nd ref="426966875"/>
    <nd ref="3523521149"/>
    <nd ref="8234451659"/>
    <nd ref="426966880"/>
    <tag k="highway" v="unclassified"/>
    <tag k="lit" v="yes"/>
    <tag k="maxspeed" v="30 mph"/>
    <tag k="name" v="Brailwood Road"/>
    <tag k="oneway" v="no"/>
    <tag k="sidewalk" v="left"/>
    <tag k="source:name" v="Sign at west"/>
  </way>
  <way id="40868811" version="2" timestamp="2009-09-15T20:39:03Z" changeset="2496256" uid="161875" user="Willumm">
    <nd ref="497302226"/>
    <nd ref="497302128"/>
    <nd ref="497302228"/>
    <tag k="highway" v="residential"/>
    <tag k="name" v="Oaktree Drive"/>
  </way>
  <way id="40868818" version="2" timestamp="2009-09-15T20:39:00Z" changeset="2496256" uid="161875" user="Willumm">
    <nd ref="497302506"/>
    <nd ref="497302537"/>
    <nd ref="497302589"/>
    <tag k="highway" v="residential"/>
    <tag k="name" v="Oaktree Drive"/>
  </way>
  <way id="40868832" version="3" timestamp="2016-01-08T21:33:39Z" changeset="36454208" uid="161875" user="Willumm">
    <nd ref="497302982"/>
    <nd ref="497303002"/>
    <nd ref="497302537"/>
    <tag k="highway" v="residential"/>
    <tag k="maxspeed" v="30 mph"/>
    <tag k="name" v="Oaktree Drive"/>
    <tag k="oneway" v="no"/>
  </way>
  <way id="40868989" version="5" timestamp="2016-01-09T18:38:43Z" changeset="36468814" uid="161875" user="Willumm">
    <nd ref="497304210"/>
    <nd ref="497301900"/>
    <nd ref="497301921"/>
    <nd ref="497301934"/>
    <nd ref="497301943"/>
    <nd ref="497301947"/>
    <nd ref="426962772"/>
    <nd ref="426962701"/>
    <tag k="highway" v="residential"/>
    <tag k="maxspeed" v="30 mph"/>
    <tag k="name" v="Maid Marian Avenue"/>
    <tag k="oneway" v="no"/>
  </way>
  <way id="40869151" version="12" timestamp="2024-12-18T12:13:27Z" changeset="160348201" uid="22299871" user="Mappam-12">
    <nd ref="3503671853"/>
    <nd ref="497306259"/>
    <nd ref="324765208"/>
    <nd ref="324765209"/>
    <nd ref="324765210"/>
    <nd ref="426965445"/>
    <nd ref="324765211"/>
    <nd ref="426965447"/>
    <nd ref="2358605507"/>
    <nd ref="324765212"/>
    <nd ref="324765213"/>
    <nd ref="426965449"/>
    <nd ref="324765214"/>
    <nd ref="426962701"/>
    <nd ref="324765215"/>
    <nd ref="426962703"/>
    <nd ref="7932996631"/>
    <nd ref="426962709"/>
    <nd ref="324765216"/>
    <nd ref="426962711"/>
    <nd ref="324765248"/>
    <nd ref="333258867"/>
    <tag k="foot" v="designated"/>
    <tag k="highway" v="tertiary"/>
    <tag k="lane_markings" v="yes"/>
    <tag k="lit" v="yes"/>
    <tag k="maxspeed" v="30 mph"/>
    <tag k="motor_vehicle" v="yes"/>
    <tag k="name" v="Kirklington Road"/>
    <tag k="oneway" v="no"/>
    <tag k="parking:left" v="no"/>
    <tag k="parking:left:restriction:reason" v="yellow_line"/>
    <tag k="parking:right" v="no"/>
    <tag k="source:name" v="Sign at north"/>
  </way>
  <way id="40869288" version="9" timestamp="2021-02-17T07:42:48Z" changeset="99431206" uid="10252543" user="srikmar">
    <nd ref="349314793"/>
    <nd ref="497307267"/>
    <nd ref="532453278"/>
    <nd ref="497307269"/>
    <nd ref="497307271"/>
    <nd ref="532454281"/>
    <nd ref="497307272"/>
    <nd ref="497307274"/>
    <nd ref="497307276"/>
    <nd ref="497307283"/>
    <nd ref="497307292"/>
    <nd ref="3503671877"/>
    <nd ref="497307303"/>
    <nd ref="8431030467"/>
    <nd ref="8431030466"/>
    <nd ref="497307316"/>
    <nd ref="497307360"/>
    <nd ref="497307368"/>
    <nd ref="532459402"/>
    <nd ref="497307385"/>
    <nd ref="532456532"/>
    <nd ref="497307395"/>
    <nd ref="497307402"/>
    <nd ref="497307411"/>
    <nd ref="532385996"/>
    <nd ref="497306345"/>
    <tag k="highway" v="residential"/>
    <tag k="lit" v="yes"/>
    <tag k="maxspeed" v="30 mph"/>
    <tag k="name" v="Forest Link"/>
    <tag k="sidewalk" v="both"/>
    <tag k="source:name" v="Sign"/>
  </way>
  <way id="40869425" version="15" timestamp="2024-06-02T03:18:17Z" changeset="152143505" uid="21616200" user="MapWizard923">
    <nd ref="497310338"/>
    <nd ref="497310345"/>
    <nd ref="532412720"/>
    <nd ref="532410326"/>
    <nd ref="497310360"/>
    <nd ref="497310369"/>
    <nd ref="497311444"/>
    <nd ref="532377968"/>
    <nd ref="497310381"/>
    <nd ref="532383389"/>
    <nd ref="532380551"/>
    <nd ref="497310397"/>
    <nd ref="1880176511"/>
    <nd ref="497310409"/>
    <tag k="highway" v="residential"/>
    <tag k="maxspeed" v="30 mph"/>
    <tag k="maxspeed:advisory" v="20 mph"/>
    <tag k="name" v="Church Street"/>
    <tag k="oneway" v="no"/>
    <tag k="sidewalk" v="both"/>
  </way>
  <way id="40869541" version="6" timestamp="2023-12-25T12:11:29Z" changeset="145495632" uid="493595" user="Yorvik Prestigitator">
    <nd ref="497311428"/>
    <nd ref="3507795907"/>
    <nd ref="3507795906"/>
    <nd ref="11452034685"/>
    <nd ref="497311431"/>
    <nd ref="497311435"/>
    <nd ref="497311436"/>
    <nd ref="532377603"/>
    <nd ref="497311444"/>
    <tag k="highway" v="residential"/>
    <tag k="lit" v="yes"/>
    <tag k="maxspeed" v="30 mph"/>
    <tag k="name" v="Crompton Road"/>
    <tag k="oneway" v="no"/>
    <tag k="sidewalk" v="both"/>
    <tag k="source:name" v="Sign"/>
  </way>
  <way id="40869572" version="8" timestamp="2023-12-25T12:11:29Z" changeset="145495632" uid="493595" user="Yorvik Prestigitator">
    <nd ref="497312018"/>
    <nd ref="497312028"/>
    <nd ref="532404378"/>
    <nd ref="497312037"/>
    <nd ref="497312044"/>
    <nd ref="532402794"/>
    <nd ref="497312056"/>
    <nd ref="497312065"/>
    <nd ref="11452034714"/>
    <nd ref="497312073"/>
    <nd ref="11452034723"/>
    <nd ref="497312082"/>
    <nd ref="497312089"/>
    <nd ref="532393866"/>
    <nd ref="497312116"/>
    <nd ref="497312121"/>
    <nd ref="532394987"/>
    <nd ref="497312124"/>
    <nd ref="497312127"/>
    <nd ref="497312132"/>
    <nd ref="532398784"/>
    <nd ref="497312137"/>
    <nd ref="497312140"/>
    <nd ref="497310338"/>
    <nd ref="497312018"/>
    <tag k="highway" v="residential"/>
    <tag k="maxspeed" v="30 mph"/>
    <tag k="name" v="The Crescent"/>
    <tag k="oneway" v="yes"/>
  </way>
  <way id="42612922" version="5" timestamp="2016-01-09T18:38:47Z" changeset="36468814" uid="161875" user="Willumm">
    <nd ref="532378390"/>
    <nd ref="532378394"/>
    <nd ref="532378397"/>
    <nd ref="532378403"/>
    <nd ref="532377963"/>
    <nd ref="532377968"/>
    <tag k="highway" v="residential"/>
    <tag k="lit" v="yes"/>
    <tag k="maxspeed" v="30 mph"/>
    <tag k="name" v="Crompton Road"/>
    <tag k="oneway" v="no"/>
    <tag k="sidewalk" v="both"/>
    <tag k="source:name" v="Sign"/>
  </way>
  <way id="42613010" version="2" timestamp="2009-10-15T20:48:06Z" changeset="2858803" uid="161875" user="Willumm">
    <nd ref="532379284"/>
    <nd ref="532378390"/>
    <nd ref="532379291"/>
    <tag k="highway" v="residential"/>
    <tag k="name" v="Crompton Road"/>
  </way>
  <way id="42613056" version="3" timestamp="2009-10-15T20:50:46Z" changeset="2858803" uid="161875" user="Willumm">
    <nd ref="532379835"/>
    <nd ref="532379986"/>
    <nd ref="532379838"/>
    <tag k="highway" v="residential"/>
    <tag k="name" v="Savile Road"/>
  </way>
  <way id="42613066" version="4" timestamp="2016-01-09T18:38:47Z" changeset="36468814" uid="161875" user="Willumm">
    <nd ref="532380551"/>
    <nd ref="532380564"/>
    <nd ref="532380579"/>
    <nd ref="532380612"/>
    <nd ref="532380618"/>
    <nd ref="532380628"/>
    <nd ref="532379981"/>
    <nd ref="532379986"/>
    <tag k="highway" v="residential"/>
    <tag k="maxspeed" v="30 mph"/>
    <tag k="name" v="Savile Road"/>
    <tag k="oneway" v="no"/>
  </way>
  <way id="42613297" version="6" timestamp="2023-07-14T08:30:29Z" changeset="138495819" uid="9026132" user="PulisakZ">
    <nd ref="532385064"/>
    <nd ref="532385085"/>
    <nd ref="532385111"/>
    <nd ref="532385137"/>
    <nd ref="532385163"/>
    <nd ref="532385180"/>
    <nd ref="532385190"/>
    <nd ref="532383382"/>
    <nd ref="532383389"/>
    <tag k="highway" v="residential"/>
    <tag k="maxspeed" v="30 mph"/>
    <tag k="name" v="Savile Road"/>
    <tag k="oneway" v="no"/>
    <tag k="source" v="View from South;Bing"/>
  </way>
  <way id="42613690" version="5" timestamp="2016-01-09T18:38:50Z" changeset="36468814" uid="161875" user="Willumm">
    <nd ref="532388473"/>
    <nd ref="532390418"/>
    <nd ref="532389749"/>
    <nd ref="532389999"/>
    <nd ref="532388486"/>
    <tag k="highway" v="residential"/>
    <tag k="maxspeed" v="30 mph"/>
    <tag k="name" v="New Road"/>
    <tag k="oneway" v="no"/>
  </way>
  <way id="42613772" version="4" timestamp="2016-01-09T18:38:49Z" changeset="36468814" uid="161875" user="Willumm">
    <nd ref="3503690639"/>
    <nd ref="532389749"/>
    <tag k="highway" v="residential"/>
    <tag k="maxspeed" v="30 mph"/>
    <tag k="name" v="Allandale Road"/>
    <tag k="oneway" v="no"/>
  </way>
  <way id="42613784" version="2" timestamp="2009-10-15T20:53:09Z" changeset="2858803" uid="161875" user="Willumm">
    <nd ref="532389985"/>
    <nd ref="532389999"/>
    <tag k="highway" v="residential"/>
    <tag k="name" v="New Road"/>
  </way>
  <way id="42613819" version="2" timestamp="2009-10-15T20:52:53Z" changeset="2858803" uid="161875" user="Willumm">
    <nd ref="532390413"/>
    <nd ref="532390418"/>
    <tag k="highway" v="residential"/>
    <tag k="name" v="New Road"/>
  </way>
  <way id="42613932" version="7" timestamp="2016-01-09T18:38:49Z" changeset="36468814" uid="161875" user="Willumm">
    <nd ref="532391709"/>
    <nd ref="532392117"/>
    <nd ref="532391727"/>
    <nd ref="532391731"/>
    <nd ref="3503690639"/>
    <nd ref="532389729"/>
    <nd ref="532398168"/>
    <nd ref="532391734"/>
    <tag k="highway" v="residential"/>
    <tag k="maxspeed" v="30 mph"/>
    <tag k="name" v="Allandale"/>
    <tag k="oneway" v="no"/>
    <tag k="source:name" v="OS_OpenData_Locator"/>
  </way>
  <way id="42613961" version="2" timestamp="2009-10-15T20:54:00Z" changeset="2858803" uid="161875" user="Willumm">
    <nd ref="532392110"/>
    <nd ref="532392117"/>
    <tag k="highway" v="residential"/>
    <tag k="name" v="Allandale Road"/>
  </way>
  <way id="42614151" version="3" timestamp="2009-10-15T20:56:05Z" changeset="2858803" uid="161875" user="Willumm">
    <nd ref="532394685"/>
    <nd ref="532395014"/>
    <nd ref="532394689"/>
    <tag k="highway" v="residential"/>
  </way>
  <way id="42614177" version="5" timestamp="2023-12-25T12:11:29Z" changeset="145495632" uid="493595" user="Yorvik Prestigitator">
    <nd ref="532394987"/>
    <nd ref="11452034722"/>
    <nd ref="532394997"/>
    <nd ref="532395014"/>
    <tag k="highway" v="residential"/>
    <tag k="lit" v="yes"/>
    <tag k="maxspeed" v="30 mph"/>
    <tag k="oneway" v="no"/>
    <tag k="sidewalk" v="both"/>
  </way>
  <way id="42614520" version="2" timestamp="2016-01-09T18:38:48Z" changeset="36468814" uid="161875" user="Willumm">
    <nd ref="532398773"/>
    <nd ref="532398784"/>
    <tag k="highway" v="residential"/>
    <tag k="maxspeed" v="30 mph"/>
    <tag k="oneway" v="no"/>
  </way>
  <way id="42614818" version="7" timestamp="2023-12-25T12:11:29Z" changeset="145495632" uid="493595" user="Yorvik Prestigitator">
    <nd ref="532402777"/>
    <nd ref="3503688013"/>
    <nd ref="532403486"/>
    <nd ref="532402779"/>
    <nd ref="532402782"/>
    <nd ref="532402783"/>
    <nd ref="11452034727"/>
    <nd ref="8508520686"/>
    <nd ref="532402784"/>
    <nd ref="532402785"/>
    <nd ref="8508520687"/>
    <nd ref="8508520765"/>
    <nd ref="532402787"/>
    <nd ref="532402794"/>
    <tag k="highway" v="residential"/>
    <tag k="maxspeed" v="30 mph"/>
    <tag k="name" v="Chewton Close"/>
    <tag k="oneway" v="no"/>
  </way>
  <way id="42614864" version="1" timestamp="2009-10-15T20:58:30Z" changeset="2858803" uid="161875" user="Willumm">
    <nd ref="532403484"/>
    <nd ref="532403486"/>
    <tag k="highway" v="residential"/>
    <tag k="name" v="Chewton Close"/>
  </way>
  <way id="42614937" version="9" timestamp="2021-03-11T23:20:35Z" changeset="100868299" uid="6714692" user="Fingrmouse">
    <nd ref="532404356"/>
    <nd ref="3503684508"/>
    <nd ref="532404752"/>
    <nd ref="532404626"/>
    <nd ref="7932984390"/>
    <nd ref="3503688006"/>
    <nd ref="532404359"/>
    <nd ref="8508520767"/>
    <nd ref="532404364"/>
    <nd ref="532404378"/>
    <tag k="highway" v="residential"/>
    <tag k="maxspeed" v="30 mph"/>
    <tag k="name" v="Scarborough Road"/>
    <tag k="oneway" v="no"/>
    <tag k="source:name" v="Sign"/>
  </way>
  <way id="42614961" version="3" timestamp="2020-09-06T12:04:13Z" changeset="90478081" uid="84681" user="SK53">
    <nd ref="532404624"/>
    <nd ref="7880924367"/>
    <nd ref="532404626"/>
    <tag k="highway" v="residential"/>
    <tag k="name" v="Scarborough Road"/>
  </way>
  <way id="42614976" version="2" timestamp="2009-10-15T20:59:48Z" changeset="2858803" uid="161875" user="Willumm">
    <nd ref="532404747"/>
    <nd ref="532404752"/>
    <tag k="highway" v="residential"/>
    <tag k="name" v="Scarborough Road"/>
  </way>
  <way id="42615398" version="5" timestamp="2015-02-21T20:20:08Z" changeset="29007572" uid="61942" user="SomeoneElse">
    <nd ref="532410323"/>
    <nd ref="532410326"/>
    <tag k="highway" v="residential"/>
    <tag k="name" v="Cul-De-Sac"/>
    <tag k="sidewalk" v="both"/>
    <tag k="source:name" v="OS_OpenData_Locator and http://www.openstreetmap.org/note/10151"/>
  </way>
  <way id="42615529" version="6" timestamp="2022-01-16T14:36:08Z" changeset="116216366" uid="5589" user="user_5589">
    <nd ref="532412671"/>
    <nd ref="532412683"/>
    <nd ref="532412691"/>
    <nd ref="532412699"/>
    <nd ref="532412706"/>
    <nd ref="532412712"/>
    <nd ref="532412720"/>
    <tag k="highway" v="residential"/>
    <tag k="maxspeed" v="30 mph"/>
    <tag k="name" v="Cross Street"/>
    <tag k="oneway" v="no"/>
    <tag k="sidewalk" v="both"/>
  </way>
  <way id="42615676" version="3" timestamp="2016-01-09T18:38:51Z" changeset="36468814" uid="161875" user="Willumm">
    <nd ref="532415448"/>
    <nd ref="532416002"/>
    <nd ref="532415485"/>
    <tag k="highway" v="residential"/>
    <tag k="maxspeed" v="30 mph"/>
    <tag k="name" v="Oak Rise"/>
    <tag k="oneway" v="no"/>
  </way>
  <way id="42615709" version="2" timestamp="2016-01-09T18:38:51Z" changeset="36468814" uid="161875" user="Willumm">
    <nd ref="532415996"/>
    <nd ref="532416002"/>
    <tag k="highway" v="residential"/>
    <tag k="maxspeed" v="30 mph"/>
    <tag k="name" v="Oak Rise"/>
    <tag k="oneway" v="no"/>
  </way>
  <way id="42615799" version="3" timestamp="2016-01-09T18:38:52Z" changeset="36468814" uid="161875" user="Willumm">
    <nd ref="532417590"/>
    <nd ref="532417593"/>
    <nd ref="532417602"/>
    <nd ref="532417612"/>
    <nd ref="532417626"/>
    <nd ref="532418767"/>
    <nd ref="532417629"/>
    <tag k="highway" v="residential"/>
    <tag k="maxspeed" v="30 mph"/>
    <tag k="name" v="Lansbury Road"/>
    <tag k="oneway" v="no"/>
  </way>
  <way id="42615825" version="2" timestamp="2009-10-15T21:07:03Z" changeset="2858803" uid="161875" user="Willumm">
    <nd ref="532418037"/>
    <nd ref="532417593"/>
    <tag k="highway" v="residential"/>
    <tag k="name" v="Lansbury Road"/>
  </way>
  <way id="42615873" version="3" timestamp="2016-01-09T18:38:52Z" changeset="36468814" uid="161875" user="Willumm">
    <nd ref="532418761"/>
    <nd ref="532418767"/>
    <tag k="highway" v="residential"/>
    <tag k="maxspeed" v="30 mph"/>
    <tag k="name" v="Lansbury Drive"/>
    <tag k="oneway" v="no"/>
    <tag k="source:name" v="OS_OpenData_Locator"/>
  </way>
  <way id="42616011" version="3" timestamp="2016-01-09T18:38:52Z" changeset="36468814" uid="161875" user="Willumm">
    <nd ref="532420235"/>
    <nd ref="532420237"/>
    <nd ref="532420412"/>
    <nd ref="532420239"/>
    <nd ref="532420241"/>
    <tag k="highway" v="residential"/>
    <tag k="maxspeed" v="30 mph"/>
    <tag k="oneway" v="no"/>
  </way>
  <way id="42616033" version="1" timestamp="2009-10-15T21:07:49Z" changeset="2858803" uid="161875" user="Willumm">
    <nd ref="532420409"/>
    <nd ref="532420412"/>
    <tag k="highway" v="residential"/>
  </way>
  <way id="42616119" version="3" timestamp="2016-01-09T18:38:52Z" changeset="36468814" uid="161875" user="Willumm">
    <nd ref="532421031"/>
    <nd ref="532421034"/>
    <nd ref="532421045"/>
    <nd ref="532421059"/>
    <tag k="highway" v="residential"/>
    <tag k="maxspeed" v="30 mph"/>
    <tag k="name" v="Vickers Way"/>
    <tag k="oneway" v="no"/>
    <tag k="source:name" v="OS_OpenData_Locator"/>
  </way>
  <way id="42616242" version="4" timestamp="2016-01-09T18:38:53Z" changeset="36468814" uid="161875" user="Willumm">
    <nd ref="532422676"/>
    <nd ref="532422417"/>
    <nd ref="532422425"/>
    <nd ref="532422431"/>
    <nd ref="532422435"/>
    <nd ref="532422438"/>
    <tag k="highway" v="residential"/>
    <tag k="maxspeed" v="30 mph"/>
    <tag k="name" v="South Drive"/>
    <tag k="oneway" v="no"/>
  </way>
  <way id="42616269" version="2" timestamp="2009-10-15T21:09:46Z" changeset="2858803" uid="161875" user="Willumm">
    <nd ref="532422744"/>
    <nd ref="532422417"/>
    <tag k="highway" v="residential"/>
    <tag k="name" v="South Drive"/>
  </way>
  <way id="42616351" version="3" timestamp="2016-01-09T18:38:53Z" changeset="36468814" uid="161875" user="Willumm">
    <nd ref="532424030"/>
    <nd ref="532424679"/>
    <nd ref="532424037"/>
    <tag k="highway" v="residential"/>
    <tag k="maxspeed" v="30 mph"/>
    <tag k="name" v="North Drive"/>
    <tag k="oneway" v="no"/>
  </way>
  <way id="42616404" version="2" timestamp="2016-01-09T18:38:53Z" changeset="36468814" uid="161875" user="Willumm">
    <nd ref="532424679"/>
    <nd ref="532422438"/>
    <tag k="highway" v="residential"/>
    <tag k="maxspeed" v="30 mph"/>
    <tag k="name" v="North Drive"/>
    <tag k="oneway" v="no"/>
  </way>
  <way id="42616563" version="3" timestamp="2016-01-09T18:38:51Z" changeset="36468814" uid="161875" user="Willumm">
    <nd ref="532426709"/>
    <nd ref="3507795903"/>
    <nd ref="532426712"/>
    <nd ref="532426715"/>
    <nd ref="532426719"/>
    <nd ref="532422438"/>
    <nd ref="532426728"/>
    <nd ref="532418761"/>
    <nd ref="532421059"/>
    <nd ref="532420241"/>
    <nd ref="532426740"/>
    <nd ref="532426743"/>
    <nd ref="532415996"/>
    <nd ref="532426746"/>
    <nd ref="532426749"/>
    <nd ref="532426755"/>
    <nd ref="532426759"/>
    <tag k="highway" v="residential"/>
    <tag k="maxspeed" v="30 mph"/>
    <tag k="name" v="Valley Road"/>
    <tag k="oneway" v="no"/>
  </way>
  <way id="42616654" version="2" timestamp="2015-05-09T23:46:18Z" changeset="30950417" uid="61942" user="SomeoneElse">
    <nd ref="532426709"/>
    <nd ref="3507795904"/>
    <nd ref="532428302"/>
    <nd ref="532428306"/>
    <nd ref="532428309"/>
    <tag k="highway" v="residential"/>
    <tag k="lit" v="yes"/>
    <tag k="name" v="Valley Approach"/>
    <tag k="sidewalk" v="both"/>
    <tag k="source:name" v="Sign"/>
  </way>
  <way id="42616669" version="4" timestamp="2016-01-09T18:38:53Z" changeset="36468814" uid="161875" user="Willumm">
    <nd ref="532426709"/>
    <nd ref="532428580"/>
    <nd ref="532428589"/>
    <nd ref="532426712"/>
    <tag k="highway" v="residential"/>
    <tag k="maxspeed" v="30 mph"/>
    <tag k="name" v="The Green"/>
    <tag k="oneway" v="no"/>
  </way>
  <way id="42616741" version="3" timestamp="2016-01-09T18:38:53Z" changeset="36468814" uid="161875" user="Willumm">
    <nd ref="532429177"/>
    <nd ref="532428589"/>
    <tag k="highway" v="residential"/>
    <tag k="maxspeed" v="30 mph"/>
    <tag k="oneway" v="no"/>
  </way>
  <way id="42616750" version="3" timestamp="2016-01-09T18:38:54Z" changeset="36468814" uid="161875" user="Willumm">
    <nd ref="532429344"/>
    <nd ref="532429177"/>
    <nd ref="532429348"/>
    <tag k="highway" v="residential"/>
    <tag k="maxspeed" v="30 mph"/>
    <tag k="oneway" v="no"/>
  </way>
  <way id="42616790" version="3" timestamp="2016-01-09T18:38:54Z" changeset="36468814" uid="161875" user="Willumm">
    <nd ref="532429844"/>
    <nd ref="532429848"/>
    <nd ref="532429855"/>
    <tag k="highway" v="residential"/>
    <tag k="maxspeed" v="30 mph"/>
    <tag k="oneway" v="no"/>
  </way>
  <way id="42616795" version="3" timestamp="2016-01-09T18:38:54Z" changeset="36468814" uid="161875" user="Willumm">
    <nd ref="532429958"/>
    <nd ref="532429848"/>
    <tag k="highway" v="residential"/>
    <tag k="maxspeed" v="30 mph"/>
    <tag k="oneway" v="no"/>
  </way>
  <way id="42616845" version="4" timestamp="2016-01-09T18:38:54Z" changeset="36468814" uid="161875" user="Willumm">
    <nd ref="532430442"/>
    <nd ref="532430444"/>
    <nd ref="532430445"/>
    <nd ref="532430458"/>
    <nd ref="532429958"/>
    <nd ref="532430463"/>
    <nd ref="532428580"/>
    <tag k="highway" v="residential"/>
    <tag k="maxspeed" v="30 mph"/>
    <tag k="name" v="The Green"/>
    <tag k="oneway" v="no"/>
    <tag k="source:name" v="OS OpenData StreetView"/>
  </way>
  <way id="42616885" version="5" timestamp="2016-01-09T18:38:53Z" changeset="36468814" uid="161875" user="Willumm">
    <nd ref="532431003"/>
    <nd ref="532431008"/>
    <nd ref="532431014"/>
    <nd ref="532431019"/>
    <tag k="highway" v="residential"/>
    <tag k="lit" v="yes"/>
    <tag k="maxspeed" v="30 mph"/>
    <tag k="name" v="Metcalfe Close"/>
    <tag k="oneway" v="no"/>
    <tag k="source:name" v="Sign"/>
  </way>
  <way id="42617178" version="6" timestamp="2017-04-29T16:06:33Z" changeset="48258464" uid="1778799" user="SomeoneElse_Revert">
    <nd ref="324765199"/>
    <nd ref="1906223184"/>
    <tag k="bridge" v="yes"/>
    <tag k="highway" v="tertiary"/>
    <tag k="name" v="Eakring Road"/>
  </way>
  <way id="42617186" version="8" timestamp="2024-01-09T13:32:45Z" changeset="146067299" uid="165" user="Richard">
    <nd ref="1906223184"/>
    <nd ref="1906222789"/>
    <nd ref="1906223077"/>
    <nd ref="1906223064"/>
    <nd ref="1906222869"/>
    <nd ref="1906222612"/>
    <nd ref="1906222982"/>
    <nd ref="1906222695"/>
    <nd ref="3086811847"/>
    <tag k="highway" v="tertiary"/>
    <tag k="maxspeed" v="30 mph"/>
    <tag k="name" v="Eakring Road"/>
    <tag k="oneway" v="no"/>
  </way>
  <way id="42619099" version="3" timestamp="2015-05-07T19:56:13Z" changeset="30883825" uid="61942" user="SomeoneElse">
    <nd ref="532453239"/>
    <nd ref="532453253"/>
    <nd ref="532453265"/>
    <nd ref="532453278"/>
    <tag k="highway" v="residential"/>
    <tag k="maxspeed" v="30 mph"/>
    <tag k="name" v="Forest Link"/>
  </way>
  <way id="42619155" version="5" timestamp="2025-05-14T10:26:33Z" changeset="166247906" uid="3199858" user="Mateusz Konieczny - bot account">
    <nd ref="532453896"/>
    <nd ref="532453902"/>
    <tag k="highway" v="residential"/>
    <tag k="lit" v="yes"/>
    <tag k="maxspeed" v="30 mph"/>
    <tag k="name" v="Bramble Close"/>
    <tag k="sidewalk" v="no"/>
    <tag k="source:name" v="Sign at west"/>
  </way>
  <way id="42619184" version="6" timestamp="2025-05-14T10:26:33Z" changeset="166247906" uid="3199858" user="Mateusz Konieczny - bot account">
    <nd ref="532454258"/>
    <nd ref="532453902"/>
    <nd ref="532454270"/>
    <nd ref="532454281"/>
    <tag k="highway" v="residential"/>
    <tag k="lit" v="yes"/>
    <tag k="maxspeed" v="30 mph"/>
    <tag k="name" v="Bramble Close"/>
    <tag k="sidewalk" v="no"/>
    <tag k="source:name" v="Sign at west"/>
  </way>
  <way id="42619336" version="4" timestamp="2025-05-14T10:26:34Z" changeset="166247906" uid="3199858" user="Mateusz Konieczny - bot account">
    <nd ref="532456480"/>
    <nd ref="532456490"/>
    <nd ref="532456495"/>
    <nd ref="532456509"/>
    <nd ref="532456513"/>
    <nd ref="532456518"/>
    <nd ref="532456523"/>
    <nd ref="532456526"/>
    <nd ref="532456529"/>
    <nd ref="532456532"/>
    <tag k="highway" v="residential"/>
    <tag k="lit" v="yes"/>
    <tag k="maxspeed" v="30 mph"/>
    <tag k="name" v="Fern Close"/>
    <tag k="sidewalk" v="no"/>
    <tag k="source:name" v="Sign"/>
  </way>
  <way id="42619451" version="4" timestamp="2020-10-14T13:51:06Z" changeset="92477251" uid="10252538" user="Raihas">
    <nd ref="532458610"/>
    <nd ref="532458617"/>
    <tag k="highway" v="residential"/>
    <tag k="maxspeed" v="30 mph"/>
    <tag k="name" v="Woodruff Lane"/>
    <tag k="oneway" v="no"/>
  </way>
  <way id="42619493" version="4" timestamp="2020-10-14T13:51:06Z" changeset="92477251" uid="10252538" user="Raihas">
    <nd ref="532459402"/>
    <nd ref="532459437"/>
    <nd ref="532458617"/>
    <tag k="highway" v="residential"/>
    <tag k="maxspeed" v="30 mph"/>
    <tag k="name" v="Woodruff Lane"/>
    <tag k="oneway" v="no"/>
    <tag k="sidewalk" v="both"/>
    <tag k="source:name" v="Sign"/>
  </way>
  <way id="42619618" version="6" timestamp="2016-01-09T18:38:44Z" changeset="36468814" uid="161875" user="Willumm">
    <nd ref="532461200"/>
    <nd ref="532461337"/>
    <nd ref="532461219"/>
    <tag k="highway" v="residential"/>
    <tag k="maxspeed" v="30 mph"/>
    <tag k="name" v="Bracken Court"/>
    <tag k="oneway" v="no"/>
    <tag k="source:name" v="OS_OpenData_Locator"/>
  </way>
  <way id="42619629" version="3" timestamp="2016-01-09T18:38:45Z" changeset="36468814" uid="161875" user="Willumm">
    <nd ref="532461326"/>
    <nd ref="532461337"/>
    <tag k="highway" v="residential"/>
    <tag k="maxspeed" v="30 mph"/>
    <tag k="name" v="Juniper Close"/>
    <tag k="oneway" v="no"/>
  </way>
  <way id="42619717" version="4" timestamp="2020-10-08T04:50:58Z" changeset="92142321" uid="10252538" user="Raihas">
    <nd ref="532462797"/>
    <nd ref="532462803"/>
    <nd ref="532461219"/>
    <nd ref="532462809"/>
    <nd ref="532462814"/>
    <nd ref="7986715163"/>
    <nd ref="532459437"/>
    <tag k="highway" v="residential"/>
    <tag k="maxspeed" v="30 mph"/>
    <tag k="name" v="Juniper Close"/>
    <tag k="oneway" v="no"/>
  </way>
  <way id="42619952" version="2" timestamp="2017-01-08T14:26:48Z" changeset="44998218" uid="84681" user="SK53">
    <nd ref="4596405198"/>
    <nd ref="532466233"/>
    <nd ref="532466236"/>
    <tag k="highway" v="residential"/>
    <tag k="name" v="Woodbank Close"/>
    <tag k="source:name" v="OS OpenData Locator"/>
  </way>
  <way id="42620294" version="4" timestamp="2016-01-08T21:33:39Z" changeset="36454208" uid="161875" user="Willumm">
    <nd ref="532471422"/>
    <nd ref="532471425"/>
    <nd ref="532471430"/>
    <nd ref="532471434"/>
    <nd ref="532471438"/>
    <nd ref="532471441"/>
    <tag k="highway" v="residential"/>
    <tag k="lit" v="yes"/>
    <tag k="maxspeed" v="30 mph"/>
    <tag k="name" v="Meadow Grove"/>
    <tag k="oneway" v="no"/>
    <tag k="sidewalk" v="both"/>
    <tag k="source:name" v="Sign"/>
  </way>
  <way id="42620329" version="1" timestamp="2009-10-15T21:35:28Z" changeset="2858803" uid="161875" user="Willumm">
    <nd ref="532472001"/>
    <nd ref="532471425"/>
    <tag k="highway" v="residential"/>
    <tag k="name" v="Meadow Grove"/>
  </way>
  <way id="51519348" version="12" timestamp="2025-04-22T10:21:53Z" changeset="165277389" uid="5229644" user="Nathan_A_RF">
    <nd ref="253639211"/>
    <nd ref="658747388"/>
    <tag k="highway" v="trunk"/>
    <tag k="lanes" v="3"/>
    <tag k="lit" v="yes"/>
    <tag k="maxspeed" v="50 mph"/>
    <tag k="maxspeed:type" v="sign"/>
    <tag k="name" v="Kirklington Road"/>
    <tag k="ref" v="A617"/>
    <tag k="source" v="survey"/>
    <tag k="source:name" v="NaPTAN"/>
  </way>
  <way id="51519384" version="10" timestamp="2025-04-22T10:21:53Z" changeset="165277389" uid="5229644" user="Nathan_A_RF">
    <nd ref="59746452"/>
    <nd ref="658746477"/>
    <nd ref="2843486576"/>
    <nd ref="2843486569"/>
    <nd ref="253639211"/>
    <tag k="highway" v="trunk"/>
    <tag k="lanes" v="1"/>
    <tag k="lit" v="yes"/>
    <tag k="maxspeed" v="50 mph"/>
    <tag k="maxspeed:type" v="sign"/>
    <tag k="name" v="Kirklington Road"/>
    <tag k="oneway" v="yes"/>
    <tag k="ref" v="A617"/>
    <tag k="sidewalk" v="no"/>
    <tag k="source" v="survey"/>
    <tag k="source:name" v="NaPTAN"/>
  </way>
  <way id="51519399" version="8" timestamp="2025-04-22T10:21:53Z" changeset="165277389" uid="5229644" user="Nathan_A_RF">
    <nd ref="253639211"/>
    <nd ref="658746864"/>
    <nd ref="2843486578"/>
    <nd ref="2843486573"/>
    <nd ref="3957436358"/>
    <tag k="highway" v="trunk"/>
    <tag k="lanes" v="2"/>
    <tag k="lit" v="yes"/>
    <tag k="maxspeed" v="50 mph"/>
    <tag k="maxspeed:type" v="sign"/>
    <tag k="name" v="Kirklington Road"/>
    <tag k="oneway" v="yes"/>
    <tag k="ref" v="A617"/>
    <tag k="source" v="survey"/>
    <tag k="source:name" v="NaPTAN"/>
  </way>
  <way id="51519402" version="6" timestamp="2025-04-22T10:21:53Z" changeset="165277389" uid="5229644" user="Nathan_A_RF">
    <nd ref="658746939"/>
    <nd ref="59746450"/>
    <nd ref="2843486583"/>
    <nd ref="2843489920"/>
    <nd ref="2843486567"/>
    <tag k="highway" v="trunk"/>
    <tag k="lit" v="yes"/>
    <tag k="maxspeed" v="50 mph"/>
    <tag k="name" v="Old Rufford Road"/>
    <tag k="oneway" v="yes"/>
    <tag k="ref" v="A614"/>
    <tag k="sidewalk" v="no"/>
    <tag k="source:maxspeed" v="survey"/>
  </way>
  <way id="82213668" version="3" timestamp="2021-02-09T07:32:22Z" changeset="98954844" uid="11734036" user="prreddyz">
    <nd ref="333257999"/>
    <nd ref="324765202"/>
    <nd ref="324765203"/>
    <nd ref="532466236"/>
    <nd ref="324765204"/>
    <nd ref="8407329878"/>
    <nd ref="497310409"/>
    <tag k="highway" v="tertiary"/>
    <tag k="name" v="Eakring Road"/>
  </way>
  <way id="82213695" version="9" timestamp="2025-04-22T10:21:53Z" changeset="165277389" uid="5229644" user="Nathan_A_RF">
    <nd ref="324355177"/>
    <nd ref="768202555"/>
    <nd ref="11491871557"/>
    <nd ref="11491871545"/>
    <nd ref="768202515"/>
    <nd ref="11491882790"/>
    <nd ref="11491882785"/>
    <nd ref="768202517"/>
    <nd ref="11491882788"/>
    <nd ref="11491883114"/>
    <nd ref="11491883112"/>
    <nd ref="768202511"/>
    <nd ref="11491883107"/>
    <nd ref="11491883068"/>
    <nd ref="768202513"/>
    <nd ref="11491883087"/>
    <nd ref="11491883086"/>
    <nd ref="253639203"/>
    <nd ref="768202499"/>
    <nd ref="253639201"/>
    <nd ref="768202493"/>
    <nd ref="10543471431"/>
    <nd ref="253639200"/>
    <nd ref="10543471430"/>
    <nd ref="658748430"/>
    <nd ref="233431"/>
    <nd ref="11491883156"/>
    <nd ref="11491883145"/>
    <nd ref="10543471427"/>
    <nd ref="11491883092"/>
    <nd ref="11491883101"/>
    <nd ref="768202549"/>
    <nd ref="11491883093"/>
    <nd ref="11491883099"/>
    <nd ref="233430"/>
    <nd ref="11491883046"/>
    <nd ref="10543471424"/>
    <nd ref="391596146"/>
    <nd ref="11491883039"/>
    <nd ref="768202547"/>
    <nd ref="11491883031"/>
    <nd ref="426959973"/>
    <nd ref="11491883030"/>
    <nd ref="233429"/>
    <tag k="highway" v="trunk"/>
    <tag k="lit" v="no"/>
    <tag k="maxspeed" v="50 mph"/>
    <tag k="maxspeed:type" v="sign"/>
    <tag k="name" v="Kirklington Road"/>
    <tag k="ref" v="A617"/>
    <tag k="source" v="survey"/>
    <tag k="source:name" v="NaPTAN"/>
  </way>
  <way id="177595337" version="6" timestamp="2022-01-16T14:36:08Z" changeset="116216366" uid="5589" user="user_5589">
    <nd ref="333257752"/>
    <nd ref="1200957855"/>
    <nd ref="333257766"/>
    <nd ref="324765195"/>
    <nd ref="1265829412"/>
    <nd ref="324765196"/>
    <nd ref="3936296229"/>
    <tag k="highway" v="tertiary"/>
    <tag k="maxspeed" v="60 mph"/>
    <tag k="name" v="Eakring Road"/>
    <tag k="oneway" v="no"/>
    <tag k="sidewalk" v="no"/>
  </way>
  <way id="177596476" version="1" timestamp="2012-08-23T23:42:03Z" changeset="12839466" uid="61942" user="SomeoneElse">
    <nd ref="1880176477"/>
    <nd ref="1880176485"/>
    <nd ref="1880176488"/>
    <nd ref="1880176484"/>
    <nd ref="1880176532"/>
    <nd ref="1880176487"/>
    <nd ref="1880176477"/>
    <tag k="amenity" v="social_club"/>
    <tag k="building" v="yes"/>
    <tag k="name" v="Bilsthorpe Miners Welfare"/>
    <tag k="source" v="View from E;Bing"/>
  </way>
  <way id="177596477" version="4" timestamp="2016-01-09T18:38:46Z" changeset="36468814" uid="161875" user="Willumm">
    <nd ref="497310409"/>
    <nd ref="324765205"/>
    <nd ref="1880176501"/>
    <nd ref="324765206"/>
    <nd ref="324765207"/>
    <nd ref="497306000"/>
    <nd ref="497306335"/>
    <tag k="highway" v="tertiary"/>
    <tag k="lit" v="yes"/>
    <tag k="maxspeed" v="30 mph"/>
    <tag k="name" v="Eakring Road"/>
    <tag k="oneway" v="no"/>
    <tag k="sidewalk" v="both"/>
    <tag k="source:name" v="Sign at south"/>
  </way>
  <way id="177596478" version="2" timestamp="2023-12-25T12:11:29Z" changeset="145495632" uid="493595" user="Yorvik Prestigitator">
    <nd ref="1880176491"/>
    <nd ref="1880176510"/>
    <nd ref="1880176502"/>
    <nd ref="1880176504"/>
    <nd ref="1880176491"/>
    <tag k="addr:street" v="Cross Street"/>
    <tag k="amenity" v="community_centre"/>
    <tag k="building" v="public"/>
    <tag k="community_centre" v="village_hall"/>
    <tag k="name" v="Bilsthorpe Village Hall"/>
  </way>
  <way id="177596484" version="1" timestamp="2012-08-23T23:42:04Z" changeset="12839466" uid="61942" user="SomeoneElse">
    <nd ref="1880176508"/>
    <nd ref="1880176471"/>
    <nd ref="1880176474"/>
    <nd ref="1880176473"/>
    <nd ref="1880176508"/>
    <tag k="building" v="yes"/>
    <tag k="name" v="Shop 4U"/>
    <tag k="shop" v="convenience"/>
    <tag k="source" v="View from N;Bing"/>
  </way>
  <way id="227131285" version="2" timestamp="2016-01-09T18:38:43Z" changeset="36468814" uid="161875" user="Willumm">
    <nd ref="2358605498"/>
    <nd ref="2358605490"/>
    <tag k="highway" v="residential"/>
    <tag k="maxspeed" v="30 mph"/>
    <tag k="name" v="Wycar Road"/>
    <tag k="oneway" v="no"/>
    <tag k="source" v="OS_OpenData_StreetView"/>
  </way>
  <way id="227131286" version="2" timestamp="2016-01-09T18:38:43Z" changeset="36468814" uid="161875" user="Willumm">
    <nd ref="2358605508"/>
    <nd ref="2358605503"/>
    <nd ref="2358605501"/>
    <nd ref="2358605506"/>
    <nd ref="2358605502"/>
    <nd ref="2358605515"/>
    <tag k="highway" v="residential"/>
    <tag k="maxspeed" v="30 mph"/>
    <tag k="name" v="Cheyne Drive"/>
    <tag k="oneway" v="no"/>
    <tag k="source" v="Bing"/>
    <tag k="source:name" v="OS_OpenData_Locator"/>
  </way>
  <way id="227131287" version="3" timestamp="2016-01-09T18:38:43Z" changeset="36468814" uid="161875" user="Willumm">
    <nd ref="2358605488"/>
    <nd ref="2358605494"/>
    <tag k="highway" v="residential"/>
    <tag k="maxspeed" v="30 mph"/>
    <tag k="name" v="St Margaret's Close"/>
    <tag k="oneway" v="no"/>
    <tag k="source" v="Bing"/>
    <tag k="source:name" v="OS_OpenData_Locator"/>
  </way>
  <way id="227131289" version="2" timestamp="2016-01-09T18:38:44Z" changeset="36468814" uid="161875" user="Willumm">
    <nd ref="2358605496"/>
    <nd ref="2358605497"/>
    <tag k="highway" v="residential"/>
    <tag k="maxspeed" v="30 mph"/>
    <tag k="name" v="Thoresby Glade"/>
    <tag k="oneway" v="no"/>
    <tag k="source" v="Bing"/>
    <tag k="source:name" v="OS_OpenData_Locator"/>
  </way>
  <way id="227131290" version="2" timestamp="2016-01-09T18:38:44Z" changeset="36468814" uid="161875" user="Willumm">
    <nd ref="2358605505"/>
    <nd ref="2358605508"/>
    <tag k="highway" v="residential"/>
    <tag k="maxspeed" v="30 mph"/>
    <tag k="name" v="Clumber Way"/>
    <tag k="oneway" v="no"/>
    <tag k="source" v="Bing"/>
    <tag k="source:name" v="OS_OpenData_Locator"/>
  </way>
  <way id="227131293" version="3" timestamp="2020-09-06T12:04:13Z" changeset="90478081" uid="84681" user="SK53">
    <nd ref="2358605510"/>
    <nd ref="2358605504"/>
    <nd ref="2358605509"/>
    <nd ref="2358605511"/>
    <nd ref="2358605514"/>
    <nd ref="7880924287"/>
    <nd ref="2358605507"/>
    <tag k="highway" v="residential"/>
    <tag k="maxspeed" v="30 mph"/>
    <tag k="name" v="Thornton Close"/>
    <tag k="oneway" v="no"/>
    <tag k="source" v="OS_OpenData_StreetView"/>
    <tag k="source:name" v="OS_OpenData_Locator"/>
  </way>
  <way id="227131294" version="2" timestamp="2016-01-09T18:38:44Z" changeset="36468814" uid="161875" user="Willumm">
    <nd ref="2358605493"/>
    <nd ref="2358605497"/>
    <nd ref="2358605508"/>
    <tag k="highway" v="residential"/>
    <tag k="maxspeed" v="30 mph"/>
    <tag k="name" v="Archers Drive"/>
    <tag k="oneway" v="no"/>
    <tag k="source" v="Bing"/>
    <tag k="source:name" v="OS_OpenData_Locator"/>
  </way>
  <way id="227131295" version="2" timestamp="2016-01-09T18:38:43Z" changeset="36468814" uid="161875" user="Willumm">
    <nd ref="2358605495"/>
    <nd ref="2358605499"/>
    <nd ref="2358605491"/>
    <nd ref="2358605513"/>
    <nd ref="2358605494"/>
    <nd ref="2358605501"/>
    <tag k="highway" v="residential"/>
    <tag k="maxspeed" v="30 mph"/>
    <tag k="name" v="Chapel Gardens"/>
    <tag k="oneway" v="no"/>
    <tag k="source" v="Bing"/>
    <tag k="source:name" v="OS_OpenData_Locator"/>
  </way>
  <way id="227131379" version="2" timestamp="2016-01-09T18:38:42Z" changeset="36468814" uid="161875" user="Willumm">
    <nd ref="2358606136"/>
    <nd ref="2358606138"/>
    <nd ref="2358606139"/>
    <tag k="highway" v="residential"/>
    <tag k="maxspeed" v="30 mph"/>
    <tag k="name" v="Rufford Close"/>
    <tag k="oneway" v="no"/>
    <tag k="source" v="Bing"/>
    <tag k="source:name" v="OS_OpenData_Locator"/>
  </way>
  <way id="227131380" version="2" timestamp="2016-01-09T18:38:42Z" changeset="36468814" uid="161875" user="Willumm">
    <nd ref="2358606140"/>
    <nd ref="2358606139"/>
    <nd ref="2358606137"/>
    <tag k="highway" v="residential"/>
    <tag k="maxspeed" v="30 mph"/>
    <tag k="name" v="Rufford Close"/>
    <tag k="oneway" v="no"/>
    <tag k="source" v="Bing"/>
    <tag k="source:name" v="OS_OpenData_Locator"/>
  </way>
  <way id="304444617" version="7" timestamp="2022-01-16T14:36:08Z" changeset="116216366" uid="5589" user="user_5589">
    <nd ref="1880193948"/>
    <nd ref="307420067"/>
    <nd ref="665685851"/>
    <nd ref="324764975"/>
    <nd ref="665685852"/>
    <nd ref="307420068"/>
    <nd ref="665685853"/>
    <nd ref="665685854"/>
    <nd ref="324765026"/>
    <nd ref="506822857"/>
    <nd ref="307420069"/>
    <nd ref="1265829418"/>
    <nd ref="665685855"/>
    <nd ref="333257752"/>
    <tag k="highway" v="tertiary"/>
    <tag k="maxspeed" v="60 mph"/>
    <tag k="oneway" v="no"/>
    <tag k="sidewalk" v="no"/>
    <tag k="source" v="GPS;Bing"/>
  </way>
  <way id="343526441" version="5" timestamp="2022-01-16T14:36:08Z" changeset="116216366" uid="5589" user="user_5589">
    <nd ref="3503671882"/>
    <nd ref="532385276"/>
    <nd ref="532385314"/>
    <nd ref="532385333"/>
    <nd ref="532385393"/>
    <nd ref="532385417"/>
    <nd ref="324765206"/>
    <tag k="highway" v="residential"/>
    <tag k="maxspeed" v="30 mph"/>
    <tag k="name" v="Oldbridge Way"/>
    <tag k="oneway" v="no"/>
    <tag k="sidewalk" v="both"/>
    <tag k="source:name" v="Sign at E"/>
  </way>
  <way id="343526444" version="2" timestamp="2020-11-06T18:26:40Z" changeset="93679851" uid="11130356" user="Alex_457">
    <nd ref="3503671853"/>
    <nd ref="497306605"/>
    <nd ref="3503671850"/>
    <nd ref="497306343"/>
    <nd ref="3503671849"/>
    <nd ref="497306345"/>
    <nd ref="3503671864"/>
    <nd ref="3503671865"/>
    <nd ref="497306348"/>
    <nd ref="497306335"/>
    <tag k="highway" v="tertiary"/>
    <tag k="junction" v="roundabout"/>
    <tag k="lit" v="yes"/>
    <tag k="maxspeed" v="30 mph"/>
  </way>
  <way id="343527495" version="2" timestamp="2020-03-24T11:49:43Z" changeset="82569045" uid="10252562" user="puppalg">
    <nd ref="3503684508"/>
    <nd ref="7325340307"/>
    <nd ref="7325340306"/>
    <nd ref="7325340308"/>
    <nd ref="7325340311"/>
    <nd ref="7325340310"/>
    <nd ref="7325340309"/>
    <nd ref="7325340313"/>
    <nd ref="7325340312"/>
    <nd ref="3503684502"/>
    <tag k="fixme" v="Needs proper survey"/>
    <tag k="highway" v="residential"/>
    <tag k="name" v="Armstrong Gardens"/>
    <tag k="source" v="View from east"/>
  </way>
  <way id="344007806" version="2" timestamp="2016-01-09T18:38:53Z" changeset="36468814" uid="161875" user="Willumm">
    <nd ref="532431019"/>
    <nd ref="532428589"/>
    <tag k="highway" v="residential"/>
    <tag k="lit" v="yes"/>
    <tag k="maxspeed" v="30 mph"/>
    <tag k="name" v="The Green"/>
    <tag k="not:name" v="Metcalfe Close"/>
    <tag k="oneway" v="no"/>
    <tag k="source:name" v="Sign"/>
  </way>
  <way id="344008160" version="2" timestamp="2016-01-09T18:38:46Z" changeset="36468814" uid="161875" user="Willumm">
    <nd ref="3503671882"/>
    <nd ref="3507795496"/>
    <nd ref="3507795497"/>
    <nd ref="3507795499"/>
    <tag k="highway" v="residential"/>
    <tag k="maxspeed" v="30 mph"/>
    <tag k="oneway" v="no"/>
    <tag k="source" v="Bing"/>
  </way>
  <way id="344008161" version="2" timestamp="2016-01-09T18:38:47Z" changeset="36468814" uid="161875" user="Willumm">
    <nd ref="3507795497"/>
    <nd ref="3507795498"/>
    <tag k="highway" v="residential"/>
    <tag k="maxspeed" v="30 mph"/>
    <tag k="oneway" v="no"/>
    <tag k="source" v="Bing"/>
  </way>
  <way id="345573733" version="5" timestamp="2025-03-21T08:45:39Z" changeset="163894577" uid="19497186" user="Maryna Makarava">
    <nd ref="3522179613"/>
    <nd ref="3522179599"/>
    <nd ref="12430587462"/>
    <nd ref="12430587458"/>
    <nd ref="12686525194"/>
    <nd ref="12686525195"/>
    <nd ref="12686557301"/>
    <nd ref="12430587461"/>
    <nd ref="12686557302"/>
    <nd ref="12430587460"/>
    <nd ref="12430587459"/>
    <nd ref="12686525196"/>
    <nd ref="12686525197"/>
    <nd ref="12686525198"/>
    <nd ref="12686525199"/>
    <nd ref="12686525200"/>
    <tag k="fixme" v="Needs proper survey"/>
    <tag k="highway" v="residential"/>
    <tag k="maxspeed" v="30 mph"/>
    <tag k="name" v="Orpington Way"/>
    <tag k="oneway" v="no"/>
  </way>
  <way id="345573737" version="3" timestamp="2023-07-14T08:48:56Z" changeset="138496651" uid="9026132" user="PulisakZ">
    <nd ref="391553301"/>
    <nd ref="324765250"/>
    <nd ref="11046028398"/>
    <nd ref="391552565"/>
    <nd ref="324765251"/>
    <nd ref="324765253"/>
    <tag k="highway" v="tertiary"/>
    <tag k="maxspeed" v="30 mph"/>
    <tag k="name" v="Farnsfield Road"/>
    <tag k="oneway" v="no"/>
  </way>
  <way id="345573747" version="3" timestamp="2025-03-21T08:45:39Z" changeset="163894577" uid="19497186" user="Maryna Makarava">
    <nd ref="3522179647"/>
    <nd ref="12686525193"/>
    <nd ref="333259654"/>
    <nd ref="333259655"/>
    <nd ref="3523303475"/>
    <nd ref="3523303611"/>
    <nd ref="3523303648"/>
    <tag k="highway" v="tertiary"/>
    <tag k="lit" v="yes"/>
    <tag k="maxspeed" v="60 mph"/>
    <tag k="maxspeed:type" v="GB:nsl_single"/>
    <tag k="name" v="Kirklington Road"/>
    <tag k="sidewalk" v="left"/>
  </way>
  <way id="345684614" version="4" timestamp="2025-05-14T10:26:40Z" changeset="166247906" uid="3199858" user="Mateusz Konieczny - bot account">
    <nd ref="3523303648"/>
    <nd ref="3523303610"/>
    <nd ref="3523303658"/>
    <nd ref="3523303618"/>
    <nd ref="333259658"/>
    <nd ref="333259660"/>
    <nd ref="9930401914"/>
    <nd ref="333259662"/>
    <nd ref="9930401913"/>
    <nd ref="3523303626"/>
    <nd ref="414592164"/>
    <nd ref="3523303452"/>
    <nd ref="333259664"/>
    <nd ref="3523303476"/>
    <nd ref="333259666"/>
    <nd ref="3523303471"/>
    <nd ref="10543471547"/>
    <nd ref="333259670"/>
    <tag k="highway" v="tertiary"/>
    <tag k="lit" v="yes"/>
    <tag k="maxspeed" v="60 mph"/>
    <tag k="maxspeed:type" v="GB:nsl_single"/>
    <tag k="name" v="Kirklington Road"/>
    <tag k="sidewalk" v="no"/>
  </way>
  <way id="390308567" version="1" timestamp="2016-01-08T21:33:32Z" changeset="36454208" uid="161875" user="Willumm">
    <nd ref="324765253"/>
    <nd ref="324765464"/>
    <nd ref="324765465"/>
    <nd ref="324765466"/>
    <nd ref="324765468"/>
    <nd ref="324765470"/>
    <nd ref="324765473"/>
    <nd ref="324765475"/>
    <nd ref="2194135790"/>
    <nd ref="324765481"/>
    <tag k="highway" v="tertiary"/>
    <tag k="maxspeed" v="60 mph"/>
    <tag k="name" v="Farnsfield Road"/>
    <tag k="oneway" v="no"/>
  </way>
  <way id="390483379" version="5" timestamp="2022-01-16T14:36:08Z" changeset="116216366" uid="5589" user="user_5589">
    <nd ref="3936296229"/>
    <nd ref="324765197"/>
    <nd ref="6430894414"/>
    <nd ref="1906222648"/>
    <nd ref="324765198"/>
    <nd ref="324765199"/>
    <tag k="highway" v="tertiary"/>
    <tag k="maxspeed" v="30 mph"/>
    <tag k="name" v="Eakring Road"/>
    <tag k="oneway" v="no"/>
    <tag k="sidewalk" v="no"/>
  </way>
  <way id="515322141" version="5" timestamp="2025-04-22T10:21:53Z" changeset="165277389" uid="5229644" user="Nathan_A_RF">
    <nd ref="658747388"/>
    <nd ref="253639208"/>
    <nd ref="11487135188"/>
    <nd ref="768202607"/>
    <nd ref="253639207"/>
    <nd ref="1265820291"/>
    <nd ref="11487135194"/>
    <nd ref="253639206"/>
    <nd ref="59746476"/>
    <nd ref="658748126"/>
    <nd ref="11491882809"/>
    <nd ref="11491871547"/>
    <nd ref="11491871564"/>
    <nd ref="11491871541"/>
    <nd ref="11491871563"/>
    <nd ref="11491883027"/>
    <nd ref="11491882992"/>
    <nd ref="11491883023"/>
    <nd ref="11491883018"/>
    <nd ref="11491882985"/>
    <nd ref="11491882981"/>
    <nd ref="59746473"/>
    <nd ref="11491882987"/>
    <nd ref="11491882937"/>
    <nd ref="768202616"/>
    <nd ref="11491882932"/>
    <nd ref="11491882874"/>
    <nd ref="324355177"/>
    <tag k="highway" v="trunk"/>
    <tag k="lit" v="no"/>
    <tag k="maxspeed" v="50 mph"/>
    <tag k="maxspeed:type" v="sign"/>
    <tag k="name" v="Kirklington Road"/>
    <tag k="ref" v="A617"/>
    <tag k="source" v="survey"/>
    <tag k="source:name" v="NaPTAN"/>
  </way>
  <way id="747220723" version="2" timestamp="2019-11-22T10:40:07Z" changeset="77419888" uid="10252557" user="anuvashi">
    <nd ref="497302226"/>
    <nd ref="6991750380"/>
    <nd ref="6991750381"/>
    <nd ref="6991750382"/>
    <nd ref="6991750383"/>
    <nd ref="6991750384"/>
    <tag k="highway" v="residential"/>
  </way>
  <way id="844741160" version="1" timestamp="2020-09-06T12:04:13Z" changeset="90478081" uid="84681" user="SK53">
    <nd ref="7880924242"/>
    <nd ref="2358605488"/>
    <nd ref="7880924243"/>
    <tag k="highway" v="residential"/>
    <tag k="name" v="St Margaret's Close"/>
  </way>
  <way id="867811813" version="1" timestamp="2020-11-06T18:26:40Z" changeset="93679851" uid="11130356" user="Alex_457">
    <nd ref="497306335"/>
    <nd ref="3503671858"/>
    <nd ref="497306337"/>
    <nd ref="3503671866"/>
    <nd ref="497306339"/>
    <nd ref="497306341"/>
    <nd ref="3503671846"/>
    <nd ref="3503671840"/>
    <nd ref="3503671853"/>
    <tag k="highway" v="tertiary"/>
    <tag k="junction" v="roundabout"/>
    <tag k="lit" v="yes"/>
    <tag k="maxspeed" v="30 mph"/>
  </way>
  <way id="884296722" version="1" timestamp="2020-12-13T10:12:15Z" changeset="95749302" uid="281267" user="smb1001">
    <nd ref="532473861"/>
    <nd ref="8223859914"/>
    <nd ref="8223859916"/>
    <nd ref="8223870325"/>
    <nd ref="532473861"/>
    <tag k="amenity" v="place_of_worship"/>
    <tag k="building" v="church"/>
    <tag k="denomination" v="anglican"/>
    <tag k="name" v="St Margaret"/>
    <tag k="religion" v="christian"/>
    <tag k="source:religion" v="NLS - OS 1:25k 1st Series 1937-61"/>
    <tag k="wikidata" v="Q17527970"/>
  </way>
  <way id="916037664" version="1" timestamp="2021-03-11T23:20:35Z" changeset="100868299" uid="6714692" user="Fingrmouse">
    <nd ref="8508521356"/>
    <nd ref="8508521357"/>
    <nd ref="8508521358"/>
    <nd ref="8508521359"/>
    <nd ref="8508521360"/>
    <nd ref="8508521361"/>
    <nd ref="8508521362"/>
    <nd ref="8508521363"/>
    <nd ref="8508521364"/>
    <nd ref="8508521365"/>
    <nd ref="8508521356"/>
    <tag k="amenity" v="pub"/>
    <tag k="building" v="yes"/>
    <tag k="name" v="The Copper Beech"/>
  </way>
  <way id="974978512" version="2" timestamp="2022-10-06T11:45:36Z" changeset="127098901" uid="17299016" user="Russ (mechanical edit account)">
    <nd ref="9022694839"/>
    <nd ref="9022694836"/>
    <nd ref="9022694837"/>
    <nd ref="9022694838"/>
    <nd ref="9022694839"/>
    <tag k="brand" v="National Grid"/>
    <tag k="brand:wikidata" v="Q1465461"/>
    <tag k="building" v="yes"/>
    <tag k="name" v="Bilsthorpe PV Generation"/>
    <tag k="operator" v="National Grid Electricity Distribution Plc"/>
    <tag k="operator:old" v="Western Power Distribution"/>
    <tag k="operator:wikidata" v="Q7988183"/>
    <tag k="owner" v="National Grid Electricity Distribution (East Midlands) Plc"/>
    <tag k="owner:wikidata" v="Q114348127"/>
    <tag k="power" v="substation"/>
    <tag k="ref:GB:wpd_site" v="898555"/>
    <tag k="voltage" v="33000"/>
  </way>
  <way id="1061987183" version="2" timestamp="2023-07-14T08:41:04Z" changeset="138496310" uid="9026132" user="PulisakZ">
    <nd ref="9756560034"/>
    <nd ref="3503671882"/>
    <tag k="highway" v="residential"/>
    <tag k="name" v="Oldbridge Way"/>
    <tag k="source" v="View from northwest;Bing"/>
  </way>
  <way id="1080040210" version="7" timestamp="2025-04-22T10:21:53Z" changeset="165277389" uid="5229644" user="Nathan_A_RF">
    <nd ref="324765481"/>
    <nd ref="658748452"/>
    <nd ref="10543471420"/>
    <nd ref="768202541"/>
    <nd ref="366393715"/>
    <nd ref="10543471418"/>
    <nd ref="11491882837"/>
    <nd ref="10543471417"/>
    <nd ref="11491882831"/>
    <nd ref="10543471416"/>
    <nd ref="11491882827"/>
    <nd ref="11491882825"/>
    <nd ref="10543471415"/>
    <nd ref="11491882824"/>
    <nd ref="768202537"/>
    <nd ref="2194135812"/>
    <nd ref="10543471413"/>
    <nd ref="768202535"/>
    <nd ref="768202533"/>
    <nd ref="658748645"/>
    <nd ref="366393717"/>
    <nd ref="366393718"/>
    <nd ref="2194135787"/>
    <nd ref="768202525"/>
    <nd ref="768202523"/>
    <nd ref="391550846"/>
    <nd ref="768202519"/>
    <nd ref="658749719"/>
    <nd ref="768202467"/>
    <nd ref="366393710"/>
    <nd ref="658749723"/>
    <nd ref="366393526"/>
    <nd ref="2194135808"/>
    <nd ref="768202462"/>
    <nd ref="10543457404"/>
    <nd ref="10543457403"/>
    <nd ref="768202463"/>
    <nd ref="768202464"/>
    <nd ref="10543457401"/>
    <nd ref="366393711"/>
    <nd ref="658749741"/>
    <nd ref="768202461"/>
    <nd ref="366393530"/>
    <tag k="bicycle" v="yes"/>
    <tag k="check_date" v="2025-01-05"/>
    <tag k="foot" v="no"/>
    <tag k="highway" v="trunk"/>
    <tag k="horse" v="no"/>
    <tag k="lit" v="no"/>
    <tag k="maxspeed" v="50 mph"/>
    <tag k="maxspeed:type" v="sign"/>
    <tag k="name" v="Kirklington Road"/>
    <tag k="ref" v="A617"/>
    <tag k="source" v="survey"/>
  </way>
  <way id="1080040211" version="6" timestamp="2025-04-22T10:21:53Z" changeset="165277389" uid="5229644" user="Nathan_A_RF">
    <nd ref="366393530"/>
    <nd ref="287837775"/>
    <nd ref="658749751"/>
    <nd ref="768195780"/>
    <nd ref="414590603"/>
    <nd ref="658749766"/>
    <nd ref="414590597"/>
    <nd ref="768195792"/>
    <nd ref="366393533"/>
    <nd ref="658749772"/>
    <nd ref="768195802"/>
    <nd ref="768195805"/>
    <nd ref="768195809"/>
    <nd ref="366393536"/>
    <nd ref="768195812"/>
    <nd ref="704146624"/>
    <nd ref="366393540"/>
    <nd ref="768195818"/>
    <nd ref="8655019818"/>
    <nd ref="768195821"/>
    <nd ref="768195826"/>
    <nd ref="658749793"/>
    <nd ref="658749803"/>
    <nd ref="10543400971"/>
    <nd ref="768195828"/>
    <nd ref="333259686"/>
    <tag k="highway" v="trunk"/>
    <tag k="lit" v="no"/>
    <tag k="maxspeed" v="50 mph"/>
    <tag k="maxspeed:type" v="sign"/>
    <tag k="name" v="Kirklington Road"/>
    <tag k="ref" v="A617"/>
    <tag k="source" v="survey"/>
  </way>
  <way id="1185207008" version="2" timestamp="2025-03-21T09:00:17Z" changeset="163895140" uid="19497186" user="Maryna Makarava">
    <nd ref="11009632720"/>
    <nd ref="11009632719"/>
    <nd ref="11009632718"/>
    <nd ref="11009632717"/>
    <nd ref="11009632716"/>
    <nd ref="11009632715"/>
    <nd ref="11009632714"/>
    <tag k="highway" v="residential"/>
  </way>
  <way id="1189586457" version="1" timestamp="2023-07-14T08:41:04Z" changeset="138496310" uid="9026132" user="PulisakZ">
    <nd ref="3503671857"/>
    <nd ref="9756560034"/>
    <tag k="highway" v="residential"/>
    <tag k="name" v="Sir Brian Way"/>
    <tag k="source" v="View from northwest;Bing"/>
  </way>
  <way id="1189586458" version="3" timestamp="2024-12-29T02:22:48Z" changeset="160736238" uid="22299871" user="Mappam-12">
    <nd ref="9756560046"/>
    <nd ref="9756560047"/>
    <nd ref="9756560048"/>
    <nd ref="9756560049"/>
    <nd ref="9756560050"/>
    <nd ref="9756560051"/>
    <nd ref="11452034702"/>
    <nd ref="9756560052"/>
    <nd ref="9756560053"/>
    <nd ref="9756560054"/>
    <nd ref="11452034704"/>
    <nd ref="9756560055"/>
    <nd ref="9756560056"/>
    <nd ref="9756560057"/>
    <nd ref="3503671857"/>
    <tag k="fixme" v="Needs surveying"/>
    <tag k="highway" v="residential"/>
    <tag k="name" v="Sir Brian Way"/>
    <tag k="source" v="View from northwest;Bing"/>
  </way>
  <way id="1189587829" version="1" timestamp="2023-07-14T08:48:56Z" changeset="138496651" uid="9026132" user="PulisakZ">
    <nd ref="11046028386"/>
    <nd ref="11046028383"/>
    <nd ref="11046028385"/>
    <nd ref="11046028384"/>
    <tag k="highway" v="residential"/>
    <tag k="name" v="Ivy Gardens"/>
    <tag k="surface" v="asphalt"/>
  </way>
  <way id="1189587830" version="1" timestamp="2023-07-14T08:48:56Z" changeset="138496651" uid="9026132" user="PulisakZ">
    <nd ref="11046028398"/>
    <nd ref="11046028397"/>
    <nd ref="11046028396"/>
    <nd ref="11046028393"/>
    <nd ref="11046028395"/>
    <nd ref="11046028392"/>
    <nd ref="11046028394"/>
    <nd ref="11046028391"/>
    <nd ref="11046028388"/>
    <nd ref="11046028384"/>
    <nd ref="11046028390"/>
    <nd ref="11046028387"/>
    <nd ref="11046028389"/>
    <tag k="highway" v="residential"/>
    <tag k="name" v="Ivy Gardens"/>
    <tag k="surface" v="asphalt"/>
  </way>
  <way id="1234020195" version="1" timestamp="2023-12-25T12:11:29Z" changeset="145495632" uid="493595" user="Yorvik Prestigitator">
    <nd ref="11452034724"/>
    <nd ref="11452034725"/>
    <nd ref="1265819932"/>
    <nd ref="11452034726"/>
    <nd ref="11452034724"/>
    <tag k="amenity" v="library"/>
    <tag k="building" v="public"/>
    <tag k="name" v="Bilsthorpe Library"/>
  </way>
  <way id="1238316234" version="1" timestamp="2024-01-09T13:32:45Z" changeset="146067299" uid="165" user="Richard">
    <nd ref="3086811847"/>
    <nd ref="324765201"/>
    <nd ref="11009632720"/>
    <nd ref="333257999"/>
    <tag k="highway" v="tertiary"/>
    <tag k="maxspeed" v="30 mph"/>
    <tag k="name" v="Eakring Road"/>
    <tag k="oneway" v="no"/>
  </way>
  <way id="1346988101" version="2" timestamp="2025-02-02T16:15:39Z" changeset="162053195" uid="139424" user="pigsonthewing">
    <nd ref="12459826046"/>
    <nd ref="12459826048"/>
    <nd ref="12459826047"/>
    <nd ref="12459826045"/>
    <nd ref="12459826046"/>
    <tag k="building" v="yes"/>
    <tag k="name" v="Bilsthorpe Heritage Museum"/>
    <tag k="tourism" v="museum"/>
    <tag k="website" v="http://bilsthorpemuseum.co.uk/"/>
    <tag k="wikidata" v="Q113370284"/>
  </way>
  <way id="1369886762" version="1" timestamp="2025-03-21T09:00:17Z" changeset="163895140" uid="19497186" user="Maryna Makarava">
    <nd ref="11009632714"/>
    <nd ref="11009632713"/>
    <nd ref="11009632712"/>
    <nd ref="11009632711"/>
    <tag k="highway" v="residential"/>
  </way>
  <way id="1369886763" version="1" timestamp="2025-03-21T09:00:17Z" changeset="163895140" uid="19497186" user="Maryna Makarava">
    <nd ref="11009632714"/>
    <nd ref="12686573641"/>
    <nd ref="12686573642"/>
    <nd ref="12686573643"/>
    <nd ref="12686573644"/>
    <nd ref="12686573645"/>
    <nd ref="12686573646"/>
    <nd ref="12686573647"/>
    <nd ref="12686573648"/>
    <nd ref="12686573649"/>
    <nd ref="12686573650"/>
    <nd ref="12686573651"/>
    <nd ref="12686573652"/>
    <tag k="highway" v="residential"/>
  </way>
  <way id="1369886764" version="1" timestamp="2025-03-21T09:00:17Z" changeset="163895140" uid="19497186" user="Maryna Makarava">
    <nd ref="12686573651"/>
    <nd ref="12686573653"/>
    <tag k="highway" v="residential"/>
  </way>

</osm>
