<?xml version="1.0" encoding="UTF-8"?>
<osm version="0.6" generator="Overpass API 0.7.62.8 e802775f">
<note>The data included in this document is from www.openstreetmap.org. The data is made available under ODbL.</note>
<meta osm_base="2025-10-23T17:34:45Z" areas="2025-10-23T12:46:58Z"/>

  <node id="27391924" lat="53.0667840" lon="-0.8358488" version="6" timestamp="2019-01-17T19:32:57Z" changeset="66405900" uid="52797" user="hofoen"/>
  <node id="253632870" lat="53.0940940" lon="-0.8864042" version="24" timestamp="2025-06-03T11:54:49Z" changeset="167132047" uid="6714692" user="Fingrmouse"/>
  <node id="267426619" lat="53.0894868" lon="-0.8774114" version="4" timestamp="2025-06-02T12:45:08Z" changeset="167090688" uid="6714692" user="Fingrmouse"/>
  <node id="324365366" lat="53.0719496" lon="-0.8784340" version="12" timestamp="2016-01-08T23:02:26Z" changeset="36455543" uid="161875" user="Willumm"/>
  <node id="366391130" lat="53.0948414" lon="-0.9128841" version="10" timestamp="2025-05-16T16:25:48Z" changeset="166359419" uid="6714692" user="Fingrmouse"/>
  <node id="759754344" lat="53.0677227" lon="-0.8358947" version="5" timestamp="2019-01-17T19:32:57Z" changeset="66405900" uid="52797" user="hofoen"/>
  <node id="2358803995" lat="53.0792989" lon="-0.8666524" version="3" timestamp="2025-05-30T15:57:48Z" changeset="166979647" uid="6714692" user="Fingrmouse"/>
  <node id="8656271462" lat="53.0845189" lon="-0.8651208" version="2" timestamp="2025-05-30T17:40:58Z" changeset="166983859" uid="6714692" user="Fingrmouse"/>
  <node id="12775246755" lat="53.0794046" lon="-0.8664784" version="2" timestamp="2025-05-30T15:57:48Z" changeset="166979647" uid="6714692" user="Fingrmouse"/>
  <node id="12875618211" lat="53.0790526" lon="-0.8652816" version="1" timestamp="2025-05-30T15:57:48Z" changeset="166979647" uid="6714692" user="Fingrmouse"/>
  <way id="24601344" version="17" timestamp="2025-06-02T12:45:08Z" changeset="167090688" uid="6714692" user="Fingrmouse">
    <nd ref="8656271462"/>
    <nd ref="12875773714"/>
    <nd ref="233176"/>
    <nd ref="12875773713"/>
    <nd ref="233175"/>
    <nd ref="8656271464"/>
    <nd ref="12875773712"/>
    <nd ref="8656271465"/>
    <nd ref="12875773711"/>
    <nd ref="233174"/>
    <nd ref="8656271466"/>
    <nd ref="12875773724"/>
    <nd ref="12875773731"/>
    <nd ref="8656271467"/>
    <nd ref="324368687"/>
    <nd ref="233173"/>
    <nd ref="8656271468"/>
    <nd ref="12875773709"/>
    <nd ref="253632372"/>
    <nd ref="324365009"/>
    <nd ref="253632374"/>
    <nd ref="12875773710"/>
    <nd ref="324368682"/>
    <nd ref="8656271469"/>
    <nd ref="6905404481"/>
    <nd ref="253632375"/>
    <nd ref="8656271470"/>
    <nd ref="233172"/>
    <nd ref="8656271471"/>
    <nd ref="8656271472"/>
    <nd ref="233171"/>
    <nd ref="8656271473"/>
    <nd ref="8656271474"/>
    <nd ref="253632371"/>
    <nd ref="6785055014"/>
    <nd ref="253632370"/>
    <nd ref="8656271475"/>
    <nd ref="253632368"/>
    <nd ref="8656271476"/>
    <nd ref="253632367"/>
    <nd ref="233170"/>
    <nd ref="12880878860"/>
    <nd ref="233169"/>
    <nd ref="233168"/>
    <nd ref="267428358"/>
    <tag k="highway" v="trunk"/>
    <tag k="lit" v="yes"/>
    <tag k="maxspeed" v="50 mph"/>
    <tag k="name" v="Main Road"/>
    <tag k="ref" v="A617"/>
    <tag k="source:name" v="OS OpenData StreetView"/>
  </way>
  <way id="29431072" version="13" timestamp="2025-05-30T18:15:43Z" changeset="166985076" uid="6714692" user="Fingrmouse">
    <nd ref="503695504"/>
    <nd ref="498428944"/>
    <nd ref="12875773782"/>
    <nd ref="12875773552"/>
    <nd ref="12875773935"/>
    <nd ref="503698686"/>
    <nd ref="12875773551"/>
    <nd ref="12875845359"/>
    <nd ref="12875845362"/>
    <nd ref="12875773549"/>
    <nd ref="12875845365"/>
    <nd ref="12875773550"/>
    <nd ref="12875773548"/>
    <nd ref="8359752124"/>
    <nd ref="12875773786"/>
    <nd ref="498428946"/>
    <nd ref="12875773544"/>
    <nd ref="12875773789"/>
    <nd ref="12875773791"/>
    <nd ref="12875773543"/>
    <nd ref="12875773796"/>
    <nd ref="12875773542"/>
    <nd ref="503698687"/>
    <nd ref="8359752139"/>
    <nd ref="12875773801"/>
    <nd ref="8359752145"/>
    <nd ref="12875773799"/>
    <nd ref="12875773769"/>
    <nd ref="12875773768"/>
    <nd ref="324365237"/>
    <tag k="highway" v="residential"/>
    <tag k="maxspeed" v="30 mph"/>
    <tag k="name" v="Church Lane"/>
    <tag k="oneway" v="no"/>
    <tag k="source" v="npe"/>
  </way>
  <way id="29431373" version="16" timestamp="2025-05-30T18:15:43Z" changeset="166985076" uid="6714692" user="Fingrmouse">
    <nd ref="324368682"/>
    <nd ref="12875767181"/>
    <nd ref="12875767180"/>
    <nd ref="4596624421"/>
    <nd ref="12875845892"/>
    <nd ref="498427308"/>
    <nd ref="6905404471"/>
    <nd ref="503699041"/>
    <nd ref="8359752130"/>
    <nd ref="498427305"/>
    <nd ref="12875773772"/>
    <nd ref="12875773771"/>
    <nd ref="324368680"/>
    <nd ref="12875774106"/>
    <nd ref="12875774104"/>
    <nd ref="12875773773"/>
    <nd ref="12875774102"/>
    <nd ref="12875774108"/>
    <nd ref="12875773774"/>
    <nd ref="12875773776"/>
    <nd ref="12875773777"/>
    <nd ref="498427216"/>
    <nd ref="12875773707"/>
    <nd ref="12875773708"/>
    <nd ref="324368687"/>
    <tag k="highway" v="residential"/>
    <tag k="maxspeed" v="30 mph"/>
    <tag k="name" v="The Close"/>
  </way>
  <way id="29431388" version="10" timestamp="2019-07-11T11:21:50Z" changeset="72130638" uid="9259471" user="ppgne">
    <nd ref="253632870"/>
    <nd ref="324368784"/>
    <nd ref="665685872"/>
    <nd ref="324368785"/>
    <nd ref="324368786"/>
    <nd ref="6605039648"/>
    <nd ref="324368787"/>
    <nd ref="1328033075"/>
    <nd ref="324368788"/>
    <nd ref="324368789"/>
    <nd ref="324368790"/>
    <nd ref="665685873"/>
    <nd ref="3462444738"/>
    <nd ref="324368791"/>
    <nd ref="3462444739"/>
    <nd ref="324368792"/>
    <tag k="highway" v="unclassified"/>
    <tag k="maxspeed" v="60 mph"/>
    <tag k="name" v="Broadgate Lane"/>
    <tag k="oneway" v="no"/>
    <tag k="source" v="GPS"/>
  </way>
  <way id="40926980" version="6" timestamp="2025-05-30T18:15:43Z" changeset="166985076" uid="6714692" user="Fingrmouse">
    <nd ref="498427326"/>
    <nd ref="12875773735"/>
    <nd ref="12875845673"/>
    <nd ref="12875773704"/>
    <nd ref="12875845658"/>
    <nd ref="12875773705"/>
    <nd ref="12875845650"/>
    <nd ref="12875845626"/>
    <nd ref="12875845621"/>
    <nd ref="12875773706"/>
    <nd ref="12875845623"/>
    <nd ref="12875773775"/>
    <nd ref="498427216"/>
    <tag k="highway" v="residential"/>
    <tag k="maxspeed" v="30 mph"/>
  </way>
  <way id="40927098" version="7" timestamp="2025-05-30T18:15:43Z" changeset="166985076" uid="6714692" user="Fingrmouse">
    <nd ref="498429021"/>
    <nd ref="12875774128"/>
    <nd ref="12875774126"/>
    <nd ref="12875773761"/>
    <nd ref="12875774124"/>
    <nd ref="12875774122"/>
    <nd ref="12875774118"/>
    <nd ref="12875774120"/>
    <nd ref="12875774130"/>
    <nd ref="12875773762"/>
    <nd ref="12875774132"/>
    <nd ref="12875774116"/>
    <nd ref="12875774113"/>
    <nd ref="12875773763"/>
    <nd ref="12875774110"/>
    <nd ref="12875774134"/>
    <nd ref="12875773764"/>
    <nd ref="12875773807"/>
    <nd ref="12875773765"/>
    <nd ref="12875773766"/>
    <nd ref="12875845538"/>
    <nd ref="12875773767"/>
    <nd ref="324365237"/>
    <tag k="highway" v="residential"/>
    <tag k="maxspeed" v="30 mph"/>
    <tag k="name" v="Pinfold Lane"/>
    <tag k="oneway" v="no"/>
  </way>
  <way id="41222966" version="5" timestamp="2025-05-30T17:40:58Z" changeset="166983859" uid="6714692" user="Fingrmouse">
    <nd ref="503698697"/>
    <nd ref="12875773554"/>
    <nd ref="12875773553"/>
    <nd ref="12875773565"/>
    <nd ref="12875773568"/>
    <nd ref="503698698"/>
    <tag k="highway" v="residential"/>
    <tag k="maxspeed" v="30 mph"/>
    <tag k="name" v="Ayrshire Way"/>
    <tag k="oneway" v="no"/>
    <tag k="source:name" v="OS_OpenData_Locator"/>
  </way>
  <way id="60687199" version="18" timestamp="2025-04-21T12:00:54Z" changeset="165235790" uid="5229644" user="Nathan_A_RF">
    <nd ref="759754344"/>
    <nd ref="27391925"/>
    <nd ref="633480451"/>
    <nd ref="633480452"/>
    <nd ref="27391926"/>
    <nd ref="633480453"/>
    <nd ref="1494226066"/>
    <nd ref="633480454"/>
    <nd ref="633480455"/>
    <nd ref="27391927"/>
    <nd ref="633480458"/>
    <nd ref="633480461"/>
    <nd ref="633480463"/>
    <nd ref="27391928"/>
    <nd ref="12771939763"/>
    <nd ref="27391929"/>
    <nd ref="2670828001"/>
    <tag k="bicycle" v="yes"/>
    <tag k="highway" v="trunk"/>
    <tag k="lanes" v="2"/>
    <tag k="lit" v="no"/>
    <tag k="maxspeed" v="60 mph"/>
    <tag k="maxspeed:type" v="GB:nsl_single"/>
    <tag k="name" v="Newark Bypass"/>
    <tag k="national_highways:area" v="7"/>
    <tag k="operator" v="National Highways"/>
    <tag k="operator:wikidata" v="Q5760006"/>
    <tag k="ref" v="A46"/>
    <tag k="sidewalk" v="no"/>
  </way>
  <way id="60687200" version="18" timestamp="2025-07-07T13:57:51Z" changeset="168607119" uid="808803" user="Andidy">
    <nd ref="27391924"/>
    <nd ref="759754344"/>
    <tag k="bicycle" v="yes"/>
    <tag k="bridge" v="yes"/>
    <tag k="highway" v="trunk"/>
    <tag k="lanes" v="2"/>
    <tag k="layer" v="1"/>
    <tag k="lit" v="no"/>
    <tag k="maxspeed" v="60 mph"/>
    <tag k="maxspeed:type" v="GB:nsl_single"/>
    <tag k="maxweight:signed" v="no"/>
    <tag k="name" v="Newark Bypass"/>
    <tag k="national_highways:area" v="7"/>
    <tag k="operator" v="National Highways"/>
    <tag k="operator:wikidata" v="Q5760006"/>
    <tag k="ref" v="A46"/>
  </way>
  <way id="104982300" version="5" timestamp="2025-05-30T15:57:48Z" changeset="166979647" uid="6714692" user="Fingrmouse">
    <nd ref="1210373760"/>
    <nd ref="1210373717"/>
    <nd ref="1210373743"/>
    <nd ref="4864463716"/>
    <nd ref="12875618183"/>
    <nd ref="324365006"/>
    <nd ref="12875618184"/>
    <nd ref="12875618185"/>
    <nd ref="12875618186"/>
    <nd ref="1210373796"/>
    <nd ref="12875618187"/>
    <nd ref="12875618188"/>
    <nd ref="324365007"/>
    <tag k="highway" v="unclassified"/>
    <tag k="maxspeed" v="60 mph"/>
    <tag k="maxspeed:type" v="GB:nsl_single"/>
    <tag k="source" v="npe"/>
  </way>
  <way id="227141390" version="13" timestamp="2025-05-16T16:25:48Z" changeset="166359419" uid="6714692" user="Fingrmouse">
    <nd ref="366391130"/>
    <nd ref="12842567307"/>
    <nd ref="658755497"/>
    <nd ref="12842567308"/>
    <nd ref="8656271437"/>
    <nd ref="12842567309"/>
    <nd ref="12842567310"/>
    <nd ref="6785706985"/>
    <nd ref="12842567311"/>
    <nd ref="12842567312"/>
    <nd ref="8656271438"/>
    <nd ref="12842567313"/>
    <nd ref="12842567314"/>
    <nd ref="8656271439"/>
    <nd ref="12842567315"/>
    <nd ref="8656271440"/>
    <nd ref="12842567316"/>
    <nd ref="12842567317"/>
    <nd ref="366391134"/>
    <nd ref="4596840548"/>
    <nd ref="7672634188"/>
    <nd ref="366393271"/>
    <nd ref="658755539"/>
    <nd ref="12842567318"/>
    <nd ref="324368404"/>
    <nd ref="3427671103"/>
    <nd ref="658755547"/>
    <nd ref="12842567319"/>
    <nd ref="12842567320"/>
    <nd ref="366393278"/>
    <nd ref="4596652580"/>
    <nd ref="12842567322"/>
    <nd ref="8656271442"/>
    <nd ref="12842567323"/>
    <nd ref="8864791082"/>
    <nd ref="8656271443"/>
    <nd ref="366391140"/>
    <nd ref="12842567325"/>
    <nd ref="12842567324"/>
    <nd ref="366391729"/>
    <nd ref="8656271444"/>
    <nd ref="366391144"/>
    <nd ref="12842567326"/>
    <nd ref="8656271445"/>
    <nd ref="366391733"/>
    <nd ref="12842567327"/>
    <nd ref="658755560"/>
    <nd ref="12842567328"/>
    <nd ref="8656271446"/>
    <nd ref="658755563"/>
    <nd ref="658755564"/>
    <nd ref="8656271447"/>
    <nd ref="658755565"/>
    <nd ref="658755570"/>
    <nd ref="9070470143"/>
    <nd ref="366391154"/>
    <nd ref="8656271448"/>
    <nd ref="503706933"/>
    <tag k="highway" v="trunk"/>
    <tag k="lit" v="no"/>
    <tag k="maxspeed" v="50 mph"/>
    <tag k="oneway" v="no"/>
    <tag k="ref" v="A617"/>
    <tag k="source" v="GPS"/>
  </way>
  <way id="227149577" version="3" timestamp="2025-05-30T15:57:48Z" changeset="166979647" uid="6714692" user="Fingrmouse">
    <nd ref="2358803995"/>
    <nd ref="12775246756"/>
    <nd ref="12875618175"/>
    <nd ref="12775246754"/>
    <nd ref="12875618169"/>
    <nd ref="2358804003"/>
    <nd ref="12875618181"/>
    <nd ref="12875618206"/>
    <nd ref="12875618182"/>
    <nd ref="1210373717"/>
    <tag k="highway" v="unclassified"/>
  </way>
  <way id="227149578" version="16" timestamp="2025-05-29T15:52:47Z" changeset="166930088" uid="6714692" user="Fingrmouse">
    <nd ref="324365366"/>
    <nd ref="333265039"/>
    <nd ref="658758492"/>
    <nd ref="658757957"/>
    <nd ref="2380425891"/>
    <nd ref="2380425922"/>
    <nd ref="324365368"/>
    <nd ref="3171481824"/>
    <nd ref="12873461938"/>
    <nd ref="8080806254"/>
    <nd ref="12873461941"/>
    <nd ref="324365000"/>
    <nd ref="8281059950"/>
    <nd ref="12851243015"/>
    <nd ref="6902400887"/>
    <nd ref="4864459376"/>
    <nd ref="6902364981"/>
    <nd ref="333264710"/>
    <nd ref="12851243018"/>
    <nd ref="4864459377"/>
    <nd ref="12851243041"/>
    <nd ref="658757968"/>
    <nd ref="4864464700"/>
    <nd ref="324365001"/>
    <nd ref="4864459378"/>
    <nd ref="333264712"/>
    <nd ref="492829748"/>
    <nd ref="324365002"/>
    <nd ref="4864459379"/>
    <nd ref="333264713"/>
    <nd ref="492827719"/>
    <nd ref="4864459382"/>
    <nd ref="12851243324"/>
    <nd ref="324365003"/>
    <nd ref="4864459383"/>
    <nd ref="4864459384"/>
    <nd ref="658757980"/>
    <nd ref="333264716"/>
    <nd ref="658757992"/>
    <nd ref="4864459385"/>
    <nd ref="658757998"/>
    <nd ref="7996977886"/>
    <nd ref="3771490520"/>
    <nd ref="658758004"/>
    <nd ref="333264719"/>
    <nd ref="658758013"/>
    <nd ref="333264721"/>
    <nd ref="4864459386"/>
    <nd ref="324365004"/>
    <nd ref="4864459387"/>
    <nd ref="658758026"/>
    <nd ref="12851243797"/>
    <nd ref="4864459388"/>
    <nd ref="4864459389"/>
    <nd ref="324365005"/>
    <nd ref="333261972"/>
    <nd ref="3771490515"/>
    <nd ref="12873461717"/>
    <nd ref="4864459398"/>
    <nd ref="658756926"/>
    <nd ref="333261970"/>
    <nd ref="4864459397"/>
    <nd ref="1210373760"/>
    <nd ref="658756925"/>
    <nd ref="333261967"/>
    <nd ref="658756924"/>
    <nd ref="4864459396"/>
    <nd ref="333261966"/>
    <nd ref="658756923"/>
    <nd ref="333261964"/>
    <nd ref="4864459395"/>
    <nd ref="333261963"/>
    <nd ref="4864459394"/>
    <nd ref="4864459393"/>
    <nd ref="4864459392"/>
    <nd ref="333261962"/>
    <nd ref="658756922"/>
    <nd ref="4864459391"/>
    <nd ref="333261960"/>
    <nd ref="4864459390"/>
    <nd ref="658756921"/>
    <nd ref="333261959"/>
    <tag k="highway" v="tertiary"/>
    <tag k="lit" v="no"/>
    <tag k="maxspeed" v="60 mph"/>
    <tag k="maxspeed:type" v="GB:nsl_single"/>
    <tag k="name" v="Staythorpe Road"/>
    <tag k="source" v="GPS"/>
    <tag k="source:name" v="OS_OpenData_Locator"/>
  </way>
  <way id="227149581" version="4" timestamp="2025-05-30T15:57:48Z" changeset="166979647" uid="6714692" user="Fingrmouse">
    <nd ref="12875618211"/>
    <nd ref="12875618253"/>
    <nd ref="2358804000"/>
    <nd ref="12875618210"/>
    <nd ref="12875618209"/>
    <nd ref="2358803993"/>
    <nd ref="12775246753"/>
    <nd ref="2358804003"/>
    <tag k="highway" v="residential"/>
    <tag k="name" v="Hopwass Close"/>
    <tag k="source:name" v="OS_OpenData_Locator"/>
  </way>
  <way id="227354775" version="11" timestamp="2025-07-11T13:18:01Z" changeset="168796444" uid="5359" user="user_5359">
    <nd ref="267426617"/>
    <nd ref="3427671102"/>
    <nd ref="12880878895"/>
    <nd ref="8790364122"/>
    <nd ref="8790364121"/>
    <nd ref="8790364120"/>
    <nd ref="3427671101"/>
    <nd ref="8790364118"/>
    <nd ref="267426619"/>
    <tag k="highway" v="primary"/>
    <tag k="lit" v="yes"/>
    <tag k="maxspeed" v="50 mph"/>
    <tag k="name" v="Main Road"/>
    <tag k="oneway" v="no"/>
    <tag k="ref" v="A612"/>
    <tag k="source" v="survey"/>
    <tag k="source:name" v="OS_OpenData_Locator"/>
    <tag k="source:ref" v="voice"/>
    <tag k="wikipedia" v="en:A612 road"/>
  </way>
  <way id="295896187" version="3" timestamp="2017-02-05T21:10:19Z" changeset="45839570" uid="2762871" user="Sam888">
    <nd ref="503706933"/>
    <nd ref="503704974"/>
    <tag k="highway" v="trunk"/>
    <tag k="lit" v="no"/>
    <tag k="maxspeed" v="50 mph"/>
    <tag k="oneway" v="no"/>
    <tag k="ref" v="A617"/>
    <tag k="source" v="GPS"/>
  </way>
  <way id="295896203" version="9" timestamp="2025-06-03T11:54:49Z" changeset="167132047" uid="6714692" user="Fingrmouse">
    <nd ref="503704974"/>
    <nd ref="8656271449"/>
    <nd ref="658756131"/>
    <nd ref="8656271450"/>
    <nd ref="366391156"/>
    <nd ref="8656271451"/>
    <nd ref="253632870"/>
    <nd ref="665685874"/>
    <nd ref="8656271452"/>
    <nd ref="658756142"/>
    <nd ref="12883406721"/>
    <nd ref="8656271453"/>
    <nd ref="658756144"/>
    <nd ref="8656271454"/>
    <nd ref="366391164"/>
    <nd ref="12883406720"/>
    <nd ref="12883406719"/>
    <nd ref="658756147"/>
    <nd ref="12883406718"/>
    <nd ref="6902401549"/>
    <nd ref="366391168"/>
    <nd ref="12880888425"/>
    <nd ref="8656271455"/>
    <nd ref="8656271456"/>
    <nd ref="8360203692"/>
    <nd ref="4596624412"/>
    <tag k="highway" v="trunk"/>
    <tag k="lit" v="no"/>
    <tag k="maxspeed" v="50 mph"/>
    <tag k="oneway" v="no"/>
    <tag k="ref" v="A617"/>
    <tag k="source" v="GPS"/>
  </way>
  <way id="390322920" version="8" timestamp="2025-05-30T18:15:43Z" changeset="166985076" uid="6714692" user="Fingrmouse">
    <nd ref="8012206644"/>
    <nd ref="12875773822"/>
    <nd ref="12875773819"/>
    <nd ref="12875773574"/>
    <nd ref="12875773817"/>
    <nd ref="12875773575"/>
    <nd ref="12875773813"/>
    <nd ref="12875773809"/>
    <nd ref="8012206645"/>
    <nd ref="12875845136"/>
    <nd ref="8359752156"/>
    <nd ref="8359752151"/>
    <nd ref="6905027514"/>
    <nd ref="8359752163"/>
    <nd ref="12875773579"/>
    <nd ref="12875773578"/>
    <nd ref="503698641"/>
    <nd ref="12875774141"/>
    <nd ref="8359752147"/>
    <nd ref="503698698"/>
    <nd ref="12875774137"/>
    <nd ref="324365008"/>
    <nd ref="324365237"/>
    <nd ref="1210373771"/>
    <nd ref="12875773804"/>
    <nd ref="12875773770"/>
    <nd ref="324368680"/>
    <tag k="highway" v="residential"/>
    <tag k="maxspeed" v="30 mph"/>
    <tag k="source" v="npe"/>
  </way>
  <way id="419450127" version="6" timestamp="2025-08-24T20:40:48Z" changeset="170944858" uid="8857" user="philipcullen">
    <nd ref="4195088879"/>
    <nd ref="4195088877"/>
    <nd ref="12875845434"/>
    <nd ref="12875845435"/>
    <nd ref="4195088884"/>
    <nd ref="12875845436"/>
    <nd ref="12875845437"/>
    <nd ref="12875845438"/>
    <nd ref="12875845439"/>
    <nd ref="4195088881"/>
    <nd ref="4195088887"/>
    <nd ref="4195088886"/>
    <nd ref="12875845432"/>
    <nd ref="12875845433"/>
    <nd ref="4195088879"/>
    <tag k="amenity" v="place_of_worship"/>
    <tag k="building" v="church"/>
    <tag k="denomination" v="anglican"/>
    <tag k="name" v="St Michael and All Angels"/>
    <tag k="ref:GB:uprn" v="10002308654"/>
    <tag k="ref:dove" v="14142"/>
    <tag k="religion" v="christian"/>
    <tag k="wikidata" v="Q5117305"/>
    <tag k="wikipedia" v="en:Church of St Michael and All Angels, Averham"/>
  </way>
  <way id="464566853" version="2" timestamp="2021-04-08T01:48:23Z" changeset="102512750" uid="5443821" user="◪ Jarv">
    <nd ref="4596624412"/>
    <nd ref="8604462252"/>
    <nd ref="8604462243"/>
    <nd ref="267426617"/>
    <tag k="highway" v="trunk"/>
    <tag k="lanes" v="2"/>
    <tag k="lit" v="yes"/>
    <tag k="maxspeed" v="50 mph"/>
    <tag k="oneway" v="no"/>
    <tag k="ref" v="A617"/>
    <tag k="source" v="GPS"/>
    <tag k="surface" v="asphalt"/>
  </way>
  <way id="472408386" version="3" timestamp="2025-04-22T10:01:54Z" changeset="165276522" uid="5229644" user="Nathan_A_RF">
    <nd ref="333261959"/>
    <nd ref="8656271463"/>
    <nd ref="8656271462"/>
    <tag k="highway" v="tertiary"/>
    <tag k="lit" v="yes"/>
    <tag k="maxspeed" v="60 mph"/>
    <tag k="maxspeed:type" v="GB:nsl_single"/>
    <tag k="name" v="Staythorpe Road"/>
    <tag k="source" v="GPS"/>
    <tag k="source:name" v="OS_OpenData_Locator"/>
  </way>
  <way id="472408387" version="10" timestamp="2025-07-11T13:18:01Z" changeset="168796444" uid="5359" user="user_5359">
    <nd ref="267426619"/>
    <nd ref="8790364116"/>
    <nd ref="8790364114"/>
    <nd ref="12880964639"/>
    <nd ref="8790364112"/>
    <nd ref="8790364111"/>
    <nd ref="267426620"/>
    <nd ref="8790364110"/>
    <nd ref="267426621"/>
    <nd ref="8790364109"/>
    <nd ref="8790364108"/>
    <nd ref="267426622"/>
    <nd ref="8790364107"/>
    <nd ref="267426623"/>
    <nd ref="8790364106"/>
    <nd ref="7099468091"/>
    <nd ref="267426624"/>
    <nd ref="8790364105"/>
    <nd ref="4666202669"/>
    <nd ref="8790364104"/>
    <nd ref="8790364094"/>
    <nd ref="267426625"/>
    <nd ref="8790364093"/>
    <nd ref="267426626"/>
    <nd ref="12880968957"/>
    <nd ref="267426627"/>
    <nd ref="267426628"/>
    <tag k="highway" v="primary"/>
    <tag k="lit" v="no"/>
    <tag k="maxspeed" v="50 mph"/>
    <tag k="name" v="Main Road"/>
    <tag k="oneway" v="no"/>
    <tag k="ref" v="A612"/>
    <tag k="source" v="survey"/>
    <tag k="source:name" v="OS_OpenData_Locator"/>
    <tag k="source:ref" v="voice"/>
    <tag k="wikipedia" v="en:A612 road"/>
  </way>
  <way id="1100744404" version="2" timestamp="2025-06-02T12:45:08Z" changeset="167090688" uid="6714692" user="Fingrmouse">
    <nd ref="267426617"/>
    <nd ref="8604462244"/>
    <nd ref="233180"/>
    <nd ref="8604462264"/>
    <nd ref="12880878877"/>
    <nd ref="12880878878"/>
    <nd ref="8656271457"/>
    <nd ref="233179"/>
    <nd ref="8656271458"/>
    <nd ref="8656271459"/>
    <nd ref="233178"/>
    <nd ref="8656271460"/>
    <nd ref="4666202668"/>
    <nd ref="8604462251"/>
    <nd ref="233177"/>
    <nd ref="12880878835"/>
    <nd ref="8656271461"/>
    <nd ref="3425541959"/>
    <nd ref="333261577"/>
    <nd ref="8656271462"/>
    <tag k="highway" v="trunk"/>
    <tag k="lit" v="yes"/>
    <tag k="maxspeed" v="50 mph"/>
    <tag k="name" v="Main Road"/>
    <tag k="ref" v="A617"/>
    <tag k="source:name" v="OS OpenData StreetView"/>
  </way>
  <way id="1379820708" version="1" timestamp="2025-04-22T10:01:54Z" changeset="165276522" uid="5229644" user="Nathan_A_RF">
    <nd ref="12775246755"/>
    <nd ref="12775246756"/>
    <tag k="highway" v="unclassified"/>
  </way>
  <way id="1390985800" version="1" timestamp="2025-05-30T15:57:48Z" changeset="166979647" uid="6714692" user="Fingrmouse">
    <nd ref="324365007"/>
    <nd ref="8012206644"/>
    <tag k="highway" v="unclassified"/>
    <tag k="maxspeed" v="30 mph"/>
    <tag k="source" v="npe"/>
  </way>
  <way id="1390985804" version="1" timestamp="2025-05-30T15:57:48Z" changeset="166979647" uid="6714692" user="Fingrmouse">
    <nd ref="2358804000"/>
    <nd ref="12875618212"/>
    <tag k="highway" v="residential"/>
    <tag k="name" v="Hopwass Close"/>
  </way>
  <way id="1391004648" version="1" timestamp="2025-05-30T17:40:58Z" changeset="166983859" uid="6714692" user="Fingrmouse">
    <nd ref="12875773554"/>
    <nd ref="12875773555"/>
    <tag k="highway" v="residential"/>
    <tag k="name" v="Ayrshire Way"/>
  </way>

</osm>
