<?xml version="1.0" encoding="UTF-8"?>
<osm version="0.6" generator="Overpass API 0.7.62.8 e802775f">
<note>The data included in this document is from www.openstreetmap.org. The data is made available under ODbL.</note>
<meta osm_base="2025-10-23T17:41:00Z" areas="2025-10-23T12:46:58Z"/>

  <node id="153403636" lat="52.9502482" lon="-0.8252506" version="13" timestamp="2020-07-25T08:25:14Z" changeset="88489066" uid="84075" user="kevjs1982"/>
  <node id="256777188" lat="52.9677521" lon="-0.8359405" version="5" timestamp="2016-03-05T11:12:16Z" changeset="37625153" uid="1431482" user="JonOrchard"/>
  <node id="282317800" lat="52.9741812" lon="-0.8150095" version="8" timestamp="2014-01-01T13:38:28Z" changeset="19744825" uid="8857" user="philipcullen"/>
  <node id="282317801" lat="52.9722880" lon="-0.8192750" version="9" timestamp="2012-12-03T12:13:25Z" changeset="14137599" uid="61942" user="SomeoneElse"/>
  <way id="20424755" version="17" timestamp="2021-06-07T15:26:34Z" changeset="105981501" uid="3199858" user="Mateusz Konieczny - bot account">
    <nd ref="153403636"/>
    <nd ref="2604434669"/>
    <nd ref="217966071"/>
    <nd ref="4021911180"/>
    <nd ref="217966073"/>
    <nd ref="2604434673"/>
    <nd ref="217966074"/>
    <nd ref="217966076"/>
    <nd ref="4720902862"/>
    <nd ref="217966078"/>
    <nd ref="256777207"/>
    <nd ref="256777208"/>
    <nd ref="256777198"/>
    <nd ref="256777197"/>
    <nd ref="1149303339"/>
    <nd ref="256777196"/>
    <nd ref="256777195"/>
    <nd ref="256777194"/>
    <nd ref="256777193"/>
    <nd ref="256777192"/>
    <nd ref="256777191"/>
    <nd ref="483744234"/>
    <nd ref="2604434680"/>
    <nd ref="1149303308"/>
    <nd ref="706100159"/>
    <tag k="highway" v="unclassified"/>
    <tag k="name" v="Longhedge Lane"/>
  </way>
  <way id="25880838" version="20" timestamp="2021-08-11T11:12:09Z" changeset="109511850" uid="11558580" user="jaabhil">
    <nd ref="282317801"/>
    <nd ref="2604434712"/>
    <nd ref="2604434715"/>
    <nd ref="282317971"/>
    <nd ref="2604434727"/>
    <nd ref="282317972"/>
    <nd ref="2604434732"/>
    <nd ref="2604434733"/>
    <nd ref="282317973"/>
    <nd ref="2604434735"/>
    <nd ref="2604434736"/>
    <nd ref="2604434739"/>
    <nd ref="2604434740"/>
    <nd ref="282317974"/>
    <nd ref="2604434743"/>
    <nd ref="282317975"/>
    <nd ref="2604434749"/>
    <nd ref="2604434752"/>
    <nd ref="2604434751"/>
    <nd ref="2604434750"/>
    <nd ref="2604434747"/>
    <nd ref="282317976"/>
    <nd ref="2604434744"/>
    <nd ref="2604434741"/>
    <nd ref="2604434742"/>
    <nd ref="2604434745"/>
    <nd ref="371229173"/>
    <nd ref="2604434754"/>
    <nd ref="2604434755"/>
    <nd ref="371229174"/>
    <nd ref="8998455319"/>
    <nd ref="2604434764"/>
    <nd ref="2604434767"/>
    <nd ref="8998455324"/>
    <nd ref="2604434769"/>
    <nd ref="2604434772"/>
    <nd ref="8998428113"/>
    <nd ref="2604434775"/>
    <tag k="highway" v="tertiary"/>
    <tag k="name" v="Longhedge Lane"/>
    <tag k="source:name" v="OS OpenData StreetView"/>
  </way>
  <way id="32963895" version="11" timestamp="2022-11-25T17:55:24Z" changeset="129378301" uid="493595" user="Yorvik Prestigitator">
    <nd ref="282317802"/>
    <nd ref="10218259224"/>
    <nd ref="2604434703"/>
    <nd ref="286952298"/>
    <nd ref="2604434700"/>
    <nd ref="2604434697"/>
    <nd ref="282318123"/>
    <nd ref="2604434694"/>
    <nd ref="2604434692"/>
    <nd ref="2604434689"/>
    <nd ref="2604434688"/>
    <nd ref="282317805"/>
    <nd ref="2604434687"/>
    <nd ref="2604434686"/>
    <nd ref="2604434685"/>
    <nd ref="2604434684"/>
    <nd ref="706100159"/>
    <tag k="highway" v="tertiary"/>
  </way>
  <way id="32963896" version="16" timestamp="2022-11-25T17:55:24Z" changeset="129378301" uid="493595" user="Yorvik Prestigitator">
    <nd ref="282317800"/>
    <nd ref="2604434730"/>
    <nd ref="706100167"/>
    <nd ref="2604434725"/>
    <nd ref="706100173"/>
    <nd ref="2604434722"/>
    <nd ref="2604434718"/>
    <nd ref="8254824686"/>
    <nd ref="2604434710"/>
    <nd ref="6538867227"/>
    <nd ref="282317801"/>
    <nd ref="10218259220"/>
    <nd ref="10218259229"/>
    <nd ref="6866243453"/>
    <nd ref="706100177"/>
    <nd ref="10218243012"/>
    <nd ref="282317802"/>
    <tag k="highway" v="tertiary"/>
    <tag k="name" v="Main Street"/>
    <tag k="postal_code" v="NG13 9PB"/>
  </way>
  <way id="99366172" version="8" timestamp="2021-06-07T15:26:47Z" changeset="105981501" uid="3199858" user="Mateusz Konieczny - bot account">
    <nd ref="256777188"/>
    <nd ref="4041556622"/>
    <nd ref="4041556621"/>
    <nd ref="256777187"/>
    <nd ref="256777186"/>
    <nd ref="256777185"/>
    <nd ref="7987006753"/>
    <nd ref="4041556625"/>
    <nd ref="256777184"/>
    <nd ref="4041556626"/>
    <nd ref="4041556627"/>
    <nd ref="256777183"/>
    <nd ref="4041556628"/>
    <nd ref="4041556629"/>
    <nd ref="256777182"/>
    <nd ref="4041556632"/>
    <nd ref="4041556631"/>
    <nd ref="4041556630"/>
    <nd ref="256777181"/>
    <nd ref="1802734220"/>
    <nd ref="1802734115"/>
    <nd ref="1802733700"/>
    <nd ref="1802733939"/>
    <nd ref="256777180"/>
    <nd ref="1802733664"/>
    <nd ref="1802733674"/>
    <nd ref="1802734057"/>
    <nd ref="256777179"/>
    <tag k="highway" v="tertiary"/>
    <tag k="name" v="Spa Lane"/>
  </way>
  <way id="262426910" version="7" timestamp="2021-06-07T15:26:55Z" changeset="105981501" uid="3199858" user="Mateusz Konieczny - bot account">
    <nd ref="706100159"/>
    <nd ref="6771657660"/>
    <nd ref="6379295461"/>
    <nd ref="1149303196"/>
    <nd ref="2604434682"/>
    <nd ref="2604434683"/>
    <nd ref="6771657650"/>
    <nd ref="256777190"/>
    <nd ref="4041556624"/>
    <nd ref="256777189"/>
    <nd ref="4041556623"/>
    <nd ref="256777188"/>
    <tag k="highway" v="tertiary"/>
    <tag k="name" v="Longhedge Lane"/>
  </way>
  <way id="696312205" version="1" timestamp="2019-06-11T06:21:15Z" changeset="71127510" uid="9310284" user="mudunur">
    <nd ref="6538867227"/>
    <nd ref="6538867228"/>
    <nd ref="6538867229"/>
    <nd ref="6538867230"/>
    <nd ref="6538867231"/>
    <tag k="highway" v="residential"/>
  </way>
  <way id="696312207" version="2" timestamp="2020-12-23T13:37:15Z" changeset="96329819" uid="10205154" user="mundlk">
    <nd ref="6538867231"/>
    <nd ref="8254824694"/>
    <nd ref="6538867235"/>
    <tag k="highway" v="residential"/>
  </way>

</osm>
