<?xml version="1.0" encoding="UTF-8"?>
<osm version="0.6" generator="Overpass API 0.7.62.8 e802775f">
<note>The data included in this document is from www.openstreetmap.org. The data is made available under ODbL.</note>
<meta osm_base="2025-10-23T17:49:02Z" areas="2025-10-23T12:46:58Z"/>

  <node id="175097348" lat="53.3255472" lon="-0.7818080" version="3" timestamp="2025-10-08T15:25:05Z" changeset="173010159" uid="8857" user="philipcullen">
    <tag k="ref:GB:uprn" v="10013979736;10013979725"/>
  </node>
  <node id="175097513" lat="53.3178881" lon="-0.7712592" version="4" timestamp="2025-10-08T15:10:36Z" changeset="173010159" uid="8857" user="philipcullen">
    <tag k="ref:GB:uprn" v="10013979588"/>
  </node>
  <node id="1822379023" lat="53.3084233" lon="-0.7890369" version="2" timestamp="2013-06-11T11:33:15Z" changeset="16508633" uid="1383105" user="Gavrielo"/>
  <node id="1822379030" lat="53.3085859" lon="-0.7852386" version="3" timestamp="2022-07-28T12:46:54Z" changeset="124185579" uid="24119" user="Mauls"/>
  <node id="3156452571" lat="53.3082776" lon="-0.7814539" version="2" timestamp="2022-07-28T12:46:54Z" changeset="124185579" uid="24119" user="Mauls"/>
  <way id="55954925" version="7" timestamp="2020-10-15T11:36:05Z" changeset="92520565" uid="9196106" user="rkumreo">
    <nd ref="175103753"/>
    <nd ref="1672768064"/>
    <nd ref="1672768063"/>
    <nd ref="1672768061"/>
    <nd ref="1672768060"/>
    <nd ref="175103747"/>
    <nd ref="1672768065"/>
    <nd ref="1672768066"/>
    <nd ref="8009611442"/>
    <nd ref="1672768067"/>
    <nd ref="6793228196"/>
    <nd ref="175103744"/>
    <nd ref="1672768068"/>
    <nd ref="175103740"/>
    <nd ref="6793226282"/>
    <nd ref="1672768069"/>
    <nd ref="6793228195"/>
    <nd ref="175103732"/>
    <nd ref="175103638"/>
    <nd ref="3320964956"/>
    <nd ref="175103631"/>
    <nd ref="175103624"/>
    <nd ref="3320966063"/>
    <nd ref="175103615"/>
    <tag k="highway" v="unclassified"/>
    <tag k="name" v="Town Street"/>
    <tag k="source:name" v="OS_OpenData_Locator"/>
  </way>
  <way id="171166590" version="2" timestamp="2013-06-11T11:08:00Z" changeset="16508633" uid="1383105" user="Gavrielo">
    <nd ref="1672768059"/>
    <nd ref="175103763"/>
    <nd ref="1672768062"/>
    <nd ref="175103753"/>
    <tag k="highway" v="unclassified"/>
    <tag k="name" v="Cottam Road"/>
    <tag k="source:name" v="OS_OpenData_Locator"/>
  </way>
  <way id="225231300" version="1" timestamp="2013-06-11T11:07:09Z" changeset="16508633" uid="1383105" user="Gavrielo">
    <nd ref="175097417"/>
    <nd ref="175097423"/>
    <nd ref="175097428"/>
    <nd ref="2167584477"/>
    <nd ref="2167584476"/>
    <nd ref="175097513"/>
    <tag k="highway" v="unclassified"/>
    <tag k="name" v="Headstead Bank"/>
    <tag k="source" v="Bing"/>
    <tag k="source:name" v="OS_OpenData_Locator"/>
  </way>
  <way id="225231313" version="2" timestamp="2021-03-13T07:40:04Z" changeset="100943561" uid="5443821" user="◪ Jarv">
    <nd ref="175103615"/>
    <nd ref="175103606"/>
    <nd ref="175103600"/>
    <nd ref="175103595"/>
    <nd ref="175103503"/>
    <nd ref="8512743064"/>
    <nd ref="175103493"/>
    <nd ref="175103486"/>
    <nd ref="2167584473"/>
    <nd ref="175103479"/>
    <nd ref="175097513"/>
    <tag k="highway" v="unclassified"/>
    <tag k="name" v="Headstead Bank"/>
    <tag k="source:name" v="OS_OpenData_Locator"/>
  </way>
  <way id="225231314" version="4" timestamp="2021-03-13T07:40:04Z" changeset="100943561" uid="5443821" user="◪ Jarv">
    <nd ref="175097348"/>
    <nd ref="2167584508"/>
    <nd ref="175097356"/>
    <nd ref="2167584506"/>
    <nd ref="2167584505"/>
    <nd ref="2167584504"/>
    <nd ref="175097362"/>
    <nd ref="2841774070"/>
    <nd ref="2841768677"/>
    <nd ref="2841774405"/>
    <nd ref="2841774426"/>
    <nd ref="175097370"/>
    <nd ref="175097376"/>
    <nd ref="2841774336"/>
    <nd ref="175097380"/>
    <nd ref="6583668861"/>
    <nd ref="175097385"/>
    <nd ref="175097393"/>
    <nd ref="175097402"/>
    <nd ref="175097408"/>
    <nd ref="8512742992"/>
    <nd ref="175097417"/>
    <tag k="highway" v="unclassified"/>
    <tag k="name" v="Coates Road"/>
    <tag k="source" v="Bing"/>
    <tag k="source:name" v="OS_OpenData_Locator"/>
  </way>
  <way id="225231321" version="4" timestamp="2025-05-09T12:57:44Z" changeset="166027210" uid="22880841" user="Newfield106">
    <nd ref="175097513"/>
    <nd ref="175097519"/>
    <nd ref="175097525"/>
    <nd ref="175097530"/>
    <nd ref="8512743010"/>
    <nd ref="175097531"/>
    <nd ref="2167584478"/>
    <nd ref="175097538"/>
    <nd ref="175097544"/>
    <nd ref="2167584472"/>
    <nd ref="175097548"/>
    <nd ref="175097554"/>
    <nd ref="175097561"/>
    <nd ref="8512742986"/>
    <nd ref="175097567"/>
    <nd ref="175097577"/>
    <nd ref="175097581"/>
    <nd ref="175097590"/>
    <nd ref="175097601"/>
    <nd ref="175097609"/>
    <nd ref="175097615"/>
    <nd ref="175097624"/>
    <nd ref="175097631"/>
    <nd ref="175097640"/>
    <tag k="hgv" v="no"/>
    <tag k="highway" v="unclassified"/>
    <tag k="name" v="Broad Lane"/>
    <tag k="source" v="Bing"/>
  </way>
  <way id="225231413" version="3" timestamp="2022-07-28T12:46:54Z" changeset="124185579" uid="24119" user="Mauls">
    <nd ref="3156452571"/>
    <nd ref="3156452572"/>
    <tag k="bridge" v="yes"/>
    <tag k="highway" v="tertiary"/>
    <tag k="layer" v="1"/>
    <tag k="name" v="Cottam Road"/>
    <tag k="source:bridge" v="Bing"/>
    <tag k="source:name" v="OS_OpenData_Locator;OS_OpenData_Streetview"/>
  </way>
  <way id="225233401" version="1" timestamp="2013-06-11T11:33:14Z" changeset="16508633" uid="1383105" user="Gavrielo">
    <nd ref="1822379030"/>
    <nd ref="1453537469"/>
    <nd ref="366140622"/>
    <tag k="highway" v="tertiary"/>
    <tag k="name" v="Outgang Lane"/>
    <tag k="source:name" v="OS_OpenData_Streetview"/>
  </way>
  <way id="225233403" version="3" timestamp="2021-03-14T07:18:19Z" changeset="100978629" uid="5443821" user="◪ Jarv">
    <nd ref="1822379023"/>
    <nd ref="8515995358"/>
    <nd ref="1822379029"/>
    <nd ref="1822374235"/>
    <nd ref="1822379030"/>
    <tag k="highway" v="tertiary"/>
    <tag k="name" v="Outgang Lane"/>
    <tag k="source:name" v="OS_OpenData_Locator"/>
  </way>
  <way id="310247478" version="2" timestamp="2015-01-30T15:38:16Z" changeset="28507096" uid="2020484" user="Nigel Greens">
    <nd ref="3156452572"/>
    <nd ref="702398666"/>
    <nd ref="3320952488"/>
    <nd ref="1672768058"/>
    <nd ref="1672768059"/>
    <tag k="highway" v="tertiary"/>
    <tag k="name" v="Cottam Road"/>
    <tag k="source:name" v="OS_OpenData_Locator"/>
  </way>
  <way id="916556470" version="1" timestamp="2021-03-13T07:40:04Z" changeset="100943561" uid="5443821" user="◪ Jarv">
    <nd ref="175103753"/>
    <nd ref="8512743026"/>
    <tag k="highway" v="residential"/>
    <tag k="name" v="Treswill Marsh Road"/>
  </way>

</osm>
