<?xml version="1.0" encoding="UTF-8"?>
<osm version="0.6" generator="Overpass API 0.7.62.8 e802775f">
<note>The data included in this document is from www.openstreetmap.org. The data is made available under ODbL.</note>
<meta osm_base="2025-10-23T17:36:51Z" areas="2025-10-23T12:46:58Z"/>

  <node id="307420044" lat="53.1455122" lon="-0.9377455" version="17" timestamp="2010-11-14T21:42:48Z" changeset="6370957" uid="84681" user="SK53"/>
  <node id="665685866" lat="53.1329775" lon="-0.9120720" version="2" timestamp="2011-12-07T18:38:49Z" changeset="10059901" uid="61942" user="SomeoneElse"/>
  <node id="1535576318" lat="53.1461366" lon="-0.9379307" version="1" timestamp="2011-12-07T18:38:44Z" changeset="10059901" uid="61942" user="SomeoneElse"/>
  <node id="3704844625" lat="53.1223494" lon="-0.9416304" version="2" timestamp="2017-01-08T13:45:56Z" changeset="44998218" uid="84681" user="SK53"/>
  <way id="42831388" version="5" timestamp="2019-03-13T15:08:57Z" changeset="68103291" uid="9196095" user="mhdrahm">
    <nd ref="535864271"/>
    <nd ref="535864307"/>
    <nd ref="535864334"/>
    <nd ref="6335675083"/>
    <nd ref="1596956792"/>
    <nd ref="535864356"/>
    <nd ref="535864381"/>
    <nd ref="1734674720"/>
    <nd ref="535864402"/>
    <nd ref="535864424"/>
    <tag k="highway" v="residential"/>
    <tag k="maxspeed" v="30 mph"/>
    <tag k="name" v="Church Lane"/>
    <tag k="oneway" v="no"/>
  </way>
  <way id="85333314" version="16" timestamp="2022-03-09T22:12:26Z" changeset="118296305" uid="242345" user="confusedbuffalo">
    <nd ref="307420044"/>
    <nd ref="1535576318"/>
    <nd ref="1535576314"/>
    <nd ref="1535576315"/>
    <nd ref="1535576316"/>
    <nd ref="1535576367"/>
    <nd ref="1535576320"/>
    <nd ref="1535576331"/>
    <nd ref="1535576322"/>
    <nd ref="1535576332"/>
    <nd ref="1535576333"/>
    <nd ref="1535576335"/>
    <nd ref="3253865453"/>
    <nd ref="1535576334"/>
    <nd ref="988363728"/>
    <nd ref="3252695495"/>
    <nd ref="3252710283"/>
    <nd ref="535860895"/>
    <nd ref="1535576340"/>
    <nd ref="3298706662"/>
    <nd ref="1535576350"/>
    <nd ref="1460900246"/>
    <nd ref="6488805311"/>
    <nd ref="1535576370"/>
    <nd ref="1535576352"/>
    <nd ref="1535576355"/>
    <nd ref="1535576353"/>
    <nd ref="1535576354"/>
    <nd ref="1535576358"/>
    <nd ref="1535576356"/>
    <nd ref="803665020"/>
    <nd ref="1535576357"/>
    <nd ref="1535576390"/>
    <nd ref="1535576377"/>
    <nd ref="803665028"/>
    <nd ref="1535576372"/>
    <nd ref="1535576388"/>
    <nd ref="803665032"/>
    <nd ref="1535576375"/>
    <nd ref="1535576376"/>
    <nd ref="1535576378"/>
    <nd ref="1535576379"/>
    <nd ref="1535576392"/>
    <nd ref="1535576395"/>
    <tag k="highway" v="tertiary"/>
    <tag k="lit" v="no"/>
    <tag k="maxspeed" v="60 mph"/>
    <tag k="maxspeed:type" v="GB:nsl_single"/>
    <tag k="sidewalk" v="no"/>
    <tag k="width" v="4"/>
  </way>
  <way id="85333331" version="8" timestamp="2021-04-10T00:57:21Z" changeset="102675672" uid="5443821" user="◪ Jarv">
    <nd ref="1556514757"/>
    <nd ref="989286217"/>
    <nd ref="989286222"/>
    <nd ref="989286226"/>
    <nd ref="989286231"/>
    <nd ref="989286235"/>
    <nd ref="7298939974"/>
    <nd ref="989286238"/>
    <tag k="highway" v="residential"/>
    <tag k="lit" v="yes"/>
    <tag k="maxspeed" v="30 mph"/>
    <tag k="source" v="GPS"/>
  </way>
  <way id="140161272" version="7" timestamp="2022-03-09T22:12:26Z" changeset="118296305" uid="242345" user="confusedbuffalo">
    <nd ref="1535576318"/>
    <nd ref="1535576313"/>
    <nd ref="3704812323"/>
    <nd ref="324372530"/>
    <nd ref="3704812272"/>
    <nd ref="324372531"/>
    <nd ref="1535576374"/>
    <nd ref="535860575"/>
    <nd ref="3253376849"/>
    <nd ref="3239960985"/>
    <nd ref="324372532"/>
    <tag k="highway" v="unclassified"/>
    <tag k="lit" v="no"/>
    <tag k="maxspeed" v="60 mph"/>
    <tag k="maxspeed:type" v="GB:nsl_single"/>
    <tag k="sidewalk" v="no"/>
    <tag k="source:highway" v="survey"/>
    <tag k="source:ref" v="survey"/>
  </way>
  <way id="142217264" version="9" timestamp="2022-05-11T16:54:20Z" changeset="120850206" uid="5589" user="user_5589">
    <nd ref="989287011"/>
    <nd ref="989286322"/>
    <nd ref="1556514763"/>
    <nd ref="1556514764"/>
    <nd ref="1556514757"/>
    <tag k="highway" v="residential"/>
    <tag k="maxspeed" v="30 mph"/>
    <tag k="name" v="Winkburn Lane"/>
    <tag k="oneway" v="no"/>
    <tag k="sidewalk" v="no"/>
    <tag k="source" v="survey"/>
  </way>
  <way id="161571082" version="7" timestamp="2022-05-11T16:54:20Z" changeset="120850206" uid="5589" user="user_5589">
    <nd ref="1735399139"/>
    <nd ref="1735399116"/>
    <nd ref="1735399104"/>
    <nd ref="324371970"/>
    <nd ref="1735399109"/>
    <tag k="highway" v="unclassified"/>
    <tag k="maxspeed" v="30 mph"/>
    <tag k="sidewalk" v="no"/>
    <tag k="source" v="GPS"/>
  </way>
  <way id="161571086" version="5" timestamp="2017-04-22T08:26:17Z" changeset="48025594" uid="133272" user="wongataa">
    <nd ref="324371904"/>
    <nd ref="324371969"/>
    <nd ref="1735399135"/>
    <nd ref="1735399099"/>
    <nd ref="1735412835"/>
    <nd ref="1735399113"/>
    <tag k="highway" v="unclassified"/>
    <tag k="maxspeed" v="60 mph"/>
    <tag k="maxspeed:type" v="GB:nsl_single"/>
    <tag k="source" v="View from SW;Bing"/>
    <tag k="source:maxspeed" v="survey"/>
  </way>
  <way id="161571087" version="5" timestamp="2017-04-22T08:26:17Z" changeset="48025594" uid="133272" user="wongataa">
    <nd ref="1735399113"/>
    <nd ref="1735399139"/>
    <tag k="highway" v="unclassified"/>
    <tag k="maxspeed" v="60 mph"/>
    <tag k="maxspeed:type" v="GB:nsl_single"/>
    <tag k="source" v="GPS"/>
    <tag k="source:maxspeed" v="survey"/>
  </way>
  <way id="161571088" version="3" timestamp="2021-08-11T22:42:10Z" changeset="109539583" uid="493595" user="Yorvik Prestigitator">
    <nd ref="535864424"/>
    <nd ref="8999755922"/>
    <nd ref="1556514757"/>
    <tag k="highway" v="residential"/>
    <tag k="maxspeed" v="30 mph"/>
    <tag k="source" v="GPS"/>
  </way>
  <way id="161572133" version="7" timestamp="2022-05-11T16:54:20Z" changeset="120850206" uid="5589" user="user_5589">
    <nd ref="1735399109"/>
    <nd ref="1735399121"/>
    <nd ref="1735412836"/>
    <tag k="highway" v="residential"/>
    <tag k="maxspeed" v="30 mph"/>
    <tag k="sidewalk" v="left"/>
    <tag k="source" v="GPS"/>
  </way>
  <way id="161572137" version="8" timestamp="2022-05-11T16:54:20Z" changeset="120850206" uid="5589" user="user_5589">
    <nd ref="1735412836"/>
    <nd ref="1735399118"/>
    <nd ref="324371971"/>
    <nd ref="7353232851"/>
    <nd ref="1735412834"/>
    <nd ref="535864424"/>
    <tag k="highway" v="residential"/>
    <tag k="maxspeed" v="30 mph"/>
    <tag k="sidewalk" v="right"/>
    <tag k="source" v="GPS"/>
  </way>
  <way id="196940080" version="8" timestamp="2022-03-09T22:12:26Z" changeset="118296305" uid="242345" user="confusedbuffalo">
    <nd ref="665685866"/>
    <nd ref="6622422963"/>
    <nd ref="988363877"/>
    <nd ref="324371897"/>
    <nd ref="324371898"/>
    <nd ref="1535576299"/>
    <nd ref="324371899"/>
    <nd ref="1535576297"/>
    <nd ref="1535576394"/>
    <nd ref="665685867"/>
    <nd ref="324371900"/>
    <nd ref="665685868"/>
    <nd ref="324371901"/>
    <nd ref="1535576304"/>
    <nd ref="324371902"/>
    <nd ref="1535576302"/>
    <nd ref="803665236"/>
    <nd ref="665685869"/>
    <nd ref="1735386782"/>
    <nd ref="324371903"/>
    <nd ref="1735386784"/>
    <nd ref="1535576312"/>
    <nd ref="324371904"/>
    <nd ref="665685870"/>
    <nd ref="7205188076"/>
    <nd ref="989287452"/>
    <nd ref="989287454"/>
    <nd ref="324371905"/>
    <nd ref="989287461"/>
    <nd ref="665685871"/>
    <nd ref="324371906"/>
    <nd ref="1734674758"/>
    <nd ref="1734674752"/>
    <nd ref="988363713"/>
    <nd ref="324371908"/>
    <nd ref="3253879538"/>
    <nd ref="307420044"/>
    <tag k="highway" v="tertiary"/>
    <tag k="lit" v="no"/>
    <tag k="maxspeed" v="60 mph"/>
    <tag k="oneway" v="no"/>
    <tag k="sidewalk" v="no"/>
    <tag k="source" v="GPS"/>
  </way>
  <way id="227312067" version="6" timestamp="2022-03-09T22:12:26Z" changeset="118296305" uid="242345" user="confusedbuffalo">
    <nd ref="989286253"/>
    <nd ref="307420042"/>
    <nd ref="989286258"/>
    <nd ref="8384412261"/>
    <nd ref="989286259"/>
    <tag k="highway" v="unclassified"/>
    <tag k="lit" v="no"/>
    <tag k="maxspeed" v="30 mph"/>
    <tag k="name" v="The Hollows"/>
    <tag k="sidewalk" v="no"/>
    <tag k="source" v="GPS"/>
    <tag k="source:name" v="OS_OpenData_Locator"/>
  </way>
  <way id="317703134" version="3" timestamp="2021-04-10T00:57:21Z" changeset="102675672" uid="5443821" user="◪ Jarv">
    <nd ref="989286238"/>
    <nd ref="989286243"/>
    <nd ref="989286244"/>
    <nd ref="989286248"/>
    <tag k="highway" v="residential"/>
    <tag k="lit" v="no"/>
    <tag k="maxspeed" v="30 mph"/>
    <tag k="source" v="GPS"/>
  </way>
  <way id="317703135" version="4" timestamp="2021-04-10T00:57:21Z" changeset="102675672" uid="5443821" user="◪ Jarv">
    <nd ref="989286248"/>
    <nd ref="7984428973"/>
    <nd ref="989286250"/>
    <tag k="highway" v="residential"/>
    <tag k="lit" v="yes"/>
    <tag k="maxspeed" v="30 mph"/>
    <tag k="source" v="GPS"/>
  </way>
  <way id="317703137" version="3" timestamp="2021-04-10T00:57:21Z" changeset="102675672" uid="5443821" user="◪ Jarv">
    <nd ref="989286250"/>
    <nd ref="989286253"/>
    <tag k="highway" v="residential"/>
    <tag k="lit" v="no"/>
    <tag k="maxspeed" v="30 mph"/>
    <tag k="source" v="GPS"/>
  </way>
  <way id="318981863" version="2" timestamp="2022-03-09T22:12:31Z" changeset="118296305" uid="242345" user="confusedbuffalo">
    <nd ref="989286259"/>
    <nd ref="989286261"/>
    <nd ref="989286266"/>
    <nd ref="989286269"/>
    <nd ref="307420043"/>
    <nd ref="989286281"/>
    <nd ref="1596956910"/>
    <nd ref="307427389"/>
    <nd ref="989286287"/>
    <nd ref="989286290"/>
    <nd ref="307427390"/>
    <nd ref="535861996"/>
    <nd ref="307427391"/>
    <nd ref="3253871644"/>
    <nd ref="307420044"/>
    <tag k="highway" v="unclassified"/>
    <tag k="lit" v="no"/>
    <tag k="maxspeed" v="60 mph"/>
    <tag k="maxspeed:type" v="GB:nsl_single"/>
    <tag k="name" v="The Hollows"/>
    <tag k="sidewalk" v="no"/>
    <tag k="source" v="GPS"/>
    <tag k="source:name" v="OS_OpenData_Locator"/>
  </way>
  <way id="464533066" version="8" timestamp="2023-06-23T09:27:09Z" changeset="137680224" uid="242345" user="confusedbuffalo">
    <nd ref="3704844625"/>
    <nd ref="989286793"/>
    <nd ref="989286339"/>
    <nd ref="989286797"/>
    <nd ref="989286800"/>
    <nd ref="989286805"/>
    <nd ref="989286807"/>
    <nd ref="989286810"/>
    <nd ref="989286814"/>
    <nd ref="989286816"/>
    <nd ref="989286817"/>
    <nd ref="989286820"/>
    <nd ref="989286825"/>
    <nd ref="6784596663"/>
    <nd ref="989286831"/>
    <nd ref="1556514752"/>
    <nd ref="989286841"/>
    <nd ref="7975913163"/>
    <nd ref="989286845"/>
    <nd ref="535865854"/>
    <nd ref="1556514759"/>
    <nd ref="989286875"/>
    <nd ref="989286878"/>
    <nd ref="989286885"/>
    <nd ref="1483961333"/>
    <nd ref="989286893"/>
    <nd ref="1556514760"/>
    <nd ref="989286912"/>
    <nd ref="989286926"/>
    <nd ref="1556514746"/>
    <nd ref="1556514743"/>
    <nd ref="989286947"/>
    <nd ref="989286952"/>
    <nd ref="8613732089"/>
    <nd ref="989286968"/>
    <nd ref="989286973"/>
    <nd ref="535866057"/>
    <nd ref="1596394816"/>
    <nd ref="1596397874"/>
    <nd ref="989286994"/>
    <nd ref="989287004"/>
    <nd ref="989287011"/>
    <tag k="highway" v="unclassified"/>
    <tag k="maxspeed" v="60 mph"/>
    <tag k="maxspeed:type" v="GB:nsl_single"/>
    <tag k="name" v="Winkburn Lane"/>
    <tag k="oneway" v="no"/>
    <tag k="sidewalk" v="no"/>
    <tag k="source" v="survey"/>
  </way>
  <way id="867990131" version="2" timestamp="2023-11-30T19:38:03Z" changeset="144637853" uid="504708" user="HillWithSmallFields">
    <nd ref="989286125"/>
    <nd ref="8090665072"/>
    <nd ref="8090665078"/>
    <nd ref="8090665071"/>
    <nd ref="989286125"/>
    <tag k="amenity" v="place_of_worship"/>
    <tag k="building" v="church"/>
    <tag k="denomination" v="anglican"/>
    <tag k="name" v="St Radegund's Church"/>
    <tag k="ref:dove" v="16584"/>
    <tag k="religion" v="christian"/>
    <tag k="source" v="survey"/>
    <tag k="source:name" v="NaPTAN"/>
    <tag k="wikidata" v="Q15979504"/>
  </way>
  <way id="891500232" version="2" timestamp="2024-11-22T13:18:03Z" changeset="159458542" uid="95856" user="⇄ john paul jones &amp; gringo">
    <nd ref="8286224955"/>
    <nd ref="8286224956"/>
    <nd ref="8286224957"/>
    <nd ref="8286224958"/>
    <nd ref="8286224955"/>
    <tag k="addr:city" v="Newark"/>
    <tag k="addr:country" v="GB"/>
    <tag k="addr:housename" v="Old Vicarage"/>
    <tag k="addr:postcode" v="NG22 0BS"/>
    <tag k="addr:suburb" v="Maplebeck"/>
    <tag k="architect" v="Thomas Chambers Hine"/>
    <tag k="building" v="house"/>
    <tag k="name" v="Old Vicarage"/>
    <tag k="start_date" v="1849"/>
  </way>
  <way id="891502179" version="3" timestamp="2024-11-22T13:18:03Z" changeset="159458542" uid="95856" user="⇄ john paul jones &amp; gringo">
    <nd ref="8286244437"/>
    <nd ref="8286244438"/>
    <nd ref="8286244439"/>
    <nd ref="8286244440"/>
    <nd ref="8999755938"/>
    <nd ref="8999755939"/>
    <nd ref="8999755940"/>
    <nd ref="8999755937"/>
    <nd ref="8286244437"/>
    <tag k="addr:city" v="Newark"/>
    <tag k="addr:country" v="GB"/>
    <tag k="addr:housename" v="Village Hall"/>
    <tag k="addr:postcode" v="NG22 0BS"/>
    <tag k="addr:street" v="Main Street"/>
    <tag k="addr:suburb" v="Maplebeck"/>
    <tag k="amenity" v="community_centre"/>
    <tag k="building" v="public"/>
    <tag k="community_centre" v="village_hall"/>
    <tag k="name" v="Maplebeck Village Hall"/>
    <tag k="start_date" v="2015"/>
  </way>
  <way id="891505073" version="2" timestamp="2024-11-22T13:33:15Z" changeset="159459253" uid="95856" user="⇄ john paul jones &amp; gringo">
    <nd ref="8286298243"/>
    <nd ref="8286298244"/>
    <nd ref="8286298245"/>
    <nd ref="8286298246"/>
    <nd ref="8286298243"/>
    <tag k="addr:city" v="Newark"/>
    <tag k="addr:country" v="GB"/>
    <tag k="addr:housename" v="Maplebeck House"/>
    <tag k="addr:postcode" v="NG22 0BS"/>
    <tag k="addr:street" v="Main Street"/>
    <tag k="addr:suburb" v="Maplebeck"/>
    <tag k="building" v="yes"/>
    <tag k="historic" v="building"/>
    <tag k="name" v="Maplebeck House"/>
    <tag k="note" v="Grade II listed. Listing number 1045597"/>
  </way>
  <way id="891505074" version="2" timestamp="2024-11-22T13:33:15Z" changeset="159459253" uid="95856" user="⇄ john paul jones &amp; gringo">
    <nd ref="8286298247"/>
    <nd ref="8286298248"/>
    <nd ref="8286298249"/>
    <nd ref="8286298250"/>
    <nd ref="8286298247"/>
    <tag k="addr:city" v="Newark"/>
    <tag k="addr:country" v="GB"/>
    <tag k="addr:housename" v="Maplebeck Farmhouse"/>
    <tag k="addr:postcode" v="NG22 0BS"/>
    <tag k="addr:street" v="Main Street"/>
    <tag k="addr:suburb" v="Maplebeck"/>
    <tag k="building" v="yes"/>
    <tag k="historic" v="building"/>
    <tag k="name" v="Maplebeck Farmhouse"/>
    <tag k="note" v="Grade II listed. Listing number 1370160"/>
  </way>
  <way id="891505075" version="2" timestamp="2024-11-22T13:18:03Z" changeset="159458542" uid="95856" user="⇄ john paul jones &amp; gringo">
    <nd ref="8286298251"/>
    <nd ref="8286298252"/>
    <nd ref="8286298253"/>
    <nd ref="8286298254"/>
    <nd ref="8286298251"/>
    <tag k="addr:city" v="Newark"/>
    <tag k="addr:country" v="GB"/>
    <tag k="addr:housename" v="Low Farmhouse"/>
    <tag k="addr:postcode" v="NG22 0BS"/>
    <tag k="addr:street" v="Church Lane"/>
    <tag k="addr:suburb" v="Maplebeck"/>
    <tag k="building" v="yes"/>
    <tag k="historic" v="building"/>
    <tag k="name" v="Low Farmhouse"/>
    <tag k="note" v="Grade II listed. Listing number 1370159."/>
  </way>
  <way id="891511186" version="2" timestamp="2024-11-22T13:18:03Z" changeset="159458542" uid="95856" user="⇄ john paul jones &amp; gringo">
    <nd ref="8286333304"/>
    <nd ref="8286333305"/>
    <nd ref="8286333306"/>
    <nd ref="8286333307"/>
    <nd ref="8286333308"/>
    <nd ref="8286333309"/>
    <nd ref="8286333310"/>
    <nd ref="8286333304"/>
    <tag k="addr:city" v="Newark"/>
    <tag k="addr:country" v="GB"/>
    <tag k="addr:housename" v="Walnut Cottage"/>
    <tag k="addr:postcode" v="NG22 0BS"/>
    <tag k="addr:street" v="Church Lane"/>
    <tag k="addr:suburb" v="Maplebeck"/>
    <tag k="building" v="house"/>
    <tag k="name" v="Walnut Cottage"/>
  </way>
  <way id="891511187" version="2" timestamp="2024-11-22T13:18:03Z" changeset="159458542" uid="95856" user="⇄ john paul jones &amp; gringo">
    <nd ref="8286333311"/>
    <nd ref="8286333312"/>
    <nd ref="8286333313"/>
    <nd ref="8286333314"/>
    <nd ref="8286333315"/>
    <nd ref="8286333316"/>
    <nd ref="8286348117"/>
    <nd ref="8286333311"/>
    <tag k="addr:city" v="Newark"/>
    <tag k="addr:country" v="GB"/>
    <tag k="addr:housename" v="Church Cottage"/>
    <tag k="addr:postcode" v="NG22 0BS"/>
    <tag k="addr:street" v="Church Lane"/>
    <tag k="addr:suburb" v="Maplebeck"/>
    <tag k="building" v="house"/>
    <tag k="name" v="Church Cottage"/>
  </way>
  <way id="891511188" version="2" timestamp="2024-11-22T13:18:03Z" changeset="159458542" uid="95856" user="⇄ john paul jones &amp; gringo">
    <nd ref="8286348118"/>
    <nd ref="8286348119"/>
    <nd ref="8286348120"/>
    <nd ref="8286348121"/>
    <nd ref="8286348122"/>
    <nd ref="8286348123"/>
    <nd ref="8286348118"/>
    <tag k="addr:city" v="Newark"/>
    <tag k="addr:country" v="GB"/>
    <tag k="addr:housename" v="Rose Cottage"/>
    <tag k="addr:postcode" v="NG22 0BS"/>
    <tag k="addr:street" v="Church Lane"/>
    <tag k="addr:suburb" v="Maplebeck"/>
    <tag k="building" v="house"/>
    <tag k="name" v="Rose Cottage"/>
  </way>
  <way id="891511189" version="2" timestamp="2024-11-22T13:18:03Z" changeset="159458542" uid="95856" user="⇄ john paul jones &amp; gringo">
    <nd ref="8286348124"/>
    <nd ref="8286348125"/>
    <nd ref="8286348126"/>
    <nd ref="8286348127"/>
    <nd ref="8286348124"/>
    <tag k="addr:city" v="Newark"/>
    <tag k="addr:country" v="GB"/>
    <tag k="addr:housename" v="Rose Dene"/>
    <tag k="addr:postcode" v="NG22 0BS"/>
    <tag k="addr:street" v="Church Lane"/>
    <tag k="addr:suburb" v="Maplebeck"/>
    <tag k="building" v="house"/>
    <tag k="name" v="Rose Dene"/>
  </way>
  <way id="891511190" version="2" timestamp="2024-11-22T13:18:03Z" changeset="159458542" uid="95856" user="⇄ john paul jones &amp; gringo">
    <nd ref="8286348128"/>
    <nd ref="8286348129"/>
    <nd ref="8286348130"/>
    <nd ref="8286348131"/>
    <nd ref="8286348132"/>
    <nd ref="8286348133"/>
    <nd ref="8286348134"/>
    <nd ref="8286348135"/>
    <nd ref="8286348128"/>
    <tag k="addr:city" v="Newark"/>
    <tag k="addr:country" v="GB"/>
    <tag k="addr:housename" v="Bryn Cottage"/>
    <tag k="addr:postcode" v="NG22 0BS"/>
    <tag k="addr:street" v="Church Lane"/>
    <tag k="addr:suburb" v="Maplebeck"/>
    <tag k="building" v="house"/>
    <tag k="name" v="Bryn Cottage"/>
  </way>
  <way id="891511191" version="2" timestamp="2024-11-22T13:18:03Z" changeset="159458542" uid="95856" user="⇄ john paul jones &amp; gringo">
    <nd ref="8286348136"/>
    <nd ref="8286348137"/>
    <nd ref="8286348138"/>
    <nd ref="8286348139"/>
    <nd ref="8286348140"/>
    <nd ref="8286348141"/>
    <nd ref="8286348142"/>
    <nd ref="8286348143"/>
    <nd ref="8286348136"/>
    <tag k="addr:city" v="Newark"/>
    <tag k="addr:country" v="GB"/>
    <tag k="addr:housename" v="Red Hill House"/>
    <tag k="addr:postcode" v="NG22 0BS"/>
    <tag k="addr:street" v="Main Street"/>
    <tag k="addr:suburb" v="Maplebeck"/>
    <tag k="building" v="house"/>
    <tag k="name" v="Red Hill House"/>
  </way>
  <way id="891511192" version="2" timestamp="2024-11-22T13:18:03Z" changeset="159458542" uid="95856" user="⇄ john paul jones &amp; gringo">
    <nd ref="8286348144"/>
    <nd ref="8286348145"/>
    <nd ref="8286348146"/>
    <nd ref="8286348147"/>
    <nd ref="8286348144"/>
    <tag k="addr:city" v="Newark"/>
    <tag k="addr:country" v="GB"/>
    <tag k="addr:housename" v="Duffins Barn"/>
    <tag k="addr:postcode" v="NG22 0BS"/>
    <tag k="addr:street" v="Main Street"/>
    <tag k="addr:suburb" v="Maplebeck"/>
    <tag k="building" v="house"/>
    <tag k="name" v="Duffins Barn"/>
  </way>
  <way id="891511193" version="3" timestamp="2024-11-22T13:18:03Z" changeset="159458542" uid="95856" user="⇄ john paul jones &amp; gringo">
    <nd ref="8286348148"/>
    <nd ref="8286326579"/>
    <nd ref="8286348149"/>
    <nd ref="8286348150"/>
    <nd ref="8286348151"/>
    <nd ref="8286348148"/>
    <tag k="addr:city" v="Newark"/>
    <tag k="addr:country" v="GB"/>
    <tag k="addr:housename" v="Granary Barn"/>
    <tag k="addr:postcode" v="NG22 0BS"/>
    <tag k="addr:street" v="Main Street"/>
    <tag k="addr:suburb" v="Maplebeck"/>
    <tag k="building" v="house"/>
    <tag k="name" v="Granary Barn"/>
  </way>
  <way id="891511194" version="2" timestamp="2024-11-22T13:18:03Z" changeset="159458542" uid="95856" user="⇄ john paul jones &amp; gringo">
    <nd ref="8286348152"/>
    <nd ref="8286348153"/>
    <nd ref="8286348154"/>
    <nd ref="8286348155"/>
    <nd ref="8286348156"/>
    <nd ref="8286348157"/>
    <nd ref="8286348158"/>
    <nd ref="8286348159"/>
    <nd ref="8286348152"/>
    <tag k="addr:city" v="Newark"/>
    <tag k="addr:country" v="GB"/>
    <tag k="addr:housename" v="The Thorns"/>
    <tag k="addr:postcode" v="NG22 0BS"/>
    <tag k="addr:street" v="Main Street"/>
    <tag k="addr:suburb" v="Maplebeck"/>
    <tag k="building" v="house"/>
    <tag k="name" v="The Thorns"/>
  </way>
  <way id="891511195" version="2" timestamp="2024-11-22T13:18:03Z" changeset="159458542" uid="95856" user="⇄ john paul jones &amp; gringo">
    <nd ref="8286348160"/>
    <nd ref="8286348161"/>
    <nd ref="8286348162"/>
    <nd ref="8286348163"/>
    <nd ref="8286348160"/>
    <tag k="addr:city" v="Newark"/>
    <tag k="addr:country" v="GB"/>
    <tag k="addr:housename" v="Home Farm"/>
    <tag k="addr:postcode" v="NG22 0BS"/>
    <tag k="addr:street" v="Main Street"/>
    <tag k="addr:suburb" v="Maplebeck"/>
    <tag k="building" v="house"/>
    <tag k="name" v="Home Farm"/>
  </way>
  <way id="891512777" version="3" timestamp="2024-11-22T13:18:03Z" changeset="159458542" uid="95856" user="⇄ john paul jones &amp; gringo">
    <nd ref="8286326572"/>
    <nd ref="8286326573"/>
    <nd ref="8286326574"/>
    <nd ref="8286326575"/>
    <nd ref="8286326572"/>
    <tag k="addr:city" v="Newark"/>
    <tag k="addr:country" v="GB"/>
    <tag k="addr:housename" v="Rickett Cottages"/>
    <tag k="addr:housenumber" v="1"/>
    <tag k="addr:postcode" v="NG22 0BS"/>
    <tag k="addr:street" v="Main Street"/>
    <tag k="addr:suburb" v="Maplebeck"/>
    <tag k="building" v="house"/>
    <tag k="name" v="Rickett Cottages"/>
  </way>
  <way id="891512778" version="3" timestamp="2024-11-22T13:18:03Z" changeset="159458542" uid="95856" user="⇄ john paul jones &amp; gringo">
    <nd ref="8286326572"/>
    <nd ref="8286326573"/>
    <nd ref="8286326576"/>
    <nd ref="8286326577"/>
    <nd ref="8286326572"/>
    <tag k="addr:city" v="Newark"/>
    <tag k="addr:country" v="GB"/>
    <tag k="addr:housename" v="Rickett Cottages"/>
    <tag k="addr:housenumber" v="2"/>
    <tag k="addr:postcode" v="NG22 0BS"/>
    <tag k="addr:street" v="Main Street"/>
    <tag k="addr:suburb" v="Maplebeck"/>
    <tag k="building" v="house"/>
    <tag k="name" v="Rickett Cottages"/>
  </way>
  <way id="891517883" version="2" timestamp="2024-11-22T13:18:03Z" changeset="159458542" uid="95856" user="⇄ john paul jones &amp; gringo">
    <nd ref="8286368497"/>
    <nd ref="8286368498"/>
    <nd ref="8286368499"/>
    <nd ref="8286368500"/>
    <nd ref="8286368501"/>
    <nd ref="8286368502"/>
    <nd ref="8286368497"/>
    <tag k="addr:city" v="Newark"/>
    <tag k="addr:country" v="GB"/>
    <tag k="addr:housename" v="Cedar House"/>
    <tag k="addr:postcode" v="NG22 0BS"/>
    <tag k="addr:street" v="Main Street"/>
    <tag k="addr:suburb" v="Maplebeck"/>
    <tag k="building" v="house"/>
    <tag k="name" v="Cedar House"/>
  </way>
  <way id="891517884" version="1" timestamp="2021-01-03T14:32:07Z" changeset="96849302" uid="3134565" user="Andrew Abbott">
    <nd ref="8286368503"/>
    <nd ref="8286368504"/>
    <nd ref="8286368505"/>
    <nd ref="8286368506"/>
    <nd ref="8286368503"/>
    <tag k="addr:city" v="Maplebeck"/>
    <tag k="building" v="barn"/>
    <tag k="name" v="Hill Top Barn"/>
  </way>
  <way id="891517885" version="2" timestamp="2024-11-22T13:18:03Z" changeset="159458542" uid="95856" user="⇄ john paul jones &amp; gringo">
    <nd ref="8286368507"/>
    <nd ref="8286368508"/>
    <nd ref="8286368509"/>
    <nd ref="8286368510"/>
    <nd ref="8286368513"/>
    <nd ref="8286368511"/>
    <nd ref="8286368512"/>
    <nd ref="8286368507"/>
    <tag k="addr:city" v="Newark"/>
    <tag k="addr:country" v="GB"/>
    <tag k="addr:postcode" v="NG22 0BS"/>
    <tag k="addr:suburb" v="Maplebeck"/>
    <tag k="building" v="house"/>
    <tag k="name" v="Maplebeck Lodge"/>
  </way>
  <way id="891517886" version="2" timestamp="2024-11-22T13:18:03Z" changeset="159458542" uid="95856" user="⇄ john paul jones &amp; gringo">
    <nd ref="8286368515"/>
    <nd ref="8286368516"/>
    <nd ref="8286393517"/>
    <nd ref="8286393518"/>
    <nd ref="8286393519"/>
    <nd ref="8286393520"/>
    <nd ref="8286393521"/>
    <nd ref="8286393522"/>
    <nd ref="8286393523"/>
    <nd ref="8286368515"/>
    <tag k="addr:city" v="Newark"/>
    <tag k="addr:country" v="GB"/>
    <tag k="addr:housename" v="Maple Lodge"/>
    <tag k="addr:postcode" v="NG22 0BS"/>
    <tag k="addr:street" v="Main Street"/>
    <tag k="addr:suburb" v="Maplebeck"/>
    <tag k="building" v="house"/>
    <tag k="name" v="Maple Lodge"/>
  </way>
  <way id="891517887" version="2" timestamp="2024-11-22T13:18:03Z" changeset="159458542" uid="95856" user="⇄ john paul jones &amp; gringo">
    <nd ref="8286393524"/>
    <nd ref="8286393525"/>
    <nd ref="8286393526"/>
    <nd ref="8286393527"/>
    <nd ref="8286393528"/>
    <nd ref="8286393529"/>
    <nd ref="8286393524"/>
    <tag k="addr:city" v="Newark"/>
    <tag k="addr:country" v="GB"/>
    <tag k="addr:housename" v="Fairfield"/>
    <tag k="addr:postcode" v="NG22 0BS"/>
    <tag k="addr:street" v="Main Street"/>
    <tag k="addr:suburb" v="Maplebeck"/>
    <tag k="building" v="house"/>
    <tag k="name" v="Fairfield"/>
  </way>
  <way id="891519337" version="2" timestamp="2024-11-22T13:18:03Z" changeset="159458542" uid="95856" user="⇄ john paul jones &amp; gringo">
    <nd ref="8286389808"/>
    <nd ref="8286389809"/>
    <nd ref="8286389810"/>
    <nd ref="8286389811"/>
    <nd ref="8286389812"/>
    <nd ref="8286389813"/>
    <nd ref="8286389814"/>
    <nd ref="8286389815"/>
    <nd ref="8286389808"/>
    <tag k="addr:city" v="Newark"/>
    <tag k="addr:country" v="GB"/>
    <tag k="addr:housename" v="Orchard View"/>
    <tag k="addr:postcode" v="NG22 0BS"/>
    <tag k="addr:street" v="Main Street"/>
    <tag k="addr:suburb" v="Maplebeck"/>
    <tag k="building" v="house"/>
    <tag k="name" v="Orchard View"/>
  </way>
  <way id="891519338" version="2" timestamp="2024-11-22T13:18:03Z" changeset="159458542" uid="95856" user="⇄ john paul jones &amp; gringo">
    <nd ref="8286389816"/>
    <nd ref="8286409617"/>
    <nd ref="8286409618"/>
    <nd ref="8286409619"/>
    <nd ref="8286409620"/>
    <nd ref="8286409621"/>
    <nd ref="8286389816"/>
    <tag k="addr:city" v="Newark"/>
    <tag k="addr:country" v="GB"/>
    <tag k="addr:housename" v="Toad Hall"/>
    <tag k="addr:postcode" v="NG22 0BS"/>
    <tag k="addr:street" v="Main Street"/>
    <tag k="addr:suburb" v="Maplebeck"/>
    <tag k="building" v="house"/>
    <tag k="name" v="Toad Hall"/>
  </way>
  <way id="891519339" version="2" timestamp="2024-11-22T13:18:03Z" changeset="159458542" uid="95856" user="⇄ john paul jones &amp; gringo">
    <nd ref="8286409622"/>
    <nd ref="8286409623"/>
    <nd ref="8286409624"/>
    <nd ref="8286409625"/>
    <nd ref="8286409626"/>
    <nd ref="8286409627"/>
    <nd ref="8286409628"/>
    <nd ref="8286409629"/>
    <nd ref="8286409622"/>
    <tag k="addr:city" v="Newark"/>
    <tag k="addr:country" v="GB"/>
    <tag k="addr:housename" v="Mill Barn"/>
    <tag k="addr:postcode" v="NG22 0BS"/>
    <tag k="addr:street" v="Main Street"/>
    <tag k="addr:suburb" v="Maplebeck"/>
    <tag k="building" v="house"/>
    <tag k="name" v="Mill Barn"/>
  </way>

</osm>
