<?xml version="1.0" encoding="UTF-8"?>
<osm version="0.6" generator="Overpass API 0.7.62.8 e802775f">
<note>The data included in this document is from www.openstreetmap.org. The data is made available under ODbL.</note>
<meta osm_base="2025-10-23T17:51:02Z" areas="2025-10-23T14:54:58Z"/>

  <node id="68507742" lat="53.3708589" lon="-0.8172604" version="5" timestamp="2024-12-27T22:11:08Z" changeset="160694162" uid="8857" user="philipcullen">
    <tag k="ref:GB:uprn" v="10013981174"/>
  </node>
  <node id="718551066" lat="53.3610606" lon="-0.8201597" version="1" timestamp="2010-05-03T10:36:43Z" changeset="4593516" uid="8857" user="philipcullen"/>
  <node id="767570741" lat="53.3533070" lon="-0.8287140" version="3" timestamp="2024-12-28T15:34:41Z" changeset="160714986" uid="8857" user="philipcullen">
    <tag k="ref:GB:uprn" v="10013981146"/>
  </node>
  <node id="2157333981" lat="53.3610684" lon="-0.8211922" version="2" timestamp="2013-06-11T10:23:39Z" changeset="16507596" uid="1383105" user="Gavrielo"/>
  <way id="16883983" version="3" timestamp="2024-12-25T14:24:21Z" changeset="160603695" uid="8857" user="philipcullen">
    <nd ref="12451110547"/>
    <nd ref="12451110548"/>
    <nd ref="12451110549"/>
    <nd ref="12451110550"/>
    <nd ref="12451110551"/>
    <nd ref="12451110552"/>
    <nd ref="12451110553"/>
    <nd ref="12451110554"/>
    <nd ref="12451110555"/>
    <nd ref="12451110558"/>
    <nd ref="12451110557"/>
    <nd ref="12451110556"/>
    <nd ref="175135551"/>
    <nd ref="1376883898"/>
    <nd ref="1376883896"/>
    <nd ref="1376883895"/>
    <nd ref="175135556"/>
    <nd ref="1376883892"/>
    <nd ref="1376883894"/>
    <nd ref="1376883893"/>
    <nd ref="175135562"/>
    <nd ref="1376883891"/>
    <nd ref="175135572"/>
    <nd ref="1376883890"/>
    <nd ref="1376883889"/>
    <nd ref="175135582"/>
    <tag k="highway" v="unclassified"/>
  </way>
  <way id="38591215" version="8" timestamp="2020-09-04T08:09:53Z" changeset="90401870" uid="8987605" user="annakulikowa">
    <nd ref="457147823"/>
    <nd ref="2157334009"/>
    <nd ref="2157334008"/>
    <nd ref="457147828"/>
    <nd ref="2157334007"/>
    <nd ref="2157334006"/>
    <nd ref="457151390"/>
    <nd ref="2157334005"/>
    <nd ref="2157334004"/>
    <nd ref="2157334003"/>
    <nd ref="457151392"/>
    <nd ref="3315530885"/>
    <nd ref="2157334002"/>
    <nd ref="2157334001"/>
    <nd ref="457151394"/>
    <nd ref="2157334000"/>
    <nd ref="2157333999"/>
    <nd ref="2157333998"/>
    <nd ref="457151396"/>
    <nd ref="718551095"/>
    <nd ref="718551080"/>
    <nd ref="7874821082"/>
    <nd ref="718551075"/>
    <nd ref="718551078"/>
    <nd ref="718551068"/>
    <nd ref="718551070"/>
    <nd ref="718551073"/>
    <nd ref="718551032"/>
    <nd ref="330969406"/>
    <nd ref="718551035"/>
    <nd ref="718551037"/>
    <nd ref="718551040"/>
    <nd ref="718551061"/>
    <nd ref="718551063"/>
    <nd ref="718551066"/>
    <tag k="highway" v="unclassified"/>
  </way>
  <way id="38591216" version="2" timestamp="2009-08-05T21:45:23Z" changeset="2050382" uid="8857" user="philipcullen">
    <nd ref="457147832"/>
    <nd ref="457147835"/>
    <nd ref="457151394"/>
    <tag k="highway" v="unclassified"/>
  </way>
  <way id="38591217" version="9" timestamp="2025-01-01T14:37:02Z" changeset="160864821" uid="8857" user="philipcullen">
    <nd ref="457147841"/>
    <nd ref="393178566"/>
    <nd ref="393178570"/>
    <nd ref="68507752"/>
    <nd ref="2157333994"/>
    <nd ref="393178565"/>
    <nd ref="393178563"/>
    <nd ref="2157333995"/>
    <nd ref="2157333996"/>
    <nd ref="68507748"/>
    <nd ref="2157333997"/>
    <nd ref="393178557"/>
    <nd ref="393178559"/>
    <nd ref="393178561"/>
    <nd ref="175135582"/>
    <nd ref="68507746"/>
    <tag k="highway" v="tertiary"/>
    <tag k="lanes" v="2"/>
    <tag k="name" v="Gainsborough Road"/>
    <tag k="source:name" v="OS_OpenData_Locator"/>
    <tag k="surface" v="asphalt"/>
  </way>
  <way id="38591219" version="9" timestamp="2017-05-03T06:35:56Z" changeset="48354795" uid="1778799" user="SomeoneElse_Revert">
    <nd ref="393178568"/>
    <nd ref="457147841"/>
    <tag k="bridge" v="yes"/>
    <tag k="highway" v="tertiary"/>
  </way>
  <way id="61510829" version="4" timestamp="2013-02-16T13:21:50Z" changeset="15051106" uid="8857" user="philipcullen">
    <nd ref="767570741"/>
    <nd ref="2152999093"/>
    <nd ref="767570701"/>
    <nd ref="2157333973"/>
    <nd ref="2157333977"/>
    <nd ref="767570702"/>
    <nd ref="2157333978"/>
    <nd ref="2157333979"/>
    <nd ref="767570703"/>
    <nd ref="767570704"/>
    <nd ref="767570705"/>
    <nd ref="2157333982"/>
    <nd ref="2157333983"/>
    <nd ref="2157333985"/>
    <nd ref="767570706"/>
    <tag k="highway" v="unclassified"/>
    <tag k="source" v="OS OpenData StreetView"/>
  </way>
  <way id="207014183" version="5" timestamp="2024-07-10T11:39:13Z" changeset="153780196" uid="17541453" user="geo_ef">
    <nd ref="2171550475"/>
    <nd ref="2171550468"/>
    <nd ref="12045924947"/>
    <nd ref="11593409254"/>
    <nd ref="11593409255"/>
    <nd ref="2171550482"/>
    <nd ref="2171550493"/>
    <nd ref="2171550475"/>
    <tag k="building" v="industrial"/>
    <tag k="name" v="West Burton"/>
    <tag k="operator" v="Western Power Distribution"/>
    <tag k="ref:GB:wpd_site" v="890003"/>
    <tag k="voltage" v="132000"/>
  </way>
  <way id="225223779" version="8" timestamp="2025-09-19T12:47:18Z" changeset="172161285" uid="3951648" user="rskedgell">
    <nd ref="68507742"/>
    <nd ref="393178547"/>
    <nd ref="68507740"/>
    <nd ref="393178545"/>
    <nd ref="393178541"/>
    <nd ref="393178543"/>
    <nd ref="68507738"/>
    <nd ref="393178539"/>
    <nd ref="68507735"/>
    <nd ref="243856492"/>
    <tag k="highway" v="tertiary"/>
    <tag k="lanes" v="2"/>
    <tag k="lit" v="no"/>
    <tag k="name" v="Sturton Road"/>
    <tag k="postal_code" v="DN22"/>
    <tag k="ref:GB:usrn" v="2207555;82907761"/>
    <tag k="source:name" v="OS_OpenData_Locator"/>
    <tag k="surface" v="asphalt"/>
  </way>
  <way id="225223783" version="6" timestamp="2025-01-01T14:37:41Z" changeset="160864821" uid="8857" user="philipcullen">
    <nd ref="2157333981"/>
    <nd ref="767570706"/>
    <nd ref="68507754"/>
    <nd ref="2157333986"/>
    <nd ref="393178572"/>
    <nd ref="2157333989"/>
    <nd ref="2157333991"/>
    <nd ref="2157333992"/>
    <nd ref="68507753"/>
    <nd ref="2157333993"/>
    <nd ref="393178568"/>
    <tag k="highway" v="tertiary"/>
    <tag k="lanes" v="2"/>
    <tag k="name" v="Gainsborough Road"/>
    <tag k="source:name" v="OS_OpenData_Locator"/>
    <tag k="surface" v="asphalt"/>
  </way>
  <way id="225223787" version="3" timestamp="2014-12-26T18:14:38Z" changeset="27714629" uid="1778799" user="SomeoneElse_Revert">
    <nd ref="68507746"/>
    <nd ref="457147832"/>
    <nd ref="393178555"/>
    <nd ref="68507745"/>
    <nd ref="393178554"/>
    <nd ref="393178552"/>
    <nd ref="393178550"/>
    <nd ref="393178548"/>
    <nd ref="457147823"/>
    <nd ref="68507742"/>
    <tag k="highway" v="tertiary"/>
    <tag k="name" v="Sturton Road"/>
  </way>
  <way id="225223797" version="1" timestamp="2013-06-11T10:23:37Z" changeset="16507596" uid="1383105" user="Gavrielo">
    <nd ref="718551066"/>
    <nd ref="718550657"/>
    <tag k="highway" v="unclassified"/>
  </way>
  <way id="1425407509" version="1" timestamp="2025-08-27T21:24:12Z" changeset="171105203" uid="17427" user="dysteleologist">
    <nd ref="13101641600"/>
    <nd ref="13101662601"/>
    <nd ref="13101662602"/>
    <nd ref="13101662603"/>
    <nd ref="13101641600"/>
    <tag k="building" v="yes"/>
    <tag k="man_made" v="pumping_station"/>
    <tag k="name" v="Burton Round Pumping Station"/>
    <tag k="operator" v="Trent Valley Internal Drainage Board"/>
  </way>
  <way id="1425407510" version="1" timestamp="2025-08-27T21:24:12Z" changeset="171105203" uid="17427" user="dysteleologist">
    <nd ref="9915810201"/>
    <nd ref="13101662604"/>
    <nd ref="13101662605"/>
    <nd ref="13101662606"/>
    <nd ref="9915810201"/>
    <tag k="building" v="yes"/>
    <tag k="man_made" v="pumping_station"/>
    <tag k="name" v="Wheatley Beck Pumping Station"/>
    <tag k="operator" v="Trent Valley Internal Drainage Board"/>
  </way>

</osm>
