<?xml version="1.0" encoding="UTF-8"?>
<osm version="0.6" generator="Overpass API 0.7.62.8 e802775f">
<note>The data included in this document is from www.openstreetmap.org. The data is made available under ODbL.</note>
<meta osm_base="2025-10-23T17:36:51Z" areas="2025-10-23T14:54:58Z"/>

  <node id="535858229" lat="53.1677579" lon="-0.9458696" version="2" timestamp="2014-12-26T12:49:18Z" changeset="27706779" uid="61942" user="SomeoneElse"/>
  <node id="1535576318" lat="53.1461366" lon="-0.9379307" version="1" timestamp="2011-12-07T18:38:44Z" changeset="10059901" uid="61942" user="SomeoneElse"/>
  <node id="1734754195" lat="53.1537940" lon="-0.9302452" version="1" timestamp="2012-04-29T02:14:26Z" changeset="11446118" uid="61942" user="SomeoneElse"/>
  <way id="140161272" version="7" timestamp="2022-03-09T22:12:26Z" changeset="118296305" uid="242345" user="confusedbuffalo">
    <nd ref="1535576318"/>
    <nd ref="1535576313"/>
    <nd ref="3704812323"/>
    <nd ref="324372530"/>
    <nd ref="3704812272"/>
    <nd ref="324372531"/>
    <nd ref="1535576374"/>
    <nd ref="535860575"/>
    <nd ref="3253376849"/>
    <nd ref="3239960985"/>
    <nd ref="324372532"/>
    <tag k="highway" v="unclassified"/>
    <tag k="lit" v="no"/>
    <tag k="maxspeed" v="60 mph"/>
    <tag k="maxspeed:type" v="GB:nsl_single"/>
    <tag k="sidewalk" v="no"/>
    <tag k="source:highway" v="survey"/>
    <tag k="source:ref" v="survey"/>
  </way>
  <way id="161501534" version="9" timestamp="2022-03-09T22:12:26Z" changeset="118296305" uid="242345" user="confusedbuffalo">
    <nd ref="1734754195"/>
    <nd ref="324372537"/>
    <nd ref="2128299101"/>
    <nd ref="324372538"/>
    <nd ref="7496248568"/>
    <nd ref="1199875433"/>
    <nd ref="2128220577"/>
    <nd ref="324372539"/>
    <tag k="highway" v="unclassified"/>
    <tag k="lit" v="no"/>
    <tag k="maxspeed" v="60 mph"/>
    <tag k="name" v="Kersall Lane"/>
    <tag k="oneway" v="no"/>
    <tag k="sidewalk" v="no"/>
    <tag k="source:highway" v="View from South"/>
    <tag k="source:name" v="NaPTAN"/>
    <tag k="source:ref" v="NPE"/>
  </way>
  <way id="161501538" version="7" timestamp="2022-03-09T22:12:26Z" changeset="118296305" uid="242345" user="confusedbuffalo">
    <nd ref="1734754210"/>
    <nd ref="324372535"/>
    <nd ref="1734754216"/>
    <nd ref="1734754219"/>
    <nd ref="324372536"/>
    <nd ref="1734754195"/>
    <tag k="highway" v="unclassified"/>
    <tag k="lit" v="yes"/>
    <tag k="maxspeed" v="60 mph"/>
    <tag k="sidewalk" v="no"/>
    <tag k="source" v="GPS"/>
    <tag k="source:highway" v="survey"/>
  </way>
  <way id="161501542" version="8" timestamp="2022-12-04T10:02:42Z" changeset="129698970" uid="10893436" user="Dimitar155">
    <nd ref="1734754189"/>
    <nd ref="1199875446"/>
    <nd ref="1199875371"/>
    <nd ref="1734754214"/>
    <nd ref="1199875346"/>
    <nd ref="324372534"/>
    <nd ref="1734754210"/>
    <tag k="highway" v="unclassified"/>
    <tag k="lit" v="yes"/>
    <tag k="maxspeed" v="60 mph"/>
    <tag k="oneway" v="no"/>
    <tag k="sidewalk" v="no"/>
    <tag k="source" v="GPS"/>
    <tag k="source:highway" v="survey"/>
  </way>
  <way id="161501804" version="15" timestamp="2022-03-09T22:12:26Z" changeset="118296305" uid="242345" user="confusedbuffalo">
    <nd ref="535858229"/>
    <nd ref="3253462387"/>
    <nd ref="129999622"/>
    <nd ref="61276584"/>
    <nd ref="6723185392"/>
    <nd ref="129999555"/>
    <nd ref="129999556"/>
    <nd ref="61276585"/>
    <nd ref="129999557"/>
    <nd ref="61276586"/>
    <nd ref="129999558"/>
    <nd ref="129999559"/>
    <nd ref="129999560"/>
    <nd ref="61276587"/>
    <nd ref="61276588"/>
    <nd ref="2128220569"/>
    <nd ref="129999561"/>
    <nd ref="129999562"/>
    <nd ref="129999563"/>
    <nd ref="129999564"/>
    <nd ref="129999565"/>
    <nd ref="129999566"/>
    <nd ref="61276589"/>
    <nd ref="61276590"/>
    <nd ref="7496248552"/>
    <nd ref="324372539"/>
    <nd ref="61276591"/>
    <nd ref="129999567"/>
    <nd ref="61276592"/>
    <nd ref="61276593"/>
    <nd ref="129999568"/>
    <nd ref="1734754182"/>
    <nd ref="129999569"/>
    <nd ref="61276594"/>
    <nd ref="129999570"/>
    <nd ref="324372597"/>
    <nd ref="61276595"/>
    <nd ref="1735370958"/>
    <nd ref="129999571"/>
    <nd ref="61276596"/>
    <nd ref="129999572"/>
    <nd ref="129999573"/>
    <nd ref="68507598"/>
    <nd ref="9040464842"/>
    <nd ref="68507601"/>
    <nd ref="129999574"/>
    <nd ref="129999575"/>
    <nd ref="68507604"/>
    <nd ref="129999576"/>
    <nd ref="68507605"/>
    <nd ref="1735347459"/>
    <nd ref="324372322"/>
    <nd ref="1735347430"/>
    <nd ref="1735347442"/>
    <nd ref="68507608"/>
    <nd ref="989287484"/>
    <tag k="highway" v="primary"/>
    <tag k="lit" v="no"/>
    <tag k="maxspeed" v="60 mph"/>
    <tag k="maxspeed:type" v="GB:nsl_single"/>
    <tag k="name" v="Newark Road"/>
    <tag k="ref" v="A616"/>
    <tag k="sidewalk" v="no"/>
    <tag k="source" v="survey;Bing"/>
    <tag k="source:name" v="OS OpenData StreetView"/>
    <tag k="source:ref" v="local_knowledge"/>
  </way>
  <way id="202893555" version="2" timestamp="2016-01-02T22:05:54Z" changeset="36328039" uid="161875" user="Willumm">
    <nd ref="324372532"/>
    <nd ref="1734754175"/>
    <nd ref="324372533"/>
    <nd ref="1734754171"/>
    <nd ref="1734754189"/>
    <tag k="highway" v="unclassified"/>
    <tag k="lit" v="yes"/>
    <tag k="maxspeed" v="60 mph"/>
    <tag k="source:highway" v="View from N"/>
    <tag k="source:ref" v="NPE"/>
  </way>

</osm>
