<?xml version="1.0" encoding="UTF-8"?>
<osm version="0.6" generator="Overpass API 0.7.62.8 e802775f">
<note>The data included in this document is from www.openstreetmap.org. The data is made available under ODbL.</note>
<meta osm_base="2025-10-23T17:33:45Z" areas="2025-10-23T14:54:58Z"/>

  <node id="195929805" lat="52.9864318" lon="-0.9101480" version="5" timestamp="2016-05-10T18:00:30Z" changeset="39224297" uid="207845" user="will_p"/>
  <node id="279034160" lat="52.9950894" lon="-0.9262472" version="8" timestamp="2020-11-22T20:24:14Z" changeset="94597629" uid="84075" user="kevjs1982"/>
  <node id="282316897" lat="52.9978677" lon="-0.9039274" version="3" timestamp="2011-02-08T20:14:02Z" changeset="7230295" uid="84075" user="kevjs1982"/>
  <node id="299139932" lat="52.9818173" lon="-0.9212217" version="2" timestamp="2016-05-10T00:02:06Z" changeset="39203740" uid="207845" user="will_p"/>
  <node id="1811407712" lat="52.9959762" lon="-0.9251879" version="3" timestamp="2020-11-22T20:24:14Z" changeset="94597629" uid="84075" user="kevjs1982"/>
  <node id="1811407721" lat="52.9966556" lon="-0.9238592" version="3" timestamp="2025-04-21T18:36:24Z" changeset="165253542" uid="5229644" user="Nathan_A_RF"/>
  <node id="1811407733" lat="52.9974064" lon="-0.9232333" version="5" timestamp="2025-04-21T18:36:24Z" changeset="165253542" uid="5229644" user="Nathan_A_RF"/>
  <way id="25598704" version="10" timestamp="2024-01-19T19:32:09Z" changeset="146455440" uid="242345" user="confusedbuffalo">
    <nd ref="279034160"/>
    <nd ref="8152101884"/>
    <nd ref="8152101883"/>
    <nd ref="8152101885"/>
    <nd ref="279034400"/>
    <nd ref="1165744097"/>
    <nd ref="5840625138"/>
    <nd ref="5840625139"/>
    <nd ref="5840625137"/>
    <nd ref="279034401"/>
    <nd ref="5840625136"/>
    <nd ref="1165743799"/>
    <nd ref="5840625135"/>
    <nd ref="1165743875"/>
    <nd ref="1165743842"/>
    <nd ref="279034402"/>
    <nd ref="279034403"/>
    <nd ref="279034404"/>
    <nd ref="279034405"/>
    <nd ref="279034406"/>
    <nd ref="4176918565"/>
    <nd ref="4176918564"/>
    <nd ref="4176918561"/>
    <nd ref="4176918560"/>
    <tag k="highway" v="unclassified"/>
    <tag k="lit" v="no"/>
    <tag k="maxspeed" v="60 mph"/>
    <tag k="maxspeed:type" v="GB:nsl_single"/>
    <tag k="name" v="Lodge Lane"/>
    <tag k="source" v="image"/>
    <tag k="source:name" v="OS Open Locator"/>
  </way>
  <way id="25880706" version="10" timestamp="2024-06-18T08:32:15Z" changeset="152836533" uid="1429809" user="Rublistoi">
    <nd ref="11943257954"/>
    <nd ref="11989736813"/>
    <nd ref="11989736812"/>
    <nd ref="1136493016"/>
    <nd ref="11989736811"/>
    <nd ref="11989736810"/>
    <nd ref="1136493264"/>
    <nd ref="1136493304"/>
    <nd ref="282316896"/>
    <nd ref="11989736808"/>
    <nd ref="11989736809"/>
    <nd ref="1136493235"/>
    <nd ref="1136492770"/>
    <nd ref="282316897"/>
    <tag k="highway" v="unclassified"/>
    <tag k="maxspeed" v="60 mph"/>
    <tag k="maxspeed:type" v="GB:nsl_single"/>
    <tag k="name" v="Flintham Lane"/>
    <tag k="source:name" v="OS Open Locator"/>
  </way>
  <way id="27234221" version="6" timestamp="2025-01-08T12:01:49Z" changeset="161130856" uid="2295875" user="cb44">
    <nd ref="195929796"/>
    <nd ref="4176917995"/>
    <nd ref="4176917998"/>
    <nd ref="195929798"/>
    <nd ref="195929799"/>
    <nd ref="1136492802"/>
    <nd ref="195929800"/>
    <nd ref="3359700425"/>
    <nd ref="4176918008"/>
    <nd ref="4176918009"/>
    <nd ref="1136492925"/>
    <nd ref="4176918011"/>
    <nd ref="195929802"/>
    <nd ref="4176918021"/>
    <nd ref="4176918024"/>
    <nd ref="195929803"/>
    <nd ref="4176918045"/>
    <nd ref="4176918072"/>
    <nd ref="195929805"/>
    <tag k="highway" v="residential"/>
    <tag k="maxspeed" v="30 mph"/>
    <tag k="name" v="Spring Lane"/>
  </way>
  <way id="27255585" version="5" timestamp="2024-01-19T19:32:09Z" changeset="146455440" uid="242345" user="confusedbuffalo">
    <nd ref="299139931"/>
    <nd ref="195929791"/>
    <nd ref="299139855"/>
    <nd ref="195929792"/>
    <nd ref="298893388"/>
    <nd ref="195929793"/>
    <nd ref="195929794"/>
    <tag k="highway" v="unclassified"/>
    <tag k="maxspeed" v="60 mph"/>
    <tag k="maxspeed:type" v="GB:nsl_single"/>
    <tag k="source" v="gps"/>
  </way>
  <way id="27255588" version="7" timestamp="2024-01-19T19:32:09Z" changeset="146455440" uid="242345" user="confusedbuffalo">
    <nd ref="299139932"/>
    <nd ref="4175055120"/>
    <nd ref="298893327"/>
    <nd ref="195929783"/>
    <nd ref="298893334"/>
    <nd ref="195929784"/>
    <nd ref="4175055117"/>
    <nd ref="195929785"/>
    <nd ref="4175055119"/>
    <nd ref="298893340"/>
    <nd ref="298893367"/>
    <nd ref="4176917392"/>
    <nd ref="4176917405"/>
    <nd ref="195929788"/>
    <nd ref="4176917441"/>
    <nd ref="195929789"/>
    <nd ref="298893378"/>
    <nd ref="195929790"/>
    <nd ref="298893383"/>
    <nd ref="299139931"/>
    <tag k="highway" v="unclassified"/>
    <tag k="maxspeed" v="60 mph"/>
    <tag k="maxspeed:type" v="GB:nsl_single"/>
    <tag k="name" v="Screveton Road"/>
    <tag k="source" v="gps"/>
  </way>
  <way id="98238411" version="8" timestamp="2024-02-18T02:15:49Z" changeset="147593554" uid="493595" user="Yorvik Prestigitator">
    <nd ref="195929805"/>
    <nd ref="4176918083"/>
    <nd ref="195929806"/>
    <nd ref="195929807"/>
    <nd ref="11636240109"/>
    <nd ref="195929808"/>
    <nd ref="4176918037"/>
    <nd ref="4176918039"/>
    <nd ref="6567547244"/>
    <nd ref="195929809"/>
    <nd ref="195929810"/>
    <nd ref="195929811"/>
    <nd ref="4176918053"/>
    <nd ref="195929812"/>
    <nd ref="4176918043"/>
    <nd ref="195929813"/>
    <nd ref="195929814"/>
    <nd ref="6567547226"/>
    <nd ref="3359698381"/>
    <nd ref="195929815"/>
    <nd ref="195929817"/>
    <nd ref="195929818"/>
    <nd ref="195929819"/>
    <nd ref="195929820"/>
    <nd ref="195929821"/>
    <nd ref="8428772488"/>
    <nd ref="195929822"/>
    <nd ref="195929823"/>
    <nd ref="195929824"/>
    <nd ref="195929825"/>
    <nd ref="195929826"/>
    <nd ref="8710152655"/>
    <nd ref="195929827"/>
    <tag k="highway" v="unclassified"/>
    <tag k="name" v="Hawksworth Road"/>
  </way>
  <way id="98238414" version="3" timestamp="2013-03-20T15:23:27Z" changeset="15433105" uid="84681" user="SK53">
    <nd ref="282316897"/>
    <nd ref="282316898"/>
    <nd ref="282316899"/>
    <nd ref="1136493040"/>
    <nd ref="1136493067"/>
    <nd ref="282316900"/>
    <nd ref="282316902"/>
    <nd ref="1142738038"/>
    <nd ref="282316903"/>
    <tag k="highway" v="unclassified"/>
    <tag k="name" v="Spring Lane"/>
    <tag k="source:name" v="survey"/>
  </way>
  <way id="98238416" version="1" timestamp="2011-02-04T22:34:21Z" changeset="7188076" uid="84075" user="kevjs1982">
    <nd ref="1136493093"/>
    <nd ref="1136492802"/>
    <tag k="highway" v="residential"/>
    <tag k="name" v="Knight's Close"/>
    <tag k="source:name" v="OS Open Locator"/>
  </way>
  <way id="169993812" version="6" timestamp="2025-04-21T18:36:24Z" changeset="165253542" uid="5229644" user="Nathan_A_RF">
    <nd ref="1811407712"/>
    <nd ref="8152101879"/>
    <nd ref="1811407714"/>
    <nd ref="1811407715"/>
    <nd ref="6421654019"/>
    <nd ref="1811407716"/>
    <nd ref="1811407717"/>
    <nd ref="6421654015"/>
    <nd ref="6421654018"/>
    <nd ref="1811407718"/>
    <nd ref="1811407719"/>
    <nd ref="1811407726"/>
    <tag k="highway" v="unclassified"/>
    <tag k="lit" v="no"/>
    <tag k="maxspeed" v="60 mph"/>
    <tag k="maxspeed:type" v="GB:nsl_single"/>
  </way>
  <way id="169993813" version="7" timestamp="2025-04-21T18:36:24Z" changeset="165253542" uid="5229644" user="Nathan_A_RF">
    <nd ref="1811407726"/>
    <nd ref="1811407727"/>
    <nd ref="1811407728"/>
    <nd ref="12772863759"/>
    <nd ref="1811407729"/>
    <nd ref="1811407730"/>
    <nd ref="6720909665"/>
    <nd ref="12772863760"/>
    <tag k="highway" v="unclassified"/>
    <tag k="lanes" v="2"/>
    <tag k="lit" v="no"/>
    <tag k="maxspeed" v="60 mph"/>
    <tag k="maxspeed:type" v="GB:nsl_single"/>
  </way>
  <way id="170000126" version="5" timestamp="2025-04-21T18:36:24Z" changeset="165253542" uid="5229644" user="Nathan_A_RF">
    <nd ref="1811407733"/>
    <nd ref="1811495866"/>
    <tag k="bicycle" v="yes"/>
    <tag k="highway" v="trunk_link"/>
    <tag k="lanes" v="2"/>
    <tag k="maxspeed" v="60 mph"/>
    <tag k="maxspeed:type" v="GB:nsl_single"/>
    <tag k="maxweight" v="7.5"/>
  </way>
  <way id="334363087" version="5" timestamp="2025-04-21T18:36:24Z" changeset="165253542" uid="5229644" user="Nathan_A_RF">
    <nd ref="1811407733"/>
    <nd ref="12772863770"/>
    <nd ref="1640887195"/>
    <tag k="highway" v="unclassified"/>
    <tag k="lit" v="no"/>
    <tag k="maxspeed" v="60 mph"/>
    <tag k="maxspeed:type" v="GB:nsl_single"/>
  </way>
  <way id="417065002" version="2" timestamp="2020-12-23T16:50:50Z" changeset="96338802" uid="10205154" user="mundlk">
    <nd ref="195929805"/>
    <nd ref="4176918490"/>
    <nd ref="4176918493"/>
    <nd ref="4176918505"/>
    <nd ref="8255280848"/>
    <nd ref="4176918518"/>
    <nd ref="8255280838"/>
    <nd ref="282316890"/>
    <nd ref="4176918543"/>
    <nd ref="4176918547"/>
    <nd ref="3003284107"/>
    <nd ref="4176918548"/>
    <nd ref="1136492934"/>
    <nd ref="4176918552"/>
    <nd ref="4176918555"/>
    <tag k="highway" v="unclassified"/>
    <tag k="maxspeed" v="30 mph"/>
    <tag k="name" v="Flintham Lane"/>
    <tag k="source:name" v="OS Open Locator"/>
  </way>
  <way id="417065022" version="1" timestamp="2016-05-10T17:59:59Z" changeset="39224297" uid="207845" user="will_p">
    <nd ref="4176918560"/>
    <nd ref="4176918559"/>
    <nd ref="4176918513"/>
    <nd ref="279034407"/>
    <nd ref="4176918084"/>
    <nd ref="4176918078"/>
    <nd ref="4176918060"/>
    <nd ref="1136493198"/>
    <nd ref="195929800"/>
    <tag k="highway" v="unclassified"/>
    <tag k="maxspeed" v="30 mph"/>
    <tag k="name" v="Lodge Lane"/>
    <tag k="source" v="image"/>
    <tag k="source:name" v="OS Open Locator"/>
  </way>
  <way id="417065025" version="5" timestamp="2025-02-15T20:03:55Z" changeset="162549307" uid="95856" user="⇄ john paul jones &amp; gringo">
    <nd ref="4176917457"/>
    <nd ref="4176917459"/>
    <nd ref="4176917463"/>
    <nd ref="4176917467"/>
    <nd ref="4176917464"/>
    <nd ref="4176917465"/>
    <nd ref="4176917461"/>
    <nd ref="4176917462"/>
    <nd ref="4176917455"/>
    <nd ref="4176917454"/>
    <nd ref="4176917450"/>
    <nd ref="4176917449"/>
    <nd ref="4176917447"/>
    <nd ref="299139926"/>
    <nd ref="4176917446"/>
    <nd ref="4176917452"/>
    <nd ref="4176917451"/>
    <nd ref="4176917457"/>
    <tag k="HE_ref" v="1243811"/>
    <tag k="addr:city" v="Nottingham"/>
    <tag k="addr:country" v="GB"/>
    <tag k="addr:postcode" v="NG13 8JH"/>
    <tag k="addr:suburb" v="Screveton"/>
    <tag k="amenity" v="place_of_worship"/>
    <tag k="building" v="church"/>
    <tag k="denomination" v="anglican"/>
    <tag k="listed_status" v="Grade I"/>
    <tag k="name" v="Saint Wilfrid's"/>
    <tag k="religion" v="christian"/>
    <tag k="source:listed_status" v="Historic England"/>
    <tag k="wikidata" v="Q15979522"/>
    <tag k="wikipedia" v="en:St Wilfrid's Church, Screveton"/>
  </way>
  <way id="417065030" version="3" timestamp="2025-01-08T14:33:32Z" changeset="161136020" uid="2295875" user="cb44">
    <nd ref="4176918523"/>
    <nd ref="4176918516"/>
    <nd ref="4176918512"/>
    <nd ref="4176918515"/>
    <nd ref="12484522057"/>
    <nd ref="12484522058"/>
    <nd ref="4176918523"/>
    <tag k="addr:place" v="Home Farm"/>
    <tag k="addr:street" v="Lodge Lane"/>
    <tag k="building" v="yes"/>
    <tag k="name" v="The Ecocentre"/>
    <tag k="old_fhrs:id" v="551523"/>
    <tag k="website" v="http://www.eco-centre.org.uk/"/>
  </way>
  <way id="417065076" version="2" timestamp="2024-01-19T19:32:09Z" changeset="146455440" uid="242345" user="confusedbuffalo">
    <nd ref="195929794"/>
    <nd ref="4176917488"/>
    <nd ref="4176917989"/>
    <nd ref="195929795"/>
    <nd ref="195929796"/>
    <tag k="highway" v="unclassified"/>
    <tag k="maxspeed" v="60 mph"/>
    <tag k="maxspeed:type" v="GB:nsl_single"/>
  </way>
  <way id="685290764" version="4" timestamp="2025-04-21T18:36:24Z" changeset="165253542" uid="5229644" user="Nathan_A_RF">
    <nd ref="1811407721"/>
    <nd ref="1811407722"/>
    <tag k="highway" v="unclassified"/>
    <tag k="lanes" v="2"/>
    <tag k="lit" v="no"/>
    <tag k="maxspeed" v="60 mph"/>
    <tag k="maxspeed:type" v="GB:nsl_single"/>
  </way>
  <way id="842303890" version="4" timestamp="2025-02-15T20:03:55Z" changeset="162549307" uid="95856" user="⇄ john paul jones &amp; gringo">
    <nd ref="7858052089"/>
    <nd ref="7858057768"/>
    <nd ref="7858057755"/>
    <nd ref="7858052167"/>
    <nd ref="12484522059"/>
    <nd ref="7858052132"/>
    <nd ref="12484522069"/>
    <nd ref="7858052092"/>
    <nd ref="7858057796"/>
    <nd ref="12484522071"/>
    <nd ref="7858052089"/>
    <tag k="addr:city" v="Nottingham"/>
    <tag k="addr:country" v="GB"/>
    <tag k="addr:housename" v="Home Farm"/>
    <tag k="addr:postcode" v="NG13 8JL"/>
    <tag k="addr:street" v="Car Colston Road"/>
    <tag k="addr:suburb" v="Screveton"/>
    <tag k="amenity" v="cafe"/>
    <tag k="building" v="yes"/>
    <tag k="cuisine" v="cake;coffee_shop;breakfast"/>
    <tag k="internet_access" v="wlan"/>
    <tag k="internet_access:fee" v="customers"/>
    <tag k="name" v="Caffe Velo Verde"/>
    <tag k="opening_hours" v="Tu-Su 09:00-16:00"/>
    <tag k="outdoor_seating" v="yes"/>
    <tag k="phone" v="+44 115 648 0086"/>
    <tag k="website" v="https://caffeveloverde.co.uk/"/>
  </way>
  <way id="1287821465" version="2" timestamp="2024-06-18T08:32:15Z" changeset="152836533" uid="1429809" user="Rublistoi">
    <nd ref="4176918555"/>
    <nd ref="1136492855"/>
    <nd ref="4176918558"/>
    <nd ref="4176918562"/>
    <nd ref="4176918563"/>
    <nd ref="1136492987"/>
    <nd ref="4176918566"/>
    <nd ref="4176918567"/>
    <nd ref="282316893"/>
    <nd ref="11989736815"/>
    <nd ref="6905755221"/>
    <nd ref="282316895"/>
    <nd ref="11989736814"/>
    <nd ref="11943257955"/>
    <tag k="highway" v="unclassified"/>
    <tag k="maxspeed" v="60 mph"/>
    <tag k="maxspeed:type" v="GB:nsl_single"/>
    <tag k="name" v="Flintham Lane"/>
    <tag k="source:name" v="OS Open Locator"/>
  </way>
  <way id="1287821466" version="1" timestamp="2024-05-29T22:24:51Z" changeset="152009054" uid="1429809" user="Rublistoi">
    <nd ref="11943257955"/>
    <nd ref="11943257954"/>
    <tag k="bridge" v="yes"/>
    <tag k="highway" v="unclassified"/>
    <tag k="layer" v="1"/>
    <tag k="maxspeed" v="60 mph"/>
    <tag k="maxspeed:type" v="GB:nsl_single"/>
    <tag k="name" v="Flintham Lane"/>
    <tag k="source:name" v="OS Open Locator"/>
  </way>
  <way id="1379392901" version="1" timestamp="2025-04-21T18:36:24Z" changeset="165253542" uid="5229644" user="Nathan_A_RF">
    <nd ref="12772863760"/>
    <nd ref="1811407731"/>
    <nd ref="1811407732"/>
    <nd ref="1811407733"/>
    <tag k="highway" v="unclassified"/>
    <tag k="lanes" v="3"/>
    <tag k="lit" v="no"/>
    <tag k="maxspeed" v="60 mph"/>
    <tag k="maxspeed:type" v="GB:nsl_single"/>
  </way>
  <way id="1379392904" version="1" timestamp="2025-04-21T18:36:24Z" changeset="165253542" uid="5229644" user="Nathan_A_RF">
    <nd ref="1811407726"/>
    <nd ref="1811407720"/>
    <nd ref="1811407721"/>
    <tag k="highway" v="unclassified"/>
    <tag k="lanes" v="3"/>
    <tag k="lit" v="no"/>
    <tag k="maxspeed" v="60 mph"/>
    <tag k="maxspeed:type" v="GB:nsl_single"/>
  </way>

</osm>
