<?xml version="1.0" encoding="UTF-8"?>
<osm version="0.6" generator="Overpass API 0.7.62.8 e802775f">
<note>The data included in this document is from www.openstreetmap.org. The data is made available under ODbL.</note>
<meta osm_base="2025-10-23T17:30:41Z" areas="2025-10-23T14:54:58Z"/>

  <node id="193587100" lat="52.9483233" lon="-0.8974822" version="8" timestamp="2016-01-25T20:09:12Z" changeset="36804083" uid="1431482" user="JonOrchard"/>
  <node id="193591228" lat="52.9387829" lon="-0.8778477" version="12" timestamp="2025-04-23T20:16:32Z" changeset="165351142" uid="5008136" user="JayTurnr"/>
  <node id="257538454" lat="52.9209418" lon="-0.8903334" version="7" timestamp="2016-03-01T20:18:07Z" changeset="37553796" uid="1431482" user="JonOrchard"/>
  <node id="279127460" lat="52.9455737" lon="-0.9108186" version="11" timestamp="2022-10-15T23:30:22Z" changeset="127593186" uid="2295875" user="cb44"/>
  <node id="290713766" lat="52.9460517" lon="-0.9158970" version="9" timestamp="2025-04-21T15:20:02Z" changeset="165245731" uid="5229644" user="Nathan_A_RF"/>
  <node id="897564761" lat="52.9456311" lon="-0.9118380" version="5" timestamp="2025-04-21T14:52:41Z" changeset="165244340" uid="5008136" user="JayTurnr"/>
  <node id="3235266188" lat="52.9407454" lon="-0.9173207" version="3" timestamp="2016-02-11T21:26:18Z" changeset="37156328" uid="1431482" user="JonOrchard"/>
  <way id="18754978" version="21" timestamp="2025-04-21T15:23:38Z" changeset="165245912" uid="5229644" user="Nathan_A_RF">
    <nd ref="193586593"/>
    <nd ref="12772541314"/>
    <nd ref="297350123"/>
    <nd ref="297350132"/>
    <nd ref="297350116"/>
    <nd ref="297350107"/>
    <nd ref="297350105"/>
    <nd ref="4205154680"/>
    <nd ref="193587091"/>
    <nd ref="302051437"/>
    <nd ref="297350104"/>
    <nd ref="193587093"/>
    <nd ref="302051402"/>
    <tag k="highway" v="tertiary"/>
    <tag k="is_in:village" v="Whatton"/>
    <tag k="lanes" v="2"/>
    <tag k="name" v="Grantham Road"/>
    <tag k="ncn_ref" v="(15)"/>
    <tag k="source" v="gps"/>
  </way>
  <way id="18755417" version="28" timestamp="2025-04-23T20:16:32Z" changeset="165351142" uid="5008136" user="JayTurnr">
    <nd ref="193591228"/>
    <nd ref="12779761069"/>
    <nd ref="193592156"/>
    <nd ref="300405511"/>
    <nd ref="3089215150"/>
    <nd ref="193592157"/>
    <nd ref="300405516"/>
    <nd ref="193592159"/>
    <nd ref="300405513"/>
    <nd ref="193592161"/>
    <nd ref="3167037967"/>
    <nd ref="193592162"/>
    <nd ref="300405518"/>
    <nd ref="3179741601"/>
    <nd ref="193592164"/>
    <nd ref="193592165"/>
    <nd ref="193592166"/>
    <nd ref="300405526"/>
    <nd ref="193592167"/>
    <nd ref="300405521"/>
    <nd ref="193592169"/>
    <nd ref="193594103"/>
    <nd ref="193598753"/>
    <nd ref="658788176"/>
    <nd ref="300405531"/>
    <nd ref="300405534"/>
    <nd ref="2215388288"/>
    <nd ref="300405539"/>
    <nd ref="300405541"/>
    <nd ref="300405536"/>
    <nd ref="4035403638"/>
    <nd ref="300405542"/>
    <nd ref="300405545"/>
    <nd ref="300405543"/>
    <nd ref="300405546"/>
    <nd ref="193598756"/>
    <nd ref="4035436503"/>
    <nd ref="300405550"/>
    <nd ref="300405547"/>
    <nd ref="300405548"/>
    <nd ref="4721862753"/>
    <nd ref="300405552"/>
    <tag k="dual_carriageway" v="no"/>
    <tag k="highway" v="tertiary"/>
    <tag k="maxspeed" v="60 mph"/>
    <tag k="maxspeed:type" v="GB:nsl_single"/>
    <tag k="name" v="Redmile Lane"/>
    <tag k="source" v="gps"/>
    <tag k="source:name" v="survey"/>
  </way>
  <way id="25609120" version="9" timestamp="2019-10-21T22:15:52Z" changeset="76020036" uid="8270424" user="theArchDruid">
    <nd ref="193587100"/>
    <nd ref="290713789"/>
    <nd ref="290713788"/>
    <nd ref="290713787"/>
    <nd ref="6904000607"/>
    <nd ref="290713786"/>
    <nd ref="279127454"/>
    <nd ref="290713785"/>
    <nd ref="6904000610"/>
    <nd ref="290713784"/>
    <nd ref="290713783"/>
    <nd ref="6904000604"/>
    <nd ref="279127455"/>
    <nd ref="290713782"/>
    <nd ref="290713781"/>
    <nd ref="290713780"/>
    <nd ref="6904000606"/>
    <nd ref="279127456"/>
    <nd ref="290713779"/>
    <nd ref="290713778"/>
    <nd ref="279127457"/>
    <nd ref="290713777"/>
    <nd ref="290713776"/>
    <nd ref="279127458"/>
    <nd ref="897565091"/>
    <tag k="highway" v="tertiary"/>
    <tag k="name" v="Old Grantham Road"/>
    <tag k="oneway" v="no"/>
    <tag k="source" v="gps"/>
  </way>
  <way id="26525029" version="3" timestamp="2018-06-04T00:25:06Z" changeset="59519966" uid="51454" user="flint">
    <nd ref="290727037"/>
    <nd ref="290727042"/>
    <nd ref="290727049"/>
    <nd ref="290727050"/>
    <nd ref="296730068"/>
    <nd ref="290727051"/>
    <nd ref="296730000"/>
    <nd ref="296730001"/>
    <nd ref="296730003"/>
    <nd ref="296730006"/>
    <nd ref="296730009"/>
    <nd ref="296730011"/>
    <nd ref="296730012"/>
    <nd ref="296730015"/>
    <nd ref="296730017"/>
    <nd ref="296730021"/>
    <nd ref="296730022"/>
    <nd ref="296730024"/>
    <nd ref="296730026"/>
    <nd ref="296730047"/>
    <nd ref="296730051"/>
    <nd ref="296730027"/>
    <nd ref="296730054"/>
    <nd ref="296730030"/>
    <nd ref="296730046"/>
    <nd ref="296730032"/>
    <nd ref="296730035"/>
    <nd ref="296730036"/>
    <nd ref="296730038"/>
    <nd ref="296730043"/>
    <tag k="highway" v="residential"/>
    <tag k="name" v="Beverleys Avenue"/>
    <tag k="source" v="gps"/>
  </way>
  <way id="27053725" version="11" timestamp="2021-08-16T16:19:39Z" changeset="109760879" uid="3482573" user="GlossySpongy">
    <nd ref="193587100"/>
    <nd ref="302090844"/>
    <nd ref="3051272658"/>
    <nd ref="296923071"/>
    <nd ref="290727073"/>
    <nd ref="296730089"/>
    <nd ref="290727069"/>
    <nd ref="290727068"/>
    <nd ref="296923073"/>
    <nd ref="290727066"/>
    <nd ref="193587102"/>
    <nd ref="290727065"/>
    <nd ref="290727064"/>
    <nd ref="193587103"/>
    <nd ref="290727093"/>
    <nd ref="290727063"/>
    <nd ref="290727095"/>
    <nd ref="193587106"/>
    <nd ref="290727097"/>
    <nd ref="252815961"/>
    <nd ref="290727062"/>
    <nd ref="290727101"/>
    <nd ref="290727061"/>
    <nd ref="290727059"/>
    <nd ref="290727103"/>
    <nd ref="290727058"/>
    <nd ref="290727104"/>
    <nd ref="290727037"/>
    <nd ref="290727034"/>
    <nd ref="290727056"/>
    <nd ref="193587108"/>
    <nd ref="298283879"/>
    <tag k="cycleway:both" v="no"/>
    <tag k="highway" v="tertiary"/>
    <tag k="is_in:village" v="Whatton"/>
    <tag k="name" v="Dark Lane"/>
    <tag k="surface" v="asphalt"/>
  </way>
  <way id="27053726" version="2" timestamp="2018-06-04T00:25:06Z" changeset="59519966" uid="51454" user="flint">
    <nd ref="296730011"/>
    <nd ref="296730067"/>
    <nd ref="296730057"/>
    <nd ref="296730059"/>
    <nd ref="296730062"/>
    <nd ref="296730065"/>
    <tag k="highway" v="residential"/>
    <tag k="name" v="Beverleys Avenue"/>
    <tag k="source" v="gps"/>
  </way>
  <way id="27053727" version="1" timestamp="2008-09-14T02:53:01Z" changeset="628638" uid="51454" user="flint">
    <nd ref="296730068"/>
    <nd ref="296730072"/>
    <nd ref="296730076"/>
    <nd ref="296730079"/>
    <nd ref="296730081"/>
    <tag k="highway" v="residential"/>
    <tag k="name" v="Beverleys Avenue"/>
    <tag k="source" v="gps"/>
  </way>
  <way id="27053732" version="3" timestamp="2017-04-10T10:47:51Z" changeset="47618308" uid="2295875" user="cb44">
    <nd ref="296923071"/>
    <nd ref="296730108"/>
    <nd ref="4785994141"/>
    <nd ref="296730123"/>
    <tag k="highway" v="residential"/>
    <tag k="name" v="Azimghur Road"/>
    <tag k="source" v="gps"/>
  </way>
  <way id="27053733" version="1" timestamp="2008-09-14T02:53:02Z" changeset="628638" uid="51454" user="flint">
    <nd ref="193587102"/>
    <nd ref="296730124"/>
    <nd ref="296730127"/>
    <nd ref="296730129"/>
    <nd ref="296730131"/>
    <nd ref="296730133"/>
    <nd ref="296730135"/>
    <nd ref="296730137"/>
    <nd ref="296730138"/>
    <nd ref="296730141"/>
    <nd ref="296730143"/>
    <nd ref="296730144"/>
    <nd ref="296730146"/>
    <nd ref="296730147"/>
    <nd ref="296730148"/>
    <nd ref="296730156"/>
    <nd ref="296730152"/>
    <nd ref="296730153"/>
    <tag k="highway" v="residential"/>
    <tag k="name" v="Cottage Avenue"/>
    <tag k="source" v="gps"/>
  </way>
  <way id="27053735" version="3" timestamp="2008-09-24T22:29:22Z" changeset="692149" uid="51454" user="flint">
    <nd ref="296730131"/>
    <nd ref="296730184"/>
    <nd ref="296730187"/>
    <nd ref="297796085"/>
    <nd ref="296730189"/>
    <nd ref="299593550"/>
    <nd ref="299593551"/>
    <nd ref="299593557"/>
    <tag k="highway" v="residential"/>
    <tag k="name" v="Smite Close"/>
    <tag k="source" v="gps"/>
  </way>
  <way id="27101692" version="4" timestamp="2021-01-28T17:21:04Z" changeset="98311064" uid="10455643" user="kotamadh">
    <nd ref="297347971"/>
    <nd ref="297347954"/>
    <nd ref="5662175524"/>
    <nd ref="5662175523"/>
    <nd ref="302051716"/>
    <nd ref="297347972"/>
    <nd ref="297347974"/>
    <nd ref="297347975"/>
    <nd ref="8372530630"/>
    <nd ref="297347981"/>
    <nd ref="297347987"/>
    <nd ref="297347994"/>
    <nd ref="302051482"/>
    <nd ref="297347995"/>
    <nd ref="297347996"/>
    <tag k="highway" v="residential"/>
    <tag k="name" v="Old Grantham Road"/>
    <tag k="source" v="gps"/>
  </way>
  <way id="27101694" version="6" timestamp="2021-02-12T06:05:54Z" changeset="99150319" uid="8650722" user="back_spin">
    <nd ref="297348017"/>
    <nd ref="297347999"/>
    <nd ref="297347998"/>
    <nd ref="297347997"/>
    <nd ref="302051514"/>
    <nd ref="297347996"/>
    <nd ref="302051498"/>
    <nd ref="302051499"/>
    <nd ref="8278907997"/>
    <nd ref="302051501"/>
    <nd ref="302051503"/>
    <nd ref="302051504"/>
    <nd ref="302051506"/>
    <nd ref="302051508"/>
    <nd ref="302051509"/>
    <nd ref="302051517"/>
    <nd ref="302051518"/>
    <nd ref="302051510"/>
    <nd ref="302051519"/>
    <nd ref="302051520"/>
    <nd ref="302051521"/>
    <nd ref="302051522"/>
    <nd ref="302051556"/>
    <nd ref="252815710"/>
    <nd ref="302051524"/>
    <nd ref="8415157832"/>
    <nd ref="302051512"/>
    <tag k="highway" v="residential"/>
    <tag k="name" v="Conery Lane"/>
    <tag k="source" v="gps"/>
  </way>
  <way id="27101697" version="3" timestamp="2021-05-02T13:34:27Z" changeset="103995407" uid="493595" user="Yorvik Prestigitator">
    <nd ref="297348005"/>
    <nd ref="297348006"/>
    <nd ref="297348015"/>
    <nd ref="297348007"/>
    <nd ref="297348008"/>
    <nd ref="302051326"/>
    <nd ref="302051327"/>
    <nd ref="302051328"/>
    <nd ref="302051329"/>
    <nd ref="302051330"/>
    <nd ref="302051331"/>
    <nd ref="302051332"/>
    <nd ref="302051335"/>
    <nd ref="302051336"/>
    <nd ref="302051159"/>
    <tag k="highway" v="residential"/>
    <tag k="name" v="School Lane"/>
    <tag k="source" v="gps"/>
  </way>
  <way id="27101700" version="6" timestamp="2021-08-19T05:00:43Z" changeset="109906985" uid="10127749" user="nbhiss">
    <nd ref="297348017"/>
    <nd ref="297348000"/>
    <nd ref="297348002"/>
    <nd ref="297348003"/>
    <nd ref="297348005"/>
    <nd ref="302051325"/>
    <nd ref="302051324"/>
    <nd ref="302051323"/>
    <nd ref="302051322"/>
    <nd ref="302051321"/>
    <nd ref="302051320"/>
    <nd ref="7954720328"/>
    <nd ref="302051319"/>
    <nd ref="302051315"/>
    <nd ref="302051200"/>
    <nd ref="302051201"/>
    <nd ref="302051198"/>
    <nd ref="302051269"/>
    <nd ref="302051212"/>
    <nd ref="9018877332"/>
    <nd ref="302051213"/>
    <nd ref="302051215"/>
    <nd ref="302051222"/>
    <nd ref="302051254"/>
    <nd ref="4885153228"/>
    <nd ref="4885153227"/>
    <nd ref="4885153229"/>
    <tag k="highway" v="residential"/>
    <tag k="name" v="Main Street"/>
    <tag k="source" v="gps"/>
  </way>
  <way id="27363540" version="15" timestamp="2025-04-21T15:00:27Z" changeset="165244762" uid="5008136" user="JayTurnr">
    <nd ref="12772322584"/>
    <nd ref="6567617365"/>
    <nd ref="3244401894"/>
    <nd ref="300405503"/>
    <nd ref="300405501"/>
    <nd ref="3244401890"/>
    <nd ref="6564477467"/>
    <nd ref="300405504"/>
    <nd ref="300405505"/>
    <tag k="highway" v="trunk"/>
    <tag k="lanes" v="2"/>
    <tag k="lit" v="no"/>
    <tag k="maxspeed" v="60 mph"/>
    <tag k="maxspeed:type" v="GB:nsl_single"/>
    <tag k="national_highways:area" v="7"/>
    <tag k="operator" v="National Highways"/>
    <tag k="operator:wikidata" v="Q5760006"/>
    <tag k="ref" v="A52"/>
    <tag k="shoulder" v="no"/>
    <tag k="source" v="gps"/>
    <tag k="source:maxspeed" v="Mapillary"/>
    <tag k="surface" v="asphalt"/>
  </way>
  <way id="27363541" version="38" timestamp="2025-04-23T20:17:51Z" changeset="165351173" uid="5008136" user="JayTurnr">
    <nd ref="193591228"/>
    <nd ref="101066092"/>
    <nd ref="12779761070"/>
    <nd ref="27044954"/>
    <nd ref="101066093"/>
    <nd ref="655410306"/>
    <nd ref="4910958220"/>
    <nd ref="101066094"/>
    <nd ref="101066095"/>
    <nd ref="4910959721"/>
    <nd ref="297351991"/>
    <nd ref="12779751022"/>
    <nd ref="330492595"/>
    <nd ref="21154048"/>
    <tag k="highway" v="trunk"/>
    <tag k="lanes" v="2"/>
    <tag k="lit" v="no"/>
    <tag k="maxspeed" v="60 mph"/>
    <tag k="maxspeed:type" v="GB:nsl_single"/>
    <tag k="name" v="Grantham Road"/>
    <tag k="national_highways:area" v="7"/>
    <tag k="operator" v="National Highways"/>
    <tag k="operator:wikidata" v="Q5760006"/>
    <tag k="ref" v="A52"/>
    <tag k="shoulder" v="no"/>
    <tag k="source:maxspeed" v="Mapillary"/>
    <tag k="source:name" v="NaPTAN"/>
    <tag k="surface" v="asphalt"/>
  </way>
  <way id="27513931" version="3" timestamp="2025-06-07T11:27:08Z" changeset="167304626" uid="8857" user="philipcullen">
    <nd ref="302050656"/>
    <nd ref="302050658"/>
    <nd ref="302050659"/>
    <nd ref="302050657"/>
    <nd ref="302050656"/>
    <tag k="building" v="public"/>
    <tag k="name" v="Club House"/>
    <tag k="ref:GB:uprn" v="3040071879"/>
  </way>
  <way id="27513936" version="2" timestamp="2018-05-16T00:00:31Z" changeset="59000712" uid="51454" user="flint">
    <nd ref="302050954"/>
    <nd ref="302051007"/>
    <nd ref="302051008"/>
    <nd ref="302051009"/>
    <nd ref="302051044"/>
    <nd ref="302051011"/>
    <nd ref="302051045"/>
    <nd ref="302051012"/>
    <nd ref="302051013"/>
    <nd ref="302051014"/>
    <nd ref="302051015"/>
    <nd ref="302051040"/>
    <nd ref="302051043"/>
    <nd ref="302051044"/>
    <tag k="highway" v="residential"/>
    <tag k="name" v="Riverside"/>
    <tag k="source" v="gps"/>
  </way>
  <way id="27513937" version="2" timestamp="2018-05-16T00:00:32Z" changeset="59000712" uid="51454" user="flint">
    <nd ref="297348029"/>
    <nd ref="302051149"/>
    <nd ref="302051150"/>
    <nd ref="302051151"/>
    <nd ref="302051152"/>
    <nd ref="302051153"/>
    <nd ref="302051154"/>
    <nd ref="302051155"/>
    <nd ref="5620876243"/>
    <nd ref="302051156"/>
    <nd ref="302051157"/>
    <nd ref="302051159"/>
    <nd ref="5620876242"/>
    <nd ref="5620876241"/>
    <nd ref="302051189"/>
    <nd ref="302051191"/>
    <nd ref="302051195"/>
    <nd ref="302051197"/>
    <nd ref="302051199"/>
    <nd ref="302051198"/>
    <tag k="highway" v="residential"/>
    <tag k="name" v="Sunbeam Street"/>
    <tag k="source" v="gps"/>
  </way>
  <way id="27513940" version="1" timestamp="2008-10-04T17:52:59Z" changeset="59322" uid="51454" user="flint">
    <nd ref="302051097"/>
    <nd ref="302051098"/>
    <nd ref="302051099"/>
    <nd ref="302051100"/>
    <nd ref="302051101"/>
    <nd ref="302051268"/>
    <tag k="highway" v="residential"/>
    <tag k="name" v="Chapel Walk"/>
  </way>
  <way id="27513941" version="4" timestamp="2008-10-05T18:50:56Z" changeset="86955" uid="51454" user="flint">
    <nd ref="302051198"/>
    <nd ref="302051270"/>
    <nd ref="302051271"/>
    <nd ref="302051272"/>
    <nd ref="302051273"/>
    <nd ref="302051274"/>
    <nd ref="302051275"/>
    <nd ref="302051276"/>
    <nd ref="302051277"/>
    <nd ref="302051278"/>
    <nd ref="302051279"/>
    <nd ref="302051280"/>
    <tag k="created_by" v="Potlatch 0.10c"/>
    <tag k="highway" v="residential"/>
    <tag k="name" v="Whipling Close"/>
    <tag k="source" v="gps"/>
  </way>
  <way id="27513943" version="5" timestamp="2019-11-09T16:16:11Z" changeset="76848118" uid="51454" user="flint">
    <nd ref="297348008"/>
    <nd ref="297348009"/>
    <nd ref="302051286"/>
    <nd ref="297348010"/>
    <nd ref="297348011"/>
    <nd ref="6960249680"/>
    <nd ref="297348019"/>
    <nd ref="302051285"/>
    <nd ref="302051284"/>
    <nd ref="297348020"/>
    <nd ref="302051283"/>
    <nd ref="297348021"/>
    <nd ref="302051282"/>
    <nd ref="297348022"/>
    <nd ref="297348023"/>
    <nd ref="5620827217"/>
    <nd ref="302051281"/>
    <nd ref="297348025"/>
    <nd ref="297348026"/>
    <nd ref="297348027"/>
    <nd ref="297348028"/>
    <nd ref="297348029"/>
    <nd ref="302050931"/>
    <nd ref="302050932"/>
    <nd ref="302050933"/>
    <nd ref="302050934"/>
    <nd ref="302050951"/>
    <nd ref="302050952"/>
    <nd ref="302050953"/>
    <nd ref="302050954"/>
    <nd ref="302051046"/>
    <nd ref="302051047"/>
    <nd ref="302051048"/>
    <nd ref="302051092"/>
    <nd ref="302051093"/>
    <nd ref="302051094"/>
    <nd ref="302051267"/>
    <nd ref="302051095"/>
    <nd ref="302051096"/>
    <nd ref="303193270"/>
    <nd ref="302051097"/>
    <tag k="highway" v="residential"/>
    <tag k="name" v="Church Street"/>
    <tag k="source" v="gps"/>
  </way>
  <way id="27513945" version="4" timestamp="2023-09-10T14:34:31Z" changeset="141059419" uid="1778799" user="SomeoneElse_Revert">
    <nd ref="300405476"/>
    <nd ref="193587098"/>
    <tag k="bridge" v="yes"/>
    <tag k="created_by" v="JOSM"/>
    <tag k="highway" v="tertiary"/>
    <tag k="is_in:village" v="Whatton"/>
    <tag k="layer" v="1"/>
    <tag k="name" v="Grantham Road"/>
    <tag k="ncn_ref" v="15"/>
    <tag k="source" v="gps"/>
  </way>
  <way id="27513946" version="6" timestamp="2023-09-10T15:30:03Z" changeset="141066786" uid="1778799" user="SomeoneElse_Revert">
    <nd ref="193587098"/>
    <nd ref="193587100"/>
    <tag k="highway" v="tertiary"/>
    <tag k="is_in:village" v="Whatton"/>
    <tag k="name" v="Grantham Road"/>
    <tag k="ncn_ref" v="(15)"/>
    <tag k="source" v="gps"/>
  </way>
  <way id="27513958" version="1" timestamp="2008-10-04T17:53:17Z" changeset="59322" uid="51454" user="flint">
    <nd ref="302051518"/>
    <nd ref="302051577"/>
    <nd ref="302051585"/>
    <nd ref="302051590"/>
    <nd ref="302051591"/>
    <nd ref="302051599"/>
    <nd ref="302051600"/>
    <nd ref="302051601"/>
    <nd ref="302051602"/>
    <nd ref="302051603"/>
    <nd ref="302051604"/>
    <nd ref="302051605"/>
    <nd ref="302051606"/>
    <nd ref="302051607"/>
    <nd ref="302051608"/>
    <nd ref="302051609"/>
    <nd ref="302051610"/>
    <nd ref="302051611"/>
    <nd ref="302051612"/>
    <nd ref="302051645"/>
    <tag k="created_by" v="JOSM"/>
    <tag k="highway" v="residential"/>
    <tag k="name" v="Conery Gardens"/>
    <tag k="source" v="gps"/>
  </way>
  <way id="27513959" version="1" timestamp="2008-10-04T17:53:18Z" changeset="59322" uid="51454" user="flint">
    <nd ref="297347994"/>
    <nd ref="302051652"/>
    <nd ref="302051654"/>
    <nd ref="302051656"/>
    <nd ref="302051659"/>
    <nd ref="302051661"/>
    <nd ref="302051664"/>
    <nd ref="302051666"/>
    <nd ref="302051668"/>
    <nd ref="302051670"/>
    <nd ref="302051693"/>
    <tag k="created_by" v="JOSM"/>
    <tag k="highway" v="residential"/>
    <tag k="name" v="The Lawns"/>
    <tag k="source" v="gps"/>
  </way>
  <way id="27611441" version="1" timestamp="2008-10-08T23:25:32Z" changeset="198720" uid="51454" user="flint">
    <nd ref="302051155"/>
    <nd ref="303193271"/>
    <nd ref="303193261"/>
    <nd ref="303193262"/>
    <nd ref="303193263"/>
    <nd ref="303193264"/>
    <nd ref="303193265"/>
    <nd ref="303193266"/>
    <nd ref="303193267"/>
    <nd ref="303193268"/>
    <nd ref="303193269"/>
    <nd ref="303193270"/>
    <tag k="created_by" v="JOSM"/>
    <tag k="highway" v="residential"/>
    <tag k="name" v="Burton Lane"/>
    <tag k="source" v="gps"/>
  </way>
  <way id="29435742" version="11" timestamp="2021-04-09T09:24:35Z" changeset="102628105" uid="12924534" user="Stephen Shanks">
    <nd ref="3235261871"/>
    <nd ref="3235261870"/>
    <nd ref="324412643"/>
    <nd ref="6774821525"/>
    <nd ref="8005388715"/>
    <nd ref="324412754"/>
    <nd ref="985234240"/>
    <nd ref="985234237"/>
    <tag k="fixme" v="Needs proper survey and classification check"/>
    <tag k="highway" v="unclassified"/>
    <tag k="name" v="Manor Lane"/>
    <tag k="source" v="npe"/>
    <tag k="source:name" v="OS OpenData StreetView"/>
  </way>
  <way id="29435755" version="8" timestamp="2022-10-15T23:59:17Z" changeset="127593492" uid="2295875" user="cb44">
    <nd ref="324412675"/>
    <nd ref="10104600774"/>
    <nd ref="10104600773"/>
    <nd ref="324412678"/>
    <nd ref="10104600772"/>
    <nd ref="10104600771"/>
    <nd ref="324412679"/>
    <nd ref="10104600770"/>
    <nd ref="10104600769"/>
    <nd ref="324412680"/>
    <nd ref="2218910364"/>
    <nd ref="10104600768"/>
    <nd ref="10104600751"/>
    <nd ref="10104600754"/>
    <nd ref="10104600756"/>
    <nd ref="985234238"/>
    <nd ref="10104600762"/>
    <nd ref="10104600784"/>
    <nd ref="10104600788"/>
    <nd ref="8294810017"/>
    <tag k="highway" v="unclassified"/>
    <tag k="name" v="Conery Lane"/>
    <tag k="source" v="npe"/>
    <tag k="source:name" v="OS OpenData StreetView"/>
  </way>
  <way id="30028218" version="17" timestamp="2025-04-21T14:59:35Z" changeset="165244706" uid="5008136" user="JayTurnr">
    <nd ref="330635365"/>
    <nd ref="101066086"/>
    <nd ref="297350144"/>
    <nd ref="21154050"/>
    <nd ref="297350154"/>
    <nd ref="12772322579"/>
    <tag k="highway" v="trunk"/>
    <tag k="lanes" v="2"/>
    <tag k="lit" v="no"/>
    <tag k="maxspeed" v="60 mph"/>
    <tag k="maxspeed:type" v="GB:nsl_single"/>
    <tag k="name" v="Grantham Road"/>
    <tag k="national_highways:area" v="7"/>
    <tag k="operator" v="National Highways"/>
    <tag k="operator:wikidata" v="Q5760006"/>
    <tag k="ref" v="A52"/>
    <tag k="shoulder" v="no"/>
    <tag k="source" v="gps"/>
    <tag k="source:maxspeed" v="Mapillary"/>
    <tag k="source:name" v="NaPTAN"/>
    <tag k="surface" v="asphalt"/>
  </way>
  <way id="35448165" version="11" timestamp="2016-05-24T11:58:32Z" changeset="39531742" uid="207845" user="will_p">
    <nd ref="257538454"/>
    <nd ref="257538455"/>
    <nd ref="4001431233"/>
    <nd ref="257538456"/>
    <nd ref="257538457"/>
    <nd ref="4001431236"/>
    <nd ref="257538458"/>
    <nd ref="3244382861"/>
    <nd ref="4001434873"/>
    <nd ref="257538459"/>
    <nd ref="257538460"/>
    <nd ref="3244382627"/>
    <nd ref="4001434878"/>
    <nd ref="3244382873"/>
    <nd ref="4001434879"/>
    <nd ref="3244382866"/>
    <nd ref="257538461"/>
    <nd ref="4001434880"/>
    <nd ref="3244382649"/>
    <nd ref="257538462"/>
    <nd ref="4001434881"/>
    <nd ref="257538463"/>
    <nd ref="4001434882"/>
    <nd ref="257538464"/>
    <nd ref="3244382622"/>
    <nd ref="257538465"/>
    <nd ref="4001434884"/>
    <nd ref="4001434883"/>
    <nd ref="3244382590"/>
    <nd ref="4001434885"/>
    <nd ref="4001448573"/>
    <nd ref="257538466"/>
    <nd ref="4001434886"/>
    <nd ref="3235261871"/>
    <nd ref="257538467"/>
    <nd ref="4001446401"/>
    <nd ref="324412675"/>
    <nd ref="257538468"/>
    <nd ref="4001446375"/>
    <nd ref="3244382890"/>
    <nd ref="4001446374"/>
    <nd ref="257538469"/>
    <nd ref="3244382901"/>
    <nd ref="3244382576"/>
    <nd ref="3244382637"/>
    <nd ref="257538470"/>
    <tag k="highway" v="tertiary"/>
    <tag k="name" v="Granby Lane"/>
    <tag k="source" v="gps"/>
  </way>
  <way id="51554961" version="14" timestamp="2022-10-28T19:14:29Z" changeset="128188162" uid="13666626" user="RedAuburn">
    <nd ref="300405505"/>
    <nd ref="27044955"/>
    <tag k="bridge" v="yes"/>
    <tag k="bridge:name" v="Elton Road Bridge"/>
    <tag k="highway" v="trunk"/>
    <tag k="lanes" v="2"/>
    <tag k="layer" v="1"/>
    <tag k="lit" v="no"/>
    <tag k="maxspeed" v="60 mph"/>
    <tag k="maxspeed:type" v="GB:nsl_single"/>
    <tag k="maxweight:signed" v="no"/>
    <tag k="national_highways:area" v="7"/>
    <tag k="operator" v="National Highways"/>
    <tag k="operator:wikidata" v="Q5760006"/>
    <tag k="ref" v="A52"/>
    <tag k="source" v="gps"/>
    <tag k="source:maxspeed" v="Mapillary"/>
    <tag k="surface" v="asphalt"/>
  </way>
  <way id="51554965" version="9" timestamp="2025-04-21T15:23:38Z" changeset="165245912" uid="5229644" user="Nathan_A_RF">
    <nd ref="27044955"/>
    <nd ref="300405507"/>
    <nd ref="300405506"/>
    <nd ref="101066090"/>
    <nd ref="300405508"/>
    <nd ref="21154049"/>
    <nd ref="300405509"/>
    <tag k="highway" v="trunk"/>
    <tag k="lanes" v="2"/>
    <tag k="lit" v="no"/>
    <tag k="maxspeed" v="60 mph"/>
    <tag k="maxspeed:type" v="GB:nsl_single"/>
    <tag k="national_highways:area" v="7"/>
    <tag k="operator" v="National Highways"/>
    <tag k="operator:wikidata" v="Q5760006"/>
    <tag k="ref" v="A52"/>
    <tag k="shoulder" v="no"/>
    <tag k="source" v="gps"/>
    <tag k="source:maxspeed" v="Mapillary"/>
    <tag k="surface" v="asphalt"/>
  </way>
  <way id="51555020" version="9" timestamp="2022-10-28T19:14:29Z" changeset="128188162" uid="13666626" user="RedAuburn">
    <nd ref="659246845"/>
    <nd ref="324412877"/>
    <nd ref="330635365"/>
    <tag k="highway" v="trunk"/>
    <tag k="lanes" v="2"/>
    <tag k="lit" v="no"/>
    <tag k="maxspeed" v="60 mph"/>
    <tag k="maxspeed:type" v="GB:nsl_single"/>
    <tag k="name" v="Grantham Road"/>
    <tag k="national_highways:area" v="7"/>
    <tag k="operator" v="National Highways"/>
    <tag k="operator:wikidata" v="Q5760006"/>
    <tag k="ref" v="A52"/>
    <tag k="source" v="gps"/>
    <tag k="source:maxspeed" v="Mapillary"/>
    <tag k="source:name" v="NaPTAN"/>
    <tag k="surface" v="asphalt"/>
  </way>
  <way id="51555026" version="10" timestamp="2022-10-28T19:14:29Z" changeset="128188162" uid="13666626" user="RedAuburn">
    <nd ref="659246871"/>
    <nd ref="659246845"/>
    <tag k="bridge" v="yes"/>
    <tag k="highway" v="trunk"/>
    <tag k="lanes" v="2"/>
    <tag k="layer" v="1"/>
    <tag k="lit" v="no"/>
    <tag k="maxspeed" v="60 mph"/>
    <tag k="maxspeed:type" v="GB:nsl_single"/>
    <tag k="maxweight:signed" v="no"/>
    <tag k="name" v="Grantham Road"/>
    <tag k="national_highways:area" v="7"/>
    <tag k="operator" v="National Highways"/>
    <tag k="operator:wikidata" v="Q5760006"/>
    <tag k="ref" v="A52"/>
    <tag k="source" v="gps"/>
    <tag k="source:maxspeed" v="Mapillary"/>
    <tag k="source:name" v="NaPTAN"/>
    <tag k="surface" v="asphalt"/>
  </way>
  <way id="76084311" version="14" timestamp="2022-10-28T19:14:34Z" changeset="128188162" uid="13666626" user="RedAuburn">
    <nd ref="290713766"/>
    <nd ref="6556696215"/>
    <nd ref="3146238006"/>
    <nd ref="290713767"/>
    <nd ref="290713768"/>
    <nd ref="897564761"/>
    <nd ref="101066085"/>
    <nd ref="279127460"/>
    <tag k="highway" v="trunk"/>
    <tag k="lanes" v="2"/>
    <tag k="lit" v="yes"/>
    <tag k="maxspeed" v="60 mph"/>
    <tag k="maxspeed:type" v="GB:nsl_single"/>
    <tag k="name" v="Grantham Road"/>
    <tag k="national_highways:area" v="7"/>
    <tag k="operator" v="National Highways"/>
    <tag k="operator:wikidata" v="Q5760006"/>
    <tag k="ref" v="A52"/>
    <tag k="shoulder" v="no"/>
    <tag k="source" v="gps"/>
    <tag k="source:maxspeed" v="Mapillary"/>
    <tag k="source:name" v="OS OpenData StreetView"/>
    <tag k="surface" v="asphalt"/>
  </way>
  <way id="76084390" version="4" timestamp="2025-04-21T14:52:41Z" changeset="165244340" uid="5008136" user="JayTurnr">
    <nd ref="897564761"/>
    <nd ref="12772301873"/>
    <nd ref="3146238010"/>
    <nd ref="897565045"/>
    <tag k="highway" v="residential"/>
    <tag k="name" v="Cromwell Road"/>
  </way>
  <way id="84865900" version="4" timestamp="2022-10-15T23:59:17Z" changeset="127593492" uid="2295875" user="cb44">
    <nd ref="985234238"/>
    <nd ref="10104600763"/>
    <nd ref="10104600764"/>
    <nd ref="985234239"/>
    <nd ref="10104600765"/>
    <nd ref="985234245"/>
    <nd ref="10104600766"/>
    <nd ref="10104600767"/>
    <nd ref="985234240"/>
    <tag k="highway" v="unclassified"/>
    <tag k="name" v="Manor Lane"/>
    <tag k="source" v="os_opendata_streetview"/>
  </way>
  <way id="84865902" version="8" timestamp="2025-04-21T14:59:35Z" changeset="165244706" uid="5008136" user="JayTurnr">
    <nd ref="985234243"/>
    <nd ref="12772322581"/>
    <nd ref="985234272"/>
    <nd ref="985234245"/>
    <tag k="highway" v="unclassified"/>
    <tag k="lanes" v="2"/>
    <tag k="name" v="Manor Lane"/>
    <tag k="source" v="os_opendata_streetview"/>
  </way>
  <way id="84865927" version="7" timestamp="2025-04-21T15:23:38Z" changeset="165245912" uid="5229644" user="Nathan_A_RF">
    <nd ref="3235256772"/>
    <nd ref="12772541312"/>
    <nd ref="12772541311"/>
    <nd ref="3235256771"/>
    <nd ref="12772322580"/>
    <nd ref="985234272"/>
    <tag k="highway" v="unclassified"/>
    <tag k="lanes" v="1"/>
    <tag k="oneway" v="yes"/>
    <tag k="source" v="os_opendata_streetview"/>
  </way>
  <way id="84865931" version="7" timestamp="2025-04-21T15:23:38Z" changeset="165245912" uid="5229644" user="Nathan_A_RF">
    <nd ref="3235256773"/>
    <nd ref="12772541313"/>
    <nd ref="4205154666"/>
    <nd ref="985234394"/>
    <nd ref="12772322582"/>
    <nd ref="4205154667"/>
    <nd ref="297350123"/>
    <tag k="highway" v="tertiary_link"/>
    <tag k="is_in:village" v="Whatton"/>
    <tag k="ncn_ref" v="(15)"/>
    <tag k="oneway" v="yes"/>
    <tag k="source" v="gps"/>
  </way>
  <way id="317285486" version="5" timestamp="2016-10-03T17:51:02Z" changeset="42611490" uid="84681" user="SK53">
    <nd ref="3235266188"/>
    <nd ref="257538471"/>
    <nd ref="4001446372"/>
    <nd ref="4001446373"/>
    <nd ref="3244382582"/>
    <nd ref="4001446371"/>
    <nd ref="257538472"/>
    <nd ref="257538473"/>
    <nd ref="4001439593"/>
    <nd ref="257538474"/>
    <nd ref="257538475"/>
    <nd ref="257538476"/>
    <nd ref="257538477"/>
    <nd ref="4001439592"/>
    <nd ref="3244382885"/>
    <nd ref="4001439591"/>
    <nd ref="257538478"/>
    <nd ref="4001439590"/>
    <tag k="highway" v="tertiary"/>
    <tag k="name" v="Granby Lane"/>
    <tag k="source" v="gps"/>
  </way>
  <way id="317285487" version="5" timestamp="2021-01-22T19:59:15Z" changeset="97994539" uid="322039" user="MacLondon">
    <nd ref="257538470"/>
    <nd ref="3235266188"/>
    <tag k="bridge" v="yes"/>
    <tag k="bridge:name" v="Thorough Bridge"/>
    <tag k="highway" v="tertiary"/>
    <tag k="layer" v="1"/>
    <tag k="name" v="Granby Lane"/>
    <tag k="source" v="gps;Bing"/>
    <tag k="source:bridge_name" v="OS_OpenData_StreetView"/>
    <tag k="wikidata" v="Q26672685"/>
  </way>
  <way id="472430964" version="4" timestamp="2022-10-28T19:15:37Z" changeset="128188196" uid="13666626" user="RedAuburn">
    <nd ref="4666440035"/>
    <nd ref="659246871"/>
    <tag k="highway" v="trunk"/>
    <tag k="lanes" v="2"/>
    <tag k="lit" v="no"/>
    <tag k="maxspeed" v="60 mph"/>
    <tag k="maxspeed:type" v="GB:nsl_single"/>
    <tag k="name" v="Grantham Road"/>
    <tag k="national_highways:area" v="7"/>
    <tag k="operator" v="National Highways"/>
    <tag k="operator:wikidata" v="Q5760006"/>
    <tag k="ref" v="A52"/>
    <tag k="source" v="gps"/>
    <tag k="source:maxspeed" v="Mapillary"/>
    <tag k="source:name" v="OS OpenData StreetView"/>
    <tag k="surface" v="asphalt"/>
  </way>
  <way id="587954303" version="7" timestamp="2025-08-08T23:24:41Z" changeset="170177807" uid="8857" user="philipcullen">
    <nd ref="5616155173"/>
    <nd ref="5616155174"/>
    <nd ref="5616155175"/>
    <nd ref="5616155176"/>
    <nd ref="5616155177"/>
    <nd ref="5616155178"/>
    <nd ref="5616155179"/>
    <nd ref="5616155180"/>
    <nd ref="5616155173"/>
    <tag k="addr:city" v="Nottingham"/>
    <tag k="addr:country" v="GB"/>
    <tag k="addr:postcode" v="NG13 9EN"/>
    <tag k="addr:suburb" v="Whatton-in-the-Vale"/>
    <tag k="amenity" v="place_of_worship"/>
    <tag k="building" v="church"/>
    <tag k="denomination" v="anglican"/>
    <tag k="name" v="Saint John of Beverley"/>
    <tag k="ref:GB:uprn" v="3040050335;3040070093"/>
    <tag k="ref:dove" v="10882"/>
    <tag k="religion" v="christian"/>
    <tag k="wikidata" v="Q5117242"/>
    <tag k="wikipedia" v="en:Church of St John of Beverley, Whatton"/>
  </way>
  <way id="588509056" version="2" timestamp="2018-05-20T22:31:49Z" changeset="59134713" uid="51454" user="flint">
    <nd ref="5620876185"/>
    <nd ref="5620876186"/>
    <nd ref="5620876187"/>
    <nd ref="5620876188"/>
    <nd ref="5620876185"/>
    <tag k="building" v="chapel"/>
    <tag k="name" v="Wesleyan Chapel"/>
  </way>
  <way id="588509064" version="1" timestamp="2018-05-16T00:00:24Z" changeset="59000712" uid="51454" user="flint">
    <nd ref="5620876227"/>
    <nd ref="5620876228"/>
    <nd ref="5620876229"/>
    <nd ref="5620876230"/>
    <nd ref="5620876231"/>
    <nd ref="5620876232"/>
    <nd ref="5620876233"/>
    <nd ref="5620876234"/>
    <nd ref="5620876235"/>
    <nd ref="5620876236"/>
    <nd ref="5620876237"/>
    <nd ref="5620876249"/>
    <nd ref="5620876238"/>
    <nd ref="5620876239"/>
    <nd ref="5620876240"/>
    <nd ref="5620876227"/>
    <tag k="building" v="yes"/>
    <tag k="name" v="A R Tyler"/>
    <tag k="shop" v="car_repair"/>
  </way>
  <way id="588509117" version="5" timestamp="2025-08-08T23:24:41Z" changeset="170177807" uid="8857" user="philipcullen">
    <nd ref="5620876509"/>
    <nd ref="5620876510"/>
    <nd ref="5620876511"/>
    <nd ref="5620876512"/>
    <nd ref="5620876513"/>
    <nd ref="5620876514"/>
    <nd ref="5620876515"/>
    <nd ref="5620876516"/>
    <nd ref="5620876509"/>
    <tag k="addr:city" v="Nottingham"/>
    <tag k="addr:postcode" v="NG13 9ES"/>
    <tag k="addr:street" v="Church Street"/>
    <tag k="addr:suburb" v="Whatton-in-the-Vale"/>
    <tag k="addr:village" v="Whatton-in-the-Vale"/>
    <tag k="amenity" v="community_centre"/>
    <tag k="building" v="public"/>
    <tag k="name" v="Jubilee Hall"/>
    <tag k="ref:GB:uprn" v="3040054287"/>
  </way>
  <way id="588509128" version="1" timestamp="2018-05-16T00:00:28Z" changeset="59000712" uid="51454" user="flint">
    <nd ref="302051402"/>
    <nd ref="302051410"/>
    <nd ref="302051433"/>
    <nd ref="302051434"/>
    <nd ref="302051403"/>
    <nd ref="302051421"/>
    <nd ref="302051432"/>
    <nd ref="302051409"/>
    <nd ref="302051420"/>
    <tag k="highway" v="residential"/>
    <tag k="name" v="Griffins End"/>
    <tag k="source" v="gps"/>
  </way>
  <way id="588509129" version="4" timestamp="2023-09-10T16:59:05Z" changeset="141066786" uid="1778799" user="SomeoneElse_Revert">
    <nd ref="302051402"/>
    <nd ref="300405490"/>
    <nd ref="297350098"/>
    <nd ref="985233997"/>
    <nd ref="297350099"/>
    <nd ref="297348017"/>
    <nd ref="300405486"/>
    <nd ref="5620827216"/>
    <nd ref="5662175522"/>
    <nd ref="302051341"/>
    <nd ref="300405483"/>
    <nd ref="302051340"/>
    <nd ref="300405481"/>
    <nd ref="300405480"/>
    <nd ref="302051337"/>
    <nd ref="193587097"/>
    <nd ref="300405476"/>
    <tag k="highway" v="tertiary"/>
    <tag k="is_in:village" v="Whatton"/>
    <tag k="name" v="Grantham Road"/>
    <tag k="ncn_ref" v="(15)"/>
    <tag k="source" v="gps"/>
  </way>
  <way id="589505837" version="1" timestamp="2018-05-19T18:59:20Z" changeset="59109074" uid="51454" user="flint">
    <nd ref="290727063"/>
    <nd ref="5629159888"/>
    <nd ref="5629159889"/>
    <nd ref="5629159890"/>
    <tag k="highway" v="residential"/>
    <tag k="name" v="Boundary Close"/>
    <tag k="oneway" v="no"/>
    <tag k="surface" v="asphalt"/>
  </way>
  <way id="591385679" version="1" timestamp="2018-05-27T16:07:59Z" changeset="59316790" uid="51454" user="flint">
    <nd ref="5646023648"/>
    <nd ref="985233997"/>
    <tag k="highway" v="unclassified"/>
    <tag k="name" v="Orston Lane"/>
    <tag k="source" v="os_opendata_streetview"/>
  </way>
  <way id="613229934" version="6" timestamp="2025-04-21T15:23:38Z" changeset="165245912" uid="5229644" user="Nathan_A_RF">
    <nd ref="985234243"/>
    <nd ref="3235256773"/>
    <nd ref="3235256772"/>
    <nd ref="193586593"/>
    <tag k="highway" v="trunk"/>
    <tag k="lanes" v="2"/>
    <tag k="lit" v="no"/>
    <tag k="maxspeed" v="60 mph"/>
    <tag k="maxspeed:type" v="GB:nsl_single"/>
    <tag k="name" v="Grantham Road"/>
    <tag k="national_highways:area" v="7"/>
    <tag k="operator" v="National Highways"/>
    <tag k="operator:wikidata" v="Q5760006"/>
    <tag k="overtaking" v="no"/>
    <tag k="ref" v="A52"/>
    <tag k="source" v="gps"/>
    <tag k="source:maxspeed" v="Mapillary"/>
    <tag k="source:name" v="NaPTAN"/>
    <tag k="surface" v="asphalt"/>
  </way>
  <way id="707170767" version="3" timestamp="2022-10-28T19:15:52Z" changeset="128188221" uid="13666626" user="RedAuburn">
    <nd ref="279127460"/>
    <nd ref="4666440035"/>
    <tag k="highway" v="trunk"/>
    <tag k="lanes" v="2"/>
    <tag k="lit" v="yes"/>
    <tag k="maxspeed" v="60 mph"/>
    <tag k="maxspeed:type" v="GB:nsl_single"/>
    <tag k="name" v="Grantham Road"/>
    <tag k="national_highways:area" v="7"/>
    <tag k="operator" v="National Highways"/>
    <tag k="operator:wikidata" v="Q5760006"/>
    <tag k="ref" v="A52"/>
    <tag k="source" v="gps"/>
    <tag k="source:maxspeed" v="Mapillary"/>
    <tag k="source:name" v="OS OpenData StreetView"/>
    <tag k="surface" v="asphalt"/>
  </way>
  <way id="1104201389" version="1" timestamp="2022-10-16T00:38:42Z" changeset="127593862" uid="2295875" user="cb44">
    <nd ref="10104646523"/>
    <nd ref="10104646524"/>
    <nd ref="10104646525"/>
    <nd ref="10104646526"/>
    <nd ref="10104646523"/>
    <tag k="building" v="yes"/>
    <tag k="name" v="Whatton Manor"/>
  </way>
  <way id="1104203665" version="1" timestamp="2022-10-16T01:05:33Z" changeset="127594879" uid="2295875" user="cb44">
    <nd ref="10104665158"/>
    <nd ref="10104665159"/>
    <nd ref="10104665160"/>
    <nd ref="10104665161"/>
    <nd ref="10104665162"/>
    <nd ref="10104665163"/>
    <nd ref="10104665164"/>
    <nd ref="10104665165"/>
    <nd ref="10104665158"/>
    <tag k="building" v="house"/>
    <tag k="name" v="Keeper's Cottage"/>
  </way>
  <way id="1379332985" version="1" timestamp="2025-04-21T14:59:35Z" changeset="165244706" uid="5008136" user="JayTurnr">
    <nd ref="656931542"/>
    <nd ref="297350155"/>
    <nd ref="985234243"/>
    <tag k="highway" v="trunk"/>
    <tag k="lanes" v="3"/>
    <tag k="lanes:backward" v="1"/>
    <tag k="lanes:forward" v="2"/>
    <tag k="lit" v="no"/>
    <tag k="maxspeed" v="60 mph"/>
    <tag k="maxspeed:type" v="GB:nsl_single"/>
    <tag k="name" v="Grantham Road"/>
    <tag k="national_highways:area" v="7"/>
    <tag k="operator" v="National Highways"/>
    <tag k="operator:wikidata" v="Q5760006"/>
    <tag k="overtaking" v="no"/>
    <tag k="ref" v="A52"/>
    <tag k="shoulder" v="no"/>
    <tag k="source" v="gps"/>
    <tag k="source:maxspeed" v="Mapillary"/>
    <tag k="source:name" v="NaPTAN"/>
    <tag k="surface" v="asphalt"/>
  </way>
  <way id="1379332986" version="2" timestamp="2025-04-21T15:23:38Z" changeset="165245912" uid="5229644" user="Nathan_A_RF">
    <nd ref="12772322579"/>
    <nd ref="302051513"/>
    <nd ref="658785525"/>
    <nd ref="12772541310"/>
    <nd ref="656931542"/>
    <tag k="highway" v="trunk"/>
    <tag k="lanes" v="2"/>
    <tag k="lit" v="no"/>
    <tag k="maxspeed" v="60 mph"/>
    <tag k="maxspeed:type" v="GB:nsl_single"/>
    <tag k="name" v="Grantham Road"/>
    <tag k="national_highways:area" v="7"/>
    <tag k="operator" v="National Highways"/>
    <tag k="operator:wikidata" v="Q5760006"/>
    <tag k="overtaking" v="no"/>
    <tag k="ref" v="A52"/>
    <tag k="shoulder" v="no"/>
    <tag k="source" v="gps"/>
    <tag k="source:maxspeed" v="Mapillary"/>
    <tag k="source:name" v="NaPTAN"/>
    <tag k="surface" v="asphalt"/>
  </way>
  <way id="1379332987" version="1" timestamp="2025-04-21T14:59:35Z" changeset="165244706" uid="5008136" user="JayTurnr">
    <nd ref="193586593"/>
    <nd ref="12772322583"/>
    <tag k="highway" v="trunk"/>
    <tag k="lanes" v="3"/>
    <tag k="lanes:backward" v="2"/>
    <tag k="lanes:forward" v="1"/>
    <tag k="lit" v="no"/>
    <tag k="maxspeed" v="60 mph"/>
    <tag k="maxspeed:type" v="GB:nsl_single"/>
    <tag k="national_highways:area" v="7"/>
    <tag k="operator" v="National Highways"/>
    <tag k="operator:wikidata" v="Q5760006"/>
    <tag k="overtaking" v="no"/>
    <tag k="ref" v="A52"/>
    <tag k="shoulder" v="no"/>
    <tag k="source" v="gps"/>
    <tag k="source:maxspeed" v="Mapillary"/>
    <tag k="surface" v="asphalt"/>
  </way>
  <way id="1379332988" version="1" timestamp="2025-04-21T14:59:35Z" changeset="165244706" uid="5008136" user="JayTurnr">
    <nd ref="12772322583"/>
    <nd ref="300405498"/>
    <nd ref="12772322584"/>
    <tag k="highway" v="trunk"/>
    <tag k="lanes" v="2"/>
    <tag k="lit" v="no"/>
    <tag k="maxspeed" v="60 mph"/>
    <tag k="maxspeed:type" v="GB:nsl_single"/>
    <tag k="national_highways:area" v="7"/>
    <tag k="operator" v="National Highways"/>
    <tag k="operator:wikidata" v="Q5760006"/>
    <tag k="overtaking" v="no"/>
    <tag k="ref" v="A52"/>
    <tag k="shoulder" v="no"/>
    <tag k="source" v="gps"/>
    <tag k="source:maxspeed" v="Mapillary"/>
    <tag k="surface" v="asphalt"/>
  </way>
  <way id="1379354698" version="1" timestamp="2025-04-21T15:23:38Z" changeset="165245912" uid="5229644" user="Nathan_A_RF">
    <nd ref="300405509"/>
    <nd ref="101066091"/>
    <nd ref="193591228"/>
    <tag k="highway" v="trunk"/>
    <tag k="lanes" v="3"/>
    <tag k="lanes:backward" v="1"/>
    <tag k="lanes:forward" v="2"/>
    <tag k="lit" v="no"/>
    <tag k="maxspeed" v="60 mph"/>
    <tag k="maxspeed:type" v="GB:nsl_single"/>
    <tag k="national_highways:area" v="7"/>
    <tag k="operator" v="National Highways"/>
    <tag k="operator:wikidata" v="Q5760006"/>
    <tag k="ref" v="A52"/>
    <tag k="shoulder" v="no"/>
    <tag k="source" v="gps"/>
    <tag k="source:maxspeed" v="Mapillary"/>
    <tag k="surface" v="asphalt"/>
    <tag k="turn:lanes:forward" v="through|right"/>
  </way>

</osm>
