<?xml version="1.0" encoding="UTF-8"?>
<osm version="0.6" generator="Overpass API 0.7.62.8 e802775f">
<note>The data included in this document is from www.openstreetmap.org. The data is made available under ODbL.</note>
<meta osm_base="2025-10-23T17:30:41Z" areas="2025-10-23T14:54:58Z"/>

  <node id="193591228" lat="52.9387829" lon="-0.8778477" version="12" timestamp="2025-04-23T20:16:32Z" changeset="165351142" uid="5008136" user="JayTurnr"/>
  <node id="300405552" lat="52.9248094" lon="-0.8466650" version="7" timestamp="2016-05-24T16:44:02Z" changeset="39538005" uid="207845" user="will_p"/>
  <node id="2785988631" lat="52.9413728" lon="-0.8522848" version="3" timestamp="2025-03-27T18:01:41Z" changeset="164175845" uid="5229644" user="Nathan_A_RF"/>
  <node id="4204539565" lat="52.9317546" lon="-0.8657493" version="1" timestamp="2016-05-24T11:58:11Z" changeset="39531742" uid="207845" user="will_p"/>
  <node id="4205154674" lat="52.9435144" lon="-0.8589321" version="2" timestamp="2024-08-23T18:15:22Z" changeset="155666462" uid="2295875" user="cb44"/>
  <way id="15454765" version="15" timestamp="2024-01-19T19:32:09Z" changeset="146455440" uid="242345" user="confusedbuffalo">
    <nd ref="4204539565"/>
    <nd ref="4003227562"/>
    <nd ref="193594103"/>
    <tag k="highway" v="tertiary"/>
    <tag k="maxspeed" v="60 mph"/>
    <tag k="maxspeed:type" v="GB:nsl_single"/>
  </way>
  <way id="18755417" version="28" timestamp="2025-04-23T20:16:32Z" changeset="165351142" uid="5008136" user="JayTurnr">
    <nd ref="193591228"/>
    <nd ref="12779761069"/>
    <nd ref="193592156"/>
    <nd ref="300405511"/>
    <nd ref="3089215150"/>
    <nd ref="193592157"/>
    <nd ref="300405516"/>
    <nd ref="193592159"/>
    <nd ref="300405513"/>
    <nd ref="193592161"/>
    <nd ref="3167037967"/>
    <nd ref="193592162"/>
    <nd ref="300405518"/>
    <nd ref="3179741601"/>
    <nd ref="193592164"/>
    <nd ref="193592165"/>
    <nd ref="193592166"/>
    <nd ref="300405526"/>
    <nd ref="193592167"/>
    <nd ref="300405521"/>
    <nd ref="193592169"/>
    <nd ref="193594103"/>
    <nd ref="193598753"/>
    <nd ref="658788176"/>
    <nd ref="300405531"/>
    <nd ref="300405534"/>
    <nd ref="2215388288"/>
    <nd ref="300405539"/>
    <nd ref="300405541"/>
    <nd ref="300405536"/>
    <nd ref="4035403638"/>
    <nd ref="300405542"/>
    <nd ref="300405545"/>
    <nd ref="300405543"/>
    <nd ref="300405546"/>
    <nd ref="193598756"/>
    <nd ref="4035436503"/>
    <nd ref="300405550"/>
    <nd ref="300405547"/>
    <nd ref="300405548"/>
    <nd ref="4721862753"/>
    <nd ref="300405552"/>
    <tag k="dual_carriageway" v="no"/>
    <tag k="highway" v="tertiary"/>
    <tag k="maxspeed" v="60 mph"/>
    <tag k="maxspeed:type" v="GB:nsl_single"/>
    <tag k="name" v="Redmile Lane"/>
    <tag k="source" v="gps"/>
    <tag k="source:name" v="survey"/>
  </way>
  <way id="27363541" version="38" timestamp="2025-04-23T20:17:51Z" changeset="165351173" uid="5008136" user="JayTurnr">
    <nd ref="193591228"/>
    <nd ref="101066092"/>
    <nd ref="12779761070"/>
    <nd ref="27044954"/>
    <nd ref="101066093"/>
    <nd ref="655410306"/>
    <nd ref="4910958220"/>
    <nd ref="101066094"/>
    <nd ref="101066095"/>
    <nd ref="4910959721"/>
    <nd ref="297351991"/>
    <nd ref="12779751022"/>
    <nd ref="330492595"/>
    <nd ref="21154048"/>
    <tag k="highway" v="trunk"/>
    <tag k="lanes" v="2"/>
    <tag k="lit" v="no"/>
    <tag k="maxspeed" v="60 mph"/>
    <tag k="maxspeed:type" v="GB:nsl_single"/>
    <tag k="name" v="Grantham Road"/>
    <tag k="national_highways:area" v="7"/>
    <tag k="operator" v="National Highways"/>
    <tag k="operator:wikidata" v="Q5760006"/>
    <tag k="ref" v="A52"/>
    <tag k="shoulder" v="no"/>
    <tag k="source:maxspeed" v="Mapillary"/>
    <tag k="source:name" v="NaPTAN"/>
    <tag k="surface" v="asphalt"/>
  </way>
  <way id="27930000" version="20" timestamp="2024-08-23T12:53:29Z" changeset="155651433" uid="2295875" user="cb44">
    <nd ref="4205154400"/>
    <nd ref="193594108"/>
    <nd ref="2458220537"/>
    <nd ref="4205154407"/>
    <nd ref="193594109"/>
    <nd ref="2458220513"/>
    <nd ref="2458217866"/>
    <nd ref="2458248358"/>
    <nd ref="2458246979"/>
    <nd ref="2458246676"/>
    <nd ref="193594111"/>
    <nd ref="2458214726"/>
    <nd ref="2458217532"/>
    <nd ref="193594112"/>
    <nd ref="2458223437"/>
    <nd ref="2458217533"/>
    <nd ref="193594113"/>
    <nd ref="2458246215"/>
    <nd ref="2458223438"/>
    <nd ref="193594115"/>
    <nd ref="4205154618"/>
    <nd ref="2458213513"/>
    <nd ref="4205154626"/>
    <nd ref="193594116"/>
    <nd ref="193594117"/>
    <nd ref="2458223439"/>
    <nd ref="193594118"/>
    <nd ref="4205154642"/>
    <nd ref="193594120"/>
    <nd ref="193594121"/>
    <tag k="hgv" v="destination"/>
    <tag k="highway" v="tertiary"/>
    <tag k="maxspeed" v="30 mph"/>
    <tag k="name" v="Sutton Lane"/>
    <tag k="surface" v="asphalt"/>
  </way>
  <way id="41523704" version="12" timestamp="2024-01-19T19:32:09Z" changeset="146455440" uid="242345" user="confusedbuffalo">
    <nd ref="4205154674"/>
    <nd ref="7981068123"/>
    <nd ref="7652706971"/>
    <nd ref="4205154681"/>
    <nd ref="193594125"/>
    <nd ref="193594126"/>
    <nd ref="193594127"/>
    <nd ref="2458258851"/>
    <nd ref="193594128"/>
    <nd ref="2458258850"/>
    <nd ref="2458258849"/>
    <nd ref="4205155161"/>
    <nd ref="4205155167"/>
    <nd ref="2458258852"/>
    <tag k="highway" v="tertiary"/>
    <tag k="maxspeed" v="60 mph"/>
    <tag k="maxspeed:type" v="GB:nsl_single"/>
    <tag k="name" v="Station Road"/>
    <tag k="source:name" v="NaPTAN"/>
  </way>
  <way id="84865938" version="5" timestamp="2025-02-15T20:33:58Z" changeset="162550077" uid="95856" user="⇄ john paul jones &amp; gringo">
    <nd ref="985234716"/>
    <nd ref="4205154401"/>
    <nd ref="4205154402"/>
    <nd ref="985234718"/>
    <nd ref="4205154397"/>
    <nd ref="4205154396"/>
    <nd ref="4205154395"/>
    <nd ref="4205154399"/>
    <nd ref="4205154398"/>
    <nd ref="4205154394"/>
    <nd ref="985234721"/>
    <nd ref="985234724"/>
    <nd ref="985234716"/>
    <tag k="addr:city" v="Nottingham"/>
    <tag k="addr:country" v="GB"/>
    <tag k="addr:postcode" v="NG13 9EU"/>
    <tag k="addr:street" v="Grantham Road"/>
    <tag k="bar" v="yes"/>
    <tag k="building" v="yes"/>
    <tag k="name" v="Haven In The Vale"/>
    <tag k="old_fhrs:id" v="265885"/>
    <tag k="restaurant" v="yes"/>
    <tag k="source:addr" v="FHRS Open Data"/>
    <tag k="tourism" v="hotel"/>
    <tag k="website" v="http://www.haveninthevale.co.uk/"/>
  </way>
  <way id="273780274" version="10" timestamp="2025-04-23T20:19:17Z" changeset="165351214" uid="5008136" user="JayTurnr">
    <nd ref="21154048"/>
    <nd ref="12705403033"/>
    <nd ref="101066096"/>
    <tag k="highway" v="trunk"/>
    <tag k="lanes" v="2"/>
    <tag k="lit" v="yes"/>
    <tag k="maxspeed" v="40 mph"/>
    <tag k="name" v="Grantham Road"/>
    <tag k="national_highways:area" v="7"/>
    <tag k="operator" v="National Highways"/>
    <tag k="operator:wikidata" v="Q5760006"/>
    <tag k="ref" v="A52"/>
    <tag k="source:name" v="NaPTAN"/>
  </way>
  <way id="311140330" version="4" timestamp="2025-02-15T20:33:58Z" changeset="162550077" uid="95856" user="⇄ john paul jones &amp; gringo">
    <nd ref="3167038121"/>
    <nd ref="3167038122"/>
    <nd ref="3167038123"/>
    <nd ref="3167038124"/>
    <nd ref="11686819848"/>
    <nd ref="11686819849"/>
    <nd ref="11686819850"/>
    <nd ref="11686819847"/>
    <nd ref="3167038125"/>
    <nd ref="3167038126"/>
    <nd ref="3167038121"/>
    <tag k="addr:city" v="Nottingham"/>
    <tag k="addr:country" v="GB"/>
    <tag k="addr:postcode" v="NG13 9FA"/>
    <tag k="addr:street" v="Redmile Lane"/>
    <tag k="building" v="yes"/>
    <tag k="fhrs:id" v="893887"/>
    <tag k="name" v="Janson Fishery"/>
  </way>
  <way id="420564945" version="2" timestamp="2025-02-15T20:35:03Z" changeset="162550101" uid="95856" user="⇄ john paul jones &amp; gringo">
    <nd ref="4205154652"/>
    <nd ref="4205154651"/>
    <nd ref="4205154648"/>
    <nd ref="4205154660"/>
    <nd ref="4205154661"/>
    <nd ref="4205154657"/>
    <nd ref="4205154658"/>
    <nd ref="4205154652"/>
    <tag k="addr:city" v="Nottingham"/>
    <tag k="addr:country" v="GB"/>
    <tag k="addr:postcode" v="NG13 9LB"/>
    <tag k="addr:street" v="Main Road"/>
    <tag k="addr:suburb" v="Elton-on-the-Hill"/>
    <tag k="building" v="pub"/>
    <tag k="disused:amenity" v="restaurant"/>
    <tag k="fixme" v="Status needs confirming - probably closed down based on external appearance (2016-05-22)"/>
    <tag k="name" v="Elton Cuisine"/>
    <tag k="old_amenity" v="pub"/>
    <tag k="old_name" v="Manor Arms"/>
    <tag k="source:addr" v="FHRS Open Data"/>
  </way>
  <way id="420564951" version="5" timestamp="2025-02-15T20:35:03Z" changeset="162550101" uid="95856" user="⇄ john paul jones &amp; gringo">
    <nd ref="4205154589"/>
    <nd ref="4205154598"/>
    <nd ref="4205154591"/>
    <nd ref="4205154596"/>
    <nd ref="4205154488"/>
    <nd ref="4205154590"/>
    <nd ref="4205154593"/>
    <nd ref="4205154597"/>
    <nd ref="4205154603"/>
    <nd ref="4205154607"/>
    <nd ref="4205154611"/>
    <nd ref="4205154604"/>
    <nd ref="4205154602"/>
    <nd ref="4205154600"/>
    <nd ref="4205154589"/>
    <tag k="addr:city" v="Nottingham"/>
    <tag k="addr:country" v="GB"/>
    <tag k="addr:postcode" v="NG13 9LA"/>
    <tag k="addr:suburb" v="Elton-on-the-Hill"/>
    <tag k="amenity" v="place_of_worship"/>
    <tag k="building" v="church"/>
    <tag k="denomination" v="anglican"/>
    <tag k="name" v="St Michael and All Angels"/>
    <tag k="religion" v="christian"/>
    <tag k="source" v="survey"/>
    <tag k="wikidata" v="Q7590737"/>
    <tag k="wikipedia" v="en:St Michael and All Angels' Church, Elton on the Hill"/>
  </way>
  <way id="420564952" version="6" timestamp="2022-10-10T18:32:29Z" changeset="127318369" uid="16517305" user="Evan_Cho">
    <nd ref="6567811260"/>
    <nd ref="7168612167"/>
    <nd ref="9019842453"/>
    <nd ref="4205154674"/>
    <tag k="highway" v="tertiary"/>
    <tag k="maxspeed" v="30 mph"/>
    <tag k="name" v="Station Road"/>
    <tag k="source:name" v="NaPTAN"/>
  </way>
  <way id="420564955" version="3" timestamp="2024-01-19T19:32:09Z" changeset="146455440" uid="242345" user="confusedbuffalo">
    <nd ref="193594103"/>
    <nd ref="193594104"/>
    <nd ref="4910957097"/>
    <nd ref="4035412202"/>
    <nd ref="193594105"/>
    <nd ref="4003227563"/>
    <nd ref="193594106"/>
    <nd ref="193594107"/>
    <nd ref="4910957105"/>
    <nd ref="4003227564"/>
    <nd ref="4205154400"/>
    <tag k="highway" v="tertiary"/>
    <tag k="maxspeed" v="60 mph"/>
    <tag k="maxspeed:type" v="GB:nsl_single"/>
    <tag k="name" v="Sutton Lane"/>
    <tag k="surface" v="asphalt"/>
  </way>
  <way id="420564956" version="3" timestamp="2024-08-23T12:53:29Z" changeset="155651433" uid="2295875" user="cb44">
    <nd ref="4205154469"/>
    <nd ref="4205154468"/>
    <nd ref="4205154472"/>
    <nd ref="4205154471"/>
    <nd ref="4205154474"/>
    <nd ref="4205154477"/>
    <nd ref="4205154475"/>
    <nd ref="4205154476"/>
    <nd ref="4205154469"/>
    <tag k="addr:housename" v="The Grange"/>
    <tag k="addr:street" v="Sutton Lane"/>
    <tag k="building" v="house"/>
    <tag k="guest_house" v="bed_and_breakfast"/>
    <tag k="name" v="The Grange"/>
    <tag k="tourism" v="guest_house"/>
  </way>
  <way id="420564981" version="7" timestamp="2023-06-09T09:42:56Z" changeset="137128508" uid="165" user="Richard">
    <nd ref="300405552"/>
    <nd ref="193598757"/>
    <nd ref="4035436504"/>
    <nd ref="4035436505"/>
    <nd ref="300405555"/>
    <nd ref="300405556"/>
    <nd ref="300405557"/>
    <nd ref="4035436506"/>
    <nd ref="300405554"/>
    <nd ref="4035436507"/>
    <nd ref="193598758"/>
    <nd ref="4035436508"/>
    <nd ref="300405559"/>
    <nd ref="4006296390"/>
    <nd ref="300405562"/>
    <nd ref="300405560"/>
    <nd ref="300405563"/>
    <nd ref="4006291186"/>
    <nd ref="300405564"/>
    <nd ref="4006291187"/>
    <nd ref="300405565"/>
    <nd ref="300405558"/>
    <nd ref="4006300870"/>
    <nd ref="300405567"/>
    <nd ref="4006291188"/>
    <nd ref="4006300851"/>
    <nd ref="4722737721"/>
    <nd ref="300405566"/>
    <nd ref="300405569"/>
    <nd ref="8389267680"/>
    <nd ref="193598759"/>
    <nd ref="300405571"/>
    <nd ref="300405574"/>
    <nd ref="300405573"/>
    <nd ref="193598760"/>
    <nd ref="300405575"/>
    <tag k="dual_carriageway" v="no"/>
    <tag k="highway" v="tertiary"/>
    <tag k="maxspeed" v="60 mph"/>
    <tag k="maxspeed:type" v="GB:nsl_single"/>
    <tag k="source" v="gps"/>
  </way>
  <way id="472430963" version="7" timestamp="2025-04-23T20:19:54Z" changeset="165351233" uid="5008136" user="JayTurnr">
    <nd ref="101066100"/>
    <nd ref="297351996"/>
    <nd ref="101066101"/>
    <nd ref="12131423647"/>
    <nd ref="297351998"/>
    <nd ref="12779739729"/>
    <nd ref="297351997"/>
    <nd ref="12779739730"/>
    <nd ref="2785988631"/>
    <tag k="highway" v="trunk"/>
    <tag k="lanes" v="2"/>
    <tag k="lit" v="no"/>
    <tag k="maxspeed" v="40 mph"/>
    <tag k="name" v="Grantham Road"/>
    <tag k="national_highways:area" v="7"/>
    <tag k="operator" v="National Highways"/>
    <tag k="operator:wikidata" v="Q5760006"/>
    <tag k="ref" v="A52"/>
    <tag k="shoulder" v="no"/>
    <tag k="source:name" v="NaPTAN"/>
  </way>
  <way id="499909637" version="1" timestamp="2017-06-12T14:24:03Z" changeset="49470735" uid="1431482" user="JonOrchard">
    <nd ref="4910941363"/>
    <nd ref="4910941364"/>
    <nd ref="4910941365"/>
    <nd ref="4910941366"/>
    <nd ref="4910941363"/>
    <tag k="building" v="yes"/>
    <tag k="name" v="Vale Lodge"/>
  </way>
  <way id="974978521" version="2" timestamp="2022-10-06T11:45:36Z" changeset="127098901" uid="17299016" user="Russ (mechanical edit account)">
    <nd ref="9022694875"/>
    <nd ref="9022694872"/>
    <nd ref="9022694873"/>
    <nd ref="9022694874"/>
    <nd ref="9022694875"/>
    <tag k="brand" v="National Grid"/>
    <tag k="brand:wikidata" v="Q1465461"/>
    <tag k="building" v="yes"/>
    <tag k="name" v="Shelton Lodge Solar Gen"/>
    <tag k="operator" v="National Grid Electricity Distribution Plc"/>
    <tag k="operator:old" v="Western Power Distribution"/>
    <tag k="operator:wikidata" v="Q7988183"/>
    <tag k="owner" v="National Grid Electricity Distribution (East Midlands) Plc"/>
    <tag k="owner:wikidata" v="Q114348127"/>
    <tag k="power" v="substation"/>
    <tag k="ref:GB:wpd_site" v="883456"/>
    <tag k="voltage" v="33000"/>
  </way>
  <way id="1102685067" version="2" timestamp="2022-10-28T19:16:26Z" changeset="128188239" uid="13666626" user="RedAuburn">
    <nd ref="6567811268"/>
    <nd ref="101066097"/>
    <nd ref="101066098"/>
    <nd ref="193594121"/>
    <tag k="highway" v="trunk"/>
    <tag k="lanes" v="2"/>
    <tag k="lit" v="yes"/>
    <tag k="maxspeed" v="40 mph"/>
    <tag k="name" v="Grantham Road"/>
    <tag k="national_highways:area" v="7"/>
    <tag k="operator" v="National Highways"/>
    <tag k="operator:wikidata" v="Q5760006"/>
    <tag k="ref" v="A52"/>
    <tag k="source:name" v="NaPTAN"/>
  </way>
  <way id="1102685068" version="2" timestamp="2022-10-28T19:16:26Z" changeset="128188239" uid="13666626" user="RedAuburn">
    <nd ref="193594121"/>
    <nd ref="101066099"/>
    <nd ref="297351995"/>
    <nd ref="101066100"/>
    <tag k="highway" v="trunk"/>
    <tag k="lanes" v="2"/>
    <tag k="lit" v="yes"/>
    <tag k="maxspeed" v="40 mph"/>
    <tag k="name" v="Grantham Road"/>
    <tag k="national_highways:area" v="7"/>
    <tag k="operator" v="National Highways"/>
    <tag k="operator:wikidata" v="Q5760006"/>
    <tag k="ref" v="A52"/>
    <tag k="source:name" v="NaPTAN"/>
  </way>
  <way id="1102685069" version="1" timestamp="2022-10-10T18:32:29Z" changeset="127318369" uid="16517305" user="Evan_Cho">
    <nd ref="193594121"/>
    <nd ref="193594122"/>
    <nd ref="6567811260"/>
    <tag k="highway" v="tertiary"/>
    <tag k="maxspeed" v="30 mph"/>
    <tag k="name" v="Station Road"/>
    <tag k="source:name" v="NaPTAN"/>
  </way>
  <way id="1372126983" version="2" timestamp="2025-04-23T20:22:47Z" changeset="165351318" uid="5008136" user="JayTurnr">
    <nd ref="2785988631"/>
    <nd ref="12132450931"/>
    <nd ref="12132450932"/>
    <nd ref="101066102"/>
    <nd ref="4666440036"/>
    <nd ref="101066103"/>
    <nd ref="12131423648"/>
    <nd ref="21154047"/>
    <nd ref="12130985312"/>
    <nd ref="12779769505"/>
    <nd ref="4910941417"/>
    <nd ref="153404041"/>
    <nd ref="12705403025"/>
    <nd ref="153404663"/>
    <tag k="highway" v="trunk"/>
    <tag k="lanes" v="2"/>
    <tag k="lit" v="no"/>
    <tag k="maxspeed" v="60 mph"/>
    <tag k="maxspeed:type" v="GB:nsl_single"/>
    <tag k="name" v="Grantham Road"/>
    <tag k="national_highways:area" v="7"/>
    <tag k="operator" v="National Highways"/>
    <tag k="operator:wikidata" v="Q5760006"/>
    <tag k="ref" v="A52"/>
    <tag k="shoulder" v="no"/>
    <tag k="source:name" v="NaPTAN"/>
  </way>
  <way id="1380425763" version="1" timestamp="2025-04-23T20:19:17Z" changeset="165351214" uid="5008136" user="JayTurnr">
    <nd ref="297351993"/>
    <nd ref="27044956"/>
    <nd ref="6567811268"/>
    <tag k="highway" v="trunk"/>
    <tag k="lanes" v="2"/>
    <tag k="lit" v="yes"/>
    <tag k="maxspeed" v="40 mph"/>
    <tag k="name" v="Grantham Road"/>
    <tag k="national_highways:area" v="7"/>
    <tag k="operator" v="National Highways"/>
    <tag k="operator:wikidata" v="Q5760006"/>
    <tag k="ref" v="A52"/>
    <tag k="source:name" v="NaPTAN"/>
  </way>
  <way id="1380425764" version="1" timestamp="2025-04-23T20:19:17Z" changeset="165351214" uid="5008136" user="JayTurnr">
    <nd ref="101066096"/>
    <nd ref="4205154659"/>
    <nd ref="297351993"/>
    <tag k="highway" v="trunk"/>
    <tag k="lanes" v="2"/>
    <tag k="lit" v="yes"/>
    <tag k="maxspeed" v="40 mph"/>
    <tag k="name" v="Grantham Road"/>
    <tag k="national_highways:area" v="7"/>
    <tag k="operator" v="National Highways"/>
    <tag k="operator:wikidata" v="Q5760006"/>
    <tag k="passing" v="no"/>
    <tag k="ref" v="A52"/>
    <tag k="source:name" v="NaPTAN"/>
  </way>

</osm>
