<?xml version="1.0" encoding="UTF-8"?>
<osm version="0.6" generator="Overpass API 0.7.62.8 e802775f">
<note>The data included in this document is from www.openstreetmap.org. The data is made available under ODbL.</note>
<meta osm_base="2025-10-23T17:35:46Z" areas="2025-10-23T12:46:58Z"/>

  <node id="289386782" lat="53.1042015" lon="-0.9894111" version="20" timestamp="2024-05-09T10:26:33Z" changeset="151092481" uid="6714692" user="Fingrmouse"/>
  <node id="324764360" lat="53.1202965" lon="-0.9929531" version="4" timestamp="2023-01-12T17:39:39Z" changeset="131198843" uid="6714692" user="Fingrmouse"/>
  <node id="345858284" lat="53.1113450" lon="-0.9803149" version="5" timestamp="2024-05-09T10:26:33Z" changeset="151092481" uid="6714692" user="Fingrmouse"/>
  <node id="366393530" lat="53.1225011" lon="-1.0210256" version="7" timestamp="2024-01-04T17:26:56Z" changeset="145891027" uid="6714692" user="Fingrmouse"/>
  <node id="3523303648" lat="53.1281594" lon="-1.0228151" version="1" timestamp="2015-05-17T10:42:23Z" changeset="31222974" uid="61942" user="SomeoneElse"/>
  <node id="7001234087" lat="53.1132680" lon="-0.9729778" version="2" timestamp="2024-10-15T09:58:59Z" changeset="157913138" uid="6714692" user="Fingrmouse"/>
  <way id="25879047" version="29" timestamp="2025-04-22T11:25:44Z" changeset="165280217" uid="5229644" user="Nathan_A_RF">
    <nd ref="289386766"/>
    <nd ref="11889687470"/>
    <nd ref="6125755963"/>
    <nd ref="11889687469"/>
    <nd ref="289386767"/>
    <nd ref="11889687468"/>
    <nd ref="11889687786"/>
    <nd ref="9043621670"/>
    <nd ref="11889687467"/>
    <nd ref="289386768"/>
    <nd ref="11889687782"/>
    <nd ref="11889687466"/>
    <nd ref="11889687465"/>
    <nd ref="4599765329"/>
    <nd ref="11889687464"/>
    <nd ref="289386769"/>
    <nd ref="11889687463"/>
    <nd ref="289386770"/>
    <nd ref="11889687462"/>
    <nd ref="4599765336"/>
    <nd ref="12055236408"/>
    <nd ref="12055222366"/>
    <nd ref="11889687461"/>
    <nd ref="289386771"/>
    <nd ref="427010956"/>
    <nd ref="9043621671"/>
    <nd ref="11889687460"/>
    <nd ref="289386772"/>
    <nd ref="11889687459"/>
    <nd ref="289386773"/>
    <nd ref="11889687458"/>
    <nd ref="6472251275"/>
    <nd ref="11889687565"/>
    <nd ref="12055222354"/>
    <nd ref="11889687455"/>
    <nd ref="289386774"/>
    <nd ref="11889687598"/>
    <nd ref="11889687580"/>
    <nd ref="11889687454"/>
    <nd ref="289386775"/>
    <nd ref="289386776"/>
    <nd ref="511095968"/>
    <nd ref="12055222361"/>
    <nd ref="12055222346"/>
    <nd ref="510951419"/>
    <nd ref="11889687452"/>
    <nd ref="11891081982"/>
    <nd ref="289386777"/>
    <nd ref="11891087377"/>
    <nd ref="11891087375"/>
    <nd ref="11891087372"/>
    <nd ref="511030498"/>
    <nd ref="11891087173"/>
    <nd ref="11891087215"/>
    <nd ref="11891087211"/>
    <nd ref="11891087227"/>
    <nd ref="289386778"/>
    <tag k="highway" v="tertiary"/>
    <tag k="lit" v="yes"/>
    <tag k="maxspeed" v="30 mph"/>
    <tag k="name" v="Southwell Road"/>
    <tag k="source:name" v="NaPTAN"/>
  </way>
  <way id="31118791" version="8" timestamp="2025-04-22T10:30:54Z" changeset="165277793" uid="5229644" user="Nathan_A_RF">
    <nd ref="345858278"/>
    <nd ref="12252587337"/>
    <nd ref="4599606417"/>
    <nd ref="345858284"/>
    <tag k="highway" v="unclassified"/>
    <tag k="maxspeed" v="30 mph"/>
    <tag k="name" v="Corkhill Lane"/>
    <tag k="source" v="survey"/>
  </way>
  <way id="35356720" version="4" timestamp="2024-01-19T13:24:16Z" changeset="146444018" uid="6714692" user="Fingrmouse">
    <nd ref="366393530"/>
    <nd ref="768196238"/>
    <nd ref="414591870"/>
    <nd ref="9930401916"/>
    <nd ref="414591872"/>
    <nd ref="768196254"/>
    <nd ref="414591874"/>
    <nd ref="768196343"/>
    <nd ref="768196366"/>
    <nd ref="414591877"/>
    <nd ref="768196330"/>
    <nd ref="414591878"/>
    <nd ref="9930522919"/>
    <nd ref="414591881"/>
    <nd ref="414591882"/>
    <nd ref="414591884"/>
    <nd ref="414591886"/>
    <nd ref="768196308"/>
    <nd ref="414591888"/>
    <nd ref="768196317"/>
    <nd ref="414591890"/>
    <nd ref="768196291"/>
    <nd ref="414591900"/>
    <nd ref="414591903"/>
    <nd ref="414591906"/>
    <nd ref="414591908"/>
    <nd ref="768196139"/>
    <nd ref="333259662"/>
    <tag k="highway" v="tertiary"/>
    <tag k="name" v="Brackner Lane"/>
  </way>
  <way id="36736626" version="4" timestamp="2017-02-05T21:10:18Z" changeset="45839570" uid="2762871" user="Sam888">
    <nd ref="427008571"/>
    <nd ref="366390000"/>
    <tag k="bridge" v="yes"/>
    <tag k="highway" v="trunk"/>
    <tag k="layer" v="0"/>
    <tag k="lit" v="yes"/>
    <tag k="maxspeed" v="30 mph"/>
    <tag k="oneway" v="no"/>
    <tag k="ref" v="A617"/>
    <tag k="source" v="survey"/>
  </way>
  <way id="36736627" version="6" timestamp="2015-12-30T12:02:08Z" changeset="36260416" uid="161875" user="Willumm">
    <nd ref="427008570"/>
    <nd ref="427008585"/>
    <nd ref="510989537"/>
    <nd ref="510989543"/>
    <tag k="foot" v="yes"/>
    <tag k="highway" v="residential"/>
    <tag k="maxspeed" v="30 mph"/>
    <tag k="name" v="Church Lane"/>
    <tag k="oneway" v="no"/>
  </way>
  <way id="36736628" version="4" timestamp="2015-12-30T12:02:08Z" changeset="36260416" uid="161875" user="Willumm">
    <nd ref="427008569"/>
    <nd ref="427008586"/>
    <nd ref="511058336"/>
    <nd ref="511058341"/>
    <nd ref="511058347"/>
    <tag k="highway" v="residential"/>
    <tag k="maxspeed" v="30 mph"/>
    <tag k="name" v="Forge Close"/>
    <tag k="oneway" v="no"/>
  </way>
  <way id="36736811" version="8" timestamp="2024-07-15T12:03:29Z" changeset="153968968" uid="6714692" user="Fingrmouse">
    <nd ref="427010956"/>
    <nd ref="12055236381"/>
    <nd ref="7189981618"/>
    <nd ref="12055236477"/>
    <nd ref="427010973"/>
    <nd ref="12055236455"/>
    <nd ref="12055236456"/>
    <nd ref="12055236454"/>
    <nd ref="4599765343"/>
    <nd ref="4599784625"/>
    <nd ref="9043621672"/>
    <nd ref="427010975"/>
    <nd ref="11889687521"/>
    <nd ref="427010976"/>
    <nd ref="11889687522"/>
    <nd ref="427010979"/>
    <tag k="highway" v="residential"/>
    <tag k="maxspeed" v="30 mph"/>
    <tag k="name" v="School Lane"/>
    <tag k="oneway" v="no"/>
  </way>
  <way id="38111180" version="10" timestamp="2025-04-22T10:21:53Z" changeset="165277389" uid="5229644" user="Nathan_A_RF">
    <nd ref="3918401981"/>
    <nd ref="366393208"/>
    <nd ref="511095831"/>
    <nd ref="4666202667"/>
    <tag k="highway" v="trunk"/>
    <tag k="lit" v="no"/>
    <tag k="maxspeed" v="30 mph"/>
    <tag k="name" v="Kirklington Road"/>
    <tag k="ref" v="A617"/>
    <tag k="source" v="survey"/>
  </way>
  <way id="38111181" version="28" timestamp="2019-08-12T11:23:28Z" changeset="73264705" uid="6714692" user="Fingrmouse">
    <nd ref="366390000"/>
    <nd ref="366390001"/>
    <nd ref="1483534923"/>
    <nd ref="658750848"/>
    <nd ref="658750850"/>
    <nd ref="6702944247"/>
    <nd ref="427005511"/>
    <tag k="highway" v="trunk"/>
    <tag k="lit" v="yes"/>
    <tag k="maxspeed" v="30 mph"/>
    <tag k="name" v="Main Street"/>
    <tag k="oneway" v="no"/>
    <tag k="ref" v="A617"/>
    <tag k="sidewalk" v="no"/>
    <tag k="source" v="GPS;survey"/>
    <tag k="source:name" v="inferred from Wings School address"/>
  </way>
  <way id="41615010" version="8" timestamp="2025-02-09T03:21:03Z" changeset="162300586" uid="22299871" user="Mappam-12">
    <nd ref="510952368"/>
    <nd ref="510951387"/>
    <nd ref="8655019795"/>
    <nd ref="8655019752"/>
    <nd ref="11504403338"/>
    <nd ref="510951391"/>
    <nd ref="510951397"/>
    <nd ref="510951405"/>
    <nd ref="8655019805"/>
    <nd ref="11504403339"/>
    <nd ref="510951410"/>
    <nd ref="6702944716"/>
    <nd ref="11889687452"/>
    <tag k="bicycle" v="yes"/>
    <tag k="bicycle_road" v="no"/>
    <tag k="check_date" v="2025-01-21"/>
    <tag k="description" v="Small public lane accessible to the public, despite “private” signs"/>
    <tag k="foot" v="yes"/>
    <tag k="highway" v="residential"/>
    <tag k="horse" v="unknown"/>
    <tag k="lane_markings" v="no"/>
    <tag k="lanes" v="1"/>
    <tag k="lit" v="no"/>
    <tag k="maxspeed" v="30 mph"/>
    <tag k="maxspeed:advisory" v="20 mph"/>
    <tag k="motor_vehicle" v="yes"/>
    <tag k="oneway" v="no"/>
    <tag k="source" v="GPS;survey"/>
    <tag k="surface" v="paved"/>
  </way>
  <way id="41617512" version="2" timestamp="2024-05-09T10:26:33Z" changeset="151092481" uid="6714692" user="Fingrmouse">
    <nd ref="511030491"/>
    <nd ref="11891087171"/>
    <nd ref="11891082058"/>
    <nd ref="11891082061"/>
    <nd ref="511030498"/>
    <tag k="highway" v="residential"/>
    <tag k="surface" v="gravel"/>
  </way>
  <way id="82213684" version="16" timestamp="2025-04-22T10:21:53Z" changeset="165277389" uid="5229644" user="Nathan_A_RF">
    <nd ref="333259686"/>
    <nd ref="768195830"/>
    <nd ref="768195832"/>
    <nd ref="366393250"/>
    <nd ref="768195844"/>
    <nd ref="658749807"/>
    <nd ref="366393186"/>
    <nd ref="366393256"/>
    <nd ref="768195839"/>
    <nd ref="658749831"/>
    <nd ref="658749835"/>
    <nd ref="366393188"/>
    <nd ref="2194135820"/>
    <nd ref="768195869"/>
    <nd ref="11491882898"/>
    <nd ref="11491882897"/>
    <nd ref="10543400977"/>
    <nd ref="10543400978"/>
    <nd ref="10543400979"/>
    <nd ref="366393190"/>
    <nd ref="10543400980"/>
    <nd ref="658749854"/>
    <nd ref="366393192"/>
    <nd ref="658750265"/>
    <nd ref="10543400981"/>
    <nd ref="366393195"/>
    <nd ref="8655019816"/>
    <nd ref="10543400982"/>
    <nd ref="658750269"/>
    <nd ref="10543400983"/>
    <nd ref="658750271"/>
    <nd ref="8655019815"/>
    <nd ref="366393198"/>
    <nd ref="10543400984"/>
    <nd ref="366393201"/>
    <nd ref="10543400986"/>
    <nd ref="8655019814"/>
    <nd ref="10543400985"/>
    <nd ref="324763672"/>
    <tag k="check_date" v="2025-03-08"/>
    <tag k="fixme" v="Over the next few weeks or month it appears new average speed cameras are being installed in this area, therefore another survey will need to happen."/>
    <tag k="highway" v="trunk"/>
    <tag k="lit" v="no"/>
    <tag k="maxspeed" v="50 mph"/>
    <tag k="maxspeed:type" v="sign"/>
    <tag k="name" v="Kirklington Road"/>
    <tag k="ref" v="A617"/>
    <tag k="source" v="survey"/>
  </way>
  <way id="142219178" version="7" timestamp="2023-01-12T17:39:39Z" changeset="131198843" uid="6714692" user="Fingrmouse">
    <nd ref="324763672"/>
    <nd ref="324764354"/>
    <nd ref="1556567460"/>
    <nd ref="324764355"/>
    <nd ref="10543533895"/>
    <nd ref="324764356"/>
    <nd ref="10543533894"/>
    <nd ref="1483533386"/>
    <nd ref="10543533893"/>
    <nd ref="10543533892"/>
    <nd ref="324764357"/>
    <nd ref="10543533891"/>
    <nd ref="10543533890"/>
    <nd ref="324764358"/>
    <nd ref="3226679577"/>
    <nd ref="10543533889"/>
    <nd ref="1483533387"/>
    <nd ref="324764359"/>
    <tag k="highway" v="tertiary"/>
    <tag k="maxspeed" v="60 mph"/>
    <tag k="oneway" v="no"/>
    <tag k="source" v="GPS;Bing"/>
  </way>
  <way id="176134644" version="9" timestamp="2025-04-22T10:21:53Z" changeset="165277389" uid="5229644" user="Nathan_A_RF">
    <nd ref="324763672"/>
    <nd ref="7777316075"/>
    <nd ref="658750276"/>
    <nd ref="8655019813"/>
    <nd ref="10543400987"/>
    <nd ref="366393205"/>
    <nd ref="658750278"/>
    <nd ref="10543400988"/>
    <nd ref="3918401981"/>
    <tag k="highway" v="trunk"/>
    <tag k="lit" v="no"/>
    <tag k="maxspeed" v="50 mph"/>
    <tag k="maxspeed:type" v="sign"/>
    <tag k="name" v="Kirklington Road"/>
    <tag k="ref" v="A617"/>
    <tag k="source" v="survey"/>
  </way>
  <way id="209183436" version="5" timestamp="2018-08-03T08:22:37Z" changeset="61320881" uid="8407158" user="shadty">
    <nd ref="2194139068"/>
    <nd ref="289386768"/>
    <tag k="highway" v="residential"/>
    <tag k="maxspeed" v="30 mph"/>
    <tag k="name" v="The Green"/>
  </way>
  <way id="209183437" version="6" timestamp="2021-08-28T14:16:04Z" changeset="110382252" uid="493595" user="Yorvik Prestigitator">
    <nd ref="2194139071"/>
    <nd ref="2194139075"/>
    <nd ref="2194139060"/>
    <nd ref="2194139063"/>
    <nd ref="2194139066"/>
    <nd ref="2194139064"/>
    <nd ref="2194139074"/>
    <nd ref="2194139072"/>
    <nd ref="2194139070"/>
    <nd ref="2194139059"/>
    <nd ref="2194139067"/>
    <nd ref="2194139073"/>
    <nd ref="9043621668"/>
    <nd ref="2194139068"/>
    <nd ref="9043621669"/>
    <nd ref="2194139071"/>
    <tag k="highway" v="residential"/>
    <tag k="maxspeed" v="30 mph"/>
    <tag k="name" v="The Green"/>
  </way>
  <way id="316544585" version="2" timestamp="2016-01-02T21:51:39Z" changeset="36327806" uid="161875" user="Willumm">
    <nd ref="324764359"/>
    <nd ref="324764360"/>
    <tag k="bridge" v="yes"/>
    <tag k="highway" v="tertiary"/>
    <tag k="layer" v="1"/>
    <tag k="maxspeed" v="60 mph"/>
    <tag k="oneway" v="no"/>
    <tag k="source" v="GPS;Bing"/>
  </way>
  <way id="316544587" version="7" timestamp="2023-01-12T17:39:39Z" changeset="131198843" uid="6714692" user="Fingrmouse">
    <nd ref="324764360"/>
    <nd ref="10543533856"/>
    <nd ref="324764361"/>
    <nd ref="7838764073"/>
    <nd ref="1866952534"/>
    <nd ref="7838764072"/>
    <nd ref="324764362"/>
    <nd ref="1866952548"/>
    <nd ref="10543533857"/>
    <nd ref="324764364"/>
    <nd ref="7838764074"/>
    <nd ref="7838764075"/>
    <nd ref="7838764076"/>
    <nd ref="1866952535"/>
    <nd ref="1866952529"/>
    <nd ref="7838764077"/>
    <nd ref="3226679587"/>
    <nd ref="324764366"/>
    <nd ref="7838764078"/>
    <nd ref="324764368"/>
    <nd ref="7838764080"/>
    <nd ref="7838764079"/>
    <nd ref="7838764081"/>
    <nd ref="10543533858"/>
    <nd ref="324764370"/>
    <nd ref="7838764082"/>
    <nd ref="10543533859"/>
    <nd ref="10543533860"/>
    <nd ref="7838764083"/>
    <nd ref="7838764084"/>
    <nd ref="324764372"/>
    <nd ref="10543533861"/>
    <nd ref="10543533862"/>
    <nd ref="3226666314"/>
    <nd ref="10543533863"/>
    <nd ref="10543533864"/>
    <nd ref="10543533865"/>
    <nd ref="324764373"/>
    <nd ref="10543533866"/>
    <nd ref="1866952533"/>
    <nd ref="1866952530"/>
    <nd ref="324764374"/>
    <nd ref="6300395959"/>
    <nd ref="6300395965"/>
    <nd ref="6300395962"/>
    <nd ref="324764375"/>
    <nd ref="1556567464"/>
    <nd ref="324764376"/>
    <nd ref="324764378"/>
    <nd ref="324764379"/>
    <nd ref="1866952539"/>
    <nd ref="1866952541"/>
    <nd ref="324764380"/>
    <nd ref="1866952550"/>
    <nd ref="324764381"/>
    <nd ref="1866952547"/>
    <nd ref="324764382"/>
    <nd ref="1866952546"/>
    <nd ref="324764383"/>
    <nd ref="1866952543"/>
    <nd ref="1866952538"/>
    <nd ref="324764384"/>
    <nd ref="324764386"/>
    <nd ref="1866952542"/>
    <nd ref="324764387"/>
    <nd ref="1866952540"/>
    <nd ref="1866952537"/>
    <nd ref="324764388"/>
    <nd ref="1866952544"/>
    <nd ref="324764389"/>
    <nd ref="476519453"/>
    <nd ref="324764390"/>
    <nd ref="6471639762"/>
    <nd ref="6471639765"/>
    <nd ref="803664314"/>
    <nd ref="324764391"/>
    <nd ref="1866952532"/>
    <nd ref="3633359881"/>
    <nd ref="324764392"/>
    <nd ref="1866952549"/>
    <nd ref="1866952545"/>
    <nd ref="324764393"/>
    <nd ref="1866952536"/>
    <nd ref="1866952531"/>
    <nd ref="324764394"/>
    <nd ref="1556567853"/>
    <nd ref="324764395"/>
    <tag k="highway" v="tertiary"/>
    <tag k="maxspeed" v="60 mph"/>
    <tag k="oneway" v="no"/>
    <tag k="source" v="GPS;Bing"/>
  </way>
  <way id="316544588" version="5" timestamp="2021-09-07T03:20:15Z" changeset="110826375" uid="260682" user="monxton">
    <nd ref="3226679218"/>
    <nd ref="9068961760"/>
    <nd ref="9068961758"/>
    <nd ref="9068961761"/>
    <nd ref="9068961759"/>
    <nd ref="9068961762"/>
    <nd ref="3226679219"/>
    <nd ref="9068961757"/>
    <nd ref="3226679220"/>
    <nd ref="9068961756"/>
    <nd ref="3226679221"/>
    <tag k="highway" v="residential"/>
    <tag k="name" v="Home Farm Lane"/>
    <tag k="source:name" v="OS OpenData Locator"/>
  </way>
  <way id="345684607" version="4" timestamp="2023-01-12T16:58:53Z" changeset="131197622" uid="6714692" user="Fingrmouse">
    <nd ref="333259670"/>
    <nd ref="10543471545"/>
    <nd ref="10543471544"/>
    <nd ref="333259673"/>
    <nd ref="10543471543"/>
    <nd ref="333259677"/>
    <nd ref="6901758218"/>
    <nd ref="10543471540"/>
    <nd ref="10543471539"/>
    <nd ref="333259680"/>
    <nd ref="10543471538"/>
    <nd ref="10543471537"/>
    <nd ref="10543471536"/>
    <nd ref="10543471535"/>
    <nd ref="10543471534"/>
    <nd ref="333259681"/>
    <nd ref="10543471533"/>
    <nd ref="6478815217"/>
    <nd ref="333259684"/>
    <nd ref="10543471529"/>
    <nd ref="10543471531"/>
    <nd ref="10543471532"/>
    <nd ref="333259686"/>
    <tag k="highway" v="tertiary"/>
    <tag k="lit" v="yes"/>
    <tag k="maxspeed" v="60 mph"/>
    <tag k="maxspeed:type" v="GB:nsl_single"/>
    <tag k="name" v="Kirklington Road"/>
  </way>
  <way id="345684614" version="4" timestamp="2025-05-14T10:26:40Z" changeset="166247906" uid="3199858" user="Mateusz Konieczny - bot account">
    <nd ref="3523303648"/>
    <nd ref="3523303610"/>
    <nd ref="3523303658"/>
    <nd ref="3523303618"/>
    <nd ref="333259658"/>
    <nd ref="333259660"/>
    <nd ref="9930401914"/>
    <nd ref="333259662"/>
    <nd ref="9930401913"/>
    <nd ref="3523303626"/>
    <nd ref="414592164"/>
    <nd ref="3523303452"/>
    <nd ref="333259664"/>
    <nd ref="3523303476"/>
    <nd ref="333259666"/>
    <nd ref="3523303471"/>
    <nd ref="10543471547"/>
    <nd ref="333259670"/>
    <tag k="highway" v="tertiary"/>
    <tag k="lit" v="yes"/>
    <tag k="maxspeed" v="60 mph"/>
    <tag k="maxspeed:type" v="GB:nsl_single"/>
    <tag k="name" v="Kirklington Road"/>
    <tag k="sidewalk" v="no"/>
  </way>
  <way id="345685141" version="2" timestamp="2024-12-29T02:02:21Z" changeset="160735977" uid="22299871" user="Mappam-12">
    <nd ref="3523302929"/>
    <nd ref="3523302903"/>
    <nd ref="3523302913"/>
    <nd ref="3523302901"/>
    <nd ref="3523302929"/>
    <tag k="building" v="yes"/>
    <tag k="name" v="T W Autos"/>
    <tag k="shop" v="car_repair"/>
    <tag k="source" v="View from west;Bing"/>
  </way>
  <way id="345689027" version="3" timestamp="2025-01-05T00:40:53Z" changeset="161006558" uid="22299871" user="Mappam-12">
    <nd ref="3523343320"/>
    <nd ref="3523343318"/>
    <nd ref="3523343326"/>
    <nd ref="3523343319"/>
    <nd ref="3523343317"/>
    <nd ref="3523343322"/>
    <nd ref="3523343328"/>
    <nd ref="3523343315"/>
    <nd ref="3523343313"/>
    <nd ref="3523343314"/>
    <nd ref="3523343323"/>
    <nd ref="3523343321"/>
    <nd ref="3523343316"/>
    <nd ref="3523343324"/>
    <nd ref="3523343325"/>
    <nd ref="3523343320"/>
    <tag k="building" v="yes"/>
    <tag k="building:levels" v="1"/>
    <tag k="check_date" v="2025-01-05"/>
    <tag k="name" v="BW Parkin &amp; Son"/>
    <tag k="operator" v="The Parkin Group LTD"/>
    <tag k="smoking" v="outside"/>
    <tag k="source" v="Bing, survey"/>
  </way>
  <way id="388671092" version="10" timestamp="2024-10-15T09:58:59Z" changeset="157913138" uid="6714692" user="Fingrmouse">
    <nd ref="658751028"/>
    <nd ref="658751032"/>
    <nd ref="12252587343"/>
    <nd ref="12252587344"/>
    <nd ref="12252587309"/>
    <nd ref="366390007"/>
    <nd ref="12252587345"/>
    <nd ref="12252587346"/>
    <nd ref="12252587270"/>
    <nd ref="366390008"/>
    <nd ref="7029957603"/>
    <nd ref="658755386"/>
    <nd ref="7001234087"/>
    <tag k="highway" v="trunk"/>
    <tag k="lanes" v="2"/>
    <tag k="lit" v="no"/>
    <tag k="maxspeed" v="50 mph"/>
    <tag k="name" v="Hockerton Road"/>
    <tag k="ref" v="A617"/>
    <tag k="sidewalk" v="right"/>
    <tag k="source" v="GPS"/>
    <tag k="source:name" v="FHRS Open Data (Maxeys Farm)"/>
    <tag k="source:sidewalk" v="Mapillary"/>
  </way>
  <way id="388671093" version="11" timestamp="2025-04-22T10:30:54Z" changeset="165277793" uid="5229644" user="Nathan_A_RF">
    <nd ref="345858284"/>
    <nd ref="11891087828"/>
    <nd ref="11891087827"/>
    <nd ref="345858285"/>
    <nd ref="345858286"/>
    <nd ref="345858287"/>
    <nd ref="11891087826"/>
    <nd ref="345858290"/>
    <nd ref="11891087825"/>
    <nd ref="345858293"/>
    <nd ref="11891087824"/>
    <nd ref="11891087823"/>
    <nd ref="345858295"/>
    <nd ref="11891087822"/>
    <nd ref="345858297"/>
    <nd ref="10543534100"/>
    <nd ref="345858298"/>
    <nd ref="10543534101"/>
    <nd ref="10543534102"/>
    <nd ref="345858299"/>
    <nd ref="10543534103"/>
    <nd ref="345858300"/>
    <nd ref="345858302"/>
    <nd ref="11891087821"/>
    <nd ref="11891087820"/>
    <nd ref="345858303"/>
    <nd ref="345858304"/>
    <nd ref="11891087819"/>
    <nd ref="476313811"/>
    <nd ref="345858306"/>
    <nd ref="6543957155"/>
    <nd ref="345858307"/>
    <nd ref="6543957152"/>
    <nd ref="345858308"/>
    <nd ref="11891087818"/>
    <nd ref="345858310"/>
    <nd ref="11891087817"/>
    <nd ref="345858311"/>
    <nd ref="476512230"/>
    <nd ref="11895203580"/>
    <nd ref="11895203581"/>
    <nd ref="345858312"/>
    <nd ref="476512231"/>
    <nd ref="476512222"/>
    <nd ref="11895203579"/>
    <nd ref="345858313"/>
    <nd ref="11895203578"/>
    <nd ref="11895204020"/>
    <nd ref="1483981438"/>
    <nd ref="345858315"/>
    <nd ref="11895203577"/>
    <nd ref="6904815941"/>
    <nd ref="11895203576"/>
    <nd ref="345858316"/>
    <nd ref="11895203575"/>
    <nd ref="11895203574"/>
    <nd ref="8616904859"/>
    <nd ref="11895203573"/>
    <nd ref="11895203572"/>
    <nd ref="7244468110"/>
    <nd ref="345858317"/>
    <nd ref="345858319"/>
    <nd ref="8616904858"/>
    <nd ref="11895203571"/>
    <nd ref="345858320"/>
    <nd ref="11895203570"/>
    <nd ref="11895203569"/>
    <nd ref="11895203568"/>
    <nd ref="345858321"/>
    <nd ref="8616904850"/>
    <nd ref="11895203567"/>
    <nd ref="345858322"/>
    <nd ref="11895203566"/>
    <nd ref="11895203564"/>
    <nd ref="11895203565"/>
    <nd ref="345858324"/>
    <nd ref="11895203563"/>
    <nd ref="11895203562"/>
    <nd ref="345858325"/>
    <nd ref="11895203561"/>
    <nd ref="11895203560"/>
    <nd ref="345858326"/>
    <nd ref="11901308309"/>
    <nd ref="345858327"/>
    <nd ref="11901308311"/>
    <nd ref="11901308310"/>
    <nd ref="11901308312"/>
    <nd ref="345858329"/>
    <tag k="highway" v="unclassified"/>
    <tag k="maxspeed" v="60 mph"/>
    <tag k="maxspeed:type" v="GB:nsl_single"/>
    <tag k="name" v="Corkhill Lane"/>
    <tag k="source" v="survey"/>
  </way>
  <way id="464912957" version="14" timestamp="2025-05-16T14:44:02Z" changeset="166355047" uid="6714692" user="Fingrmouse">
    <nd ref="7001234087"/>
    <nd ref="658755387"/>
    <nd ref="366390009"/>
    <nd ref="658755390"/>
    <nd ref="8003127012"/>
    <nd ref="658755391"/>
    <nd ref="658755394"/>
    <nd ref="4599606415"/>
    <nd ref="658755395"/>
    <nd ref="12252587364"/>
    <nd ref="7371926694"/>
    <nd ref="1483550573"/>
    <nd ref="1483604744"/>
    <nd ref="12252587117"/>
    <nd ref="366390010"/>
    <nd ref="476512219"/>
    <nd ref="476313814"/>
    <nd ref="366390011"/>
    <nd ref="11895203633"/>
    <nd ref="3425541958"/>
    <nd ref="12252587638"/>
    <nd ref="366390013"/>
    <nd ref="12252587637"/>
    <nd ref="658755401"/>
    <nd ref="12252587636"/>
    <nd ref="476313812"/>
    <nd ref="12252587634"/>
    <nd ref="1556514747"/>
    <nd ref="658755405"/>
    <nd ref="12252587655"/>
    <nd ref="658755406"/>
    <nd ref="12252587656"/>
    <nd ref="658755407"/>
    <nd ref="658755408"/>
    <nd ref="12252587657"/>
    <nd ref="366390014"/>
    <nd ref="12252587592"/>
    <nd ref="12252587593"/>
    <nd ref="6544347780"/>
    <nd ref="12842262439"/>
    <nd ref="3425541957"/>
    <nd ref="7301892321"/>
    <nd ref="3918430540"/>
    <tag k="fixme" v="New Speed camera locations need updating and proper survey needs to be done."/>
    <tag k="highway" v="trunk"/>
    <tag k="lit" v="no"/>
    <tag k="maxspeed" v="50 mph"/>
    <tag k="ref" v="A617"/>
    <tag k="sidewalk" v="no"/>
    <tag k="source" v="GPS"/>
  </way>
  <way id="464912962" version="4" timestamp="2024-11-22T13:18:03Z" changeset="159458542" uid="95856" user="⇄ john paul jones &amp; gringo">
    <nd ref="4599606394"/>
    <nd ref="4599606457"/>
    <nd ref="4599606455"/>
    <nd ref="4599606453"/>
    <nd ref="12251276758"/>
    <nd ref="12251276760"/>
    <nd ref="12251276761"/>
    <nd ref="4599606405"/>
    <nd ref="12251276759"/>
    <nd ref="4599606396"/>
    <nd ref="4599606408"/>
    <nd ref="4599606403"/>
    <nd ref="4599606447"/>
    <nd ref="12251276762"/>
    <nd ref="4599606435"/>
    <nd ref="12251276763"/>
    <nd ref="4599606394"/>
    <tag k="addr:city" v="Newark"/>
    <tag k="addr:country" v="GB"/>
    <tag k="addr:housename" v="Brickfield Farm"/>
    <tag k="addr:postcode" v="NG22 8PB"/>
    <tag k="addr:street" v="Hockerton Road"/>
    <tag k="building" v="farm_auxiliary"/>
    <tag k="fhrs:id" v="557248"/>
    <tag k="name" v="Brickfield Farm"/>
    <tag k="source" v="Mapillary"/>
    <tag k="source:addr" v="FHRS Open Data"/>
  </way>
  <way id="464927322" version="2" timestamp="2024-01-31T04:04:29Z" changeset="146886553" uid="15008625" user="Peace_Stroke">
    <nd ref="4599764857"/>
    <nd ref="4599765292"/>
    <nd ref="4599764888"/>
    <nd ref="4599764887"/>
    <nd ref="4599764865"/>
    <nd ref="4599764863"/>
    <nd ref="4599764860"/>
    <nd ref="4599764856"/>
    <nd ref="4599764852"/>
    <nd ref="4599764862"/>
    <nd ref="4599764858"/>
    <nd ref="11571909637"/>
    <nd ref="4599764855"/>
    <nd ref="4599765360"/>
    <nd ref="4599765299"/>
    <nd ref="4599765337"/>
    <nd ref="4599765318"/>
    <nd ref="4599765300"/>
    <nd ref="4599765295"/>
    <nd ref="4599765291"/>
    <nd ref="4599764886"/>
    <nd ref="4599764861"/>
    <nd ref="4599764853"/>
    <nd ref="4599765356"/>
    <nd ref="4599765309"/>
    <nd ref="4599765362"/>
    <nd ref="4599765359"/>
    <nd ref="4599765358"/>
    <nd ref="4599765357"/>
    <nd ref="4599764857"/>
    <tag k="building" v="yes"/>
    <tag k="name" v="Kirklington Hall"/>
    <tag k="source" v="Bing"/>
  </way>
  <way id="464927813" version="6" timestamp="2025-04-22T10:21:53Z" changeset="165277389" uid="5229644" user="Nathan_A_RF">
    <nd ref="289386766"/>
    <nd ref="658750281"/>
    <nd ref="11889687497"/>
    <nd ref="366389997"/>
    <nd ref="510979715"/>
    <nd ref="658750478"/>
    <nd ref="658750481"/>
    <nd ref="658750484"/>
    <nd ref="658750488"/>
    <nd ref="427008569"/>
    <nd ref="1483527199"/>
    <nd ref="366389998"/>
    <nd ref="3226679218"/>
    <nd ref="1483525029"/>
    <nd ref="511058845"/>
    <nd ref="427008570"/>
    <tag k="highway" v="trunk"/>
    <tag k="lit" v="yes"/>
    <tag k="maxspeed" v="30 mph"/>
    <tag k="name" v="Newark Road"/>
    <tag k="ref" v="A617"/>
    <tag k="source" v="survey"/>
    <tag k="source:name" v="OS OpenData StreetView"/>
  </way>
  <way id="464927814" version="4" timestamp="2019-06-05T17:00:43Z" changeset="70961333" uid="9196103" user="srinatpa">
    <nd ref="427008570"/>
    <nd ref="366389999"/>
    <nd ref="658750633"/>
    <nd ref="6525035781"/>
    <nd ref="427008571"/>
    <tag k="highway" v="trunk"/>
    <tag k="lit" v="yes"/>
    <tag k="maxspeed" v="30 mph"/>
    <tag k="name" v="Main Street"/>
    <tag k="oneway" v="no"/>
    <tag k="ref" v="A617"/>
    <tag k="source" v="survey"/>
    <tag k="source:name" v="inferred from Wings School address"/>
  </way>
  <way id="464929756" version="3" timestamp="2019-08-12T11:23:28Z" changeset="73264705" uid="6714692" user="Fingrmouse">
    <nd ref="4599782451"/>
    <nd ref="4599782450"/>
    <nd ref="4599782455"/>
    <nd ref="6702944703"/>
    <nd ref="4599782451"/>
    <tag k="building" v="house"/>
    <tag k="heritage" v="2"/>
    <tag k="heritage:operator" v="Historic England"/>
    <tag k="listed_status" v="Grade II"/>
    <tag k="name" v="Kirklington Mill"/>
    <tag k="source" v="Bing"/>
  </way>
  <way id="472408385" version="5" timestamp="2025-04-22T10:21:53Z" changeset="165277389" uid="5229644" user="Nathan_A_RF">
    <nd ref="4666202667"/>
    <nd ref="511100446"/>
    <nd ref="289386766"/>
    <tag k="highway" v="trunk"/>
    <tag k="lit" v="yes"/>
    <tag k="maxspeed" v="30 mph"/>
    <tag k="name" v="Kirklington Road"/>
    <tag k="ref" v="A617"/>
    <tag k="source" v="survey"/>
  </way>
  <way id="473661982" version="2" timestamp="2024-10-15T09:58:59Z" changeset="157913138" uid="6714692" user="Fingrmouse">
    <nd ref="427005511"/>
    <nd ref="366390002"/>
    <nd ref="1483503777"/>
    <nd ref="12252587341"/>
    <nd ref="12252587342"/>
    <nd ref="345858278"/>
    <nd ref="658751025"/>
    <nd ref="658751028"/>
    <tag k="highway" v="trunk"/>
    <tag k="lit" v="yes"/>
    <tag k="maxspeed" v="30 mph"/>
    <tag k="name" v="Main Street"/>
    <tag k="oneway" v="no"/>
    <tag k="ref" v="A617"/>
    <tag k="sidewalk" v="no"/>
    <tag k="source" v="GPS;survey"/>
    <tag k="source:name" v="inferred from Wings School address"/>
  </way>
  <way id="473662969" version="5" timestamp="2025-04-22T11:25:44Z" changeset="165280217" uid="5229644" user="Nathan_A_RF">
    <nd ref="289386782"/>
    <nd ref="11891087232"/>
    <nd ref="511017912"/>
    <nd ref="289386781"/>
    <nd ref="324763469"/>
    <nd ref="8367651426"/>
    <nd ref="4022804257"/>
    <nd ref="289386780"/>
    <nd ref="8367651425"/>
    <nd ref="4395466954"/>
    <nd ref="289386779"/>
    <nd ref="4395466953"/>
    <nd ref="11891087383"/>
    <nd ref="289386778"/>
    <tag k="highway" v="tertiary"/>
    <tag k="maxspeed" v="60 mph"/>
    <tag k="maxspeed:type" v="GB:nsl_single"/>
    <tag k="name" v="Southwell Road"/>
    <tag k="source:RHW" v="Sign at E"/>
    <tag k="source:name" v="NaPTAN"/>
  </way>
  <way id="713019234" version="4" timestamp="2022-07-18T06:41:25Z" changeset="123745728" uid="7345137" user="magrej">
    <nd ref="6702944101"/>
    <nd ref="6702944102"/>
    <nd ref="6702944103"/>
    <nd ref="6702944104"/>
    <nd ref="6702944105"/>
    <nd ref="6702944106"/>
    <nd ref="6702944107"/>
    <nd ref="6702944108"/>
    <nd ref="6702944101"/>
    <tag k="amenity" v="place_of_worship"/>
    <tag k="building" v="church"/>
    <tag k="denomination" v="anglican"/>
    <tag k="name" v="St Swithin"/>
    <tag k="religion" v="christian"/>
    <tag k="wikidata" v="Q15979513"/>
    <tag k="wikipedia" v="en:St Swithun's Church, Kirklington"/>
  </way>
  <way id="1080040211" version="6" timestamp="2025-04-22T10:21:53Z" changeset="165277389" uid="5229644" user="Nathan_A_RF">
    <nd ref="366393530"/>
    <nd ref="287837775"/>
    <nd ref="658749751"/>
    <nd ref="768195780"/>
    <nd ref="414590603"/>
    <nd ref="658749766"/>
    <nd ref="414590597"/>
    <nd ref="768195792"/>
    <nd ref="366393533"/>
    <nd ref="658749772"/>
    <nd ref="768195802"/>
    <nd ref="768195805"/>
    <nd ref="768195809"/>
    <nd ref="366393536"/>
    <nd ref="768195812"/>
    <nd ref="704146624"/>
    <nd ref="366393540"/>
    <nd ref="768195818"/>
    <nd ref="8655019818"/>
    <nd ref="768195821"/>
    <nd ref="768195826"/>
    <nd ref="658749793"/>
    <nd ref="658749803"/>
    <nd ref="10543400971"/>
    <nd ref="768195828"/>
    <nd ref="333259686"/>
    <tag k="highway" v="trunk"/>
    <tag k="lit" v="no"/>
    <tag k="maxspeed" v="50 mph"/>
    <tag k="maxspeed:type" v="sign"/>
    <tag k="name" v="Kirklington Road"/>
    <tag k="ref" v="A617"/>
    <tag k="source" v="survey"/>
  </way>
  <way id="1323947456" version="1" timestamp="2024-10-14T20:17:34Z" changeset="157894962" uid="6714692" user="Fingrmouse">
    <nd ref="12251276793"/>
    <nd ref="12251276794"/>
    <nd ref="12251276795"/>
    <nd ref="12251276796"/>
    <nd ref="12251276797"/>
    <nd ref="12251276798"/>
    <nd ref="12251276799"/>
    <nd ref="12251276800"/>
    <nd ref="12251276834"/>
    <nd ref="12251276801"/>
    <nd ref="12251276802"/>
    <nd ref="12251276803"/>
    <nd ref="12251276804"/>
    <nd ref="12251276793"/>
    <tag k="building" v="yes"/>
    <tag k="name" v="Maxeys Farm Shop"/>
    <tag k="shop" v="farm"/>
  </way>
  <way id="1346986827" version="1" timestamp="2024-12-29T01:56:21Z" changeset="160735912" uid="22299871" user="Mappam-12">
    <nd ref="12459847714"/>
    <nd ref="12459847713"/>
    <nd ref="12459847715"/>
    <nd ref="12459847712"/>
    <nd ref="12459847714"/>
    <tag k="addr:housenumber" v="Unit 5"/>
    <tag k="building" v="yes"/>
    <tag k="name" v="33"/>
  </way>
  <way id="1346987159" version="1" timestamp="2024-12-29T02:02:21Z" changeset="160735977" uid="22299871" user="Mappam-12">
    <nd ref="12459854479"/>
    <nd ref="12459854477"/>
    <nd ref="12459854480"/>
    <nd ref="12459854478"/>
    <nd ref="12459854479"/>
    <tag k="building" v="yes"/>
    <tag k="craft" v="photographer"/>
    <tag k="name" v="Oasis Image Studio"/>
  </way>

</osm>
