<?xml version="1.0" encoding="UTF-8"?>
<osm version="0.6" generator="Overpass API 0.7.62.8 e802775f">
<note>The data included in this document is from www.openstreetmap.org. The data is made available under ODbL.</note>
<meta osm_base="2025-10-23T17:49:02Z" areas="2025-10-23T14:54:58Z"/>

  <node id="126733975" lat="53.3004417" lon="-0.9017874" version="11" timestamp="2014-04-06T13:04:30Z" changeset="21532122" uid="2011702" user="krd_mapper"/>
  <node id="126734021" lat="53.3151903" lon="-0.8738476" version="9" timestamp="2025-10-08T16:16:07Z" changeset="173010159" uid="8857" user="philipcullen">
    <tag k="ref:GB:uprn" v="10013981177"/>
  </node>
  <node id="323198422" lat="53.3077394" lon="-0.8499262" version="6" timestamp="2017-07-22T01:16:50Z" changeset="50472290" uid="5296090" user="TR42"/>
  <node id="1986816976" lat="53.2932156" lon="-0.8803184" version="1" timestamp="2012-10-28T12:12:47Z" changeset="13660293" uid="82783" user="Paul The Archivist"/>
  <way id="13720694" version="17" timestamp="2023-09-11T14:24:49Z" changeset="141116447" uid="12616743" user="BassetlawMapper">
    <nd ref="126733975"/>
    <nd ref="2772439749"/>
    <nd ref="375541075"/>
    <nd ref="2772439779"/>
    <nd ref="5182155799"/>
    <nd ref="375540979"/>
    <nd ref="2772439881"/>
    <nd ref="375540980"/>
    <nd ref="2772439776"/>
    <nd ref="2772439802"/>
    <nd ref="2772439742"/>
    <nd ref="375540981"/>
    <nd ref="2772439787"/>
    <nd ref="2772439750"/>
    <nd ref="126734336"/>
    <nd ref="2772439772"/>
    <nd ref="375540982"/>
    <nd ref="2772439873"/>
    <nd ref="375540983"/>
    <nd ref="2772439743"/>
    <nd ref="375540984"/>
    <nd ref="375540985"/>
    <nd ref="2772439798"/>
    <nd ref="2772439770"/>
    <nd ref="126734341"/>
    <nd ref="375540986"/>
    <nd ref="375540987"/>
    <nd ref="375540988"/>
    <nd ref="375540989"/>
    <nd ref="2772439793"/>
    <nd ref="375540990"/>
    <nd ref="2772439865"/>
    <nd ref="2772439736"/>
    <nd ref="126734349"/>
    <nd ref="2772439884"/>
    <nd ref="2772439877"/>
    <nd ref="1354801717"/>
    <nd ref="1354801718"/>
    <nd ref="7704291622"/>
    <nd ref="2772439760"/>
    <nd ref="375539508"/>
    <nd ref="11183557885"/>
    <nd ref="1354801721"/>
    <nd ref="3338626942"/>
    <nd ref="3338614844"/>
    <nd ref="375540995"/>
    <nd ref="1354801722"/>
    <nd ref="2772190473"/>
    <nd ref="126734355"/>
    <nd ref="2772190472"/>
    <nd ref="4403856536"/>
    <nd ref="31575435"/>
    <tag k="highway" v="tertiary"/>
    <tag k="lit" v="no"/>
    <tag k="maxspeed" v="60 mph"/>
    <tag k="maxspeed:type" v="GB:nsl_single"/>
    <tag k="name" v="Grove Road"/>
  </way>
  <way id="13720695" version="12" timestamp="2019-06-12T01:03:27Z" changeset="71161362" uid="9196086" user="spavulur">
    <nd ref="126733975"/>
    <nd ref="2772439764"/>
    <nd ref="2772439756"/>
    <nd ref="1210320281"/>
    <nd ref="2772439752"/>
    <nd ref="2772439722"/>
    <nd ref="2772439808"/>
    <nd ref="2772439795"/>
    <nd ref="6541153246"/>
    <nd ref="2772439895"/>
    <nd ref="126733982"/>
    <nd ref="2772439728"/>
    <nd ref="2772439739"/>
    <nd ref="2772439754"/>
    <nd ref="2772439767"/>
    <nd ref="2772439811"/>
    <nd ref="1210320345"/>
    <nd ref="2772439898"/>
    <nd ref="2772439805"/>
    <nd ref="1210320394"/>
    <tag k="highway" v="tertiary"/>
    <tag k="lit" v="no"/>
    <tag k="name" v="Main Street"/>
  </way>
  <way id="41533195" version="6" timestamp="2017-07-22T01:16:51Z" changeset="50472290" uid="5296090" user="TR42">
    <nd ref="126734004"/>
    <nd ref="2169460937"/>
    <nd ref="1210320414"/>
    <nd ref="2169460938"/>
    <nd ref="1210320189"/>
    <nd ref="2169460939"/>
    <nd ref="2169460940"/>
    <nd ref="2169460941"/>
    <nd ref="2169460942"/>
    <nd ref="2169460943"/>
    <nd ref="126734011"/>
    <nd ref="2169460944"/>
    <nd ref="2169460945"/>
    <nd ref="2169460946"/>
    <nd ref="1210320245"/>
    <nd ref="126734359"/>
    <nd ref="2169460957"/>
    <nd ref="2169460958"/>
    <nd ref="126734017"/>
    <nd ref="2934734907"/>
    <nd ref="2934734908"/>
    <nd ref="2934733476"/>
    <nd ref="126734021"/>
    <tag k="highway" v="tertiary"/>
    <tag k="lit" v="no"/>
    <tag k="name" v="Main Street"/>
  </way>
  <way id="55961487" version="5" timestamp="2020-10-28T21:28:26Z" changeset="93201240" uid="10170568" user="shsahit">
    <nd ref="323198422"/>
    <nd ref="323198423"/>
    <nd ref="4985957874"/>
    <nd ref="4985957876"/>
    <nd ref="5025138258"/>
    <nd ref="5025138297"/>
    <nd ref="5025138273"/>
    <nd ref="5025139025"/>
    <nd ref="5025138285"/>
    <nd ref="5025138311"/>
    <nd ref="8060439403"/>
    <nd ref="5025139043"/>
    <nd ref="5025138320"/>
    <nd ref="5025138270"/>
    <nd ref="5025138262"/>
    <nd ref="5025138288"/>
    <nd ref="5025138266"/>
    <nd ref="5025138298"/>
    <nd ref="5025156173"/>
    <nd ref="5025139045"/>
    <nd ref="4985957883"/>
    <nd ref="323198425"/>
    <nd ref="4985957885"/>
    <nd ref="4985957887"/>
    <nd ref="323198426"/>
    <nd ref="4985957871"/>
    <nd ref="4985957879"/>
    <nd ref="323198427"/>
    <nd ref="4985957869"/>
    <nd ref="4985957867"/>
    <nd ref="323198428"/>
    <nd ref="126734021"/>
    <tag k="highway" v="tertiary"/>
    <tag k="lit" v="no"/>
    <tag k="name" v="Wood Lane"/>
    <tag k="source:name" v="OS_opendata_streetview"/>
  </way>
  <way id="56030399" version="4" timestamp="2017-07-22T01:16:50Z" changeset="50472290" uid="5296090" user="TR42">
    <nd ref="126734021"/>
    <nd ref="1210320323"/>
    <nd ref="1210320383"/>
    <nd ref="1210320225"/>
    <nd ref="1210320426"/>
    <nd ref="2934733486"/>
    <nd ref="2934733474"/>
    <nd ref="126734026"/>
    <nd ref="2934733494"/>
    <nd ref="2934733477"/>
    <nd ref="1210320274"/>
    <nd ref="1210320334"/>
    <nd ref="2934734909"/>
    <nd ref="126749250"/>
    <tag k="highway" v="tertiary"/>
    <tag k="lit" v="no"/>
    <tag k="name" v="Grove Road"/>
    <tag k="source:name" v="OS_Opendata_streetview"/>
  </way>
  <way id="225425146" version="5" timestamp="2021-05-03T17:20:35Z" changeset="104071963" uid="2011702" user="krd_mapper">
    <nd ref="1986816976"/>
    <nd ref="1822381024"/>
    <nd ref="2772464700"/>
    <nd ref="126734067"/>
    <nd ref="375543284"/>
    <nd ref="1354801681"/>
    <nd ref="2772464672"/>
    <nd ref="375543286"/>
    <nd ref="375543124"/>
    <nd ref="2772464635"/>
    <nd ref="375542990"/>
    <nd ref="1354801682"/>
    <nd ref="126734058"/>
    <nd ref="1354801684"/>
    <nd ref="1354801685"/>
    <nd ref="8694402742"/>
    <nd ref="126734054"/>
    <nd ref="8694402741"/>
    <nd ref="375542852"/>
    <nd ref="126734891"/>
    <nd ref="126734051"/>
    <nd ref="375541805"/>
    <nd ref="375541806"/>
    <nd ref="126734031"/>
    <nd ref="375541809"/>
    <nd ref="375541811"/>
    <nd ref="2772439790"/>
    <nd ref="375541814"/>
    <nd ref="2772439733"/>
    <nd ref="126733975"/>
    <tag k="highway" v="tertiary"/>
    <tag k="lit" v="no"/>
  </way>
  <way id="509345446" version="4" timestamp="2021-02-10T07:06:11Z" changeset="99020645" uid="10252543" user="srikmar">
    <nd ref="1210320394"/>
    <nd ref="2772439725"/>
    <nd ref="2772439747"/>
    <nd ref="2772439800"/>
    <nd ref="8410851524"/>
    <nd ref="2772439718"/>
    <nd ref="2772439870"/>
    <nd ref="126733990"/>
    <nd ref="2772439731"/>
    <nd ref="2772439891"/>
    <nd ref="1210320175"/>
    <nd ref="2772439887"/>
    <nd ref="2772439784"/>
    <nd ref="2959792662"/>
    <nd ref="2772439745"/>
    <nd ref="5181803127"/>
    <nd ref="2772439782"/>
    <nd ref="8410851522"/>
    <nd ref="126733997"/>
    <nd ref="2772439814"/>
    <nd ref="1210320236"/>
    <nd ref="7151268122"/>
    <nd ref="2772446636"/>
    <nd ref="2772446642"/>
    <nd ref="2772446651"/>
    <nd ref="2772446646"/>
    <nd ref="1210320294"/>
    <nd ref="4985957868"/>
    <tag k="highway" v="tertiary"/>
    <tag k="lit" v="yes"/>
    <tag k="name" v="Main Street"/>
  </way>
  <way id="509345447" version="1" timestamp="2017-07-22T01:16:49Z" changeset="50472290" uid="5296090" user="TR42">
    <nd ref="4985957868"/>
    <nd ref="2772446632"/>
    <nd ref="1210320376"/>
    <nd ref="2169460934"/>
    <nd ref="2169460935"/>
    <nd ref="2169460936"/>
    <nd ref="126734000"/>
    <nd ref="2772446653"/>
    <nd ref="126734004"/>
    <tag k="highway" v="tertiary"/>
    <tag k="lit" v="no"/>
    <tag k="name" v="Main Street"/>
  </way>
  <way id="534265498" version="6" timestamp="2025-09-19T22:27:58Z" changeset="172184179" uid="8857" user="philipcullen">
    <nd ref="5181803148"/>
    <nd ref="5181803149"/>
    <nd ref="5181803150"/>
    <nd ref="5181803151"/>
    <nd ref="5181803152"/>
    <nd ref="5181803153"/>
    <nd ref="5181803148"/>
    <tag k="addr:postcode" v="DN22 0RJ"/>
    <tag k="amenity" v="place_of_worship"/>
    <tag k="building" v="church"/>
    <tag k="denomination" v="anglican"/>
    <tag k="name" v="St Helen"/>
    <tag k="ref:GB:uprn" v="10093191850"/>
    <tag k="religion" v="christian"/>
    <tag k="wikidata" v="Q7588298"/>
    <tag k="wikipedia" v="en:St Helen's Church, Grove"/>
  </way>
  <way id="688129368" version="1" timestamp="2019-05-06T10:41:53Z" changeset="69930588" uid="9259465" user="alivelis">
    <nd ref="2772446636"/>
    <nd ref="6451663751"/>
    <nd ref="6451663752"/>
    <nd ref="6451663753"/>
    <nd ref="6451663754"/>
    <nd ref="6451663755"/>
    <nd ref="6451663756"/>
    <nd ref="6451663757"/>
    <nd ref="6451663758"/>
    <nd ref="6451663759"/>
    <tag k="highway" v="residential"/>
  </way>
  <way id="765702016" version="2" timestamp="2022-01-27T19:04:47Z" changeset="116679072" uid="8871564" user="AndAndrew">
    <nd ref="7151268122"/>
    <nd ref="7151268123"/>
    <nd ref="7151268124"/>
    <nd ref="7151268125"/>
    <tag k="highway" v="residential"/>
    <tag k="name" v="Old Walled Gardens"/>
    <tag k="source:name" v="OS_OpenRoads"/>
  </way>

</osm>
