<?xml version="1.0" encoding="UTF-8"?>
<osm version="0.6" generator="Overpass API 0.7.62.8 e802775f">
<note>The data included in this document is from www.openstreetmap.org. The data is made available under ODbL.</note>
<meta osm_base="2025-10-23T17:34:45Z" areas="2025-10-23T12:46:58Z"/>

  <node id="324358246" lat="53.0512566" lon="-0.9627041" version="12" timestamp="2024-04-25T09:28:12Z" changeset="150484950" uid="6714692" user="Fingrmouse"/>
  <node id="333277673" lat="53.0648461" lon="-0.9708160" version="9" timestamp="2024-05-15T16:46:29Z" changeset="151371723" uid="6714692" user="Fingrmouse"/>
  <node id="333277805" lat="53.0607546" lon="-0.9685268" version="4" timestamp="2024-05-15T16:46:29Z" changeset="151371723" uid="6714692" user="Fingrmouse"/>
  <node id="2193370510" lat="53.0465079" lon="-0.9608435" version="2" timestamp="2024-04-25T09:28:12Z" changeset="150484950" uid="6714692" user="Fingrmouse"/>
  <way id="29430656" version="16" timestamp="2025-04-22T15:29:58Z" changeset="165292124" uid="5229644" user="Nathan_A_RF">
    <nd ref="324358246"/>
    <nd ref="11846778065"/>
    <nd ref="11846778066"/>
    <nd ref="11846778067"/>
    <nd ref="333276960"/>
    <nd ref="11846778068"/>
    <nd ref="2193370512"/>
    <nd ref="2193370523"/>
    <nd ref="324358314"/>
    <nd ref="2193370580"/>
    <nd ref="2193370546"/>
    <nd ref="2193370498"/>
    <nd ref="324358315"/>
    <nd ref="324358316"/>
    <nd ref="6554442788"/>
    <nd ref="324358317"/>
    <nd ref="11846778069"/>
    <nd ref="11846778070"/>
    <nd ref="333276964"/>
    <nd ref="11846778071"/>
    <nd ref="324358318"/>
    <nd ref="475333245"/>
    <nd ref="11846778073"/>
    <nd ref="11846778074"/>
    <nd ref="324358319"/>
    <nd ref="11846778075"/>
    <nd ref="11846778076"/>
    <nd ref="11846778077"/>
    <nd ref="11846778078"/>
    <nd ref="324358320"/>
    <nd ref="11846778079"/>
    <nd ref="333276863"/>
    <tag k="highway" v="unclassified"/>
    <tag k="maxspeed" v="60 mph"/>
    <tag k="maxspeed:type" v="GB:nsl_single"/>
    <tag k="name" v="High Cross"/>
    <tag k="source:name" v="OS_OpenData_Locator"/>
  </way>
  <way id="29468243" version="7" timestamp="2023-12-15T17:40:07Z" changeset="145160334" uid="6714692" user="Fingrmouse">
    <nd ref="324771926"/>
    <nd ref="11420753289"/>
    <nd ref="5586180390"/>
    <nd ref="324771971"/>
    <tag k="highway" v="unclassified"/>
    <tag k="maxspeed" v="50 mph"/>
    <tag k="sidewalk" v="right"/>
  </way>
  <way id="39445785" version="11" timestamp="2025-04-22T19:22:38Z" changeset="165301232" uid="5229644" user="Nathan_A_RF">
    <nd ref="333277673"/>
    <nd ref="333277798"/>
    <nd ref="11767250716"/>
    <nd ref="11767250717"/>
    <nd ref="11767250718"/>
    <nd ref="11767250709"/>
    <nd ref="333277799"/>
    <nd ref="11767250708"/>
    <nd ref="11907584656"/>
    <nd ref="333277800"/>
    <nd ref="11907584655"/>
    <nd ref="333277801"/>
    <nd ref="11907584657"/>
    <nd ref="11767250710"/>
    <nd ref="11907584658"/>
    <nd ref="1071437497"/>
    <nd ref="11907584659"/>
    <nd ref="333277802"/>
    <nd ref="333277803"/>
    <nd ref="11907584660"/>
    <nd ref="11767250711"/>
    <nd ref="11907584661"/>
    <nd ref="1071437508"/>
    <nd ref="5586201024"/>
    <nd ref="5586201023"/>
    <nd ref="333277804"/>
    <nd ref="11907584662"/>
    <nd ref="1940713561"/>
    <nd ref="11907584663"/>
    <nd ref="12776940360"/>
    <nd ref="333277805"/>
    <tag k="fixme" v="Stubbin's Lane or Stubbins Lane?"/>
    <tag k="highway" v="unclassified"/>
    <tag k="lit" v="no"/>
    <tag k="maxspeed" v="60 mph"/>
    <tag k="maxspeed:type" v="GB:nsl_single"/>
    <tag k="name" v="Stubbins Lane"/>
    <tag k="sidewalk" v="no"/>
    <tag k="source:name" v="Sign"/>
    <tag k="verge" v="both"/>
    <tag k="width" v="2"/>
  </way>
  <way id="226589487" version="12" timestamp="2025-07-11T13:18:01Z" changeset="168796444" uid="5359" user="user_5359">
    <nd ref="324771926"/>
    <nd ref="11909311823"/>
    <nd ref="1071427616"/>
    <nd ref="157252233"/>
    <nd ref="11909311824"/>
    <nd ref="1071427745"/>
    <nd ref="11909311825"/>
    <nd ref="1071427622"/>
    <nd ref="333277805"/>
    <tag k="highway" v="primary"/>
    <tag k="lanes" v="2"/>
    <tag k="maxspeed" v="50 mph"/>
    <tag k="name" v="Nottingham Road"/>
    <tag k="ref" v="A612"/>
    <tag k="sidewalk" v="right"/>
    <tag k="wikipedia" v="en:A612 road"/>
  </way>
  <way id="226589488" version="12" timestamp="2025-07-11T13:18:01Z" changeset="168796444" uid="5359" user="user_5359">
    <nd ref="324358246"/>
    <nd ref="157252224"/>
    <nd ref="2193370501"/>
    <nd ref="157252225"/>
    <nd ref="2193370475"/>
    <nd ref="2193370569"/>
    <nd ref="2193370547"/>
    <nd ref="2193370524"/>
    <nd ref="2193370503"/>
    <nd ref="157252227"/>
    <nd ref="11909311830"/>
    <nd ref="11909311831"/>
    <nd ref="2193370600"/>
    <nd ref="472430131"/>
    <nd ref="157252229"/>
    <nd ref="2193370599"/>
    <nd ref="11909311817"/>
    <nd ref="2193370484"/>
    <nd ref="2193370542"/>
    <nd ref="157252230"/>
    <nd ref="2193370496"/>
    <nd ref="11909311818"/>
    <nd ref="11909311819"/>
    <nd ref="473147568"/>
    <tag k="highway" v="primary"/>
    <tag k="lanes" v="2"/>
    <tag k="maxspeed" v="50 mph"/>
    <tag k="name" v="Highcross Hill"/>
    <tag k="ref" v="A612"/>
    <tag k="source" v="OS_OpenData_StreetView"/>
    <tag k="source:name" v="OS_OpenData_Locator"/>
    <tag k="surface" v="asphalt"/>
    <tag k="wikipedia" v="en:A612 road"/>
  </way>
  <way id="334858736" version="11" timestamp="2025-07-11T13:18:01Z" changeset="168796444" uid="5359" user="user_5359">
    <nd ref="2193370510"/>
    <nd ref="2193370513"/>
    <nd ref="2193370477"/>
    <nd ref="2193370495"/>
    <nd ref="2193370534"/>
    <nd ref="11846778063"/>
    <nd ref="157252220"/>
    <nd ref="2193370558"/>
    <nd ref="2193370576"/>
    <nd ref="2193370508"/>
    <nd ref="2193370555"/>
    <nd ref="2193370563"/>
    <nd ref="2193370531"/>
    <nd ref="2193370518"/>
    <nd ref="157252221"/>
    <nd ref="2193370500"/>
    <nd ref="2193370553"/>
    <nd ref="2193370486"/>
    <nd ref="2193370481"/>
    <nd ref="157252223"/>
    <nd ref="11846778064"/>
    <nd ref="2193370549"/>
    <nd ref="324358246"/>
    <tag k="highway" v="primary"/>
    <tag k="lanes" v="2"/>
    <tag k="maxspeed" v="50 mph"/>
    <tag k="name" v="Nottingham Road"/>
    <tag k="oneway" v="no"/>
    <tag k="ref" v="A612"/>
    <tag k="surface" v="asphalt"/>
    <tag k="wikipedia" v="en:A612 road"/>
  </way>
  <way id="389256644" version="5" timestamp="2023-12-15T17:40:07Z" changeset="145160334" uid="6714692" user="Fingrmouse">
    <nd ref="3924130902"/>
    <nd ref="3924130903"/>
    <nd ref="11420753968"/>
    <nd ref="11420753970"/>
    <nd ref="11420753971"/>
    <nd ref="11420753969"/>
    <nd ref="11420753967"/>
    <nd ref="3924130904"/>
    <nd ref="3924130905"/>
    <nd ref="11420753964"/>
    <nd ref="11420753966"/>
    <nd ref="11420753965"/>
    <nd ref="11420753963"/>
    <nd ref="3924130902"/>
    <tag k="amenity" v="place_of_worship"/>
    <tag k="building" v="yes"/>
    <tag k="denomination" v="anglican"/>
    <tag k="name" v="St James Church"/>
    <tag k="religion" v="christian"/>
    <tag k="wikidata" v="Q15979370"/>
    <tag k="wikipedia" v="en:St James' Church, Halloughton"/>
  </way>
  <way id="389256646" version="5" timestamp="2023-12-15T17:40:07Z" changeset="145160334" uid="6714692" user="Fingrmouse">
    <nd ref="3924130911"/>
    <nd ref="11420753292"/>
    <nd ref="11420753291"/>
    <nd ref="11420753288"/>
    <nd ref="11420753890"/>
    <nd ref="324771974"/>
    <nd ref="11420753894"/>
    <nd ref="11420753287"/>
    <nd ref="11420753900"/>
    <nd ref="11420753293"/>
    <nd ref="11420753286"/>
    <nd ref="11420753302"/>
    <nd ref="11420753285"/>
    <nd ref="11420753305"/>
    <nd ref="11420753284"/>
    <nd ref="406629940"/>
    <nd ref="324771975"/>
    <nd ref="7309026575"/>
    <nd ref="406629515"/>
    <nd ref="406629512"/>
    <nd ref="11420753812"/>
    <nd ref="11420753310"/>
    <nd ref="11420753283"/>
    <nd ref="11420753815"/>
    <nd ref="11420753314"/>
    <nd ref="406629510"/>
    <nd ref="11420753790"/>
    <nd ref="5586180380"/>
    <nd ref="11420754356"/>
    <nd ref="406629507"/>
    <tag k="highway" v="unclassified"/>
    <tag k="lit" v="yes"/>
    <tag k="maxspeed" v="30 mph"/>
    <tag k="sidewalk" v="no"/>
    <tag k="verge" v="no"/>
  </way>
  <way id="389256647" version="2" timestamp="2023-12-15T17:40:07Z" changeset="145160334" uid="6714692" user="Fingrmouse">
    <nd ref="3924130921"/>
    <nd ref="11420753209"/>
    <nd ref="406628276"/>
    <nd ref="406628270"/>
    <nd ref="406628264"/>
    <nd ref="406628257"/>
    <nd ref="11420753210"/>
    <nd ref="406627116"/>
    <nd ref="406627115"/>
    <nd ref="406627114"/>
    <nd ref="406627113"/>
    <nd ref="406627112"/>
    <nd ref="406627111"/>
    <nd ref="406627110"/>
    <nd ref="406627109"/>
    <tag k="foot" v="yes"/>
    <tag k="highway" v="unclassified"/>
    <tag k="maxspeed" v="30 mph"/>
    <tag k="oneway" v="no"/>
  </way>
  <way id="584389786" version="3" timestamp="2023-12-15T17:40:07Z" changeset="145160334" uid="6714692" user="Fingrmouse">
    <nd ref="406629507"/>
    <nd ref="11420753355"/>
    <nd ref="11420753282"/>
    <nd ref="11420753343"/>
    <nd ref="406629504"/>
    <nd ref="11420753633"/>
    <nd ref="11420753281"/>
    <nd ref="406629065"/>
    <tag k="highway" v="unclassified"/>
    <tag k="lit" v="no"/>
    <tag k="maxspeed" v="30 mph"/>
    <tag k="sidewalk" v="no"/>
    <tag k="verge" v="no"/>
  </way>
  <way id="584389788" version="2" timestamp="2022-03-09T22:29:08Z" changeset="118296705" uid="242345" user="confusedbuffalo">
    <nd ref="5586180375"/>
    <nd ref="324771973"/>
    <nd ref="3924130911"/>
    <tag k="highway" v="unclassified"/>
    <tag k="maxspeed" v="50 mph"/>
    <tag k="sidewalk" v="no"/>
  </way>
  <way id="584389791" version="5" timestamp="2023-12-15T17:40:07Z" changeset="145160334" uid="6714692" user="Fingrmouse">
    <nd ref="406629059"/>
    <nd ref="406628890"/>
    <nd ref="11420753278"/>
    <nd ref="11420753476"/>
    <nd ref="11420753277"/>
    <nd ref="406628887"/>
    <nd ref="11420753461"/>
    <nd ref="406628884"/>
    <nd ref="11420753417"/>
    <nd ref="406628880"/>
    <nd ref="6902407971"/>
    <nd ref="11420753463"/>
    <nd ref="535928279"/>
    <nd ref="11420753205"/>
    <nd ref="406628876"/>
    <nd ref="406628874"/>
    <nd ref="11420753206"/>
    <nd ref="11420753207"/>
    <nd ref="7953410067"/>
    <nd ref="7695290950"/>
    <nd ref="3924130921"/>
    <tag k="highway" v="unclassified"/>
    <tag k="maxspeed" v="30 mph"/>
  </way>
  <way id="584389793" version="3" timestamp="2023-12-15T17:40:07Z" changeset="145160334" uid="6714692" user="Fingrmouse">
    <nd ref="406629065"/>
    <nd ref="11420753644"/>
    <nd ref="11420753363"/>
    <nd ref="11420753280"/>
    <nd ref="406629063"/>
    <nd ref="11420753279"/>
    <nd ref="11420753687"/>
    <nd ref="406630262"/>
    <nd ref="406629061"/>
    <nd ref="11420754269"/>
    <nd ref="406629059"/>
    <tag k="highway" v="unclassified"/>
    <tag k="lit" v="yes"/>
    <tag k="maxspeed" v="30 mph"/>
    <tag k="sidewalk" v="no"/>
    <tag k="verge" v="no"/>
  </way>
  <way id="584389795" version="2" timestamp="2022-03-09T22:29:08Z" changeset="118296705" uid="242345" user="confusedbuffalo">
    <nd ref="324771971"/>
    <nd ref="5586180375"/>
    <tag k="bridge" v="yes"/>
    <tag k="highway" v="unclassified"/>
    <tag k="layer" v="1"/>
    <tag k="maxspeed" v="50 mph"/>
    <tag k="sidewalk" v="no"/>
  </way>
  <way id="584389797" version="9" timestamp="2025-07-11T13:18:01Z" changeset="168796444" uid="5359" user="user_5359">
    <nd ref="473147568"/>
    <nd ref="11909311820"/>
    <nd ref="324772010"/>
    <nd ref="157252231"/>
    <nd ref="11909311821"/>
    <nd ref="324772102"/>
    <nd ref="11909311822"/>
    <nd ref="1071427791"/>
    <nd ref="324771926"/>
    <tag k="highway" v="primary"/>
    <tag k="lanes" v="2"/>
    <tag k="maxspeed" v="50 mph"/>
    <tag k="name" v="Highcross Hill"/>
    <tag k="ref" v="A612"/>
    <tag k="sidewalk" v="right"/>
    <tag k="source" v="OS_OpenData_StreetView"/>
    <tag k="source:name" v="OS_OpenData_Locator"/>
    <tag k="surface" v="asphalt"/>
    <tag k="wikipedia" v="en:A612 road"/>
  </way>
  <way id="584390747" version="6" timestamp="2025-07-11T13:18:01Z" changeset="168796444" uid="5359" user="user_5359">
    <nd ref="333277805"/>
    <nd ref="11909311826"/>
    <nd ref="157252234"/>
    <nd ref="1071437499"/>
    <nd ref="1071437504"/>
    <nd ref="1071437500"/>
    <nd ref="11909311827"/>
    <nd ref="2193370548"/>
    <nd ref="11909311828"/>
    <nd ref="1071437502"/>
    <nd ref="11909311829"/>
    <nd ref="475333233"/>
    <nd ref="2193370525"/>
    <nd ref="157252236"/>
    <nd ref="945149523"/>
    <nd ref="5586188686"/>
    <tag k="highway" v="primary"/>
    <tag k="lanes" v="2"/>
    <tag k="maxspeed" v="50 mph"/>
    <tag k="name" v="Nottingham Road"/>
    <tag k="ref" v="A612"/>
    <tag k="sidewalk" v="right"/>
    <tag k="wikipedia" v="en:A612 road"/>
  </way>

</osm>
