<?xml version="1.0" encoding="UTF-8"?>
<osm version="0.6" generator="Overpass API 0.7.62.8 e802775f">
<note>The data included in this document is from www.openstreetmap.org. The data is made available under ODbL.</note>
<meta osm_base="2025-10-23T17:33:45Z" areas="2025-10-23T12:46:58Z"/>

  <node id="867534328" lat="53.0269060" lon="-0.8843031" version="3" timestamp="2012-02-20T18:09:09Z" changeset="10743049" uid="600015" user="CartogLarry"/>
  <node id="1120448922" lat="53.0192966" lon="-0.8990567" version="8" timestamp="2024-01-01T20:06:52Z" changeset="145774402" uid="165" user="Richard"/>
  <node id="1640976767" lat="53.0153910" lon="-0.9039298" version="2" timestamp="2017-06-06T15:03:57Z" changeset="49308077" uid="6115408" user="LAW3"/>
  <node id="4715638754" lat="53.0242036" lon="-0.9031005" version="3" timestamp="2025-03-12T14:37:31Z" changeset="163530825" uid="14117764" user="JonnyW03">
    <tag k="barrier" v="gate"/>
  </node>
  <way id="98238417" version="8" timestamp="2025-10-09T09:15:08Z" changeset="173039381" uid="54831" user="Mex">
    <nd ref="4715638754"/>
    <nd ref="12656699604"/>
    <nd ref="4715638756"/>
    <nd ref="4715638764"/>
    <nd ref="4715638761"/>
    <nd ref="13204485750"/>
    <nd ref="4715638765"/>
    <nd ref="4715638760"/>
    <nd ref="4715638762"/>
    <nd ref="4715638758"/>
    <nd ref="4715638759"/>
    <nd ref="1136493142"/>
    <nd ref="4715638755"/>
    <nd ref="4715639603"/>
    <nd ref="4715638763"/>
    <nd ref="4715638753"/>
    <nd ref="4715638752"/>
    <tag k="highway" v="residential"/>
    <tag k="name" v="Longhedge Lane"/>
  </way>
  <way id="111766062" version="5" timestamp="2020-08-05T21:23:47Z" changeset="89002207" uid="5164" user="woodpeck">
    <nd ref="1272527760"/>
    <nd ref="4715639457"/>
    <nd ref="1272527804"/>
    <nd ref="1272527762"/>
    <nd ref="4715639458"/>
    <nd ref="1272527699"/>
    <nd ref="4715639459"/>
    <nd ref="1272527764"/>
    <nd ref="4715639460"/>
    <nd ref="7788422319"/>
    <nd ref="4715639461"/>
    <nd ref="1272527765"/>
    <nd ref="7788422316"/>
    <nd ref="7788422309"/>
    <nd ref="4715639462"/>
    <nd ref="1272527766"/>
    <nd ref="4715639463"/>
    <nd ref="4715639465"/>
    <nd ref="1272527767"/>
    <nd ref="1272527768"/>
    <nd ref="4715639464"/>
    <nd ref="1272527769"/>
    <nd ref="1272527763"/>
    <nd ref="1272527770"/>
    <tag k="alt_name" v="Greengate"/>
    <tag k="highway" v="unclassified"/>
    <tag k="name" v="Main Street"/>
    <tag k="source" v="GPS"/>
    <tag k="source:name" v="OS_OpenData_Locator"/>
  </way>
  <way id="111766067" version="9" timestamp="2021-03-18T09:31:12Z" changeset="101245160" uid="10455625" user="bmmundad">
    <nd ref="1815256948"/>
    <nd ref="4715639445"/>
    <nd ref="1815256933"/>
    <nd ref="4715639446"/>
    <nd ref="4715639447"/>
    <nd ref="4715639448"/>
    <nd ref="8223859319"/>
    <nd ref="1815256943"/>
    <nd ref="4715639449"/>
    <nd ref="4715639450"/>
    <nd ref="1272527812"/>
    <nd ref="4715639451"/>
    <nd ref="4715639452"/>
    <nd ref="1272527808"/>
    <nd ref="8531407132"/>
    <nd ref="1272527728"/>
    <nd ref="8531407139"/>
    <nd ref="4715639453"/>
    <nd ref="4715639454"/>
    <nd ref="1272527729"/>
    <nd ref="1272527811"/>
    <nd ref="1272527810"/>
    <nd ref="4715639455"/>
    <nd ref="1272527726"/>
    <nd ref="1272527731"/>
    <nd ref="4715639456"/>
    <nd ref="1272527760"/>
    <tag k="highway" v="residential"/>
    <tag k="maxspeed" v="30 mph"/>
    <tag k="name" v="Moor Lane"/>
    <tag k="source" v="Bing"/>
    <tag k="source:name" v="survey"/>
  </way>
  <way id="151266771" version="6" timestamp="2017-07-31T20:44:26Z" changeset="50733060" uid="5296090" user="TR42">
    <nd ref="1272527770"/>
    <nd ref="1272527772"/>
    <nd ref="4715639486"/>
    <nd ref="1272527730"/>
    <nd ref="4715639487"/>
    <nd ref="4715639488"/>
    <nd ref="1272527778"/>
    <nd ref="4715639589"/>
    <nd ref="4715639590"/>
    <nd ref="1640867515"/>
    <tag k="alt_name" v="Greengate"/>
    <tag k="highway" v="unclassified"/>
    <tag k="lit" v="no"/>
    <tag k="name" v="Main Street"/>
    <tag k="source" v="Bing"/>
    <tag k="source:name" v="survey;NaPTAN"/>
  </way>
  <way id="151269155" version="17" timestamp="2024-01-23T10:51:35Z" changeset="146587467" uid="84681" user="SK53">
    <nd ref="867534328"/>
    <nd ref="1272527754"/>
    <nd ref="1272527756"/>
    <nd ref="11170470863"/>
    <nd ref="11170470866"/>
    <nd ref="1272527758"/>
    <nd ref="1272527759"/>
    <nd ref="11542539458"/>
    <nd ref="1640742694"/>
    <nd ref="1272527780"/>
    <nd ref="11542539459"/>
    <nd ref="1272527783"/>
    <nd ref="1640742693"/>
    <nd ref="1640742695"/>
    <nd ref="5993757685"/>
    <nd ref="1640808955"/>
    <nd ref="1640839880"/>
    <tag k="bicycle" v="yes"/>
    <tag k="expressway" v="yes"/>
    <tag k="highway" v="trunk"/>
    <tag k="lanes" v="2"/>
    <tag k="lit" v="no"/>
    <tag k="maxspeed" v="70 mph"/>
    <tag k="maxspeed:type" v="GB:nsl_dual"/>
    <tag k="national_highways:area" v="7"/>
    <tag k="oneway" v="yes"/>
    <tag k="operator" v="National Highways"/>
    <tag k="operator:wikidata" v="Q5760006"/>
    <tag k="ref" v="A46"/>
    <tag k="source" v="GPS Survey"/>
    <tag k="surface" v="asphalt"/>
  </way>
  <way id="151278504" version="16" timestamp="2025-07-07T13:52:26Z" changeset="168606840" uid="808803" user="Andidy">
    <nd ref="1640976767"/>
    <nd ref="1640976759"/>
    <nd ref="1640976760"/>
    <nd ref="1640976765"/>
    <nd ref="1640976771"/>
    <nd ref="1640976752"/>
    <nd ref="1640976764"/>
    <nd ref="2579410654"/>
    <nd ref="1640976766"/>
    <nd ref="1640976751"/>
    <nd ref="1640976762"/>
    <nd ref="1640976761"/>
    <nd ref="1640976763"/>
    <tag k="bicycle" v="yes"/>
    <tag k="expressway" v="yes"/>
    <tag k="highway" v="trunk"/>
    <tag k="lanes" v="2"/>
    <tag k="lit" v="no"/>
    <tag k="maxheight:signed" v="no"/>
    <tag k="maxspeed" v="70 mph"/>
    <tag k="maxspeed:type" v="GB:nsl_dual"/>
    <tag k="national_highways:area" v="7"/>
    <tag k="oneway" v="yes"/>
    <tag k="operator" v="National Highways"/>
    <tag k="operator:wikidata" v="Q5760006"/>
    <tag k="ref" v="A46"/>
    <tag k="surface" v="asphalt"/>
  </way>
  <way id="170370555" version="4" timestamp="2021-04-23T02:28:30Z" changeset="103444229" uid="493595" user="Yorvik Prestigitator">
    <nd ref="1272527805"/>
    <nd ref="4715639442"/>
    <nd ref="4715639441"/>
    <nd ref="4715639440"/>
    <nd ref="1272527809"/>
    <nd ref="6888445732"/>
    <nd ref="1272527725"/>
    <nd ref="4715639439"/>
    <nd ref="1272527813"/>
    <nd ref="1272527814"/>
    <nd ref="4715639438"/>
    <nd ref="1272527815"/>
    <nd ref="4715639437"/>
    <nd ref="1272527707"/>
    <nd ref="8657430437"/>
    <nd ref="1272527709"/>
    <nd ref="1272527760"/>
    <tag k="highway" v="residential"/>
    <tag k="maxspeed" v="30 mph"/>
    <tag k="name" v="Hawksworth Road"/>
    <tag k="source" v="Bing"/>
    <tag k="source:name" v="survey;NaPTAN"/>
  </way>
  <way id="334363098" version="12" timestamp="2025-04-21T20:17:42Z" changeset="165256891" uid="5229644" user="Nathan_A_RF">
    <nd ref="1120448922"/>
    <nd ref="4715638752"/>
    <nd ref="1136493030"/>
    <nd ref="4715639599"/>
    <nd ref="4715639600"/>
    <nd ref="4715639601"/>
    <nd ref="4715639602"/>
    <nd ref="4715639597"/>
    <nd ref="4715639598"/>
    <nd ref="4715639596"/>
    <nd ref="27045005"/>
    <nd ref="1272527781"/>
    <nd ref="4715639432"/>
    <nd ref="4715639595"/>
    <nd ref="7788422538"/>
    <nd ref="7788422534"/>
    <nd ref="4715639594"/>
    <nd ref="4715639593"/>
    <nd ref="1302982222"/>
    <nd ref="4715639592"/>
    <nd ref="7907392064"/>
    <nd ref="4715639591"/>
    <nd ref="27045004"/>
    <nd ref="6903229795"/>
    <nd ref="5005876558"/>
    <nd ref="5005876556"/>
    <nd ref="5005876561"/>
    <nd ref="5005876555"/>
    <nd ref="5005876554"/>
    <nd ref="2388465630"/>
    <tag k="alt_name" v="Foss Way"/>
    <tag k="highway" v="tertiary"/>
    <tag k="lit" v="no"/>
    <tag k="maxspeed" v="60 mph"/>
    <tag k="maxspeed:type" v="GB:nsl_single"/>
    <tag k="name" v="Fosse Road"/>
    <tag k="sidewalk" v="no"/>
    <tag k="source" v="NaPTAN;gps"/>
    <tag k="traffic_restriction" v="no_stopping"/>
  </way>
  <way id="339187694" version="4" timestamp="2017-07-31T20:44:27Z" changeset="50733060" uid="5296090" user="TR42">
    <nd ref="3463698999"/>
    <nd ref="3003284085"/>
    <nd ref="4307730545"/>
    <nd ref="1272527781"/>
    <tag k="alt_name" v="Greengate"/>
    <tag k="highway" v="unclassified"/>
    <tag k="lit" v="no"/>
    <tag k="name" v="Main Street"/>
    <tag k="source" v="Bing"/>
    <tag k="source:name" v="survey;NaPTAN"/>
  </way>
  <way id="339187695" version="2" timestamp="2017-07-31T20:44:27Z" changeset="50733060" uid="5296090" user="TR42">
    <nd ref="1640867515"/>
    <nd ref="3463698999"/>
    <tag k="alt_name" v="Greengate"/>
    <tag k="bridge" v="yes"/>
    <tag k="highway" v="unclassified"/>
    <tag k="layer" v="1"/>
    <tag k="lit" v="no"/>
    <tag k="name" v="Main Street"/>
    <tag k="source" v="Bing"/>
    <tag k="source:name" v="survey;NaPTAN"/>
  </way>
  <way id="478335785" version="2" timestamp="2020-04-29T15:11:22Z" changeset="84347959" uid="10252542" user="karmsudi">
    <nd ref="1272527730"/>
    <nd ref="4715639484"/>
    <nd ref="7463881474"/>
    <nd ref="4715639483"/>
    <nd ref="4715639482"/>
    <nd ref="4715639481"/>
    <nd ref="4715639480"/>
    <nd ref="4715639479"/>
    <nd ref="4715639478"/>
    <nd ref="4715639436"/>
    <nd ref="4715639435"/>
    <nd ref="4715639434"/>
    <nd ref="4715639433"/>
    <nd ref="4715639477"/>
    <nd ref="4715639476"/>
    <nd ref="4715639475"/>
    <nd ref="4715639474"/>
    <nd ref="4715639473"/>
    <nd ref="4715639472"/>
    <nd ref="4715639471"/>
    <nd ref="4715639470"/>
    <nd ref="4715639469"/>
    <nd ref="4715639468"/>
    <nd ref="4715639467"/>
    <nd ref="4715639466"/>
    <nd ref="4715639465"/>
    <tag k="highway" v="residential"/>
    <tag k="name" v="Greengate"/>
  </way>
  <way id="526259104" version="3" timestamp="2024-11-17T16:58:47Z" changeset="159251176" uid="95856" user="⇄ john paul jones &amp; gringo">
    <nd ref="5118017045"/>
    <nd ref="5118017046"/>
    <nd ref="7787258205"/>
    <nd ref="7787258204"/>
    <nd ref="7787258203"/>
    <nd ref="7787258202"/>
    <nd ref="7787258201"/>
    <nd ref="7787258200"/>
    <nd ref="5118017047"/>
    <nd ref="5118017048"/>
    <nd ref="7787258207"/>
    <nd ref="7787258206"/>
    <nd ref="7787258208"/>
    <nd ref="7787258209"/>
    <nd ref="7787258210"/>
    <nd ref="7787258211"/>
    <nd ref="7787258212"/>
    <nd ref="7787258215"/>
    <nd ref="7787258214"/>
    <nd ref="7787258213"/>
    <nd ref="7787258199"/>
    <nd ref="7787258198"/>
    <nd ref="7787258197"/>
    <nd ref="5118017049"/>
    <nd ref="5118017045"/>
    <tag k="addr:city" v="Newark"/>
    <tag k="addr:country" v="GB"/>
    <tag k="addr:housename" v="The Lodge"/>
    <tag k="addr:postcode" v="NG23 5NG"/>
    <tag k="addr:street" v="Fosse Road"/>
    <tag k="addr:suburb" v="Syerston"/>
    <tag k="building" v="house"/>
    <tag k="building:levels" v="1"/>
    <tag k="name" v="The Lodge"/>
  </way>
  <way id="834339155" version="2" timestamp="2020-12-13T10:01:38Z" changeset="95749015" uid="281267" user="smb1001">
    <nd ref="7788422360"/>
    <nd ref="7788422359"/>
    <nd ref="7788422358"/>
    <nd ref="7788422357"/>
    <nd ref="7788422360"/>
    <tag k="amenity" v="place_of_worship"/>
    <tag k="building" v="church"/>
    <tag k="denomination" v="anglican"/>
    <tag k="name" v="All Saints"/>
    <tag k="religion" v="christian"/>
    <tag k="source" v="survey"/>
    <tag k="wikidata" v="Q26473545"/>
  </way>
  <way id="934109994" version="1" timestamp="2021-04-23T02:28:30Z" changeset="103444229" uid="493595" user="Yorvik Prestigitator">
    <nd ref="8657430440"/>
    <nd ref="8657430441"/>
    <nd ref="8657430442"/>
    <nd ref="8657430443"/>
    <nd ref="8657430440"/>
    <tag k="addr:city" v="Syerston"/>
    <tag k="addr:street" v="Hawksworth Road"/>
    <tag k="amenity" v="community_centre"/>
    <tag k="building" v="public"/>
    <tag k="community_centre" v="village_hall"/>
    <tag k="name" v="Syerston Village Hall"/>
  </way>

</osm>
