<?xml version="1.0" encoding="UTF-8"?>
<osm version="0.6" generator="Overpass API 0.7.62.8 e802775f">
<note>The data included in this document is from www.openstreetmap.org. The data is made available under ODbL.</note>
<meta osm_base="2025-10-23T17:29:34Z" areas="2025-10-23T12:46:58Z"/>

  <node id="206294844" lat="52.9271403" lon="-0.9527680" version="4" timestamp="2016-02-11T20:16:39Z" changeset="37154593" uid="1431482" user="JonOrchard"/>
  <node id="5538225580" lat="52.9145638" lon="-0.9351817" version="1" timestamp="2018-04-08T16:15:47Z" changeset="57916240" uid="84681" user="SK53"/>
  <node id="5538225595" lat="52.9145008" lon="-0.9350031" version="1" timestamp="2018-04-08T16:15:47Z" changeset="57916240" uid="84681" user="SK53"/>
  <way id="26523882" version="18" timestamp="2021-06-07T15:26:38Z" changeset="105981501" uid="3199858" user="Mateusz Konieczny - bot account">
    <nd ref="206294844"/>
    <nd ref="4001319533"/>
    <nd ref="4001319534"/>
    <nd ref="4001319535"/>
    <nd ref="206294845"/>
    <nd ref="4001319537"/>
    <nd ref="4001319536"/>
    <nd ref="4001319538"/>
    <nd ref="206294846"/>
    <nd ref="4001319539"/>
    <nd ref="5538225609"/>
    <nd ref="206294847"/>
    <nd ref="4001319540"/>
    <nd ref="206294849"/>
    <nd ref="4001319541"/>
    <nd ref="206294850"/>
    <nd ref="4001331471"/>
    <nd ref="206294851"/>
    <nd ref="4001336459"/>
    <nd ref="206294852"/>
    <nd ref="4001336461"/>
    <nd ref="4001336460"/>
    <nd ref="206294853"/>
    <nd ref="5538225590"/>
    <nd ref="206294854"/>
    <nd ref="4001336462"/>
    <nd ref="206294855"/>
    <nd ref="4001336463"/>
    <nd ref="206294856"/>
    <nd ref="4001336464"/>
    <nd ref="4001336465"/>
    <nd ref="206294857"/>
    <nd ref="4001336466"/>
    <nd ref="4001336467"/>
    <nd ref="4001337861"/>
    <nd ref="206294858"/>
    <nd ref="4001336468"/>
    <nd ref="4001336469"/>
    <nd ref="206294859"/>
    <nd ref="4001361758"/>
    <nd ref="4001361757"/>
    <nd ref="4001361760"/>
    <nd ref="4001361759"/>
    <nd ref="4001361768"/>
    <nd ref="206294860"/>
    <nd ref="4001361761"/>
    <nd ref="4001361762"/>
    <nd ref="206294861"/>
    <tag k="highway" v="tertiary"/>
    <tag k="name" v="Bingham Road"/>
    <tag k="source:name" v="NaPTAN"/>
  </way>
  <way id="397339995" version="5" timestamp="2025-08-08T23:09:26Z" changeset="170177807" uid="8857" user="philipcullen">
    <nd ref="4001346227"/>
    <nd ref="4001346228"/>
    <nd ref="4001346229"/>
    <nd ref="4001346230"/>
    <nd ref="4001346231"/>
    <nd ref="4001346232"/>
    <nd ref="4001346233"/>
    <nd ref="4001346234"/>
    <nd ref="4001346235"/>
    <nd ref="4001346236"/>
    <nd ref="4001346237"/>
    <nd ref="4001346238"/>
    <nd ref="4001346239"/>
    <nd ref="4001346240"/>
    <nd ref="4001346241"/>
    <nd ref="4001346242"/>
    <nd ref="4001353082"/>
    <nd ref="4001346227"/>
    <tag k="building" v="yes"/>
    <tag k="name" v="Wiverton Hall"/>
    <tag k="ref:GB:uprn" v="3040051062"/>
    <tag k="wikidata" v="Q8028682"/>
    <tag k="wikipedia" v="en:Wiverton Hall"/>
  </way>
  <way id="577801958" version="4" timestamp="2021-12-12T13:24:57Z" changeset="114846255" uid="2295875" user="cb44">
    <nd ref="5538225595"/>
    <nd ref="206294868"/>
    <nd ref="4001377073"/>
    <nd ref="4001366706"/>
    <nd ref="4001366707"/>
    <nd ref="206294869"/>
    <nd ref="4001377068"/>
    <nd ref="4001366708"/>
    <nd ref="4001377070"/>
    <nd ref="1262305675"/>
    <nd ref="206294870"/>
    <nd ref="4001366709"/>
    <nd ref="4001366710"/>
    <nd ref="206294871"/>
    <nd ref="206294872"/>
    <nd ref="7150477968"/>
    <nd ref="4001366711"/>
    <nd ref="206294873"/>
    <nd ref="206294874"/>
    <nd ref="4001366712"/>
    <nd ref="206294875"/>
    <nd ref="4001366714"/>
    <nd ref="206294876"/>
    <nd ref="4001366713"/>
    <nd ref="206294877"/>
    <nd ref="4001382610"/>
    <nd ref="206294878"/>
    <nd ref="206294880"/>
    <nd ref="4001382611"/>
    <nd ref="206294881"/>
    <nd ref="4001382612"/>
    <nd ref="206294882"/>
    <nd ref="4001382613"/>
    <nd ref="4001382614"/>
    <nd ref="206294883"/>
    <nd ref="4001390361"/>
    <nd ref="4001382615"/>
    <nd ref="4001396001"/>
    <nd ref="206294884"/>
    <nd ref="206294885"/>
    <nd ref="206294886"/>
    <nd ref="415972090"/>
    <tag k="highway" v="tertiary"/>
    <tag k="name" v="Bingham Road"/>
    <tag k="source:name" v="NaPTAN"/>
  </way>
  <way id="577801959" version="6" timestamp="2021-06-07T15:27:07Z" changeset="105981501" uid="3199858" user="Mateusz Konieczny - bot account">
    <nd ref="5538225580"/>
    <nd ref="5538225595"/>
    <tag k="bridge" v="yes"/>
    <tag k="bridge:name" v="Wiverton Smite Bridge"/>
    <tag k="highway" v="tertiary"/>
    <tag k="layer" v="1"/>
    <tag k="name" v="Bingham Road"/>
    <tag k="sidewalk" v="both"/>
    <tag k="source:name" v="NaPTAN"/>
  </way>
  <way id="577802599" version="3" timestamp="2021-06-07T15:27:08Z" changeset="105981501" uid="3199858" user="Mateusz Konieczny - bot account">
    <nd ref="206294861"/>
    <nd ref="5538247101"/>
    <tag k="bridge" v="yes"/>
    <tag k="highway" v="tertiary"/>
    <tag k="layer" v="1"/>
    <tag k="name" v="Bingham Road"/>
    <tag k="source:name" v="NaPTAN"/>
  </way>
  <way id="577803055" version="3" timestamp="2021-06-07T15:27:08Z" changeset="105981501" uid="3199858" user="Mateusz Konieczny - bot account">
    <nd ref="5538247101"/>
    <nd ref="4001361763"/>
    <nd ref="4001361764"/>
    <nd ref="4001361781"/>
    <nd ref="206294862"/>
    <nd ref="4001361765"/>
    <nd ref="4001361766"/>
    <nd ref="206294863"/>
    <nd ref="4001361767"/>
    <nd ref="206294865"/>
    <nd ref="4001366701"/>
    <nd ref="4001366702"/>
    <nd ref="206294866"/>
    <nd ref="4001366703"/>
    <nd ref="206294867"/>
    <nd ref="4001366704"/>
    <nd ref="4001377082"/>
    <nd ref="4001366705"/>
    <nd ref="5538538231"/>
    <nd ref="5538225594"/>
    <nd ref="5538225580"/>
    <tag k="highway" v="tertiary"/>
    <tag k="name" v="Bingham Road"/>
    <tag k="source:name" v="NaPTAN"/>
  </way>

</osm>
