<?xml version="1.0" encoding="UTF-8"?>
<osm version="0.6" generator="Overpass API 0.7.62.8 e802775f">
<note>The data included in this document is from www.openstreetmap.org. The data is made available under ODbL.</note>
<meta osm_base="2025-10-23T17:47:02Z" areas="2025-10-23T14:54:58Z"/>

  <node id="349331334" lat="53.2294118" lon="-0.9700954" version="3" timestamp="2016-12-15T22:51:04Z" changeset="44433026" uid="2762871" user="Sam888"/>
  <node id="2982865703" lat="53.2430654" lon="-0.9450942" version="2" timestamp="2014-07-27T15:09:34Z" changeset="24385231" uid="61942" user="SomeoneElse"/>
  <node id="2982890939" lat="53.2484051" lon="-0.9526791" version="1" timestamp="2014-07-27T15:09:33Z" changeset="24385231" uid="61942" user="SomeoneElse"/>
  <way id="30346215" version="9" timestamp="2017-02-05T20:22:51Z" changeset="45838563" uid="2762871" user="Sam888">
    <nd ref="334692128"/>
    <nd ref="2836757795"/>
    <nd ref="2836757791"/>
    <nd ref="2836762223"/>
    <nd ref="334692130"/>
    <nd ref="2836762216"/>
    <nd ref="2836762222"/>
    <nd ref="2836757793"/>
    <nd ref="2836762218"/>
    <nd ref="334692132"/>
    <nd ref="2836762220"/>
    <nd ref="2836762211"/>
    <nd ref="4556178884"/>
    <nd ref="2836762204"/>
    <nd ref="334692135"/>
    <nd ref="2836762206"/>
    <nd ref="2838440301"/>
    <nd ref="334692136"/>
    <tag k="highway" v="unclassified"/>
    <tag k="lit" v="no"/>
    <tag k="source" v="NPE"/>
  </way>
  <way id="137654281" version="8" timestamp="2021-12-27T18:45:46Z" changeset="115439514" uid="115894" user="DaveF">
    <nd ref="334692473"/>
    <nd ref="6955756049"/>
    <nd ref="2836770029"/>
    <nd ref="2836770025"/>
    <nd ref="2836770026"/>
    <nd ref="2836770030"/>
    <nd ref="334692475"/>
    <nd ref="2836770039"/>
    <nd ref="2836770024"/>
    <nd ref="2836770031"/>
    <nd ref="2836770042"/>
    <nd ref="2836770027"/>
    <nd ref="334692476"/>
    <nd ref="2982890947"/>
    <nd ref="2836770028"/>
    <nd ref="2836770038"/>
    <nd ref="2836770041"/>
    <nd ref="334692478"/>
    <nd ref="2836770037"/>
    <nd ref="2836770043"/>
    <nd ref="2836770035"/>
    <nd ref="2836770044"/>
    <nd ref="334692479"/>
    <nd ref="2982865703"/>
    <tag k="highway" v="unclassified"/>
    <tag k="lit" v="no"/>
    <tag k="source" v="survey;Bing"/>
  </way>
  <way id="293087297" version="11" timestamp="2016-12-26T21:14:24Z" changeset="44691412" uid="2762871" user="Sam888">
    <nd ref="349331334"/>
    <nd ref="4556234126"/>
    <nd ref="4573978844"/>
    <nd ref="349331333"/>
    <nd ref="2966424605"/>
    <nd ref="349331332"/>
    <nd ref="3129787399"/>
    <nd ref="2966424600"/>
    <nd ref="2966424601"/>
    <nd ref="349331330"/>
    <nd ref="3129809390"/>
    <nd ref="349331329"/>
    <nd ref="3129809395"/>
    <nd ref="349331328"/>
    <nd ref="349331326"/>
    <nd ref="3129809402"/>
    <nd ref="3129809397"/>
    <nd ref="349331325"/>
    <nd ref="3129809415"/>
    <nd ref="334692128"/>
    <nd ref="3129809420"/>
    <nd ref="349331324"/>
    <nd ref="3129809393"/>
    <nd ref="4556179121"/>
    <nd ref="4556203850"/>
    <nd ref="349331322"/>
    <nd ref="3129809398"/>
    <nd ref="349331321"/>
    <nd ref="3129809417"/>
    <nd ref="349331319"/>
    <nd ref="3129809412"/>
    <nd ref="349331318"/>
    <nd ref="2997243040"/>
    <nd ref="349331316"/>
    <nd ref="4556178864"/>
    <nd ref="349331315"/>
    <nd ref="3129809406"/>
    <nd ref="4556179107"/>
    <nd ref="349331314"/>
    <nd ref="349331313"/>
    <nd ref="2997243039"/>
    <nd ref="349331312"/>
    <nd ref="349331311"/>
    <nd ref="349331310"/>
    <nd ref="4556178867"/>
    <nd ref="349331309"/>
    <nd ref="3129809410"/>
    <nd ref="349331308"/>
    <nd ref="349331306"/>
    <nd ref="349331305"/>
    <nd ref="4556178873"/>
    <nd ref="349331304"/>
    <nd ref="3129809408"/>
    <nd ref="349331301"/>
    <nd ref="3129809418"/>
    <nd ref="349331299"/>
    <nd ref="3129809403"/>
    <nd ref="4556178875"/>
    <nd ref="349331298"/>
    <nd ref="349331297"/>
    <nd ref="2836770036"/>
    <nd ref="2836770033"/>
    <nd ref="2836770034"/>
    <nd ref="2836770032"/>
    <nd ref="334692481"/>
    <tag k="highway" v="tertiary"/>
    <tag k="lit" v="no"/>
    <tag k="maxspeed" v="60 mph"/>
    <tag k="maxspeed:type" v="GB:nsl_single"/>
    <tag k="name" v="Tuxford Road"/>
    <tag k="sidewalk" v="right"/>
    <tag k="source" v="survey"/>
    <tag k="source:name" v="Sign"/>
  </way>
  <way id="294689948" version="6" timestamp="2021-12-27T18:45:46Z" changeset="115439514" uid="115894" user="DaveF">
    <nd ref="2982865703"/>
    <nd ref="2982865684"/>
    <tag k="bridge" v="yes"/>
    <tag k="highway" v="unclassified"/>
    <tag k="lit" v="no"/>
    <tag k="source" v="survey;Bing"/>
  </way>
  <way id="294691568" version="5" timestamp="2022-03-09T22:12:31Z" changeset="118296305" uid="242345" user="confusedbuffalo">
    <nd ref="2982888328"/>
    <nd ref="499029281"/>
    <nd ref="2982648723"/>
    <nd ref="1039988116"/>
    <nd ref="2982648722"/>
    <nd ref="1039988123"/>
    <nd ref="499029283"/>
    <nd ref="499029284"/>
    <nd ref="334692473"/>
    <tag k="access" v="private"/>
    <tag k="bicycle" v="yes"/>
    <tag k="designation" v="public_bridleway"/>
    <tag k="foot" v="yes"/>
    <tag k="highway" v="unclassified"/>
    <tag k="horse" v="yes"/>
    <tag k="lit" v="no"/>
    <tag k="sidewalk" v="no"/>
    <tag k="source" v="OS_OpenData_StreetView;View from north"/>
    <tag k="source:access" v="Sign at south"/>
  </way>
  <way id="294691569" version="7" timestamp="2022-03-09T22:12:31Z" changeset="118296305" uid="242345" user="confusedbuffalo">
    <nd ref="2982890939"/>
    <nd ref="2982888328"/>
    <tag k="bicycle" v="yes"/>
    <tag k="bridge" v="yes"/>
    <tag k="designation" v="public_bridleway"/>
    <tag k="foot" v="yes"/>
    <tag k="highway" v="unclassified"/>
    <tag k="horse" v="yes"/>
    <tag k="lit" v="no"/>
    <tag k="sidewalk" v="no"/>
    <tag k="source" v="OS_OpenData_StreetView;View from north"/>
  </way>
  <way id="295963971" version="4" timestamp="2022-03-09T22:12:31Z" changeset="118296305" uid="242345" user="confusedbuffalo">
    <nd ref="334692136"/>
    <nd ref="334692138"/>
    <nd ref="2836762217"/>
    <nd ref="2836762208"/>
    <nd ref="334692140"/>
    <nd ref="2836762224"/>
    <nd ref="2836762202"/>
    <nd ref="334692142"/>
    <nd ref="2836762212"/>
    <nd ref="2836757790"/>
    <nd ref="334692145"/>
    <nd ref="2836757800"/>
    <nd ref="334692148"/>
    <nd ref="2997248479"/>
    <nd ref="2836762201"/>
    <nd ref="2836762214"/>
    <nd ref="334692152"/>
    <nd ref="2836757792"/>
    <nd ref="334692155"/>
    <nd ref="2836762207"/>
    <nd ref="2836757794"/>
    <nd ref="2836762215"/>
    <nd ref="2836757798"/>
    <nd ref="2836757796"/>
    <nd ref="2836762219"/>
    <nd ref="2836762209"/>
    <nd ref="2836762205"/>
    <nd ref="334692159"/>
    <nd ref="2836757789"/>
    <nd ref="2836757799"/>
    <nd ref="2836762210"/>
    <nd ref="6955756046"/>
    <nd ref="334692161"/>
    <nd ref="334692469"/>
    <nd ref="6955756064"/>
    <nd ref="2836762213"/>
    <nd ref="334692471"/>
    <nd ref="2836757797"/>
    <nd ref="334692473"/>
    <tag k="highway" v="unclassified"/>
    <tag k="lit" v="no"/>
    <tag k="maxspeed" v="60 mph"/>
    <tag k="maxspeed:type" v="GB:nsl_single"/>
    <tag k="sidewalk" v="no"/>
    <tag k="source" v="GPS;Bing"/>
  </way>

</osm>
