<?xml version="1.0" encoding="UTF-8"?>
<osm version="0.6" generator="Overpass API 0.7.62.8 e802775f">
<note>The data included in this document is from www.openstreetmap.org. The data is made available under ODbL.</note>
<meta osm_base="2025-10-23T17:50:02Z" areas="2025-10-23T14:54:58Z"/>

  <node id="128145200" lat="53.3085621" lon="-0.8289769" version="3" timestamp="2009-08-01T17:51:47Z" changeset="2005889" uid="8857" user="philipcullen"/>
  <node id="128145215" lat="53.3072829" lon="-0.8128015" version="6" timestamp="2025-10-08T16:34:35Z" changeset="173010159" uid="8857" user="philipcullen">
    <tag k="ref:GB:uprn" v="10013981768"/>
  </node>
  <node id="192496247" lat="53.2985538" lon="-0.8224194" version="12" timestamp="2012-07-12T00:18:10Z" changeset="12191355" uid="453695" user="RR81"/>
  <node id="323198422" lat="53.3077394" lon="-0.8499262" version="6" timestamp="2017-07-22T01:16:50Z" changeset="50472290" uid="5296090" user="TR42"/>
  <node id="702488052" lat="53.2952795" lon="-0.8516162" version="1" timestamp="2010-04-20T12:24:11Z" changeset="4476817" uid="82399" user="kcordina"/>
  <node id="1822362158" lat="53.3022051" lon="-0.8143411" version="2" timestamp="2012-07-12T00:18:10Z" changeset="12191355" uid="453695" user="RR81"/>
  <node id="1822379030" lat="53.3085859" lon="-0.7852386" version="3" timestamp="2022-07-28T12:46:54Z" changeset="124185579" uid="24119" user="Mauls"/>
  <node id="1822379378" lat="53.3070485" lon="-0.8153772" version="3" timestamp="2017-07-22T01:24:24Z" changeset="50472290" uid="5296090" user="TR42"/>
  <node id="3156452571" lat="53.3082776" lon="-0.7814539" version="2" timestamp="2022-07-28T12:46:54Z" changeset="124185579" uid="24119" user="Mauls"/>
  <way id="13781346" version="8" timestamp="2021-03-14T07:18:19Z" changeset="100978629" uid="5443821" user="◪ Jarv">
    <nd ref="128145126"/>
    <nd ref="8512682066"/>
    <nd ref="8515995330"/>
    <nd ref="702448702"/>
    <nd ref="128145204"/>
    <nd ref="8366469100"/>
    <nd ref="5178510129"/>
    <nd ref="128145208"/>
    <tag k="highway" v="tertiary"/>
    <tag k="lit" v="yes"/>
    <tag k="name" v="Cottam Lane"/>
    <tag k="source:name" v="OS_Opendata_streetview"/>
  </way>
  <way id="18653822" version="8" timestamp="2023-04-10T19:40:20Z" changeset="134746778" uid="7272314" user="marc__marc">
    <nd ref="128145126"/>
    <nd ref="4985966190"/>
    <nd ref="1354801720"/>
    <nd ref="128145132"/>
    <tag k="highway" v="tertiary"/>
    <tag k="lit" v="yes"/>
    <tag k="name" v="Town Street"/>
    <tag k="source:name" v="os_opendata_streetview"/>
  </way>
  <way id="18653823" version="11" timestamp="2025-05-01T22:23:21Z" changeset="165696273" uid="10860083" user="jordie8396">
    <nd ref="128145281"/>
    <nd ref="1822362158"/>
    <tag k="highway" v="tertiary"/>
    <tag k="lit" v="no"/>
  </way>
  <way id="18653825" version="12" timestamp="2021-06-07T14:24:13Z" changeset="105978496" uid="3199858" user="Mateusz Konieczny - bot account">
    <nd ref="192496247"/>
    <nd ref="453334587"/>
    <nd ref="453334588"/>
    <nd ref="192496239"/>
    <nd ref="453334586"/>
    <nd ref="453334585"/>
    <nd ref="453334584"/>
    <nd ref="453334583"/>
    <nd ref="128145113"/>
    <nd ref="453334582"/>
    <nd ref="453334581"/>
    <nd ref="453334578"/>
    <nd ref="453334580"/>
    <nd ref="453334579"/>
    <nd ref="1354801713"/>
    <nd ref="128145120"/>
    <nd ref="1354801715"/>
    <nd ref="453334576"/>
    <nd ref="4985966184"/>
    <tag k="highway" v="tertiary"/>
    <tag k="lit" v="no"/>
    <tag k="name" v="Cocking Lane"/>
  </way>
  <way id="29383582" version="9" timestamp="2017-07-22T01:07:53Z" changeset="50472290" uid="5296090" user="TR42">
    <nd ref="702488052"/>
    <nd ref="4985946813"/>
    <nd ref="4985946816"/>
    <nd ref="702488053"/>
    <nd ref="702488054"/>
    <nd ref="702488055"/>
    <nd ref="4985946799"/>
    <nd ref="702488056"/>
    <nd ref="4985946800"/>
    <nd ref="702488057"/>
    <nd ref="702488058"/>
    <nd ref="2161649447"/>
    <nd ref="702488059"/>
    <nd ref="702488060"/>
    <nd ref="4985946806"/>
    <nd ref="702488061"/>
    <nd ref="702488062"/>
    <nd ref="4985946814"/>
    <nd ref="702488063"/>
    <nd ref="702488064"/>
    <nd ref="702488065"/>
    <nd ref="702488066"/>
    <nd ref="702488067"/>
    <nd ref="702488068"/>
    <nd ref="702488069"/>
    <nd ref="4985946815"/>
    <nd ref="702488070"/>
    <nd ref="702488071"/>
    <nd ref="702488072"/>
    <nd ref="702488073"/>
    <nd ref="4985946818"/>
    <nd ref="702488075"/>
    <nd ref="702488077"/>
    <nd ref="4985946802"/>
    <nd ref="4985946809"/>
    <nd ref="702488079"/>
    <nd ref="702488081"/>
    <nd ref="702488083"/>
    <nd ref="4985946798"/>
    <nd ref="702488085"/>
    <nd ref="702488088"/>
    <nd ref="702488090"/>
    <nd ref="4985946803"/>
    <nd ref="702488092"/>
    <nd ref="4985946811"/>
    <nd ref="323198416"/>
    <tag k="highway" v="unclassified"/>
    <tag k="lit" v="no"/>
    <tag k="name" v="Ashley Lane"/>
    <tag k="source" v="OS_opendata_streetview"/>
  </way>
  <way id="38366460" version="3" timestamp="2012-07-12T00:56:42Z" changeset="12191355" uid="453695" user="RR81">
    <nd ref="453334571"/>
    <nd ref="453334574"/>
    <nd ref="702443513"/>
    <nd ref="702443514"/>
    <nd ref="702443515"/>
    <nd ref="702443516"/>
    <nd ref="702443517"/>
    <nd ref="702443518"/>
    <nd ref="702443520"/>
    <nd ref="702443521"/>
    <nd ref="128145136"/>
    <tag k="highway" v="unclassified"/>
    <tag k="name" v="Rectory Road"/>
  </way>
  <way id="38366461" version="10" timestamp="2021-06-07T14:24:28Z" changeset="105978496" uid="3199858" user="Mateusz Konieczny - bot account">
    <nd ref="128145200"/>
    <nd ref="2340591782"/>
    <nd ref="454407238"/>
    <nd ref="453334573"/>
    <nd ref="453334572"/>
    <nd ref="1354801724"/>
    <nd ref="1354801723"/>
    <nd ref="4985966182"/>
    <nd ref="453334571"/>
    <tag k="highway" v="tertiary"/>
    <tag k="lit" v="no"/>
    <tag k="name" v="New Road"/>
    <tag k="source:name" v="OS_OpenData_Locator"/>
  </way>
  <way id="55953503" version="4" timestamp="2017-07-22T01:24:25Z" changeset="50472290" uid="5296090" user="TR42">
    <nd ref="128145208"/>
    <nd ref="4985966183"/>
    <nd ref="128145211"/>
    <tag k="highway" v="tertiary"/>
    <tag k="lit" v="yes"/>
    <tag k="name" v="Cottam Lane"/>
    <tag k="source:name" v="OS_OpenData_streetview"/>
  </way>
  <way id="55954924" version="5" timestamp="2013-06-11T11:33:17Z" changeset="16508633" uid="1383105" user="Gavrielo">
    <nd ref="366140622"/>
    <nd ref="1453537472"/>
    <tag k="highway" v="tertiary"/>
    <tag k="name" v="Outgang Lane"/>
    <tag k="source:name" v="OS_OpenData_Streetview"/>
  </way>
  <way id="55956426" version="1" timestamp="2010-04-20T10:27:50Z" changeset="4475909" uid="82399" user="kcordina">
    <nd ref="702448702"/>
    <nd ref="702448703"/>
    <nd ref="702448704"/>
    <nd ref="702448705"/>
    <nd ref="702448706"/>
    <tag k="highway" v="residential"/>
    <tag k="name" v="Townside Lane"/>
    <tag k="source" v="OS_opendata_streetview"/>
  </way>
  <way id="55961487" version="5" timestamp="2020-10-28T21:28:26Z" changeset="93201240" uid="10170568" user="shsahit">
    <nd ref="323198422"/>
    <nd ref="323198423"/>
    <nd ref="4985957874"/>
    <nd ref="4985957876"/>
    <nd ref="5025138258"/>
    <nd ref="5025138297"/>
    <nd ref="5025138273"/>
    <nd ref="5025139025"/>
    <nd ref="5025138285"/>
    <nd ref="5025138311"/>
    <nd ref="8060439403"/>
    <nd ref="5025139043"/>
    <nd ref="5025138320"/>
    <nd ref="5025138270"/>
    <nd ref="5025138262"/>
    <nd ref="5025138288"/>
    <nd ref="5025138266"/>
    <nd ref="5025138298"/>
    <nd ref="5025156173"/>
    <nd ref="5025139045"/>
    <nd ref="4985957883"/>
    <nd ref="323198425"/>
    <nd ref="4985957885"/>
    <nd ref="4985957887"/>
    <nd ref="323198426"/>
    <nd ref="4985957871"/>
    <nd ref="4985957879"/>
    <nd ref="323198427"/>
    <nd ref="4985957869"/>
    <nd ref="4985957867"/>
    <nd ref="323198428"/>
    <nd ref="126734021"/>
    <tag k="highway" v="tertiary"/>
    <tag k="lit" v="no"/>
    <tag k="name" v="Wood Lane"/>
    <tag k="source:name" v="OS_opendata_streetview"/>
  </way>
  <way id="171160739" version="10" timestamp="2021-03-14T07:18:19Z" changeset="100978629" uid="5443821" user="◪ Jarv">
    <nd ref="1822362158"/>
    <nd ref="1822362136"/>
    <nd ref="1822362188"/>
    <nd ref="1822362232"/>
    <nd ref="1822362152"/>
    <nd ref="1822362222"/>
    <nd ref="1822362221"/>
    <nd ref="1822362205"/>
    <nd ref="1822362146"/>
    <nd ref="1822362145"/>
    <nd ref="1822362142"/>
    <nd ref="1822362215"/>
    <nd ref="1822362211"/>
    <nd ref="1822362182"/>
    <nd ref="8515995331"/>
    <nd ref="3733739511"/>
    <nd ref="1822362217"/>
    <nd ref="1822362159"/>
    <nd ref="1822362180"/>
    <nd ref="1822362178"/>
    <nd ref="1822362204"/>
    <nd ref="7054520442"/>
    <nd ref="7934448155"/>
    <nd ref="1822362176"/>
    <tag k="highway" v="tertiary"/>
    <tag k="name" v="Laneham Street"/>
    <tag k="source" v="OS_Opendata_streetview"/>
  </way>
  <way id="171166581" version="5" timestamp="2021-03-14T07:18:19Z" changeset="100978629" uid="5443821" user="◪ Jarv">
    <nd ref="128145215"/>
    <nd ref="1822374237"/>
    <nd ref="1822374223"/>
    <nd ref="1822374204"/>
    <nd ref="1822374214"/>
    <nd ref="1822374279"/>
    <nd ref="3733742778"/>
    <nd ref="1822374207"/>
    <nd ref="1822374301"/>
    <nd ref="1822374289"/>
    <nd ref="1822374268"/>
    <nd ref="1822374215"/>
    <nd ref="1822374213"/>
    <nd ref="1822374263"/>
    <nd ref="702387634"/>
    <nd ref="128145267"/>
    <nd ref="8515995335"/>
    <nd ref="128145281"/>
    <tag k="highway" v="tertiary"/>
    <tag k="lit" v="no"/>
    <tag k="name" v="Rampton Road"/>
  </way>
  <way id="171166585" version="8" timestamp="2021-02-11T08:54:12Z" changeset="99092382" uid="10252543" user="srikmar">
    <nd ref="128145211"/>
    <nd ref="1822379375"/>
    <nd ref="8414343063"/>
    <nd ref="2351091428"/>
    <tag k="highway" v="tertiary"/>
    <tag k="lit" v="no"/>
    <tag k="name" v="Cottam Road"/>
    <tag k="source:name" v="OS_OpenData_Streetview"/>
  </way>
  <way id="171166586" version="3" timestamp="2014-10-29T17:12:39Z" changeset="26417141" uid="86286" user="Mark Pokorny">
    <nd ref="1453537472"/>
    <nd ref="1672768056"/>
    <nd ref="702398665"/>
    <nd ref="3156452571"/>
    <tag k="highway" v="tertiary"/>
    <tag k="name" v="Cottam Road"/>
    <tag k="source:name" v="OS_OpenData_Streetview"/>
  </way>
  <way id="171167148" version="3" timestamp="2017-07-22T01:16:50Z" changeset="50472290" uid="5296090" user="TR42">
    <nd ref="1822381019"/>
    <nd ref="1822380992"/>
    <nd ref="4985957870"/>
    <nd ref="323198421"/>
    <nd ref="4985957886"/>
    <nd ref="323198422"/>
    <tag k="highway" v="tertiary"/>
    <tag k="lit" v="no"/>
    <tag k="name" v="Forewood Lane"/>
    <tag k="source:name" v="OS_opendata_streetview"/>
  </way>
  <way id="171167149" version="7" timestamp="2017-08-24T20:11:48Z" changeset="51417846" uid="165" user="Richard">
    <nd ref="1822381019"/>
    <nd ref="4985957872"/>
    <nd ref="1822381027"/>
    <nd ref="4985957877"/>
    <nd ref="1867285954"/>
    <nd ref="1822381032"/>
    <nd ref="1822381023"/>
    <nd ref="4985957884"/>
    <nd ref="1822381021"/>
    <nd ref="1822381010"/>
    <nd ref="1822381003"/>
    <nd ref="1822381000"/>
    <nd ref="1822381026"/>
    <nd ref="1822381025"/>
    <nd ref="1822381008"/>
    <nd ref="4985946804"/>
    <nd ref="1822381002"/>
    <nd ref="4985946805"/>
    <nd ref="4985946817"/>
    <nd ref="1822381017"/>
    <nd ref="1822380994"/>
    <nd ref="4985946797"/>
    <nd ref="323198416"/>
    <tag k="fixme" v="Needs proper survey"/>
    <tag k="highway" v="tertiary"/>
    <tag k="lit" v="no"/>
    <tag k="name" v="Town Street"/>
    <tag k="source:name" v="OS_opendata_streetview"/>
  </way>
  <way id="171167150" version="4" timestamp="2019-05-07T15:48:21Z" changeset="69985549" uid="9196102" user="pddondet">
    <nd ref="128145136"/>
    <nd ref="1822381011"/>
    <nd ref="1822381016"/>
    <nd ref="5181477455"/>
    <nd ref="1822381018"/>
    <nd ref="1822381006"/>
    <nd ref="5181477440"/>
    <nd ref="4985966187"/>
    <nd ref="1822380995"/>
    <nd ref="6455631133"/>
    <nd ref="6455631127"/>
    <nd ref="702449721"/>
    <nd ref="128145132"/>
    <tag k="highway" v="tertiary"/>
    <tag k="lit" v="yes"/>
    <tag k="name" v="Town Street"/>
    <tag k="source:name" v="OS_opendata_streetview"/>
  </way>
  <way id="225231413" version="3" timestamp="2022-07-28T12:46:54Z" changeset="124185579" uid="24119" user="Mauls">
    <nd ref="3156452571"/>
    <nd ref="3156452572"/>
    <tag k="bridge" v="yes"/>
    <tag k="highway" v="tertiary"/>
    <tag k="layer" v="1"/>
    <tag k="name" v="Cottam Road"/>
    <tag k="source:bridge" v="Bing"/>
    <tag k="source:name" v="OS_OpenData_Locator;OS_OpenData_Streetview"/>
  </way>
  <way id="225233401" version="1" timestamp="2013-06-11T11:33:14Z" changeset="16508633" uid="1383105" user="Gavrielo">
    <nd ref="1822379030"/>
    <nd ref="1453537469"/>
    <nd ref="366140622"/>
    <tag k="highway" v="tertiary"/>
    <tag k="name" v="Outgang Lane"/>
    <tag k="source:name" v="OS_OpenData_Streetview"/>
  </way>
  <way id="225233408" version="4" timestamp="2025-09-15T17:41:25Z" changeset="171978490" uid="11922250" user="mattfry">
    <nd ref="1822379378"/>
    <nd ref="8049560247"/>
    <nd ref="2340424052"/>
    <nd ref="8512682114"/>
    <nd ref="2340424082"/>
    <nd ref="2340424081"/>
    <nd ref="8512682097"/>
    <nd ref="2340424072"/>
    <nd ref="2340424048"/>
    <nd ref="2340424066"/>
    <nd ref="8512682106"/>
    <nd ref="2340424096"/>
    <tag k="bicycle" v="designated"/>
    <tag k="designation" v="byway_open_to_all_traffic"/>
    <tag k="foot" v="designated"/>
    <tag k="highway" v="unclassified"/>
    <tag k="horse" v="designated"/>
    <tag k="motor_vehicle" v="yes"/>
    <tag k="name" v="Rampton Lane"/>
    <tag k="prow_ref" v="107/12"/>
    <tag k="source" v="Bing"/>
    <tag k="source:name" v="OS_OpenData_Locator"/>
    <tag k="surface" v="gravel"/>
  </way>
  <way id="226251750" version="3" timestamp="2025-05-01T22:23:21Z" changeset="165696273" uid="10860083" user="jordie8396">
    <nd ref="2351091428"/>
    <nd ref="1822379376"/>
    <nd ref="4985966188"/>
    <nd ref="1822379378"/>
    <tag k="highway" v="tertiary"/>
    <tag k="lit" v="no"/>
    <tag k="name" v="Green Lane"/>
    <tag k="source" v="OS_OpenData_StreetView"/>
    <tag k="source:name" v="OS_OpenData_Locator"/>
  </way>
  <way id="369603252" version="1" timestamp="2015-09-07T23:03:47Z" changeset="33870001" uid="2499366" user="MattGB">
    <nd ref="3733772875"/>
    <nd ref="3733772876"/>
    <nd ref="3733772877"/>
    <nd ref="3733772878"/>
    <nd ref="3733772875"/>
    <tag k="building" v="yes"/>
    <tag k="name" v="Entrance"/>
  </way>
  <way id="509346198" version="2" timestamp="2021-06-07T14:25:29Z" changeset="105978496" uid="3199858" user="Mateusz Konieczny - bot account">
    <nd ref="4985966184"/>
    <nd ref="1354801716"/>
    <nd ref="1354801719"/>
    <nd ref="128145126"/>
    <tag k="highway" v="tertiary"/>
    <tag k="lit" v="yes"/>
    <tag k="name" v="Cocking Lane"/>
  </way>
  <way id="509346199" version="1" timestamp="2017-07-22T01:24:24Z" changeset="50472290" uid="5296090" user="TR42">
    <nd ref="4985966186"/>
    <nd ref="4985966185"/>
    <nd ref="128145136"/>
    <tag k="fixme" v="Needs proper survey"/>
    <tag k="highway" v="tertiary"/>
    <tag k="lit" v="yes"/>
    <tag k="name" v="Town Street"/>
    <tag k="source:name" v="OS_opendata_streetview"/>
  </way>
  <way id="509346200" version="4" timestamp="2021-06-07T14:25:30Z" changeset="105978496" uid="3199858" user="Mateusz Konieczny - bot account">
    <nd ref="453334571"/>
    <nd ref="453334575"/>
    <nd ref="6455631120"/>
    <nd ref="4985966189"/>
    <nd ref="128145132"/>
    <tag k="highway" v="tertiary"/>
    <tag k="lit" v="yes"/>
    <tag k="name" v="Leverton Road"/>
    <tag k="source:name" v="OS_OpenData_Locator"/>
  </way>
  <way id="518426074" version="2" timestamp="2017-10-22T10:52:12Z" changeset="53148540" uid="2020484" user="Nigel Greens">
    <nd ref="323198416"/>
    <nd ref="1822381014"/>
    <nd ref="1822381015"/>
    <nd ref="1822381004"/>
    <nd ref="1822381030"/>
    <nd ref="1822380999"/>
    <nd ref="4985957866"/>
    <nd ref="1822381013"/>
    <nd ref="702450128"/>
    <nd ref="5181487046"/>
    <nd ref="4985957880"/>
    <nd ref="702450125"/>
    <nd ref="4985966186"/>
    <tag k="fixme" v="Needs proper survey"/>
    <tag k="highway" v="tertiary"/>
    <tag k="lit" v="no"/>
    <tag k="name" v="Town Street"/>
    <tag k="source:name" v="OS_opendata_streetview"/>
  </way>
  <way id="534229222" version="1" timestamp="2017-10-22T11:11:05Z" changeset="53148893" uid="2020484" user="Nigel Greens">
    <nd ref="5181503833"/>
    <nd ref="5181503834"/>
    <nd ref="5181503835"/>
    <nd ref="5181503836"/>
    <nd ref="5181503837"/>
    <nd ref="5181503838"/>
    <nd ref="5181503839"/>
    <nd ref="5181503840"/>
    <nd ref="5181503841"/>
    <nd ref="5181503842"/>
    <nd ref="5181503843"/>
    <nd ref="5181503844"/>
    <nd ref="5181503833"/>
    <tag k="building" v="house"/>
    <tag k="name" v="The Old Rectory"/>
  </way>
  <way id="534229223" version="3" timestamp="2020-03-07T15:08:07Z" changeset="81901579" uid="281267" user="smb1001">
    <nd ref="5181503845"/>
    <nd ref="5181503846"/>
    <nd ref="5181503847"/>
    <nd ref="5181503848"/>
    <nd ref="5181503849"/>
    <nd ref="5181503850"/>
    <nd ref="5181503851"/>
    <nd ref="5181503852"/>
    <nd ref="5181503853"/>
    <nd ref="5181503854"/>
    <nd ref="5181503845"/>
    <tag k="amenity" v="place_of_worship"/>
    <tag k="building" v="church"/>
    <tag k="denomination" v="anglican"/>
    <tag k="name" v="St. John the Baptist"/>
    <tag k="religion" v="christian"/>
    <tag k="wikidata" v="Q17527919"/>
  </way>
  <way id="974978519" version="2" timestamp="2022-10-06T11:57:21Z" changeset="127099481" uid="17299016" user="Russ (mechanical edit account)">
    <nd ref="9022694867"/>
    <nd ref="9022694864"/>
    <nd ref="9022694865"/>
    <nd ref="9022694866"/>
    <nd ref="9022694867"/>
    <tag k="brand" v="National Grid"/>
    <tag k="brand:wikidata" v="Q1465461"/>
    <tag k="building" v="yes"/>
    <tag k="name" v="West End Farm Solar Gen"/>
    <tag k="operator" v="National Grid Electricity Distribution Plc"/>
    <tag k="operator:old" v="Western Power Distribution"/>
    <tag k="operator:wikidata" v="Q7988183"/>
    <tag k="owner" v="National Grid Electricity Distribution (East Midlands) Plc"/>
    <tag k="owner:wikidata" v="Q114348127"/>
    <tag k="power" v="substation"/>
    <tag k="ref:GB:wpd_site" v="898435"/>
    <tag k="voltage" v="33000"/>
  </way>
  <way id="1149541629" version="1" timestamp="2023-02-26T00:39:14Z" changeset="133026563" uid="493595" user="Yorvik Prestigitator">
    <nd ref="10694018335"/>
    <nd ref="10694018336"/>
    <nd ref="10694018337"/>
    <nd ref="10694018338"/>
    <nd ref="10694018343"/>
    <nd ref="10694018339"/>
    <nd ref="10694018340"/>
    <nd ref="10694018344"/>
    <nd ref="10694018341"/>
    <nd ref="10694018342"/>
    <nd ref="10694018335"/>
    <tag k="amenity" v="community_centre"/>
    <tag k="building" v="public"/>
    <tag k="community_centre" v="village_hall"/>
    <tag k="name" v="Treswell Village Hall"/>
  </way>
  <way id="1382871656" version="1" timestamp="2025-05-01T22:23:21Z" changeset="165696273" uid="10860083" user="jordie8396">
    <nd ref="1822362158"/>
    <nd ref="192496100"/>
    <nd ref="192496105"/>
    <nd ref="192496112"/>
    <nd ref="192496121"/>
    <nd ref="1822362607"/>
    <nd ref="1822362618"/>
    <nd ref="1822362608"/>
    <nd ref="1822362605"/>
    <nd ref="1822362622"/>
    <nd ref="1822362620"/>
    <nd ref="1822362599"/>
    <nd ref="1822362603"/>
    <nd ref="1822362602"/>
    <nd ref="1822362600"/>
    <nd ref="1822362625"/>
    <nd ref="1822362606"/>
    <nd ref="1822362601"/>
    <nd ref="1822362604"/>
    <nd ref="192496247"/>
    <tag k="highway" v="tertiary"/>
    <tag k="lit" v="no"/>
  </way>
  <way id="1382871674" version="2" timestamp="2025-10-08T16:34:35Z" changeset="173010159" uid="8857" user="philipcullen">
    <nd ref="1822379378"/>
    <nd ref="13203097666"/>
    <nd ref="1822379377"/>
    <nd ref="1822379373"/>
    <nd ref="1822379374"/>
    <nd ref="128145215"/>
    <tag k="highway" v="tertiary"/>
    <tag k="lit" v="no"/>
    <tag k="name" v="Green Lane"/>
    <tag k="source" v="OS_OpenData_StreetView"/>
    <tag k="source:name" v="OS_OpenData_Locator"/>
  </way>

</osm>
