<?xml version="1.0" encoding="UTF-8"?>
<osm version="0.6" generator="Overpass API 0.7.62.8 e802775f">
<note>The data included in this document is from www.openstreetmap.org. The data is made available under ODbL.</note>
<meta osm_base="2025-10-23T17:35:46Z" areas="2025-10-23T12:46:58Z"/>

  <node id="115258386" lat="53.0413322" lon="-0.8742973" version="6" timestamp="2025-04-21T20:17:42Z" changeset="165256891" uid="5229644" user="Nathan_A_RF"/>
  <node id="1272527703" lat="53.0524345" lon="-0.8418289" version="3" timestamp="2013-06-06T19:35:13Z" changeset="16448778" uid="1179194" user="Sam8uca"/>
  <node id="1494226058" lat="53.0477997" lon="-0.8665231" version="2" timestamp="2015-03-30T21:51:34Z" changeset="29863122" uid="61942" user="SomeoneElse"/>
  <node id="1640992162" lat="53.0274659" lon="-0.8836244" version="5" timestamp="2024-01-23T10:51:35Z" changeset="146587467" uid="84681" user="SK53">
    <tag k="exit_to" v="Thorpe;East Stoke;Elston"/>
    <tag k="highway" v="motorway_junction"/>
  </node>
  <node id="1986266004" lat="53.0621808" lon="-0.8357453" version="2" timestamp="2025-04-21T12:00:54Z" changeset="165235790" uid="5229644" user="Nathan_A_RF"/>
  <node id="2618755518" lat="53.0351505" lon="-0.8435977" version="3" timestamp="2022-08-12T09:29:11Z" changeset="124809716" uid="11922250" user="mattfry">
    <tag k="access" v="private"/>
    <tag k="barrier" v="gate"/>
    <tag k="height" v="1.5"/>
    <tag k="material" v="steel"/>
  </node>
  <way id="41523710" version="18" timestamp="2025-04-21T20:17:42Z" changeset="165256891" uid="5229644" user="Nathan_A_RF">
    <nd ref="876369486"/>
    <nd ref="27044999"/>
    <nd ref="1494226057"/>
    <nd ref="4666306928"/>
    <tag k="highway" v="tertiary"/>
    <tag k="lanes" v="2"/>
    <tag k="lit" v="yes"/>
    <tag k="maxspeed" v="60 mph"/>
    <tag k="maxspeed:type" v="GB:nsl_single"/>
    <tag k="name" v="Fosse Road"/>
    <tag k="source" v="NaPTAN;Bing;survey"/>
  </way>
  <way id="151278506" version="24" timestamp="2025-07-07T13:54:13Z" changeset="168606840" uid="808803" user="Andidy">
    <nd ref="1640992162"/>
    <nd ref="1640976742"/>
    <nd ref="1640992171"/>
    <nd ref="11542539447"/>
    <nd ref="11542539446"/>
    <nd ref="1640976741"/>
    <nd ref="1640976749"/>
    <nd ref="11542539442"/>
    <nd ref="1640976750"/>
    <nd ref="1640976739"/>
    <nd ref="1640976743"/>
    <nd ref="1640976758"/>
    <nd ref="11542539438"/>
    <nd ref="1640976757"/>
    <nd ref="11542539429"/>
    <nd ref="1640976746"/>
    <nd ref="11542539420"/>
    <nd ref="1640976754"/>
    <nd ref="1640976755"/>
    <nd ref="1640976748"/>
    <nd ref="1640976747"/>
    <nd ref="1640976740"/>
    <nd ref="11542539426"/>
    <nd ref="1640976768"/>
    <nd ref="1640976769"/>
    <nd ref="1986266139"/>
    <nd ref="1986266135"/>
    <nd ref="1986266093"/>
    <nd ref="1986265965"/>
    <nd ref="1986266140"/>
    <nd ref="1986266079"/>
    <nd ref="1986266131"/>
    <nd ref="1986266142"/>
    <nd ref="1986265975"/>
    <nd ref="1986265974"/>
    <nd ref="1986265964"/>
    <nd ref="1986266009"/>
    <nd ref="1986265971"/>
    <nd ref="1986266129"/>
    <nd ref="1986266128"/>
    <tag k="bicycle" v="yes"/>
    <tag k="expressway" v="yes"/>
    <tag k="highway" v="trunk"/>
    <tag k="lanes" v="2"/>
    <tag k="lit" v="no"/>
    <tag k="maxheight:signed" v="no"/>
    <tag k="maxspeed" v="70 mph"/>
    <tag k="maxspeed:type" v="GB:nsl_dual"/>
    <tag k="national_highways:area" v="7"/>
    <tag k="oneway" v="yes"/>
    <tag k="operator" v="National Highways"/>
    <tag k="operator:wikidata" v="Q5760006"/>
    <tag k="ref" v="A46"/>
    <tag k="surface" v="asphalt"/>
  </way>
  <way id="151667664" version="9" timestamp="2020-07-07T13:21:26Z" changeset="87657782" uid="8650722" user="back_spin">
    <nd ref="1272527703"/>
    <nd ref="1645069801"/>
    <nd ref="2334721382"/>
    <nd ref="1645069810"/>
    <nd ref="1645069803"/>
    <nd ref="1645069799"/>
    <nd ref="1645069808"/>
    <nd ref="1645069809"/>
    <nd ref="1645069812"/>
    <nd ref="1645069797"/>
    <nd ref="6908219467"/>
    <nd ref="6553101202"/>
    <nd ref="289029687"/>
    <nd ref="289029692"/>
    <nd ref="7128018149"/>
    <nd ref="289029697"/>
    <nd ref="289029721"/>
    <nd ref="289029735"/>
    <nd ref="6884747676"/>
    <nd ref="289029757"/>
    <nd ref="289029760"/>
    <nd ref="7691827911"/>
    <nd ref="289029765"/>
    <nd ref="289029776"/>
    <nd ref="289029782"/>
    <nd ref="6884747668"/>
    <nd ref="289029828"/>
    <nd ref="289029833"/>
    <nd ref="289029868"/>
    <nd ref="289029875"/>
    <nd ref="289029883"/>
    <nd ref="289029887"/>
    <nd ref="289029892"/>
    <nd ref="289029898"/>
    <nd ref="289029904"/>
    <nd ref="289029905"/>
    <nd ref="289029908"/>
    <nd ref="289029909"/>
    <nd ref="289029912"/>
    <nd ref="289029916"/>
    <nd ref="289029923"/>
    <tag k="highway" v="unclassified"/>
  </way>
  <way id="256190843" version="3" timestamp="2022-08-09T10:10:06Z" changeset="124677558" uid="11922250" user="mattfry">
    <nd ref="289029909"/>
    <nd ref="2618755526"/>
    <nd ref="2618755525"/>
    <nd ref="2618755524"/>
    <nd ref="2618755522"/>
    <nd ref="2618755521"/>
    <nd ref="2618755519"/>
    <nd ref="2618755517"/>
    <nd ref="2618755514"/>
    <nd ref="2618755513"/>
    <nd ref="2618755511"/>
    <nd ref="2618755510"/>
    <nd ref="2618755509"/>
    <nd ref="2618755506"/>
    <nd ref="2618755505"/>
    <nd ref="2618755503"/>
    <nd ref="2618755502"/>
    <nd ref="2618755501"/>
    <nd ref="2618755497"/>
    <nd ref="2618755498"/>
    <nd ref="2618755504"/>
    <nd ref="8255359628"/>
    <nd ref="8255359624"/>
    <nd ref="2618755518"/>
    <tag k="highway" v="unclassified"/>
  </way>
  <way id="261458627" version="12" timestamp="2025-04-21T12:00:54Z" changeset="165235790" uid="5229644" user="Nathan_A_RF">
    <nd ref="1986266004"/>
    <nd ref="1986265980"/>
    <nd ref="1986266043"/>
    <nd ref="1986266002"/>
    <nd ref="1986266116"/>
    <nd ref="1986265967"/>
    <nd ref="1986266033"/>
    <nd ref="1986266138"/>
    <nd ref="1986266085"/>
    <nd ref="1986266039"/>
    <nd ref="1986266014"/>
    <nd ref="1986266075"/>
    <nd ref="1986266068"/>
    <nd ref="1986266049"/>
    <nd ref="1986266108"/>
    <nd ref="1986266126"/>
    <nd ref="1986266104"/>
    <nd ref="1986266114"/>
    <nd ref="1986265984"/>
    <nd ref="1272439154"/>
    <nd ref="1640728717"/>
    <nd ref="11542539427"/>
    <nd ref="1640728703"/>
    <nd ref="1272527743"/>
    <nd ref="11542539428"/>
    <nd ref="1640728710"/>
    <nd ref="1272527745"/>
    <nd ref="1272527746"/>
    <nd ref="1640728706"/>
    <nd ref="11542539430"/>
    <nd ref="11542539437"/>
    <nd ref="1272527748"/>
    <nd ref="11542539431"/>
    <nd ref="11542539419"/>
    <nd ref="11542539432"/>
    <nd ref="1640728712"/>
    <nd ref="1640867521"/>
    <nd ref="1272527749"/>
    <nd ref="1640728714"/>
    <nd ref="11542539443"/>
    <nd ref="1272527750"/>
    <nd ref="1272527752"/>
    <tag k="bicycle" v="yes"/>
    <tag k="expressway" v="yes"/>
    <tag k="highway" v="trunk"/>
    <tag k="horse" v="yes"/>
    <tag k="lanes" v="2"/>
    <tag k="lit" v="no"/>
    <tag k="maxspeed" v="70 mph"/>
    <tag k="maxspeed:type" v="GB:nsl_dual"/>
    <tag k="national_highways:area" v="7"/>
    <tag k="oneway" v="yes"/>
    <tag k="operator" v="National Highways"/>
    <tag k="operator:wikidata" v="Q5760006"/>
    <tag k="ref" v="A46"/>
    <tag k="source" v="GPS Survey"/>
    <tag k="surface" v="asphalt"/>
  </way>
  <way id="335663849" version="5" timestamp="2025-04-21T20:17:42Z" changeset="165256891" uid="5229644" user="Nathan_A_RF">
    <nd ref="1494226058"/>
    <nd ref="12034675081"/>
    <nd ref="12034675076"/>
    <nd ref="27045020"/>
    <nd ref="12034675070"/>
    <nd ref="27045019"/>
    <nd ref="281943319"/>
    <nd ref="3427655494"/>
    <tag k="highway" v="tertiary"/>
    <tag k="lanes" v="2"/>
    <tag k="lit" v="no"/>
    <tag k="maxspeed" v="60 mph"/>
    <tag k="maxspeed:type" v="GB:nsl_single"/>
    <tag k="name" v="Fosse Road"/>
    <tag k="sidewalk" v="right"/>
    <tag k="source" v="NaPTAN"/>
  </way>
  <way id="472420395" version="3" timestamp="2025-04-21T20:17:42Z" changeset="165256891" uid="5229644" user="Nathan_A_RF">
    <nd ref="4666306928"/>
    <nd ref="3463698997"/>
    <nd ref="751022692"/>
    <nd ref="3427628691"/>
    <nd ref="876369458"/>
    <nd ref="27045021"/>
    <nd ref="1494226058"/>
    <tag k="highway" v="tertiary"/>
    <tag k="lanes" v="2"/>
    <tag k="lit" v="no"/>
    <tag k="maxspeed" v="60 mph"/>
    <tag k="maxspeed:type" v="GB:nsl_single"/>
    <tag k="name" v="Fosse Road"/>
    <tag k="source" v="NaPTAN;Bing;survey"/>
  </way>
  <way id="778613698" version="3" timestamp="2022-06-15T05:41:10Z" changeset="122398240" uid="8775772" user="LakatosVL">
    <nd ref="7266947890"/>
    <nd ref="7266852648"/>
    <nd ref="7266852663"/>
    <nd ref="7266852667"/>
    <nd ref="7266947890"/>
    <tag k="amenity" v="place_of_worship"/>
    <tag k="building" v="church"/>
    <tag k="denomination" v="anglican"/>
    <tag k="name" v="St Laurence"/>
    <tag k="religion" v="christian"/>
    <tag k="wikidata" v="Q7589468"/>
    <tag k="wikipedia" v="en:St Lawrence's Church, Thorpe"/>
  </way>
  <way id="1085045782" version="1" timestamp="2022-08-09T10:10:06Z" changeset="124677558" uid="11922250" user="mattfry">
    <nd ref="2618755518"/>
    <nd ref="2618755520"/>
    <nd ref="2618755523"/>
    <nd ref="2618755527"/>
    <nd ref="2618755528"/>
    <nd ref="2618755529"/>
    <nd ref="2618755530"/>
    <nd ref="2618755531"/>
    <nd ref="2618755532"/>
    <nd ref="2618755538"/>
    <nd ref="2618755539"/>
    <nd ref="2618755540"/>
    <nd ref="2618755554"/>
    <nd ref="2618755556"/>
    <nd ref="2358843012"/>
    <tag k="access" v="private"/>
    <tag k="highway" v="unclassified"/>
  </way>
  <way id="1379409872" version="1" timestamp="2025-04-21T20:17:42Z" changeset="165256891" uid="5229644" user="Nathan_A_RF">
    <nd ref="115258386"/>
    <nd ref="12034145590"/>
    <nd ref="876369486"/>
    <tag k="highway" v="tertiary"/>
    <tag k="lanes" v="2"/>
    <tag k="lit" v="yes"/>
    <tag k="maxspeed" v="40 mph"/>
    <tag k="name" v="Fosse Road"/>
    <tag k="source" v="NaPTAN;Bing;survey"/>
  </way>

</osm>
