<?xml version="1.0" encoding="UTF-8"?>
<osm version="0.6" generator="Overpass API 0.7.62.8 e802775f">
<note>The data included in this document is from www.openstreetmap.org. The data is made available under ODbL.</note>
<meta osm_base="2025-10-23T17:36:51Z" areas="2025-10-23T12:46:58Z"/>

  <node id="324373005" lat="53.1726039" lon="-0.9199211" version="6" timestamp="2011-01-13T21:28:37Z" changeset="6961979" uid="61942" user="SomeoneElse"/>
  <node id="324373226" lat="53.1600261" lon="-0.9715418" version="3" timestamp="2011-12-21T03:11:03Z" changeset="10168592" uid="61942" user="SomeoneElse"/>
  <node id="535858229" lat="53.1677579" lon="-0.9458696" version="2" timestamp="2014-12-26T12:49:18Z" changeset="27706779" uid="61942" user="SomeoneElse"/>
  <node id="1734754195" lat="53.1537940" lon="-0.9302452" version="1" timestamp="2012-04-29T02:14:26Z" changeset="11446118" uid="61942" user="SomeoneElse"/>
  <node id="1734762642" lat="53.1504378" lon="-0.9129321" version="1" timestamp="2012-04-29T02:24:20Z" changeset="11446133" uid="61942" user="SomeoneElse"/>
  <node id="2128227811" lat="53.1588867" lon="-0.9036934" version="1" timestamp="2013-01-25T22:34:44Z" changeset="14786669" uid="61942" user="SomeoneElse"/>
  <node id="2402865974" lat="53.1768676" lon="-0.9656901" version="1" timestamp="2013-07-31T21:16:17Z" changeset="17171980" uid="464727" user="CompactDstrxion"/>
  <way id="29431875" version="15" timestamp="2022-03-09T22:12:26Z" changeset="118296305" uid="242345" user="confusedbuffalo">
    <nd ref="324372798"/>
    <nd ref="989261864"/>
    <nd ref="989261867"/>
    <nd ref="2128226029"/>
    <nd ref="3129764182"/>
    <nd ref="989261871"/>
    <nd ref="324372994"/>
    <nd ref="989261877"/>
    <nd ref="989261879"/>
    <nd ref="324372995"/>
    <nd ref="3129763502"/>
    <nd ref="989261884"/>
    <nd ref="989261888"/>
    <nd ref="324372996"/>
    <nd ref="989261893"/>
    <nd ref="3129764153"/>
    <nd ref="324372997"/>
    <nd ref="989261897"/>
    <nd ref="3129763527"/>
    <nd ref="324372998"/>
    <nd ref="324372728"/>
    <nd ref="989261911"/>
    <nd ref="3129764169"/>
    <nd ref="324372999"/>
    <nd ref="989261917"/>
    <nd ref="6541209221"/>
    <nd ref="989261667"/>
    <nd ref="324373000"/>
    <nd ref="989261925"/>
    <nd ref="3129763518"/>
    <nd ref="324373001"/>
    <nd ref="989261686"/>
    <nd ref="324373002"/>
    <nd ref="3129764172"/>
    <nd ref="989261933"/>
    <nd ref="3129763512"/>
    <nd ref="324373003"/>
    <nd ref="324373004"/>
    <nd ref="324373005"/>
    <tag k="highway" v="tertiary"/>
    <tag k="lit" v="no"/>
    <tag k="maxspeed" v="60 mph"/>
    <tag k="sidewalk" v="no"/>
    <tag k="source" v="GPS"/>
  </way>
  <way id="42094190" version="10" timestamp="2022-03-09T22:12:26Z" changeset="118296305" uid="242345" user="confusedbuffalo">
    <nd ref="324372798"/>
    <nd ref="3129763519"/>
    <nd ref="989261700"/>
    <nd ref="2128226028"/>
    <nd ref="2128220568"/>
    <nd ref="989261704"/>
    <nd ref="324372586"/>
    <nd ref="324372587"/>
    <nd ref="324372539"/>
    <tag k="highway" v="tertiary"/>
    <tag k="lit" v="no"/>
    <tag k="maxspeed" v="60 mph"/>
    <tag k="oneway" v="no"/>
    <tag k="sidewalk" v="no"/>
    <tag k="source" v="survey"/>
  </way>
  <way id="85331884" version="10" timestamp="2023-06-23T09:27:09Z" changeset="137680224" uid="242345" user="confusedbuffalo">
    <nd ref="324373005"/>
    <nd ref="989243081"/>
    <nd ref="989243085"/>
    <nd ref="3129782449"/>
    <nd ref="989243087"/>
    <nd ref="3129782470"/>
    <nd ref="989243090"/>
    <nd ref="989243093"/>
    <nd ref="3129782506"/>
    <nd ref="989243095"/>
    <nd ref="3129782488"/>
    <nd ref="989243096"/>
    <nd ref="989243097"/>
    <nd ref="3129782445"/>
    <nd ref="3129782430"/>
    <nd ref="989243099"/>
    <nd ref="8573212028"/>
    <nd ref="989243101"/>
    <nd ref="989243103"/>
    <nd ref="989243106"/>
    <nd ref="3129782513"/>
    <nd ref="989243108"/>
    <nd ref="989243116"/>
    <nd ref="989243118"/>
    <nd ref="3129782477"/>
    <nd ref="3129782475"/>
    <nd ref="3129782480"/>
    <nd ref="989243119"/>
    <nd ref="989243121"/>
    <nd ref="3129782490"/>
    <nd ref="989243123"/>
    <nd ref="989243125"/>
    <nd ref="3129782512"/>
    <nd ref="3129782494"/>
    <nd ref="989243128"/>
    <nd ref="2363809405"/>
    <nd ref="3129782437"/>
    <nd ref="3129782471"/>
    <nd ref="989243130"/>
    <nd ref="989243133"/>
    <nd ref="989243134"/>
    <nd ref="989243137"/>
    <nd ref="989243140"/>
    <nd ref="989243142"/>
    <nd ref="989243144"/>
    <nd ref="989243145"/>
    <nd ref="3129782436"/>
    <nd ref="3129782469"/>
    <nd ref="989243147"/>
    <tag k="FIXME:nsl" v="inferred single-carriageway NSL - remove this tag once verified"/>
    <tag k="highway" v="tertiary"/>
    <tag k="lit" v="no"/>
    <tag k="maxspeed" v="60 mph"/>
    <tag k="maxspeed:type" v="GB:nsl_single"/>
    <tag k="sidewalk" v="no"/>
    <tag k="source" v="GPS"/>
  </way>
  <way id="132570250" version="7" timestamp="2022-03-09T22:12:26Z" changeset="118296305" uid="242345" user="confusedbuffalo">
    <nd ref="1102533615"/>
    <nd ref="324373116"/>
    <nd ref="2363825661"/>
    <nd ref="2363825643"/>
    <tag k="highway" v="tertiary"/>
    <tag k="lit" v="yes"/>
    <tag k="sidewalk" v="no"/>
    <tag k="source" v="npe;GPS;OS_OpenData_StreetView"/>
  </way>
  <way id="132570251" version="3" timestamp="2015-08-19T10:42:49Z" changeset="33434720" uid="84681" user="SK53">
    <nd ref="1102533512"/>
    <nd ref="523026353"/>
    <tag k="highway" v="tertiary"/>
    <tag k="source" v="Bing"/>
  </way>
  <way id="132570252" version="5" timestamp="2021-06-08T00:16:08Z" changeset="105999114" uid="3199858" user="Mateusz Konieczny - bot account">
    <nd ref="324373226"/>
    <nd ref="1458091329"/>
    <nd ref="324373228"/>
    <nd ref="324373230"/>
    <nd ref="324373232"/>
    <nd ref="324373234"/>
    <nd ref="324373236"/>
    <nd ref="3253844857"/>
    <nd ref="324373237"/>
    <nd ref="324373238"/>
    <nd ref="1458091334"/>
    <nd ref="1458091335"/>
    <nd ref="324373239"/>
    <nd ref="1458091336"/>
    <nd ref="1458091337"/>
    <nd ref="324373240"/>
    <nd ref="324373241"/>
    <nd ref="1458091338"/>
    <nd ref="324373242"/>
    <nd ref="324373243"/>
    <nd ref="324373244"/>
    <nd ref="324373245"/>
    <nd ref="6895254115"/>
    <nd ref="1458091339"/>
    <nd ref="61276578"/>
    <tag k="highway" v="unclassified"/>
    <tag k="name" v="Eakring Road"/>
    <tag k="source:name" v="Sign at north"/>
    <tag k="source:ref" v="NPE"/>
  </way>
  <way id="145012281" version="1" timestamp="2012-01-10T17:29:37Z" changeset="10353264" uid="61942" user="SomeoneElse">
    <nd ref="1102533792"/>
    <nd ref="523026353"/>
    <tag k="highway" v="residential"/>
    <tag k="source" v="Bing;GPS"/>
  </way>
  <way id="145012286" version="2" timestamp="2014-12-26T16:12:27Z" changeset="27711886" uid="61942" user="SomeoneElse">
    <nd ref="523026353"/>
    <nd ref="1584806976"/>
    <nd ref="535856228"/>
    <tag k="highway" v="residential"/>
    <tag k="lit" v="yes"/>
    <tag k="name" v="Sington Road"/>
    <tag k="sidewalk" v="left"/>
    <tag k="source" v="Bing"/>
    <tag k="source:name" v="OS_OpenData_StreetView"/>
  </way>
  <way id="145012287" version="3" timestamp="2014-12-26T16:12:27Z" changeset="27711886" uid="61942" user="SomeoneElse">
    <nd ref="523026392"/>
    <nd ref="1584806969"/>
    <nd ref="523026398"/>
    <nd ref="1102533792"/>
    <nd ref="1584806938"/>
    <tag k="highway" v="residential"/>
    <tag k="name" v="Baulk Lane"/>
    <tag k="source" v="Bing;GPS"/>
    <tag k="source:name" v="Sign at south"/>
  </way>
  <way id="145012288" version="3" timestamp="2014-12-26T16:12:27Z" changeset="27711886" uid="61942" user="SomeoneElse">
    <nd ref="1584806974"/>
    <nd ref="1584806936"/>
    <nd ref="1584806971"/>
    <nd ref="1584806967"/>
    <nd ref="1584806957"/>
    <nd ref="1584806959"/>
    <nd ref="1584806962"/>
    <tag k="highway" v="residential"/>
    <tag k="lit" v="yes"/>
    <tag k="name" v="Elm Tree Rise"/>
    <tag k="source" v="Bing"/>
    <tag k="source:name" v="Sign at south"/>
  </way>
  <way id="145012289" version="6" timestamp="2025-09-14T13:19:13Z" changeset="171917461" uid="3951648" user="rskedgell">
    <nd ref="61276580"/>
    <nd ref="523023317"/>
    <nd ref="523023333"/>
    <nd ref="1102533596"/>
    <nd ref="523023337"/>
    <tag k="highway" v="unclassified"/>
    <tag k="maxweightrating:hgv" v="7.5"/>
    <tag k="maxweightrating:hgv:conditional" v="none @ destination"/>
    <tag k="name" v="School Lane"/>
    <tag k="sidewalk" v="no"/>
    <tag k="source" v="OS_OpenData_StreetView"/>
  </way>
  <way id="145012294" version="4" timestamp="2014-12-26T16:12:27Z" changeset="27711886" uid="61942" user="SomeoneElse">
    <nd ref="1584806940"/>
    <nd ref="1584806941"/>
    <nd ref="1584806942"/>
    <nd ref="1584806971"/>
    <tag k="highway" v="residential"/>
    <tag k="lit" v="yes"/>
    <tag k="name" v="Elm Tree Rise"/>
    <tag k="sidewalk" v="left"/>
    <tag k="source" v="Bing"/>
    <tag k="source:name" v="Sign at south"/>
  </way>
  <way id="145012297" version="2" timestamp="2014-12-26T16:12:27Z" changeset="27711886" uid="61942" user="SomeoneElse">
    <nd ref="523026353"/>
    <nd ref="1102533632"/>
    <nd ref="1584806938"/>
    <nd ref="1584806940"/>
    <nd ref="324373701"/>
    <nd ref="324373702"/>
    <nd ref="3253821303"/>
    <nd ref="1102533615"/>
    <tag k="highway" v="tertiary"/>
    <tag k="lit" v="yes"/>
    <tag k="name" v="Ossington Road"/>
    <tag k="sidewalk" v="left"/>
    <tag k="source" v="npe;GPS;OS_OpenData_StreetView"/>
  </way>
  <way id="161501534" version="9" timestamp="2022-03-09T22:12:26Z" changeset="118296305" uid="242345" user="confusedbuffalo">
    <nd ref="1734754195"/>
    <nd ref="324372537"/>
    <nd ref="2128299101"/>
    <nd ref="324372538"/>
    <nd ref="7496248568"/>
    <nd ref="1199875433"/>
    <nd ref="2128220577"/>
    <nd ref="324372539"/>
    <tag k="highway" v="unclassified"/>
    <tag k="lit" v="no"/>
    <tag k="maxspeed" v="60 mph"/>
    <tag k="name" v="Kersall Lane"/>
    <tag k="oneway" v="no"/>
    <tag k="sidewalk" v="no"/>
    <tag k="source:highway" v="View from South"/>
    <tag k="source:name" v="NaPTAN"/>
    <tag k="source:ref" v="NPE"/>
  </way>
  <way id="161501804" version="15" timestamp="2022-03-09T22:12:26Z" changeset="118296305" uid="242345" user="confusedbuffalo">
    <nd ref="535858229"/>
    <nd ref="3253462387"/>
    <nd ref="129999622"/>
    <nd ref="61276584"/>
    <nd ref="6723185392"/>
    <nd ref="129999555"/>
    <nd ref="129999556"/>
    <nd ref="61276585"/>
    <nd ref="129999557"/>
    <nd ref="61276586"/>
    <nd ref="129999558"/>
    <nd ref="129999559"/>
    <nd ref="129999560"/>
    <nd ref="61276587"/>
    <nd ref="61276588"/>
    <nd ref="2128220569"/>
    <nd ref="129999561"/>
    <nd ref="129999562"/>
    <nd ref="129999563"/>
    <nd ref="129999564"/>
    <nd ref="129999565"/>
    <nd ref="129999566"/>
    <nd ref="61276589"/>
    <nd ref="61276590"/>
    <nd ref="7496248552"/>
    <nd ref="324372539"/>
    <nd ref="61276591"/>
    <nd ref="129999567"/>
    <nd ref="61276592"/>
    <nd ref="61276593"/>
    <nd ref="129999568"/>
    <nd ref="1734754182"/>
    <nd ref="129999569"/>
    <nd ref="61276594"/>
    <nd ref="129999570"/>
    <nd ref="324372597"/>
    <nd ref="61276595"/>
    <nd ref="1735370958"/>
    <nd ref="129999571"/>
    <nd ref="61276596"/>
    <nd ref="129999572"/>
    <nd ref="129999573"/>
    <nd ref="68507598"/>
    <nd ref="9040464842"/>
    <nd ref="68507601"/>
    <nd ref="129999574"/>
    <nd ref="129999575"/>
    <nd ref="68507604"/>
    <nd ref="129999576"/>
    <nd ref="68507605"/>
    <nd ref="1735347459"/>
    <nd ref="324372322"/>
    <nd ref="1735347430"/>
    <nd ref="1735347442"/>
    <nd ref="68507608"/>
    <nd ref="989287484"/>
    <tag k="highway" v="primary"/>
    <tag k="lit" v="no"/>
    <tag k="maxspeed" v="60 mph"/>
    <tag k="maxspeed:type" v="GB:nsl_single"/>
    <tag k="name" v="Newark Road"/>
    <tag k="ref" v="A616"/>
    <tag k="sidewalk" v="no"/>
    <tag k="source" v="survey;Bing"/>
    <tag k="source:name" v="OS OpenData StreetView"/>
    <tag k="source:ref" v="local_knowledge"/>
  </way>
  <way id="161501807" version="9" timestamp="2022-03-09T22:12:26Z" changeset="118296305" uid="242345" user="confusedbuffalo">
    <nd ref="1734762642"/>
    <nd ref="324372716"/>
    <nd ref="324372717"/>
    <nd ref="324372718"/>
    <nd ref="324372719"/>
    <nd ref="324372720"/>
    <nd ref="324372677"/>
    <nd ref="324372721"/>
    <nd ref="1835921378"/>
    <nd ref="324372722"/>
    <nd ref="6782641771"/>
    <nd ref="324372723"/>
    <nd ref="6563008949"/>
    <nd ref="324372724"/>
    <nd ref="1835921374"/>
    <nd ref="324372725"/>
    <nd ref="324372726"/>
    <nd ref="324372727"/>
    <nd ref="3129763479"/>
    <nd ref="324372728"/>
    <tag k="highway" v="unclassified"/>
    <tag k="lit" v="no"/>
    <tag k="sidewalk" v="no"/>
    <tag k="source" v="NPE"/>
  </way>
  <way id="177678559" version="7" timestamp="2022-03-09T22:12:26Z" changeset="118296305" uid="242345" user="confusedbuffalo">
    <nd ref="61276577"/>
    <nd ref="1102533512"/>
    <nd ref="535856228"/>
    <tag k="highway" v="primary"/>
    <tag k="lit" v="yes"/>
    <tag k="maxspeed" v="30 mph"/>
    <tag k="name" v="Newark Road"/>
    <tag k="ref" v="A616"/>
    <tag k="sidewalk" v="no"/>
    <tag k="source:name" v="OS OpenData StreetView"/>
    <tag k="source:ref" v="local_knowledge"/>
  </way>
  <way id="202886010" version="3" timestamp="2022-03-09T22:12:26Z" changeset="118296305" uid="242345" user="confusedbuffalo">
    <nd ref="2128227811"/>
    <nd ref="2128226019"/>
    <nd ref="324372578"/>
    <nd ref="3129763501"/>
    <nd ref="324372579"/>
    <nd ref="324372580"/>
    <nd ref="324372581"/>
    <nd ref="324372677"/>
    <nd ref="324372582"/>
    <nd ref="2128226042"/>
    <nd ref="324372583"/>
    <nd ref="3129764167"/>
    <nd ref="324372584"/>
    <nd ref="3129764134"/>
    <nd ref="324372585"/>
    <nd ref="2128226015"/>
    <nd ref="324372798"/>
    <tag k="highway" v="tertiary"/>
    <tag k="lit" v="no"/>
    <tag k="name" v="Norwell Lane"/>
    <tag k="sidewalk" v="no"/>
    <tag k="source" v="Underlying GPS traces;Bing"/>
    <tag k="source:name" v="Unknown"/>
  </way>
  <way id="227730665" version="3" timestamp="2019-06-30T18:15:07Z" changeset="71762289" uid="9310280" user="rsakunth">
    <nd ref="324373005"/>
    <nd ref="324373824"/>
    <nd ref="1102533691"/>
    <nd ref="324373825"/>
    <nd ref="324373826"/>
    <nd ref="324373827"/>
    <nd ref="324373828"/>
    <nd ref="324373829"/>
    <nd ref="1102533707"/>
    <nd ref="324373830"/>
    <nd ref="324373831"/>
    <nd ref="324373832"/>
    <nd ref="324373833"/>
    <nd ref="324373834"/>
    <nd ref="324373835"/>
    <nd ref="324373836"/>
    <nd ref="3213950589"/>
    <nd ref="324373837"/>
    <nd ref="3213950620"/>
    <nd ref="3213950588"/>
    <nd ref="324373838"/>
    <nd ref="1102533739"/>
    <nd ref="324373839"/>
    <nd ref="324373840"/>
    <nd ref="324373841"/>
    <nd ref="1102533744"/>
    <nd ref="324373842"/>
    <nd ref="6580278900"/>
    <nd ref="1102533746"/>
    <nd ref="324373843"/>
    <nd ref="324373844"/>
    <nd ref="1102533750"/>
    <nd ref="324373845"/>
    <nd ref="324373846"/>
    <nd ref="324373847"/>
    <nd ref="1102533758"/>
    <tag k="highway" v="tertiary"/>
    <tag k="source" v="npe;GPS;OS_OpenData_StreetView"/>
  </way>
  <way id="227730674" version="5" timestamp="2022-03-09T22:12:26Z" changeset="118296305" uid="242345" user="confusedbuffalo">
    <nd ref="2363825643"/>
    <nd ref="324373703"/>
    <nd ref="324373704"/>
    <nd ref="6784810070"/>
    <nd ref="8212020968"/>
    <nd ref="324373706"/>
    <nd ref="324373709"/>
    <nd ref="1102533649"/>
    <nd ref="324373716"/>
    <nd ref="1102533682"/>
    <nd ref="3129763476"/>
    <nd ref="324373005"/>
    <tag k="highway" v="tertiary"/>
    <tag k="lit" v="no"/>
    <tag k="maxspeed" v="60 mph"/>
    <tag k="maxspeed:type" v="GB:nsl_single"/>
    <tag k="sidewalk" v="no"/>
    <tag k="source" v="npe;GPS;OS_OpenData_StreetView"/>
  </way>
  <way id="231965137" version="7" timestamp="2022-09-11T19:07:48Z" changeset="126061600" uid="5589" user="user_5589">
    <nd ref="2402865974"/>
    <nd ref="1880985804"/>
    <nd ref="1880985805"/>
    <nd ref="61276570"/>
    <nd ref="666476868"/>
    <nd ref="61276571"/>
    <nd ref="6335997118"/>
    <nd ref="666476869"/>
    <nd ref="1880985809"/>
    <nd ref="666476870"/>
    <nd ref="61276572"/>
    <nd ref="61276573"/>
    <nd ref="666476871"/>
    <nd ref="1880985818"/>
    <nd ref="61276574"/>
    <nd ref="61276575"/>
    <nd ref="9625123912"/>
    <tag k="highway" v="primary"/>
    <tag k="lit" v="no"/>
    <tag k="maxspeed" v="60 mph"/>
    <tag k="name" v="Newark Road"/>
    <tag k="ref" v="A616"/>
    <tag k="sidewalk" v="no"/>
    <tag k="source:maxspeed" v="View from path;Bing"/>
    <tag k="source:name" v="OS OpenData StreetView"/>
    <tag k="source:ref" v="local_knowledge"/>
  </way>
  <way id="231965138" version="3" timestamp="2014-12-26T12:50:30Z" changeset="27706779" uid="61942" user="SomeoneElse">
    <nd ref="2402865972"/>
    <nd ref="61276583"/>
    <nd ref="535858229"/>
    <tag k="highway" v="primary"/>
    <tag k="lit" v="no"/>
    <tag k="maxspeed" v="60 mph"/>
    <tag k="maxspeed:type" v="GB:nsl_single"/>
    <tag k="name" v="Newark Road"/>
    <tag k="ref" v="A616"/>
    <tag k="sidewalk" v="left"/>
    <tag k="source:name" v="OS OpenData StreetView"/>
    <tag k="source:ref" v="local_knowledge"/>
  </way>
  <way id="317706872" version="2" timestamp="2014-12-26T13:25:55Z" changeset="27708281" uid="61942" user="SomeoneElse">
    <nd ref="535856228"/>
    <nd ref="61276578"/>
    <tag k="highway" v="primary"/>
    <tag k="lit" v="yes"/>
    <tag k="maxspeed" v="30 mph"/>
    <tag k="name" v="Newark Road"/>
    <tag k="ref" v="A616"/>
    <tag k="sidewalk" v="left"/>
    <tag k="source:name" v="OS OpenData StreetView"/>
    <tag k="source:ref" v="local_knowledge"/>
  </way>
  <way id="317706873" version="2" timestamp="2014-12-26T16:12:27Z" changeset="27711886" uid="61942" user="SomeoneElse">
    <nd ref="523023337"/>
    <nd ref="1584806943"/>
    <nd ref="1102533601"/>
    <nd ref="1102533604"/>
    <nd ref="1584806944"/>
    <nd ref="1584806937"/>
    <nd ref="3253821336"/>
    <nd ref="523023341"/>
    <nd ref="1102533615"/>
    <tag k="highway" v="unclassified"/>
    <tag k="name" v="School Lane"/>
    <tag k="source" v="OS_OpenData_StreetView"/>
  </way>
  <way id="318949851" version="2" timestamp="2020-10-08T13:28:12Z" changeset="92178794" uid="10252548" user="singhiyv">
    <nd ref="61276580"/>
    <nd ref="7988349914"/>
    <nd ref="61276581"/>
    <nd ref="129999620"/>
    <nd ref="3239966834"/>
    <nd ref="61276582"/>
    <nd ref="129999621"/>
    <nd ref="2402865972"/>
    <tag k="highway" v="primary"/>
    <tag k="lit" v="yes"/>
    <tag k="maxspeed" v="30 mph"/>
    <tag k="name" v="Newark Road"/>
    <tag k="ref" v="A616"/>
    <tag k="sidewalk" v="left"/>
    <tag k="source:name" v="OS OpenData StreetView"/>
    <tag k="source:ref" v="local_knowledge"/>
  </way>
  <way id="318949852" version="2" timestamp="2014-12-26T14:22:38Z" changeset="27709405" uid="61942" user="SomeoneElse">
    <nd ref="61276578"/>
    <nd ref="129999618"/>
    <nd ref="61276579"/>
    <nd ref="3253581134"/>
    <nd ref="1460900233"/>
    <nd ref="129999619"/>
    <nd ref="1584806933"/>
    <nd ref="61276580"/>
    <tag k="highway" v="primary"/>
    <tag k="lit" v="yes"/>
    <tag k="maxspeed" v="30 mph"/>
    <tag k="name" v="Newark Road"/>
    <tag k="ref" v="A616"/>
    <tag k="sidewalk" v="left"/>
    <tag k="source:name" v="OS OpenData StreetView"/>
    <tag k="source:ref" v="local_knowledge"/>
  </way>
  <way id="318975912" version="4" timestamp="2023-11-30T19:38:03Z" changeset="144637853" uid="504708" user="HillWithSmallFields">
    <nd ref="3253821301"/>
    <nd ref="3253821305"/>
    <nd ref="3253821307"/>
    <nd ref="3253821292"/>
    <nd ref="3253821301"/>
    <tag k="amenity" v="place_of_worship"/>
    <tag k="building" v="yes"/>
    <tag k="denomination" v="anglican"/>
    <tag k="name" v="St Bartholomew's Church, Kneesall"/>
    <tag k="ref:dove" v="13170"/>
    <tag k="religion" v="christian"/>
    <tag k="wikidata" v="Q15979321"/>
  </way>
  <way id="1046688651" version="2" timestamp="2022-09-11T19:07:48Z" changeset="126061600" uid="5589" user="user_5589">
    <nd ref="9625123911"/>
    <nd ref="61276576"/>
    <nd ref="129999616"/>
    <nd ref="9625123910"/>
    <nd ref="129999617"/>
    <nd ref="61276577"/>
    <tag k="highway" v="primary"/>
    <tag k="lit" v="no"/>
    <tag k="maxspeed" v="60 mph"/>
    <tag k="name" v="Newark Road"/>
    <tag k="ref" v="A616"/>
    <tag k="sidewalk" v="no"/>
    <tag k="source:maxspeed" v="View from path;Bing"/>
    <tag k="source:name" v="OS OpenData StreetView"/>
    <tag k="source:ref" v="local_knowledge"/>
  </way>
  <way id="1046688652" version="2" timestamp="2022-09-11T19:07:48Z" changeset="126061600" uid="5589" user="user_5589">
    <nd ref="9625123912"/>
    <nd ref="9625123911"/>
    <tag k="bridge" v="yes"/>
    <tag k="highway" v="primary"/>
    <tag k="layer" v="1"/>
    <tag k="lit" v="no"/>
    <tag k="maxspeed" v="60 mph"/>
    <tag k="name" v="Newark Road"/>
    <tag k="ref" v="A616"/>
    <tag k="sidewalk" v="no"/>
    <tag k="source:maxspeed" v="View from path;Bing"/>
    <tag k="source:name" v="OS OpenData StreetView"/>
    <tag k="source:ref" v="local_knowledge"/>
  </way>

</osm>
