<?xml version="1.0" encoding="UTF-8"?>
<osm version="0.6" generator="Overpass API 0.7.62.8 e802775f">
<note>The data included in this document is from www.openstreetmap.org. The data is made available under ODbL.</note>
<meta osm_base="2025-10-23T17:42:00Z" areas="2025-10-23T14:54:58Z"/>

  <node id="153414363" lat="52.9449973" lon="-0.8005653" version="9" timestamp="2013-05-17T17:54:34Z" changeset="16170745" uid="1192444" user="Pyrope"/>
  <node id="265945751" lat="52.9782605" lon="-0.7779409" version="5" timestamp="2016-03-14T13:06:59Z" changeset="37820349" uid="1431482" user="JonOrchard"/>
  <node id="265946626" lat="52.9834234" lon="-0.8054853" version="7" timestamp="2017-05-25T09:18:45Z" changeset="48967519" uid="1431482" user="JonOrchard"/>
  <node id="282318865" lat="52.9863074" lon="-0.7702629" version="5" timestamp="2016-03-14T13:07:00Z" changeset="37820349" uid="1431482" user="JonOrchard"/>
  <way id="15455561" version="37" timestamp="2023-11-17T11:09:47Z" changeset="144134304" uid="5008136" user="JayTurnr">
    <nd ref="153414363"/>
    <nd ref="265945687"/>
    <nd ref="265945688"/>
    <nd ref="265945689"/>
    <nd ref="265945690"/>
    <nd ref="2308559941"/>
    <nd ref="6291711495"/>
    <nd ref="2308559943"/>
    <nd ref="2308559876"/>
    <nd ref="265945691"/>
    <nd ref="265945693"/>
    <nd ref="265945694"/>
    <nd ref="882356996"/>
    <nd ref="3170038340"/>
    <nd ref="265945696"/>
    <nd ref="265945697"/>
    <nd ref="6815512084"/>
    <nd ref="4194657980"/>
    <nd ref="4059823916"/>
    <nd ref="265945698"/>
    <nd ref="3093797770"/>
    <nd ref="265945699"/>
    <nd ref="265945700"/>
    <nd ref="4059823917"/>
    <nd ref="265945701"/>
    <nd ref="4059823918"/>
    <nd ref="265945702"/>
    <nd ref="265945703"/>
    <nd ref="265945704"/>
    <nd ref="4059823919"/>
    <nd ref="265945705"/>
    <nd ref="265945706"/>
    <nd ref="4059823920"/>
    <nd ref="4059823921"/>
    <nd ref="265945707"/>
    <nd ref="4059823922"/>
    <nd ref="265945708"/>
    <nd ref="4059823923"/>
    <nd ref="265945709"/>
    <nd ref="265945710"/>
    <nd ref="265945711"/>
    <nd ref="4059823924"/>
    <nd ref="265945712"/>
    <nd ref="265945713"/>
    <nd ref="2353477939"/>
    <nd ref="265945714"/>
    <nd ref="265945715"/>
    <nd ref="4720940004"/>
    <nd ref="4059823925"/>
    <nd ref="4059823926"/>
    <nd ref="265945716"/>
    <nd ref="4059823927"/>
    <nd ref="8266367007"/>
    <nd ref="265945717"/>
    <nd ref="7986939722"/>
    <nd ref="265945718"/>
    <nd ref="8026885971"/>
    <nd ref="265945719"/>
    <nd ref="4059823928"/>
    <nd ref="265945720"/>
    <nd ref="4059823929"/>
    <nd ref="6909069950"/>
    <nd ref="8058395149"/>
    <nd ref="265945721"/>
    <nd ref="265945722"/>
    <nd ref="265945723"/>
    <nd ref="265945724"/>
    <nd ref="265945726"/>
    <nd ref="4059823930"/>
    <nd ref="265945727"/>
    <nd ref="265945728"/>
    <nd ref="265945729"/>
    <nd ref="265945730"/>
    <nd ref="265945731"/>
    <nd ref="265945732"/>
    <nd ref="265945733"/>
    <nd ref="265945734"/>
    <nd ref="265945735"/>
    <nd ref="265945736"/>
    <nd ref="4059823931"/>
    <nd ref="265945737"/>
    <nd ref="265945738"/>
    <nd ref="4875647739"/>
    <nd ref="265945739"/>
    <nd ref="7986597970"/>
    <nd ref="265945740"/>
    <nd ref="4059823932"/>
    <nd ref="4059823933"/>
    <nd ref="6902315868"/>
    <nd ref="265945741"/>
    <nd ref="265945742"/>
    <nd ref="265945743"/>
    <nd ref="4059823934"/>
    <nd ref="4059823935"/>
    <nd ref="265945744"/>
    <nd ref="4059823936"/>
    <nd ref="265945745"/>
    <nd ref="4059823937"/>
    <nd ref="265945746"/>
    <nd ref="4059823938"/>
    <nd ref="265945747"/>
    <nd ref="265945748"/>
    <nd ref="4059823939"/>
    <nd ref="265945749"/>
    <nd ref="265945751"/>
    <tag k="highway" v="tertiary"/>
    <tag k="name" v="Normanton Lane"/>
    <tag k="surface" v="asphalt"/>
  </way>
  <way id="24464214" version="8" timestamp="2014-11-12T22:10:34Z" changeset="26745539" uid="12355" user="chillly">
    <nd ref="265945751"/>
    <nd ref="265946351"/>
    <nd ref="265946352"/>
    <nd ref="265946353"/>
    <nd ref="265946355"/>
    <nd ref="265946356"/>
    <nd ref="265946357"/>
    <nd ref="265946358"/>
    <nd ref="265946359"/>
    <nd ref="265946360"/>
    <nd ref="265946361"/>
    <tag k="highway" v="unclassified"/>
    <tag k="name" v="New Road"/>
    <tag k="source:name" v="OS_OpenData_Locator"/>
  </way>
  <way id="24464225" version="26" timestamp="2020-11-13T04:45:08Z" changeset="94031617" uid="11734041" user="gnischa">
    <nd ref="265946626"/>
    <nd ref="4875635977"/>
    <nd ref="2045398479"/>
    <nd ref="4875635976"/>
    <nd ref="2046762975"/>
    <nd ref="4875635975"/>
    <nd ref="265946370"/>
    <nd ref="4875635974"/>
    <nd ref="265946627"/>
    <nd ref="265946628"/>
    <nd ref="265946629"/>
    <nd ref="265946630"/>
    <nd ref="265946631"/>
    <nd ref="265946632"/>
    <nd ref="265946633"/>
    <nd ref="265946634"/>
    <nd ref="2833602909"/>
    <nd ref="265946635"/>
    <nd ref="2046762965"/>
    <nd ref="265946636"/>
    <nd ref="265946637"/>
    <nd ref="265946638"/>
    <nd ref="2833602904"/>
    <nd ref="265946639"/>
    <nd ref="8113728297"/>
    <nd ref="6045926809"/>
    <nd ref="265946640"/>
    <nd ref="6782601669"/>
    <nd ref="265946641"/>
    <nd ref="265946642"/>
    <nd ref="265946643"/>
    <nd ref="265946644"/>
    <nd ref="265946645"/>
    <nd ref="265946646"/>
    <nd ref="265946647"/>
    <nd ref="2618755206"/>
    <nd ref="2618755209"/>
    <nd ref="265946648"/>
    <nd ref="2618755211"/>
    <nd ref="2618755212"/>
    <nd ref="265946649"/>
    <nd ref="349326453"/>
    <tag k="highway" v="tertiary"/>
  </way>
  <way id="25880870" version="11" timestamp="2016-03-14T13:07:01Z" changeset="37820349" uid="1431482" user="JonOrchard">
    <nd ref="265945751"/>
    <nd ref="981715842"/>
    <nd ref="981715844"/>
    <nd ref="882356990"/>
    <nd ref="882356992"/>
    <nd ref="4059823940"/>
    <nd ref="4059823941"/>
    <nd ref="4059823942"/>
    <nd ref="282318864"/>
    <nd ref="882356993"/>
    <nd ref="4059823943"/>
    <nd ref="282318778"/>
    <nd ref="282318779"/>
    <nd ref="2430610199"/>
    <nd ref="282318865"/>
    <tag k="highway" v="tertiary"/>
  </way>
  <way id="25880997" version="4" timestamp="2010-04-25T13:18:42Z" changeset="4521005" uid="51722" user="Chris Parker">
    <nd ref="282318865"/>
    <nd ref="282319501"/>
    <nd ref="349326853"/>
    <nd ref="282319502"/>
    <nd ref="282319503"/>
    <nd ref="706100005"/>
    <nd ref="349326852"/>
    <nd ref="349326850"/>
    <nd ref="349326847"/>
    <nd ref="265946361"/>
    <tag k="highway" v="unclassified"/>
  </way>
  <way id="56256429" version="4" timestamp="2020-05-20T10:30:50Z" changeset="85492833" uid="10170580" user="wellasus">
    <nd ref="706099992"/>
    <nd ref="4875615076"/>
    <nd ref="4875615077"/>
    <nd ref="4875615075"/>
    <nd ref="4875615074"/>
    <nd ref="706099993"/>
    <nd ref="706099994"/>
    <nd ref="7540763867"/>
    <nd ref="706099995"/>
    <nd ref="706099996"/>
    <tag k="highway" v="residential"/>
    <tag k="name" v="High Street"/>
  </way>
  <way id="56256438" version="5" timestamp="2021-01-04T12:16:57Z" changeset="96907420" uid="11734036" user="prreddyz">
    <nd ref="706100123"/>
    <nd ref="4875624408"/>
    <nd ref="706100129"/>
    <nd ref="8289394540"/>
    <nd ref="706100131"/>
    <nd ref="706099996"/>
    <tag k="highway" v="residential"/>
    <tag k="source" v="Bing"/>
  </way>
  <way id="227300466" version="6" timestamp="2022-11-25T18:10:02Z" changeset="129378775" uid="493595" user="Yorvik Prestigitator">
    <nd ref="265946361"/>
    <nd ref="265946362"/>
    <nd ref="265946363"/>
    <nd ref="265946364"/>
    <nd ref="265946365"/>
    <nd ref="265946366"/>
    <nd ref="364137099"/>
    <nd ref="265946367"/>
    <nd ref="4875630237"/>
    <nd ref="10218267558"/>
    <nd ref="265946368"/>
    <nd ref="10218267555"/>
    <nd ref="706099996"/>
    <nd ref="8289394547"/>
    <nd ref="265946369"/>
    <nd ref="265946370"/>
    <tag k="highway" v="unclassified"/>
  </way>
  <way id="279111193" version="2" timestamp="2019-01-31T13:14:59Z" changeset="66801820" uid="8499458" user="adam97">
    <nd ref="2833602945"/>
    <nd ref="2833602952"/>
    <nd ref="2833602911"/>
    <nd ref="2833602953"/>
    <nd ref="2833602929"/>
    <nd ref="2833602936"/>
    <nd ref="2833602941"/>
    <nd ref="2833602939"/>
    <nd ref="2833602937"/>
    <nd ref="2833602965"/>
    <nd ref="2833602962"/>
    <nd ref="2833602961"/>
    <nd ref="2833602945"/>
    <tag k="addr:city" v="Nottingham"/>
    <tag k="addr:housename" v="Avid Retail Interiors"/>
    <tag k="addr:housenumber" v="Unit 11"/>
    <tag k="addr:postcode" v="NG13 9PE"/>
    <tag k="addr:street" v="Staunton Industrial Estate, Staunton in the Vale"/>
    <tag k="building" v="commercial"/>
    <tag k="name" v="Avid Retail Interiors"/>
    <tag k="source" v="Bing"/>
  </way>
  <way id="495825680" version="1" timestamp="2017-05-25T09:07:27Z" changeset="48967231" uid="1431482" user="JonOrchard">
    <nd ref="4875617838"/>
    <nd ref="4875617839"/>
    <nd ref="4875617840"/>
    <nd ref="4875617841"/>
    <nd ref="4875617842"/>
    <nd ref="4875617870"/>
    <nd ref="4875617871"/>
    <nd ref="4875617843"/>
    <nd ref="4875617844"/>
    <nd ref="4875617845"/>
    <nd ref="4875617846"/>
    <nd ref="4875617847"/>
    <nd ref="4875617848"/>
    <nd ref="4875617849"/>
    <nd ref="4875617850"/>
    <nd ref="4875617851"/>
    <nd ref="4875617852"/>
    <nd ref="4875617866"/>
    <nd ref="4875617867"/>
    <nd ref="4875617868"/>
    <nd ref="4875617865"/>
    <nd ref="4875617853"/>
    <nd ref="4875617854"/>
    <nd ref="4875617855"/>
    <nd ref="4875617856"/>
    <nd ref="4875617857"/>
    <nd ref="4875617858"/>
    <nd ref="4875617859"/>
    <nd ref="4875617860"/>
    <nd ref="4875617869"/>
    <nd ref="4875617864"/>
    <nd ref="4875617863"/>
    <nd ref="4875617862"/>
    <nd ref="4875617861"/>
    <nd ref="4875617838"/>
    <tag k="building" v="yes"/>
    <tag k="name" v="Staunton Hall"/>
  </way>
  <way id="495825682" version="6" timestamp="2023-11-30T19:44:16Z" changeset="144638015" uid="504708" user="HillWithSmallFields">
    <nd ref="4875617878"/>
    <nd ref="4875617879"/>
    <nd ref="4875617880"/>
    <nd ref="4875617881"/>
    <nd ref="4875617882"/>
    <nd ref="4875617883"/>
    <nd ref="4875617884"/>
    <nd ref="4875617885"/>
    <nd ref="4875617878"/>
    <tag k="amenity" v="place_of_worship"/>
    <tag k="building" v="church"/>
    <tag k="denomination" v="anglican"/>
    <tag k="name" v="St Mary"/>
    <tag k="ref:dove" v="14363"/>
    <tag k="religion" v="christian"/>
    <tag k="wikidata" v="Q17547615"/>
  </way>

</osm>
