<?xml version="1.0" encoding="UTF-8"?>
<osm version="0.6" generator="Overpass API 0.7.62.8 e802775f">
<note>The data included in this document is from www.openstreetmap.org. The data is made available under ODbL.</note>
<meta osm_base="2025-10-23T17:35:46Z" areas="2025-10-23T12:46:58Z"/>

  <node id="289386782" lat="53.1042015" lon="-0.9894111" version="20" timestamp="2024-05-09T10:26:33Z" changeset="151092481" uid="6714692" user="Fingrmouse"/>
  <node id="324361850" lat="53.0931771" lon="-0.9764968" version="14" timestamp="2024-03-19T12:29:15Z" changeset="148858694" uid="6714692" user="Fingrmouse"/>
  <node id="382656190" lat="53.0835961" lon="-1.0392549" version="4" timestamp="2024-01-05T16:24:54Z" changeset="145928849" uid="6714692" user="Fingrmouse"/>
  <node id="1374311549" lat="53.0986575" lon="-1.0246845" version="3" timestamp="2019-08-12T09:55:45Z" changeset="73261699" uid="6714692" user="Fingrmouse"/>
  <node id="1374326507" lat="53.0808863" lon="-1.0262673" version="2" timestamp="2014-06-05T00:08:11Z" changeset="22744800" uid="61942" user="SomeoneElse">
    <tag k="ele" v="113"/>
  </node>
  <node id="1374326528" lat="53.0824547" lon="-1.0138683" version="2" timestamp="2021-01-25T06:26:52Z" changeset="98094095" uid="10170582" user="priymose"/>
  <node id="3918365259" lat="53.0925129" lon="-1.0031241" version="2" timestamp="2024-01-05T15:07:58Z" changeset="145925952" uid="6714692" user="Fingrmouse"/>
  <node id="6691832775" lat="53.0878239" lon="-0.9918396" version="2" timestamp="2020-01-09T18:06:20Z" changeset="79388399" uid="8893201" user="JonKrato"/>
  <way id="25879040" version="22" timestamp="2023-12-21T10:17:27Z" changeset="145364765" uid="6714692" user="Fingrmouse">
    <nd ref="324361857"/>
    <nd ref="4395465300"/>
    <nd ref="1151846968"/>
    <nd ref="11438171932"/>
    <nd ref="283580252"/>
    <nd ref="282291703"/>
    <tag k="highway" v="tertiary"/>
    <tag k="lit" v="no"/>
    <tag k="maxspeed" v="60 mph"/>
    <tag k="maxspeed:type" v="GB:nsl_single"/>
    <tag k="name" v="Station Road"/>
    <tag k="sidewalk" v="no"/>
  </way>
  <way id="29430865" version="12" timestamp="2022-03-09T22:29:03Z" changeset="118296705" uid="242345" user="confusedbuffalo">
    <nd ref="324362613"/>
    <nd ref="5586353844"/>
    <nd ref="6906260598"/>
    <nd ref="5586353369"/>
    <nd ref="5586353370"/>
    <nd ref="5586353367"/>
    <tag k="highway" v="unclassified"/>
    <tag k="name" v="Little Lane"/>
    <tag k="sidewalk" v="no"/>
    <tag k="source" v="GPS trace"/>
    <tag k="source:name" v="Sign"/>
    <tag k="verge" v="both"/>
  </way>
  <way id="29430883" version="15" timestamp="2025-03-08T17:51:34Z" changeset="163374028" uid="11922250" user="mattfry">
    <nd ref="704085146"/>
    <nd ref="1374326522"/>
    <nd ref="1374326523"/>
    <nd ref="2900108434"/>
    <nd ref="2900108432"/>
    <nd ref="1374326524"/>
    <nd ref="2900108468"/>
    <nd ref="1374326525"/>
    <nd ref="1374326526"/>
    <nd ref="2900108389"/>
    <nd ref="1374326527"/>
    <nd ref="1374326507"/>
    <tag k="designation" v="byway_open_to_all_traffic"/>
    <tag k="highway" v="unclassified"/>
    <tag k="name" v="Wolfeleyhill Lane"/>
    <tag k="source" v="GPS"/>
    <tag k="source:name" v="OS_OpenData_StreetView"/>
    <tag k="surface" v="gravel"/>
  </way>
  <way id="31699891" version="12" timestamp="2025-04-22T11:25:44Z" changeset="165280217" uid="5229644" user="Nathan_A_RF">
    <nd ref="354719513"/>
    <nd ref="354719514"/>
    <tag k="bridge" v="yes"/>
    <tag k="highway" v="unclassified"/>
    <tag k="layer" v="1"/>
    <tag k="maxspeed" v="60 mph"/>
    <tag k="maxspeed:type" v="GB:nsl_single"/>
    <tag k="sidewalk" v="no"/>
  </way>
  <way id="31699896" version="14" timestamp="2025-04-22T11:25:44Z" changeset="165280217" uid="5229644" user="Nathan_A_RF">
    <nd ref="354719514"/>
    <nd ref="282291837"/>
    <nd ref="11438171913"/>
    <nd ref="11438171914"/>
    <nd ref="3988940126"/>
    <nd ref="11438171916"/>
    <nd ref="11438171915"/>
    <nd ref="11438171917"/>
    <nd ref="282291838"/>
    <nd ref="11438171918"/>
    <nd ref="282292224"/>
    <nd ref="11438171919"/>
    <nd ref="11438171920"/>
    <nd ref="11438171921"/>
    <nd ref="11438171922"/>
    <nd ref="11438171923"/>
    <nd ref="282291840"/>
    <nd ref="11438171924"/>
    <nd ref="11438171925"/>
    <nd ref="289386620"/>
    <nd ref="1374339951"/>
    <nd ref="11438171926"/>
    <nd ref="282291841"/>
    <nd ref="11438171927"/>
    <nd ref="11438171928"/>
    <nd ref="11438171929"/>
    <nd ref="11438171930"/>
    <nd ref="11438171931"/>
    <nd ref="282291703"/>
    <tag k="highway" v="unclassified"/>
    <tag k="maxspeed" v="60 mph"/>
    <tag k="maxspeed:type" v="GB:nsl_single"/>
    <tag k="sidewalk" v="no"/>
  </way>
  <way id="32573101" version="5" timestamp="2025-04-22T11:25:44Z" changeset="165280217" uid="5229644" user="Nathan_A_RF">
    <nd ref="366379158"/>
    <nd ref="366379145"/>
    <tag k="bridge" v="yes"/>
    <tag k="highway" v="tertiary"/>
    <tag k="layer" v="1"/>
    <tag k="maxspeed" v="60 mph"/>
    <tag k="maxspeed:type" v="GB:nsl_single"/>
  </way>
  <way id="33536942" version="16" timestamp="2025-03-08T17:50:28Z" changeset="163373982" uid="11922250" user="mattfry">
    <nd ref="382656448"/>
    <nd ref="704085247"/>
    <nd ref="704085249"/>
    <nd ref="382656450"/>
    <nd ref="1440937762"/>
    <nd ref="11541188712"/>
    <nd ref="382656451"/>
    <nd ref="704084924"/>
    <nd ref="382657444"/>
    <nd ref="382657447"/>
    <tag k="designation" v="byway_open_to_all_traffic"/>
    <tag k="highway" v="unclassified"/>
    <tag k="name" v="Carver's Hollow"/>
    <tag k="source" v="GPS"/>
    <tag k="source:designation" v="Sign at N"/>
    <tag k="source:name" v="OS_OpenData_StreetView"/>
    <tag k="surface" v="gravel"/>
  </way>
  <way id="33537195" version="12" timestamp="2024-03-26T17:48:50Z" changeset="149189200" uid="6714692" user="Fingrmouse">
    <nd ref="1374326528"/>
    <nd ref="8359683122"/>
    <nd ref="1374326533"/>
    <nd ref="324364316"/>
    <nd ref="2902066183"/>
    <nd ref="2902066170"/>
    <nd ref="2902066168"/>
    <nd ref="324364318"/>
    <nd ref="2902066166"/>
    <nd ref="324364321"/>
    <nd ref="11525312860"/>
    <nd ref="768193640"/>
    <nd ref="11491931837"/>
    <nd ref="768194042"/>
    <nd ref="11491931836"/>
    <nd ref="324364324"/>
    <nd ref="11491931835"/>
    <nd ref="11491931834"/>
    <nd ref="324364328"/>
    <nd ref="11491931833"/>
    <nd ref="11491931898"/>
    <nd ref="5586353368"/>
    <nd ref="324362614"/>
    <tag k="designation" v="byway_open_to_all_traffic"/>
    <tag k="highway" v="unclassified"/>
    <tag k="lit" v="no"/>
    <tag k="name" v="Newhall Lane"/>
    <tag k="sidewalk" v="no"/>
    <tag k="source:designation" v="Sign at northeast"/>
    <tag k="source:name" v="OS_OpenData_StreetView"/>
  </way>
  <way id="33539276" version="14" timestamp="2025-04-22T17:43:00Z" changeset="165297470" uid="5229644" user="Nathan_A_RF">
    <nd ref="382748660"/>
    <nd ref="382748739"/>
    <nd ref="382748740"/>
    <nd ref="11511336822"/>
    <nd ref="382748819"/>
    <nd ref="3901189253"/>
    <nd ref="382748820"/>
    <nd ref="3901189231"/>
    <nd ref="382748821"/>
    <nd ref="3901189961"/>
    <nd ref="382748822"/>
    <nd ref="3901199687"/>
    <nd ref="382748823"/>
    <nd ref="382749017"/>
    <nd ref="1374338045"/>
    <nd ref="382749077"/>
    <tag k="highway" v="unclassified"/>
    <tag k="lit" v="no"/>
    <tag k="maxspeed" v="60 mph"/>
    <tag k="maxspeed:type" v="GB:nsl_single"/>
    <tag k="name" v="Allesford Lane"/>
    <tag k="sidewalk" v="no"/>
    <tag k="source:name" v="Sign"/>
  </way>
  <way id="33539302" version="11" timestamp="2025-04-22T17:43:00Z" changeset="165297470" uid="5229644" user="Nathan_A_RF">
    <nd ref="382749077"/>
    <nd ref="382749030"/>
    <nd ref="382749018"/>
    <nd ref="11491931770"/>
    <nd ref="382749132"/>
    <nd ref="382749134"/>
    <nd ref="254083507"/>
    <tag k="highway" v="unclassified"/>
    <tag k="maxspeed" v="60 mph"/>
    <tag k="maxspeed:type" v="GB:nsl_single"/>
    <tag k="name" v="Allesford Lane"/>
    <tag k="sidewalk" v="no"/>
  </way>
  <way id="38110504" version="11" timestamp="2025-04-22T17:43:00Z" changeset="165297470" uid="5229644" user="Nathan_A_RF">
    <nd ref="382656190"/>
    <nd ref="324758022"/>
    <nd ref="11492110156"/>
    <nd ref="2904177807"/>
    <nd ref="324755460"/>
    <nd ref="11492110076"/>
    <nd ref="11492110165"/>
    <nd ref="11492110073"/>
    <nd ref="704045142"/>
    <nd ref="2904190982"/>
    <nd ref="2904190958"/>
    <nd ref="11492110074"/>
    <nd ref="2904190995"/>
    <nd ref="8359700955"/>
    <nd ref="704045144"/>
    <nd ref="2904190986"/>
    <nd ref="324755461"/>
    <nd ref="704045147"/>
    <nd ref="11492110171"/>
    <nd ref="11492110172"/>
    <nd ref="324755462"/>
    <nd ref="704045148"/>
    <nd ref="704045150"/>
    <nd ref="11492110173"/>
    <nd ref="704045154"/>
    <nd ref="11492110174"/>
    <nd ref="704045156"/>
    <nd ref="324755464"/>
    <nd ref="704045164"/>
    <nd ref="324755465"/>
    <nd ref="11492110032"/>
    <nd ref="324755466"/>
    <nd ref="324750925"/>
    <nd ref="11492110031"/>
    <nd ref="324755626"/>
    <nd ref="324755627"/>
    <nd ref="324755628"/>
    <nd ref="11492110030"/>
    <nd ref="324755629"/>
    <nd ref="11492110029"/>
    <nd ref="324755630"/>
    <nd ref="324755631"/>
    <nd ref="11492110025"/>
    <nd ref="11492110026"/>
    <nd ref="324755632"/>
    <nd ref="11492110027"/>
    <nd ref="324755633"/>
    <nd ref="11492110028"/>
    <nd ref="324755634"/>
    <nd ref="324755635"/>
    <nd ref="324755622"/>
    <tag k="highway" v="unclassified"/>
    <tag k="lit" v="no"/>
    <tag k="maxspeed" v="60 mph"/>
    <tag k="maxspeed:type" v="GB:nsl_single"/>
    <tag k="name" v="Greaves Lane"/>
    <tag k="sidewalk" v="no"/>
    <tag k="source" v="GPS trace"/>
    <tag k="source:name" v="Sign"/>
    <tag k="width" v="3"/>
  </way>
  <way id="38110506" version="8" timestamp="2025-04-22T17:43:00Z" changeset="165297470" uid="5229644" user="Nathan_A_RF">
    <nd ref="382656278"/>
    <nd ref="2900083274"/>
    <nd ref="324362920"/>
    <nd ref="11741189553"/>
    <nd ref="382656258"/>
    <nd ref="324362922"/>
    <nd ref="324758014"/>
    <nd ref="324362923"/>
    <nd ref="324758017"/>
    <nd ref="11541188722"/>
    <nd ref="11541188721"/>
    <nd ref="324758019"/>
    <nd ref="2900096376"/>
    <nd ref="2900096348"/>
    <nd ref="324362924"/>
    <nd ref="11541188723"/>
    <nd ref="324758020"/>
    <nd ref="382656190"/>
    <tag k="highway" v="unclassified"/>
    <tag k="lit" v="no"/>
    <tag k="maxspeed" v="60 mph"/>
    <tag k="maxspeed:type" v="GB:nsl_single"/>
    <tag k="sidewalk" v="no"/>
    <tag k="source" v="GPS trace"/>
    <tag k="width" v="4"/>
  </way>
  <way id="38110840" version="12" timestamp="2025-04-22T11:25:44Z" changeset="165280217" uid="5229644" user="Nathan_A_RF">
    <nd ref="289386782"/>
    <nd ref="282292221"/>
    <nd ref="11438171887"/>
    <nd ref="11438171895"/>
    <nd ref="282292222"/>
    <nd ref="11438171888"/>
    <nd ref="354719606"/>
    <tag k="highway" v="unclassified"/>
    <tag k="maxspeed" v="60 mph"/>
    <tag k="maxspeed:type" v="GB:nsl_single"/>
    <tag k="sidewalk" v="no"/>
    <tag k="source:RHW" v="Can be inferred from Sign to NE"/>
    <tag k="width" v="3"/>
  </way>
  <way id="38110842" version="11" timestamp="2025-04-22T11:25:44Z" changeset="165280217" uid="5229644" user="Nathan_A_RF">
    <nd ref="366379145"/>
    <nd ref="324361861"/>
    <nd ref="11891088066"/>
    <nd ref="324361862"/>
    <nd ref="4395465341"/>
    <nd ref="4395465320"/>
    <nd ref="324763433"/>
    <nd ref="11891088067"/>
    <nd ref="4395465293"/>
    <nd ref="427015081"/>
    <tag k="highway" v="tertiary"/>
    <tag k="maxspeed" v="60 mph"/>
    <tag k="maxspeed:type" v="GB:nsl_single"/>
    <tag k="name" v="Southwell Road"/>
    <tag k="source:RHW" v="Sign at E"/>
    <tag k="source:name" v="NaPTAN"/>
  </way>
  <way id="56104187" version="6" timestamp="2024-03-26T17:48:50Z" changeset="149189200" uid="6714692" user="Fingrmouse">
    <nd ref="382657447"/>
    <nd ref="11511336927"/>
    <nd ref="704084837"/>
    <nd ref="539780619"/>
    <tag k="designation" v="byway_open_to_all_traffic"/>
    <tag k="highway" v="unclassified"/>
    <tag k="name" v="Carver's Hollow"/>
    <tag k="source" v="GPS"/>
    <tag k="source:designation" v="Sign at N"/>
    <tag k="source:name" v="OS_OpenData_StreetView"/>
  </way>
  <way id="56104188" version="10" timestamp="2024-03-26T17:48:50Z" changeset="149189200" uid="6714692" user="Fingrmouse">
    <nd ref="539780619"/>
    <nd ref="11764399538"/>
    <nd ref="704084862"/>
    <nd ref="11764399537"/>
    <nd ref="704084865"/>
    <nd ref="11764399539"/>
    <nd ref="704084870"/>
    <nd ref="704084874"/>
    <nd ref="704084878"/>
    <nd ref="704084881"/>
    <nd ref="11511336918"/>
    <nd ref="11511336924"/>
    <nd ref="11511336917"/>
    <nd ref="8359646811"/>
    <nd ref="8359724518"/>
    <nd ref="539780615"/>
    <tag k="designation" v="byway_open_to_all_traffic"/>
    <tag k="highway" v="unclassified"/>
    <tag k="lit" v="no"/>
    <tag k="name" v="Carver's Hollow"/>
    <tag k="name:signed" v="no"/>
    <tag k="source" v="OS_OpenData_StreetView;View from South"/>
    <tag k="source:designation" v="Sign at north"/>
    <tag k="source:name" v="OS_OpenData_StreetView"/>
  </way>
  <way id="56104193" version="6" timestamp="2025-03-08T17:52:04Z" changeset="163374046" uid="11922250" user="mattfry">
    <nd ref="382656448"/>
    <nd ref="704085134"/>
    <nd ref="704085138"/>
    <nd ref="704085143"/>
    <nd ref="1374326520"/>
    <tag k="designation" v="byway_open_to_all_traffic"/>
    <tag k="highway" v="unclassified"/>
    <tag k="name" v="Carver's Hollow"/>
    <tag k="source" v="GPS"/>
    <tag k="source:designation" v="Sign at N"/>
    <tag k="source:name" v="OS_OpenData_StreetView"/>
    <tag k="surface" v="gravel"/>
  </way>
  <way id="123159269" version="13" timestamp="2025-04-22T17:43:00Z" changeset="165297470" uid="5229644" user="Nathan_A_RF">
    <nd ref="1374311549"/>
    <nd ref="366375600"/>
    <nd ref="254083510"/>
    <nd ref="366376053"/>
    <nd ref="3901230144"/>
    <nd ref="366376055"/>
    <tag k="highway" v="tertiary"/>
    <tag k="maxspeed" v="60 mph"/>
    <tag k="maxspeed:type" v="GB:nsl_single"/>
    <tag k="name" v="Mansfield Road"/>
    <tag k="sidewalk" v="no"/>
    <tag k="source:name" v="OS_OpenData_Locator"/>
  </way>
  <way id="123160910" version="9" timestamp="2025-03-08T17:49:39Z" changeset="163373959" uid="11922250" user="mattfry">
    <nd ref="1374326507"/>
    <nd ref="1374326508"/>
    <nd ref="1374326509"/>
    <nd ref="1374326510"/>
    <nd ref="1374326511"/>
    <nd ref="1374326512"/>
    <nd ref="2900108431"/>
    <nd ref="1374326513"/>
    <nd ref="2900108419"/>
    <nd ref="2900108573"/>
    <nd ref="2900108572"/>
    <nd ref="1374326514"/>
    <nd ref="382748123"/>
    <nd ref="1374326515"/>
    <nd ref="324363591"/>
    <tag k="designation" v="byway_open_to_all_traffic"/>
    <tag k="foot" v="yes"/>
    <tag k="highway" v="unclassified"/>
    <tag k="horse" v="yes"/>
    <tag k="motor_vehicle" v="yes"/>
    <tag k="name" v="Cutlersforth"/>
    <tag k="source" v="GPS"/>
    <tag k="source:name" v="OS_OpenData_StreetView"/>
    <tag k="surface" v="gravel"/>
  </way>
  <way id="123160913" version="3" timestamp="2024-03-26T17:48:50Z" changeset="149189200" uid="6714692" user="Fingrmouse">
    <nd ref="1374326520"/>
    <nd ref="1374326521"/>
    <nd ref="704085146"/>
    <tag k="highway" v="unclassified"/>
    <tag k="source" v="GPS"/>
  </way>
  <way id="123160916" version="6" timestamp="2024-01-15T13:37:01Z" changeset="146282822" uid="6714692" user="Fingrmouse">
    <nd ref="339925202"/>
    <nd ref="11519040675"/>
    <nd ref="476526231"/>
    <nd ref="11519022763"/>
    <nd ref="11519022760"/>
    <nd ref="1374326530"/>
    <tag k="highway" v="tertiary"/>
    <tag k="maxspeed" v="30 mph"/>
    <tag k="name" v="Halam Road"/>
    <tag k="sidewalk" v="right"/>
    <tag k="source" v="GPS"/>
  </way>
  <way id="123160917" version="9" timestamp="2025-04-22T17:43:00Z" changeset="165297470" uid="5229644" user="Nathan_A_RF">
    <nd ref="324362645"/>
    <nd ref="366376322"/>
    <nd ref="11491931840"/>
    <nd ref="254083497"/>
    <tag k="cutting" v="yes"/>
    <tag k="highway" v="tertiary"/>
    <tag k="maxspeed" v="30 mph"/>
    <tag k="name" v="Edingley Hill"/>
    <tag k="source:name" v="OS_OpenData_Locator"/>
  </way>
  <way id="123160918" version="4" timestamp="2024-01-05T15:07:58Z" changeset="145925952" uid="6714692" user="Fingrmouse">
    <nd ref="324362614"/>
    <nd ref="5586353367"/>
    <nd ref="5586353859"/>
    <nd ref="11491931874"/>
    <nd ref="5586353858"/>
    <nd ref="5586335615"/>
    <nd ref="11491931886"/>
    <nd ref="254083497"/>
    <tag k="highway" v="unclassified"/>
    <tag k="maxspeed" v="60 mph"/>
    <tag k="maxspeed:type" v="GB:nsl_single"/>
    <tag k="name" v="New Hall Lane"/>
    <tag k="source" v="npe; GPS trace"/>
    <tag k="source:name" v="Sign"/>
    <tag k="verge" v="both"/>
  </way>
  <way id="123160920" version="13" timestamp="2025-04-22T17:43:00Z" changeset="165297470" uid="5229644" user="Nathan_A_RF">
    <nd ref="1374326530"/>
    <nd ref="3917450915"/>
    <nd ref="11741189219"/>
    <nd ref="11741189222"/>
    <nd ref="11741189218"/>
    <nd ref="3917450916"/>
    <nd ref="254083498"/>
    <nd ref="324362645"/>
    <tag k="highway" v="tertiary"/>
    <tag k="maxspeed" v="30 mph"/>
    <tag k="name" v="Edingley Hill"/>
    <tag k="sidewalk" v="no"/>
    <tag k="source" v="GPS"/>
    <tag k="source:name" v="OS_OpenData_Locator"/>
  </way>
  <way id="123160921" version="13" timestamp="2025-04-22T17:43:00Z" changeset="165297470" uid="5229644" user="Nathan_A_RF">
    <nd ref="1374326532"/>
    <nd ref="11741189272"/>
    <nd ref="324362893"/>
    <nd ref="5586353387"/>
    <nd ref="476526361"/>
    <nd ref="476526218"/>
    <nd ref="476526364"/>
    <nd ref="5586353379"/>
    <nd ref="324362613"/>
    <tag k="highway" v="unclassified"/>
    <tag k="lit" v="no"/>
    <tag k="maxspeed" v="60 mph"/>
    <tag k="maxspeed:type" v="GB:nsl_single"/>
    <tag k="name" v="Greaves Lane"/>
    <tag k="sidewalk" v="no"/>
    <tag k="source" v="GPS trace;NPE"/>
    <tag k="source:name" v="Sign"/>
    <tag k="width" v="2"/>
  </way>
  <way id="123162700" version="15" timestamp="2024-01-19T13:24:16Z" changeset="146444018" uid="6714692" user="Fingrmouse">
    <nd ref="1374339935"/>
    <nd ref="11525751030"/>
    <nd ref="11530739317"/>
    <nd ref="11525751015"/>
    <nd ref="11525751003"/>
    <nd ref="11525750998"/>
    <nd ref="1374326534"/>
    <nd ref="11525750993"/>
    <nd ref="11525750990"/>
    <nd ref="11530739308"/>
    <nd ref="8359670680"/>
    <nd ref="11530739302"/>
    <nd ref="11525751006"/>
    <nd ref="11530739300"/>
    <nd ref="11530739296"/>
    <nd ref="11525750984"/>
    <nd ref="11530739294"/>
    <nd ref="11525750987"/>
    <nd ref="339925202"/>
    <tag k="highway" v="tertiary"/>
    <tag k="maxspeed" v="30 mph"/>
    <tag k="name" v="Station Road"/>
    <tag k="oneway" v="no"/>
    <tag k="sidewalk" v="right"/>
    <tag k="source" v="GPS"/>
    <tag k="source:name" v="unknown"/>
  </way>
  <way id="123162703" version="15" timestamp="2024-01-17T19:17:10Z" changeset="146378104" uid="6714692" user="Fingrmouse">
    <nd ref="1374339940"/>
    <nd ref="570673605"/>
    <nd ref="6785890409"/>
    <nd ref="11525751069"/>
    <nd ref="1374339938"/>
    <nd ref="11525751062"/>
    <nd ref="282291708"/>
    <nd ref="6785890410"/>
    <nd ref="3921562914"/>
    <nd ref="8359670687"/>
    <nd ref="11525751044"/>
    <nd ref="3921562911"/>
    <nd ref="11525751041"/>
    <nd ref="3921562909"/>
    <nd ref="11525751047"/>
    <nd ref="3918712711"/>
    <nd ref="282291710"/>
    <nd ref="11525751035"/>
    <nd ref="11525751033"/>
    <nd ref="11525751026"/>
    <nd ref="1374339935"/>
    <tag k="highway" v="tertiary"/>
    <tag k="maxspeed" v="30 mph"/>
    <tag k="name" v="Station Road"/>
    <tag k="sidewalk" v="no"/>
    <tag k="source" v="GPS"/>
    <tag k="source:name" v="unknown"/>
  </way>
  <way id="123162704" version="16" timestamp="2024-01-15T13:37:01Z" changeset="146282822" uid="6714692" user="Fingrmouse">
    <nd ref="282291703"/>
    <nd ref="11438171933"/>
    <nd ref="282291704"/>
    <nd ref="11438171934"/>
    <nd ref="11438171935"/>
    <nd ref="282291705"/>
    <nd ref="282291706"/>
    <nd ref="11519040820"/>
    <nd ref="1374339940"/>
    <tag k="highway" v="tertiary"/>
    <tag k="maxspeed" v="60 mph"/>
    <tag k="maxspeed:type" v="GB:nsl_single"/>
    <tag k="name" v="Station Road"/>
    <tag k="sidewalk" v="no"/>
    <tag k="source" v="GPS"/>
    <tag k="source:name" v="unknown"/>
  </way>
  <way id="197112957" version="11" timestamp="2024-01-19T13:24:16Z" changeset="146444018" uid="6714692" user="Fingrmouse">
    <nd ref="254083503"/>
    <nd ref="11519040687"/>
    <nd ref="496276259"/>
    <nd ref="11519040684"/>
    <nd ref="8999770675"/>
    <nd ref="366376059"/>
    <nd ref="6558059546"/>
    <nd ref="254083502"/>
    <nd ref="6558059544"/>
    <nd ref="254083501"/>
    <nd ref="11530739272"/>
    <nd ref="1374339948"/>
    <tag k="highway" v="tertiary"/>
    <tag k="maxspeed" v="30 mph"/>
    <tag k="name" v="Main Street"/>
    <tag k="sidewalk" v="left"/>
    <tag k="source:name" v="OS_OpenData_Locator"/>
  </way>
  <way id="197112961" version="6" timestamp="2025-04-22T17:43:00Z" changeset="165297470" uid="5229644" user="Nathan_A_RF">
    <nd ref="254083497"/>
    <nd ref="3918365259"/>
    <tag k="highway" v="tertiary"/>
    <tag k="maxspeed" v="30 mph"/>
    <tag k="name" v="Mansfield Road"/>
    <tag k="source:name" v="OS_OpenData_Locator"/>
  </way>
  <way id="386772230" version="7" timestamp="2025-04-22T17:43:00Z" changeset="165297470" uid="5229644" user="Nathan_A_RF">
    <nd ref="366376057"/>
    <nd ref="11438172089"/>
    <nd ref="4022809771"/>
    <tag k="highway" v="tertiary"/>
    <tag k="maxspeed" v="30 mph"/>
    <tag k="name" v="Mansfield Road"/>
    <tag k="sidewalk" v="left"/>
    <tag k="source:name" v="OS_OpenData_Locator"/>
  </way>
  <way id="386774609" version="7" timestamp="2025-04-22T17:43:00Z" changeset="165297470" uid="5229644" user="Nathan_A_RF">
    <nd ref="366376055"/>
    <nd ref="254083509"/>
    <nd ref="3901198399"/>
    <nd ref="3901199728"/>
    <nd ref="254083507"/>
    <nd ref="3922834664"/>
    <nd ref="8499765286"/>
    <nd ref="254083506"/>
    <nd ref="11438172088"/>
    <nd ref="366376057"/>
    <tag k="highway" v="tertiary"/>
    <tag k="maxspeed" v="60 mph"/>
    <tag k="maxspeed:type" v="GB:nsl_single"/>
    <tag k="name" v="Mansfield Road"/>
    <tag k="sidewalk" v="left"/>
    <tag k="source:name" v="OS_OpenData_Locator"/>
  </way>
  <way id="388664251" version="10" timestamp="2025-04-22T17:43:00Z" changeset="165297470" uid="5229644" user="Nathan_A_RF">
    <nd ref="3918365259"/>
    <nd ref="821887356"/>
    <nd ref="6696780390"/>
    <nd ref="8861323028"/>
    <nd ref="8861323027"/>
    <nd ref="8861323026"/>
    <nd ref="254083496"/>
    <nd ref="821887357"/>
    <nd ref="8861323025"/>
    <nd ref="11514216816"/>
    <nd ref="8359713202"/>
    <nd ref="5586335557"/>
    <nd ref="8861323024"/>
    <nd ref="8861323023"/>
    <nd ref="8861323022"/>
    <nd ref="254083495"/>
    <nd ref="8861323021"/>
    <nd ref="6691832723"/>
    <nd ref="8861323020"/>
    <nd ref="324760532"/>
    <nd ref="8861323019"/>
    <nd ref="5586335570"/>
    <tag k="highway" v="tertiary"/>
    <tag k="maxspeed" v="60 mph"/>
    <tag k="maxspeed:type" v="GB:nsl_single"/>
    <tag k="name" v="Mansfield Road"/>
    <tag k="sidewalk" v="no"/>
    <tag k="source:name" v="OS_OpenData_Locator"/>
    <tag k="verge" v="both"/>
  </way>
  <way id="388696699" version="2" timestamp="2024-01-15T13:37:01Z" changeset="146282822" uid="6714692" user="Fingrmouse">
    <nd ref="3918623308"/>
    <nd ref="3918623309"/>
    <nd ref="3918623310"/>
    <nd ref="3918623311"/>
    <nd ref="3918623312"/>
    <nd ref="11519040706"/>
    <nd ref="3918623313"/>
    <nd ref="11519040709"/>
    <nd ref="3918623314"/>
    <nd ref="3918623315"/>
    <tag k="access" v="private"/>
    <tag k="highway" v="residential"/>
  </way>
  <way id="388696707" version="4" timestamp="2024-01-15T13:37:01Z" changeset="146282822" uid="6714692" user="Fingrmouse">
    <nd ref="3918623378"/>
    <nd ref="3918623379"/>
    <nd ref="3918623380"/>
    <nd ref="11519022701"/>
    <nd ref="3918623381"/>
    <nd ref="3918623378"/>
    <tag k="amenity" v="place_of_worship"/>
    <tag k="building" v="church"/>
    <tag k="denomination" v="anglican"/>
    <tag k="name" v="Saint Giles"/>
    <tag k="religion" v="christian"/>
    <tag k="wikidata" v="Q15979354"/>
  </way>
  <way id="388700471" version="6" timestamp="2024-01-11T21:03:55Z" changeset="146158475" uid="6714692" user="Fingrmouse">
    <nd ref="3918662791"/>
    <nd ref="3918662792"/>
    <nd ref="3918662793"/>
    <nd ref="3918662794"/>
    <nd ref="3918662795"/>
    <nd ref="3918662798"/>
    <nd ref="11509565187"/>
    <nd ref="3918662796"/>
    <nd ref="3918662791"/>
    <tag k="amenity" v="pub"/>
    <tag k="building" v="yes"/>
    <tag k="building:levels" v="2"/>
    <tag k="food" v="yes"/>
    <tag k="internet_access" v="wlan"/>
    <tag k="name" v="The Old Reindeer"/>
    <tag k="outdoor_seating" v="yes"/>
    <tag k="real_ale" v="4 from Marston's"/>
  </way>
  <way id="388700480" version="2" timestamp="2021-08-11T22:58:20Z" changeset="109539905" uid="493595" user="Yorvik Prestigitator">
    <nd ref="3918662844"/>
    <nd ref="8999770673"/>
    <nd ref="8999770674"/>
    <nd ref="3918662845"/>
    <nd ref="3918662846"/>
    <nd ref="3918662847"/>
    <nd ref="3918662848"/>
    <nd ref="3918662849"/>
    <nd ref="3918662850"/>
    <nd ref="3918662851"/>
    <nd ref="3918662844"/>
    <tag k="addr:city" v="Edingly"/>
    <tag k="addr:street" v="Main Street"/>
    <tag k="amenity" v="community_centre"/>
    <tag k="building" v="public"/>
    <tag k="name" v="The Old Schoolroom"/>
  </way>
  <way id="388709218" version="5" timestamp="2025-04-22T11:25:44Z" changeset="165280217" uid="5229644" user="Nathan_A_RF">
    <nd ref="324361850"/>
    <nd ref="11745072961"/>
    <nd ref="11745072960"/>
    <nd ref="3918740152"/>
    <nd ref="11745072959"/>
    <nd ref="324361851"/>
    <nd ref="324763126"/>
    <nd ref="11745072958"/>
    <nd ref="11745072957"/>
    <nd ref="324361852"/>
    <nd ref="11745072956"/>
    <nd ref="324361853"/>
    <nd ref="11745072955"/>
    <nd ref="6472335532"/>
    <nd ref="324361854"/>
    <nd ref="6472335549"/>
    <nd ref="511103422"/>
    <tag k="highway" v="tertiary"/>
    <tag k="maxspeed" v="60 mph"/>
    <tag k="maxspeed:type" v="GB:nsl_single"/>
    <tag k="name" v="Lower Kirklington Road"/>
  </way>
  <way id="388712343" version="1" timestamp="2015-12-30T15:59:16Z" changeset="36265278" uid="161875" user="Willumm">
    <nd ref="3918774109"/>
    <nd ref="3918774110"/>
    <nd ref="3918774111"/>
    <nd ref="3918774112"/>
    <nd ref="3918774113"/>
    <nd ref="3918774114"/>
    <nd ref="3918774115"/>
    <nd ref="3918774116"/>
    <nd ref="3918774117"/>
    <nd ref="3918774118"/>
    <nd ref="3918774119"/>
    <nd ref="3918774120"/>
    <nd ref="3918774121"/>
    <nd ref="3918774122"/>
    <nd ref="3918774123"/>
    <nd ref="3918774124"/>
    <nd ref="3918774125"/>
    <nd ref="3918774126"/>
    <nd ref="3918774127"/>
    <nd ref="3918774128"/>
    <nd ref="3918774109"/>
    <tag k="building" v="yes"/>
    <tag k="name" v="Highfields Care Home"/>
  </way>
  <way id="399548995" version="5" timestamp="2025-04-22T17:43:00Z" changeset="165297470" uid="5229644" user="Nathan_A_RF">
    <nd ref="4022809771"/>
    <nd ref="3917450919"/>
    <tag k="bridge" v="yes"/>
    <tag k="highway" v="tertiary"/>
    <tag k="layer" v="1"/>
    <tag k="maxspeed" v="30 mph"/>
    <tag k="name" v="Mansfield Road"/>
    <tag k="sidewalk" v="left"/>
    <tag k="source:name" v="OS_OpenData_Locator"/>
  </way>
  <way id="399548998" version="8" timestamp="2025-04-22T17:43:00Z" changeset="165297470" uid="5229644" user="Nathan_A_RF">
    <nd ref="3917450919"/>
    <nd ref="11438172101"/>
    <nd ref="254083505"/>
    <nd ref="7287633039"/>
    <nd ref="7287633036"/>
    <nd ref="7287633044"/>
    <nd ref="7287633043"/>
    <nd ref="11519040750"/>
    <nd ref="7287633032"/>
    <nd ref="254083504"/>
    <nd ref="6785747925"/>
    <nd ref="496275890"/>
    <nd ref="7719688149"/>
    <nd ref="3918623308"/>
    <nd ref="11519040700"/>
    <nd ref="11519040697"/>
    <nd ref="11519040695"/>
    <nd ref="8499765290"/>
    <nd ref="11519040783"/>
    <nd ref="254083503"/>
    <tag k="highway" v="tertiary"/>
    <tag k="maxspeed" v="30 mph"/>
    <tag k="name" v="Mansfield Road"/>
    <tag k="sidewalk" v="left"/>
    <tag k="source:name" v="OS_OpenData_Locator"/>
  </way>
  <way id="441851936" version="3" timestamp="2025-04-22T11:25:44Z" changeset="165280217" uid="5229644" user="Nathan_A_RF">
    <nd ref="511103422"/>
    <nd ref="324361855"/>
    <nd ref="324361856"/>
    <nd ref="324361857"/>
    <nd ref="324361859"/>
    <nd ref="324361860"/>
    <nd ref="366379158"/>
    <tag k="highway" v="tertiary"/>
    <tag k="lit" v="no"/>
    <tag k="maxspeed" v="60 mph"/>
    <tag k="maxspeed:type" v="GB:nsl_single"/>
    <tag k="name" v="Lower Kirklington Road"/>
    <tag k="sidewalk" v="no"/>
    <tag k="width" v="4"/>
  </way>
  <way id="473662969" version="5" timestamp="2025-04-22T11:25:44Z" changeset="165280217" uid="5229644" user="Nathan_A_RF">
    <nd ref="289386782"/>
    <nd ref="11891087232"/>
    <nd ref="511017912"/>
    <nd ref="289386781"/>
    <nd ref="324763469"/>
    <nd ref="8367651426"/>
    <nd ref="4022804257"/>
    <nd ref="289386780"/>
    <nd ref="8367651425"/>
    <nd ref="4395466954"/>
    <nd ref="289386779"/>
    <nd ref="4395466953"/>
    <nd ref="11891087383"/>
    <nd ref="289386778"/>
    <tag k="highway" v="tertiary"/>
    <tag k="maxspeed" v="60 mph"/>
    <tag k="maxspeed:type" v="GB:nsl_single"/>
    <tag k="name" v="Southwell Road"/>
    <tag k="source:RHW" v="Sign at E"/>
    <tag k="source:name" v="NaPTAN"/>
  </way>
  <way id="473662970" version="5" timestamp="2025-04-22T11:25:44Z" changeset="165280217" uid="5229644" user="Nathan_A_RF">
    <nd ref="427015081"/>
    <nd ref="11891087233"/>
    <nd ref="324361863"/>
    <nd ref="6536734247"/>
    <nd ref="289386782"/>
    <tag k="highway" v="tertiary"/>
    <tag k="maxspeed" v="60 mph"/>
    <tag k="maxspeed:type" v="GB:nsl_single"/>
    <tag k="name" v="Southwell Road"/>
    <tag k="source:RHW" v="Sign at E"/>
    <tag k="source:name" v="NaPTAN"/>
  </way>
  <way id="473662971" version="3" timestamp="2025-04-22T11:25:44Z" changeset="165280217" uid="5229644" user="Nathan_A_RF">
    <nd ref="354719606"/>
    <nd ref="3988940121"/>
    <nd ref="354719513"/>
    <tag k="highway" v="unclassified"/>
    <tag k="maxspeed" v="60 mph"/>
    <tag k="maxspeed:type" v="GB:nsl_single"/>
    <tag k="sidewalk" v="no"/>
    <tag k="width" v="3"/>
  </way>
  <way id="584409952" version="5" timestamp="2025-04-22T17:43:00Z" changeset="165297470" uid="5229644" user="Nathan_A_RF">
    <nd ref="5586353369"/>
    <nd ref="324362614"/>
    <tag k="highway" v="unclassified"/>
    <tag k="name" v="Little Lane"/>
    <tag k="sidewalk" v="no"/>
    <tag k="source" v="GPS trace"/>
    <tag k="source:name" v="Sign"/>
  </way>
  <way id="584409957" version="11" timestamp="2025-04-22T17:43:00Z" changeset="165297470" uid="5229644" user="Nathan_A_RF">
    <nd ref="324362613"/>
    <nd ref="324362895"/>
    <nd ref="6696780332"/>
    <nd ref="5586353855"/>
    <nd ref="5586353856"/>
    <nd ref="11491931828"/>
    <nd ref="5586353371"/>
    <nd ref="5586353857"/>
    <nd ref="324362897"/>
    <nd ref="5586353372"/>
    <nd ref="5586353374"/>
    <nd ref="5586353373"/>
    <nd ref="324362899"/>
    <nd ref="5586353377"/>
    <nd ref="11491931797"/>
    <nd ref="5586353376"/>
    <nd ref="324362901"/>
    <nd ref="6906257297"/>
    <nd ref="11491931803"/>
    <nd ref="382748178"/>
    <nd ref="324362903"/>
    <nd ref="11764434247"/>
    <nd ref="11764434246"/>
    <nd ref="324362904"/>
    <nd ref="6696779957"/>
    <nd ref="382748660"/>
    <nd ref="324362905"/>
    <nd ref="3901189235"/>
    <nd ref="11511336824"/>
    <nd ref="3901184814"/>
    <nd ref="3901184804"/>
    <nd ref="324362907"/>
    <nd ref="1374329030"/>
    <nd ref="324362909"/>
    <nd ref="8359646807"/>
    <nd ref="539780615"/>
    <nd ref="6907919935"/>
    <nd ref="324756778"/>
    <nd ref="3901184823"/>
    <nd ref="324362910"/>
    <nd ref="3901184815"/>
    <nd ref="3901184819"/>
    <nd ref="1374329034"/>
    <nd ref="3901184835"/>
    <nd ref="3901184821"/>
    <nd ref="6696779886"/>
    <nd ref="324362911"/>
    <nd ref="11491932028"/>
    <nd ref="11511336912"/>
    <nd ref="11511336909"/>
    <nd ref="1374305865"/>
    <nd ref="324362913"/>
    <nd ref="324362914"/>
    <nd ref="324362915"/>
    <nd ref="324362916"/>
    <nd ref="2904167450"/>
    <nd ref="6696779885"/>
    <nd ref="1374305866"/>
    <nd ref="2904167446"/>
    <nd ref="324362918"/>
    <nd ref="2904168931"/>
    <nd ref="11541188762"/>
    <nd ref="324362919"/>
    <nd ref="1374305867"/>
    <nd ref="1374305868"/>
    <nd ref="382656278"/>
    <tag k="highway" v="unclassified"/>
    <tag k="lit" v="no"/>
    <tag k="maxspeed" v="60 mph"/>
    <tag k="maxspeed:type" v="GB:nsl_single"/>
    <tag k="name" v="Greaves Lane"/>
    <tag k="sidewalk" v="no"/>
    <tag k="source" v="GPS trace;NPE"/>
    <tag k="source:name" v="Sign"/>
  </way>
  <way id="584409961" version="2" timestamp="2024-01-15T13:37:01Z" changeset="146282822" uid="6714692" user="Fingrmouse">
    <nd ref="5586353823"/>
    <nd ref="11519022768"/>
    <nd ref="11519022765"/>
    <nd ref="339925202"/>
    <tag k="highway" v="tertiary"/>
    <tag k="maxspeed" v="30 mph"/>
    <tag k="name" v="Main Street"/>
    <tag k="sidewalk" v="right"/>
    <tag k="source:name" v="OS_OpenData_Locator"/>
  </way>
  <way id="584409964" version="3" timestamp="2024-01-19T13:24:16Z" changeset="146444018" uid="6714692" user="Fingrmouse">
    <nd ref="1374339948"/>
    <nd ref="11530739276"/>
    <nd ref="1374326539"/>
    <nd ref="5586353827"/>
    <tag k="highway" v="tertiary"/>
    <tag k="maxspeed" v="30 mph"/>
    <tag k="name" v="Main Street"/>
    <tag k="sidewalk" v="both"/>
    <tag k="source:name" v="OS_OpenData_Locator"/>
  </way>
  <way id="584409965" version="3" timestamp="2024-01-19T13:24:16Z" changeset="146444018" uid="6714692" user="Fingrmouse">
    <nd ref="5586353827"/>
    <nd ref="254083500"/>
    <nd ref="3918668705"/>
    <nd ref="11530739290"/>
    <nd ref="5586353823"/>
    <tag k="highway" v="tertiary"/>
    <tag k="maxspeed" v="30 mph"/>
    <tag k="name" v="Main Street"/>
    <tag k="sidewalk" v="left"/>
    <tag k="source:name" v="OS_OpenData_Locator"/>
  </way>
  <way id="698307155" version="1" timestamp="2019-06-19T16:39:27Z" changeset="71408987" uid="9196102" user="pddondet">
    <nd ref="6558059544"/>
    <nd ref="6558059545"/>
    <tag k="highway" v="residential"/>
  </way>
  <way id="711810120" version="6" timestamp="2025-04-22T11:25:44Z" changeset="165280217" uid="5229644" user="Nathan_A_RF">
    <nd ref="6691832775"/>
    <nd ref="7120091124"/>
    <nd ref="7120091125"/>
    <nd ref="289386587"/>
    <nd ref="289386589"/>
    <nd ref="7120091126"/>
    <nd ref="289386591"/>
    <nd ref="7120091127"/>
    <nd ref="7120091128"/>
    <nd ref="11769274743"/>
    <nd ref="289386593"/>
    <nd ref="11769274742"/>
    <nd ref="289386595"/>
    <nd ref="289386598"/>
    <nd ref="11769274741"/>
    <nd ref="289386600"/>
    <nd ref="289386602"/>
    <nd ref="11514216397"/>
    <nd ref="289386604"/>
    <nd ref="11519040877"/>
    <nd ref="11514216437"/>
    <nd ref="289386605"/>
    <nd ref="289386607"/>
    <nd ref="11440082346"/>
    <nd ref="11440082345"/>
    <nd ref="289386609"/>
    <nd ref="289386611"/>
    <nd ref="289386613"/>
    <nd ref="283580252"/>
    <tag k="highway" v="unclassified"/>
    <tag k="maxspeed" v="60 mph"/>
    <tag k="maxspeed:type" v="GB:nsl_single"/>
    <tag k="name" v="Holme Lane"/>
  </way>
  <way id="1051669949" version="2" timestamp="2024-05-09T10:26:33Z" changeset="151092481" uid="6714692" user="Fingrmouse">
    <nd ref="9664439667"/>
    <nd ref="11891087234"/>
    <nd ref="11891087235"/>
    <nd ref="11891087236"/>
    <nd ref="11891087237"/>
    <nd ref="9664439668"/>
    <nd ref="9664439669"/>
    <nd ref="9664439670"/>
    <nd ref="9664439671"/>
    <nd ref="9664439672"/>
    <nd ref="9664439667"/>
    <tag k="building" v="yes"/>
    <tag k="name" v="Osmanthorpe Manor"/>
  </way>
  <way id="1232877038" version="2" timestamp="2025-01-05T00:37:19Z" changeset="161006503" uid="22299871" user="Mappam-12">
    <nd ref="11438153602"/>
    <nd ref="11438153603"/>
    <nd ref="11438153604"/>
    <nd ref="11438153605"/>
    <nd ref="11438153606"/>
    <nd ref="11438153607"/>
    <nd ref="11438153608"/>
    <nd ref="11438153609"/>
    <nd ref="11438153610"/>
    <nd ref="11438153611"/>
    <nd ref="11438153612"/>
    <nd ref="11438153613"/>
    <nd ref="11438153614"/>
    <nd ref="11438153615"/>
    <nd ref="11438153616"/>
    <nd ref="11438153617"/>
    <nd ref="11438153618"/>
    <nd ref="11438153619"/>
    <nd ref="11438153620"/>
    <nd ref="11438153621"/>
    <nd ref="11438153622"/>
    <nd ref="11438153623"/>
    <nd ref="11438153624"/>
    <nd ref="11438153625"/>
    <nd ref="11438153626"/>
    <nd ref="11438153627"/>
    <nd ref="11438153602"/>
    <tag k="building" v="house"/>
    <tag k="check_date" v="2025-01-05"/>
    <tag k="name" v="Moor Farm House"/>
    <tag k="source" v="Surveyed"/>
  </way>

</osm>
