<?xml version="1.0" encoding="UTF-8"?>
<osm version="0.6" generator="Overpass API 0.7.62.8 e802775f">
<note>The data included in this document is from www.openstreetmap.org. The data is made available under ODbL.</note>
<meta osm_base="2025-10-23T17:37:55Z" areas="2025-10-23T12:46:58Z"/>

  <node id="307417915" lat="53.1122083" lon="-0.9107361" version="5" timestamp="2015-04-17T22:29:09Z" changeset="30297276" uid="61942" user="SomeoneElse"/>
  <node id="1556514747" lat="53.1062831" lon="-0.9532459" version="1" timestamp="2011-12-21T02:23:28Z" changeset="10168501" uid="61942" user="SomeoneElse"/>
  <node id="3704844625" lat="53.1223494" lon="-0.9416304" version="2" timestamp="2017-01-08T13:45:56Z" changeset="44998218" uid="84681" user="SK53"/>
  <way id="30048250" version="8" timestamp="2020-07-16T10:33:10Z" changeset="88081628" uid="9196186" user="Dowluri">
    <nd ref="1535635135"/>
    <nd ref="1535635155"/>
    <nd ref="7720671543"/>
    <nd ref="1535635158"/>
    <nd ref="1535635161"/>
    <nd ref="1535635165"/>
    <tag k="highway" v="unclassified"/>
    <tag k="source" v="View from E;OS_OpenData_StreetView"/>
    <tag k="surface" v="gravel"/>
  </way>
  <way id="85333336" version="3" timestamp="2020-05-22T06:00:02Z" changeset="85587825" uid="8650722" user="back_spin">
    <nd ref="1535600884"/>
    <nd ref="1535620509"/>
    <nd ref="1535600918"/>
    <nd ref="1535600921"/>
    <nd ref="1535620511"/>
    <nd ref="1535620514"/>
    <nd ref="1535620517"/>
    <nd ref="1735437618"/>
    <nd ref="1535600926"/>
    <nd ref="1535606962"/>
    <nd ref="1535612083"/>
    <nd ref="1535606996"/>
    <nd ref="1535606997"/>
    <nd ref="1535606998"/>
    <nd ref="989286333"/>
    <nd ref="989286339"/>
    <tag k="access" v="private"/>
    <tag k="highway" v="unclassified"/>
    <tag k="source" v="View from path and road;Bing"/>
    <tag k="source:access" v="Sign at SE"/>
    <tag k="surface" v="gravel"/>
  </way>
  <way id="104219340" version="10" timestamp="2022-03-09T22:29:03Z" changeset="118296705" uid="242345" user="confusedbuffalo">
    <nd ref="307417915"/>
    <nd ref="3462417894"/>
    <nd ref="3462417936"/>
    <nd ref="3462417932"/>
    <nd ref="1202553576"/>
    <nd ref="3462417898"/>
    <nd ref="1202553579"/>
    <nd ref="3462417915"/>
    <nd ref="307417916"/>
    <nd ref="3462417896"/>
    <nd ref="3462417918"/>
    <nd ref="3462417935"/>
    <nd ref="3462417912"/>
    <nd ref="3462417916"/>
    <nd ref="1202553586"/>
    <nd ref="7984618773"/>
    <nd ref="1835921372"/>
    <nd ref="307417917"/>
    <nd ref="3462417920"/>
    <nd ref="1202553594"/>
    <nd ref="6481272759"/>
    <nd ref="1202553598"/>
    <nd ref="3462417923"/>
    <nd ref="3462417938"/>
    <nd ref="1202553605"/>
    <nd ref="3462417921"/>
    <nd ref="3462417909"/>
    <nd ref="1202553610"/>
    <nd ref="3462417937"/>
    <nd ref="1202553612"/>
    <nd ref="1202553614"/>
    <nd ref="1328033076"/>
    <nd ref="3462417899"/>
    <nd ref="307417918"/>
    <nd ref="1202553617"/>
    <nd ref="307417919"/>
    <nd ref="1202553623"/>
    <tag k="highway" v="tertiary"/>
    <tag k="lit" v="no"/>
    <tag k="maxspeed" v="60 mph"/>
    <tag k="name" v="Caunton Road"/>
    <tag k="oneway" v="no"/>
    <tag k="sidewalk" v="no"/>
    <tag k="source" v="Bing"/>
    <tag k="source:name" v="OS_OpenData_Locator"/>
    <tag k="width" v="4"/>
  </way>
  <way id="135047960" version="10" timestamp="2021-04-10T00:57:21Z" changeset="102675672" uid="5443821" user="◪ Jarv">
    <nd ref="8613732115"/>
    <nd ref="1483651748"/>
    <nd ref="1483651700"/>
    <nd ref="1483651751"/>
    <nd ref="1483651752"/>
    <nd ref="1483651753"/>
    <nd ref="1483651696"/>
    <tag k="bicycle" v="designated"/>
    <tag k="designation" v="byway_open_to_all_traffic"/>
    <tag k="foot" v="designated"/>
    <tag k="highway" v="residential"/>
    <tag k="horse" v="designated"/>
    <tag k="motor_vehicle" v="yes"/>
    <tag k="name" v="Roe Wood Lane"/>
    <tag k="prow_ref" v="217/1"/>
    <tag k="source" v="GPS"/>
    <tag k="source:designation" v="Sign at SE"/>
    <tag k="source:name" v="Sign at SE"/>
  </way>
  <way id="135049595" version="2" timestamp="2014-08-10T19:50:53Z" changeset="24662682" uid="61942" user="SomeoneElse">
    <nd ref="1483651700"/>
    <nd ref="1483651706"/>
    <tag k="highway" v="residential"/>
    <tag k="source" v="View from South"/>
  </way>
  <way id="140165200" version="2" timestamp="2020-05-22T06:00:02Z" changeset="85587825" uid="8650722" user="back_spin">
    <nd ref="1535635219"/>
    <nd ref="1535635066"/>
    <tag k="highway" v="unclassified"/>
    <tag k="source" v="View from N;OS_OpenData_StreetView"/>
    <tag k="surface" v="gravel"/>
  </way>
  <way id="140165201" version="2" timestamp="2020-05-22T06:00:02Z" changeset="85587825" uid="8650722" user="back_spin">
    <nd ref="1535635165"/>
    <nd ref="1535600871"/>
    <nd ref="1535600874"/>
    <tag k="highway" v="unclassified"/>
    <tag k="source" v="GPS"/>
    <tag k="surface" v="gravel"/>
  </way>
  <way id="140165202" version="2" timestamp="2020-05-22T06:00:02Z" changeset="85587825" uid="8650722" user="back_spin">
    <nd ref="1535635066"/>
    <nd ref="1535635249"/>
    <nd ref="1535635286"/>
    <nd ref="1535635292"/>
    <nd ref="1535635305"/>
    <nd ref="1535635320"/>
    <nd ref="1535600874"/>
    <nd ref="1535600882"/>
    <nd ref="1535600884"/>
    <tag k="designation" v="public_footpath"/>
    <tag k="foot" v="yes"/>
    <tag k="highway" v="unclassified"/>
    <tag k="source" v="GPS"/>
    <tag k="surface" v="gravel"/>
  </way>
  <way id="142217265" version="13" timestamp="2023-06-23T09:27:09Z" changeset="137680224" uid="242345" user="confusedbuffalo">
    <nd ref="1556514747"/>
    <nd ref="989286369"/>
    <nd ref="989286646"/>
    <nd ref="989286652"/>
    <nd ref="989286656"/>
    <nd ref="989286662"/>
    <nd ref="989286669"/>
    <nd ref="6322769517"/>
    <nd ref="989286671"/>
    <nd ref="989286676"/>
    <nd ref="989286677"/>
    <nd ref="989286682"/>
    <nd ref="1483930336"/>
    <nd ref="989286684"/>
    <nd ref="989286690"/>
    <nd ref="989286708"/>
    <nd ref="989286713"/>
    <nd ref="989286715"/>
    <nd ref="989286719"/>
    <nd ref="989286721"/>
    <nd ref="535868992"/>
    <nd ref="1556514756"/>
    <nd ref="989286738"/>
    <nd ref="989286741"/>
    <nd ref="989286745"/>
    <nd ref="989286751"/>
    <nd ref="1199875461"/>
    <nd ref="1556514750"/>
    <nd ref="989286755"/>
    <nd ref="989286759"/>
    <nd ref="989286761"/>
    <nd ref="989286763"/>
    <nd ref="1556514745"/>
    <nd ref="989286768"/>
    <nd ref="989286773"/>
    <nd ref="989286776"/>
    <nd ref="1556514742"/>
    <nd ref="1535612077"/>
    <nd ref="989286788"/>
    <nd ref="1535612093"/>
    <tag k="highway" v="unclassified"/>
    <tag k="maxspeed" v="60 mph"/>
    <tag k="maxspeed:type" v="GB:nsl_single"/>
    <tag k="name" v="Winkburn Lane"/>
    <tag k="oneway" v="no"/>
    <tag k="sidewalk" v="no"/>
    <tag k="source" v="survey"/>
  </way>
  <way id="366502757" version="3" timestamp="2019-05-10T12:02:46Z" changeset="70106938" uid="9065" user="brianboru">
    <nd ref="3704812969"/>
    <nd ref="3704812860"/>
    <nd ref="3704812939"/>
    <nd ref="3704812952"/>
    <nd ref="3704812867"/>
    <nd ref="3704812302"/>
    <nd ref="3704812956"/>
    <nd ref="3704812869"/>
    <nd ref="3704812903"/>
    <nd ref="3704812261"/>
    <nd ref="3704812253"/>
    <nd ref="3704812959"/>
    <nd ref="3704812969"/>
    <tag k="building" v="house"/>
    <tag k="castle" v="country_house"/>
    <tag k="castle_type" v="stately"/>
    <tag k="heritage" v="2"/>
    <tag k="heritage:operator" v="Historic England"/>
    <tag k="historic" v="castle"/>
    <tag k="listed_status" v="Grade I"/>
    <tag k="name" v="Winkburn Hall"/>
    <tag k="source" v="survey"/>
    <tag k="source:geometry" v="Bing"/>
    <tag k="wikidata" v="Q8025451"/>
    <tag k="wikipedia" v="en:Winkburn Hall"/>
  </way>
  <way id="464533064" version="5" timestamp="2023-06-23T09:27:09Z" changeset="137680224" uid="242345" user="confusedbuffalo">
    <nd ref="1535612093"/>
    <nd ref="3704844625"/>
    <tag k="bridge" v="yes"/>
    <tag k="highway" v="unclassified"/>
    <tag k="layer" v="1"/>
    <tag k="maxspeed" v="60 mph"/>
    <tag k="maxspeed:type" v="GB:nsl_single"/>
    <tag k="name" v="Winkburn Lane"/>
    <tag k="oneway" v="no"/>
    <tag k="sidewalk" v="no"/>
    <tag k="source" v="survey"/>
    <tag k="source:geometry" v="Bing"/>
  </way>
  <way id="464533066" version="8" timestamp="2023-06-23T09:27:09Z" changeset="137680224" uid="242345" user="confusedbuffalo">
    <nd ref="3704844625"/>
    <nd ref="989286793"/>
    <nd ref="989286339"/>
    <nd ref="989286797"/>
    <nd ref="989286800"/>
    <nd ref="989286805"/>
    <nd ref="989286807"/>
    <nd ref="989286810"/>
    <nd ref="989286814"/>
    <nd ref="989286816"/>
    <nd ref="989286817"/>
    <nd ref="989286820"/>
    <nd ref="989286825"/>
    <nd ref="6784596663"/>
    <nd ref="989286831"/>
    <nd ref="1556514752"/>
    <nd ref="989286841"/>
    <nd ref="7975913163"/>
    <nd ref="989286845"/>
    <nd ref="535865854"/>
    <nd ref="1556514759"/>
    <nd ref="989286875"/>
    <nd ref="989286878"/>
    <nd ref="989286885"/>
    <nd ref="1483961333"/>
    <nd ref="989286893"/>
    <nd ref="1556514760"/>
    <nd ref="989286912"/>
    <nd ref="989286926"/>
    <nd ref="1556514746"/>
    <nd ref="1556514743"/>
    <nd ref="989286947"/>
    <nd ref="989286952"/>
    <nd ref="8613732089"/>
    <nd ref="989286968"/>
    <nd ref="989286973"/>
    <nd ref="535866057"/>
    <nd ref="1596394816"/>
    <nd ref="1596397874"/>
    <nd ref="989286994"/>
    <nd ref="989287004"/>
    <nd ref="989287011"/>
    <tag k="highway" v="unclassified"/>
    <tag k="maxspeed" v="60 mph"/>
    <tag k="maxspeed:type" v="GB:nsl_single"/>
    <tag k="name" v="Winkburn Lane"/>
    <tag k="oneway" v="no"/>
    <tag k="sidewalk" v="no"/>
    <tag k="source" v="survey"/>
  </way>
  <way id="723507868" version="2" timestamp="2021-04-10T00:57:21Z" changeset="102675672" uid="5443821" user="◪ Jarv">
    <nd ref="989286745"/>
    <nd ref="3704461034"/>
    <nd ref="3704461041"/>
    <nd ref="3704461035"/>
    <nd ref="3704461040"/>
    <nd ref="6785894552"/>
    <nd ref="6785894558"/>
    <tag k="highway" v="residential"/>
    <tag k="source" v="Bing"/>
  </way>
  <way id="766178813" version="2" timestamp="2020-05-22T06:00:02Z" changeset="85587825" uid="8650722" user="back_spin">
    <nd ref="1535635219"/>
    <nd ref="7155951045"/>
    <nd ref="7155951046"/>
    <nd ref="7155951047"/>
    <nd ref="7155951048"/>
    <nd ref="7155951049"/>
    <tag k="highway" v="unclassified"/>
  </way>
  <way id="807060796" version="1" timestamp="2020-05-22T06:00:02Z" changeset="85587825" uid="8650722" user="back_spin">
    <nd ref="1735437661"/>
    <nd ref="1735437659"/>
    <nd ref="1735437611"/>
    <nd ref="1735437663"/>
    <nd ref="1735437682"/>
    <nd ref="1735437609"/>
    <nd ref="1735437670"/>
    <nd ref="1735437620"/>
    <nd ref="1735437616"/>
    <nd ref="1735437657"/>
    <nd ref="1735437634"/>
    <nd ref="1735437626"/>
    <nd ref="1735437645"/>
    <nd ref="1735437636"/>
    <nd ref="1735437644"/>
    <nd ref="1535620517"/>
    <tag k="access" v="private"/>
    <tag k="highway" v="unclassified"/>
    <tag k="note" v="Access new house N that post-dates Bing imagery"/>
    <tag k="source" v="View from SE;Bing;guesswork"/>
    <tag k="source:access" v="Unsigned, other access here is"/>
    <tag k="surface" v="gravel"/>
  </way>
  <way id="884297017" version="1" timestamp="2020-12-13T10:13:33Z" changeset="95749334" uid="281267" user="smb1001">
    <nd ref="3704461039"/>
    <nd ref="8223850171"/>
    <nd ref="8223850170"/>
    <nd ref="8223850172"/>
    <nd ref="3704461039"/>
    <tag k="amenity" v="place_of_worship"/>
    <tag k="building" v="church"/>
    <tag k="denomination" v="anglican"/>
    <tag k="name" v="St John of Jerusalem"/>
    <tag k="religion" v="christian"/>
    <tag k="source" v="survey"/>
    <tag k="wikidata" v="Q15979373"/>
  </way>
  <way id="928711425" version="1" timestamp="2021-04-10T00:57:21Z" changeset="102675672" uid="5443821" user="◪ Jarv">
    <nd ref="1556514756"/>
    <nd ref="8613732115"/>
    <tag k="designation" v="byway_open_to_all_traffic"/>
    <tag k="foot" v="yes"/>
    <tag k="highway" v="residential"/>
    <tag k="name" v="Roe Wood Lane"/>
    <tag k="source" v="GPS"/>
    <tag k="source:designation" v="Sign at SE"/>
    <tag k="source:name" v="Sign at SE"/>
  </way>

</osm>
