<?xml version="1.0" encoding="UTF-8"?>
<osm version="0.6" generator="Overpass API 0.7.62.8 e802775f">
<note>The data included in this document is from www.openstreetmap.org. The data is made available under ODbL.</note>
<meta osm_base="2025-10-23T17:51:02Z" areas="2025-10-23T14:54:58Z"/>

  <node id="128162533" lat="53.2611019" lon="-0.7747212" version="12" timestamp="2018-12-26T21:01:56Z" changeset="65795575" uid="52797" user="hofoen"/>
  <node id="453334663" lat="53.2722519" lon="-0.7968827" version="2" timestamp="2010-04-22T10:03:27Z" changeset="4493981" uid="82399" user="kcordina"/>
  <node id="3129757757" lat="53.2589841" lon="-0.7949807" version="1" timestamp="2014-10-14T18:35:21Z" changeset="26079160" uid="91225" user="tms13"/>
  <node id="3641720370" lat="53.2591827" lon="-0.7963577" version="1" timestamp="2015-07-09T01:49:03Z" changeset="32508699" uid="61942" user="SomeoneElse"/>
  <way id="13781370" version="11" timestamp="2025-05-08T18:28:31Z" changeset="165997674" uid="3199858" user="Mateusz Konieczny - bot account">
    <nd ref="128145673"/>
    <nd ref="453334640"/>
    <nd ref="3641740742"/>
    <tag k="highway" v="tertiary"/>
    <tag k="lit" v="no"/>
    <tag k="maxspeed" v="40 mph"/>
    <tag k="name" v="Cocketts Hill"/>
    <tag k="sidewalk" v="no"/>
    <tag k="source:name" v="Sign"/>
    <tag k="width" v="4"/>
  </way>
  <way id="13781669" version="16" timestamp="2025-06-14T10:50:47Z" changeset="167607550" uid="20825283" user="Whiskey&amp;Pills">
    <nd ref="128162533"/>
    <nd ref="3642777164"/>
    <tag k="bridge" v="yes"/>
    <tag k="charge:car" v="0.50 GBP"/>
    <tag k="highway" v="trunk"/>
    <tag k="lanes" v="2"/>
    <tag k="layer" v="1"/>
    <tag k="lit" v="no"/>
    <tag k="maxspeed" v="60 mph"/>
    <tag k="maxspeed:type" v="GB:nsl_single"/>
    <tag k="maxweight" v="44"/>
    <tag k="name" v="Dunham Bridge"/>
    <tag k="ref" v="A57"/>
    <tag k="sidewalk" v="right"/>
    <tag k="toll" v="yes"/>
    <tag k="toll:motorcycle" v="no"/>
  </way>
  <way id="38366441" version="5" timestamp="2019-06-16T14:33:24Z" changeset="71302638" uid="1778799" user="SomeoneElse_Revert">
    <nd ref="453334420"/>
    <nd ref="3642598419"/>
    <nd ref="453334421"/>
    <nd ref="453334423"/>
    <nd ref="2169413470"/>
    <nd ref="2169413471"/>
    <nd ref="453334424"/>
    <nd ref="453334420"/>
    <tag k="amenity" v="pub"/>
    <tag k="building" v="yes"/>
    <tag k="food" v="yes"/>
    <tag k="name" v="White Swan"/>
    <tag k="outdoor_seating" v="yes"/>
    <tag k="parking" v="yes"/>
    <tag k="real_ale" v="Wells' Bombardier"/>
  </way>
  <way id="38366465" version="8" timestamp="2019-10-22T12:40:53Z" changeset="76048841" uid="10219385" user="ramsaivr">
    <nd ref="1036374327"/>
    <nd ref="1036374370"/>
    <nd ref="1036374359"/>
    <nd ref="1036374352"/>
    <nd ref="1036374354"/>
    <nd ref="1036374332"/>
    <nd ref="6905553578"/>
    <nd ref="1036374339"/>
    <nd ref="128145888"/>
    <nd ref="1036365729"/>
    <nd ref="1036365745"/>
    <nd ref="1036365762"/>
    <nd ref="1036365849"/>
    <nd ref="2802191420"/>
    <nd ref="2802191425"/>
    <nd ref="2802191424"/>
    <nd ref="128145880"/>
    <tag k="highway" v="unclassified"/>
    <tag k="maxspeed" v="30 mph"/>
    <tag k="maxweight" v="7.5"/>
    <tag k="name" v="Upper Row"/>
    <tag k="source:name" v="Sign at north"/>
  </way>
  <way id="56058432" version="7" timestamp="2021-06-07T14:24:37Z" changeset="105978496" uid="3199858" user="Mateusz Konieczny - bot account">
    <nd ref="453334663"/>
    <nd ref="453334661"/>
    <nd ref="453334662"/>
    <nd ref="128145644"/>
    <nd ref="453334659"/>
    <nd ref="453334658"/>
    <nd ref="128145654"/>
    <nd ref="453334656"/>
    <nd ref="128145663"/>
    <nd ref="453334653"/>
    <nd ref="453334655"/>
    <nd ref="453334649"/>
    <nd ref="453334652"/>
    <nd ref="128145670"/>
    <nd ref="453334642"/>
    <nd ref="3641740094"/>
    <tag k="highway" v="tertiary"/>
    <tag k="lit" v="no"/>
    <tag k="maxspeed" v="60 mph"/>
    <tag k="maxspeed:type" v="GB:nsl_single"/>
    <tag k="source:name" v="OS_opendata_streetview"/>
  </way>
  <way id="166771103" version="2" timestamp="2020-09-17T10:15:41Z" changeset="91039132" uid="11741743" user="randerv">
    <nd ref="1782116556"/>
    <nd ref="281747913"/>
    <nd ref="7916566673"/>
    <nd ref="1311756558"/>
    <tag k="highway" v="residential"/>
    <tag k="source" v="Bing"/>
  </way>
  <way id="166771105" version="2" timestamp="2013-06-11T14:14:19Z" changeset="16510694" uid="1383105" user="Gavrielo">
    <nd ref="1782116558"/>
    <nd ref="1782116560"/>
    <nd ref="1782116563"/>
    <nd ref="1782116561"/>
    <nd ref="1782116557"/>
    <nd ref="281747913"/>
    <tag k="highway" v="residential"/>
    <tag k="name" v="Tall Gables"/>
    <tag k="source" v="Bing"/>
    <tag k="source:name" v="OS_OpenData_Locator"/>
  </way>
  <way id="166771107" version="9" timestamp="2025-04-27T16:11:49Z" changeset="165513208" uid="493595" user="Yorvik Prestigitator">
    <nd ref="128145859"/>
    <nd ref="453334419"/>
    <nd ref="3642598427"/>
    <nd ref="128145865"/>
    <nd ref="453334416"/>
    <nd ref="12791905408"/>
    <nd ref="453334415"/>
    <nd ref="128145870"/>
    <nd ref="6270915493"/>
    <nd ref="3642685314"/>
    <nd ref="453334412"/>
    <nd ref="453334413"/>
    <nd ref="128162522"/>
    <nd ref="1782116556"/>
    <nd ref="453334410"/>
    <nd ref="453334409"/>
    <tag k="highway" v="trunk"/>
    <tag k="lanes" v="2"/>
    <tag k="lit" v="yes"/>
    <tag k="maxspeed" v="30 mph"/>
    <tag k="name" v="Main Street"/>
    <tag k="ref" v="A57"/>
    <tag k="source" v="GPS"/>
    <tag k="source:name" v="Sign"/>
  </way>
  <way id="166771109" version="2" timestamp="2020-09-17T10:15:41Z" changeset="91039132" uid="11741743" user="randerv">
    <nd ref="1311756558"/>
    <nd ref="1311756496"/>
    <nd ref="1311756573"/>
    <nd ref="281748210"/>
    <nd ref="281747380"/>
    <nd ref="7916566680"/>
    <nd ref="281747915"/>
    <nd ref="1782116555"/>
    <nd ref="281747382"/>
    <nd ref="1311756558"/>
    <tag k="highway" v="residential"/>
    <tag k="name" v="The Green"/>
    <tag k="source" v="Bing"/>
    <tag k="source:name" v="OS_OpenData_StreetView"/>
  </way>
  <way id="166771111" version="2" timestamp="2025-04-27T16:11:49Z" changeset="165513208" uid="493595" user="Yorvik Prestigitator">
    <nd ref="281748063"/>
    <nd ref="1782116554"/>
    <nd ref="1782116562"/>
    <nd ref="1782116559"/>
    <nd ref="12791905416"/>
    <nd ref="1782116553"/>
    <nd ref="281748240"/>
    <nd ref="1311756573"/>
    <tag k="highway" v="residential"/>
    <tag k="name" v="Horne Lane"/>
    <tag k="source" v="Bing"/>
    <tag k="source:name" v="OS_OpenData_StreetView"/>
  </way>
  <way id="206884956" version="4" timestamp="2025-04-27T16:11:49Z" changeset="165513208" uid="493595" user="Yorvik Prestigitator">
    <nd ref="2169413475"/>
    <nd ref="9130990267"/>
    <nd ref="9130990268"/>
    <nd ref="2169413479"/>
    <nd ref="2169413478"/>
    <nd ref="2169413477"/>
    <nd ref="2169413476"/>
    <nd ref="2169413472"/>
    <nd ref="2169413474"/>
    <nd ref="2169413473"/>
    <nd ref="2169413475"/>
    <tag k="addr:place" v="Dunham-on-Trent"/>
    <tag k="addr:street" v="Low Street"/>
    <tag k="amenity" v="community_centre"/>
    <tag k="building" v="public"/>
    <tag k="community_centre" v="village_hall"/>
    <tag k="name" v="Dunham &amp; District Village Hall"/>
  </way>
  <way id="225252804" version="3" timestamp="2025-04-27T16:11:49Z" changeset="165513208" uid="493595" user="Yorvik Prestigitator">
    <nd ref="3642685298"/>
    <nd ref="3642685296"/>
    <nd ref="2340591710"/>
    <nd ref="2340591712"/>
    <nd ref="2340591715"/>
    <nd ref="12791905413"/>
    <nd ref="2340591717"/>
    <tag k="highway" v="residential"/>
    <tag k="name" v="Ash Close"/>
    <tag k="source" v="Bing"/>
    <tag k="source:name" v="Sign"/>
  </way>
  <way id="225252812" version="1" timestamp="2013-06-11T14:14:12Z" changeset="16510694" uid="1383105" user="Gavrielo">
    <nd ref="453334409"/>
    <nd ref="2340591721"/>
    <nd ref="2340591719"/>
    <tag k="highway" v="residential"/>
    <tag k="name" v="Church Walk"/>
    <tag k="source" v="Bing"/>
    <tag k="source:name" v="OS_OpenData_Locator"/>
  </way>
  <way id="225252816" version="13" timestamp="2024-06-23T16:36:58Z" changeset="153076420" uid="20825283" user="Whiskey&amp;Pills">
    <nd ref="128145673"/>
    <nd ref="3641733991"/>
    <nd ref="5473414202"/>
    <nd ref="6895674809"/>
    <nd ref="3641733954"/>
    <nd ref="9039602804"/>
    <nd ref="2802191419"/>
    <nd ref="499316938"/>
    <nd ref="2802191426"/>
    <nd ref="2802191421"/>
    <nd ref="6482342422"/>
    <nd ref="3641720370"/>
    <tag k="highway" v="tertiary"/>
    <tag k="lit" v="yes"/>
    <tag k="maxspeed" v="40 mph"/>
    <tag k="name" v="Laneham Road"/>
    <tag k="sidewalk" v="right"/>
    <tag k="source:name" v="Sign"/>
    <tag k="surface" v="asphalt"/>
  </way>
  <way id="307770828" version="5" timestamp="2021-06-07T14:25:11Z" changeset="105978496" uid="3199858" user="Mateusz Konieczny - bot account">
    <nd ref="3129757757"/>
    <nd ref="453334433"/>
    <nd ref="453334435"/>
    <nd ref="1036365730"/>
    <nd ref="128145880"/>
    <nd ref="453334430"/>
    <nd ref="453334429"/>
    <nd ref="453334432"/>
    <nd ref="453334427"/>
    <nd ref="1311756559"/>
    <nd ref="6270915500"/>
    <nd ref="8566363665"/>
    <nd ref="128162462"/>
    <nd ref="7244570099"/>
    <nd ref="3129757758"/>
    <tag k="highway" v="trunk"/>
    <tag k="lanes" v="2"/>
    <tag k="lit" v="no"/>
    <tag k="maxspeed" v="60 mph"/>
    <tag k="maxspeed:type" v="GB:nsl_single"/>
    <tag k="name" v="Darlton Road"/>
    <tag k="ref" v="A57"/>
    <tag k="source" v="Bing;GPS"/>
  </way>
  <way id="307770829" version="2" timestamp="2021-06-07T14:25:11Z" changeset="105978496" uid="3199858" user="Mateusz Konieczny - bot account">
    <nd ref="453334426"/>
    <nd ref="128145859"/>
    <tag k="highway" v="trunk"/>
    <tag k="lanes" v="2"/>
    <tag k="maxspeed" v="30 mph"/>
    <tag k="name" v="Darlton Road"/>
    <tag k="ref" v="A57"/>
    <tag k="source" v="Bing;GPS"/>
  </way>
  <way id="307770830" version="2" timestamp="2021-06-07T14:25:12Z" changeset="105978496" uid="3199858" user="Mateusz Konieczny - bot account">
    <nd ref="3129757758"/>
    <nd ref="453334426"/>
    <tag k="highway" v="trunk"/>
    <tag k="lanes" v="2"/>
    <tag k="lit" v="yes"/>
    <tag k="maxspeed" v="60 mph"/>
    <tag k="maxspeed:type" v="GB:nsl_single"/>
    <tag k="name" v="Darlton Road"/>
    <tag k="ref" v="A57"/>
    <tag k="source" v="Bing;GPS"/>
  </way>
  <way id="307770831" version="3" timestamp="2024-05-14T11:31:42Z" changeset="151308839" uid="5229644" user="Nathan_A_RF">
    <nd ref="453334402"/>
    <nd ref="453334406"/>
    <nd ref="128162528"/>
    <nd ref="453334407"/>
    <nd ref="453334403"/>
    <nd ref="2340591700"/>
    <nd ref="3642726038"/>
    <nd ref="3642722559"/>
    <nd ref="2340591708"/>
    <nd ref="2841688494"/>
    <tag k="highway" v="trunk"/>
    <tag k="lanes" v="2"/>
    <tag k="lit" v="no"/>
    <tag k="maxspeed" v="60 mph"/>
    <tag k="maxspeed:type" v="GB:nsl_single"/>
    <tag k="name" v="Main Street"/>
    <tag k="ref" v="A57"/>
    <tag k="sidewalk" v="right"/>
    <tag k="source" v="GPS"/>
    <tag k="source:name" v="OS_OpenData_StreetView"/>
  </way>
  <way id="359447425" version="2" timestamp="2015-07-09T01:49:04Z" changeset="32508699" uid="61942" user="SomeoneElse">
    <nd ref="3641722425"/>
    <nd ref="3641722420"/>
    <nd ref="3641722422"/>
    <nd ref="3641722423"/>
    <nd ref="3641722425"/>
    <tag k="building" v="yes"/>
    <tag k="craft" v="gunsmith"/>
    <tag k="name" v="Roy Martin"/>
    <tag k="source" v="survey;Bing"/>
  </way>
  <way id="359448396" version="3" timestamp="2024-06-23T16:36:54Z" changeset="153076420" uid="20825283" user="Whiskey&amp;Pills">
    <nd ref="3641720370"/>
    <nd ref="2802191423"/>
    <nd ref="2802191422"/>
    <tag k="highway" v="tertiary"/>
    <tag k="lit" v="yes"/>
    <tag k="maxspeed" v="60 mph"/>
    <tag k="maxspeed:type" v="GB:nsl_single"/>
    <tag k="name" v="Laneham Road"/>
    <tag k="sidewalk" v="right"/>
    <tag k="source:name" v="Sign"/>
    <tag k="surface" v="asphalt"/>
  </way>
  <way id="359448481" version="2" timestamp="2015-07-09T01:52:38Z" changeset="32508699" uid="61942" user="SomeoneElse">
    <nd ref="3641734186"/>
    <nd ref="3641734185"/>
    <nd ref="3168430522"/>
    <nd ref="3641734182"/>
    <nd ref="3641734183"/>
    <nd ref="3641734184"/>
    <nd ref="3641734186"/>
    <tag k="building" v="yes"/>
    <tag k="name" v="Woodlands"/>
    <tag k="source:name" v="Sign"/>
  </way>
  <way id="359449304" version="4" timestamp="2025-05-08T18:29:49Z" changeset="165997674" uid="3199858" user="Mateusz Konieczny - bot account">
    <nd ref="3641740097"/>
    <nd ref="128145849"/>
    <tag k="highway" v="tertiary"/>
    <tag k="name" v="Low Street"/>
    <tag k="sidewalk" v="no"/>
    <tag k="source:name" v="Sign"/>
  </way>
  <way id="359449305" version="2" timestamp="2021-06-07T14:25:18Z" changeset="105978496" uid="3199858" user="Mateusz Konieczny - bot account">
    <nd ref="3641740094"/>
    <nd ref="3332109041"/>
    <nd ref="128145673"/>
    <tag k="highway" v="tertiary"/>
    <tag k="lit" v="no"/>
    <tag k="maxspeed" v="40 mph"/>
    <tag k="sidewalk" v="right"/>
    <tag k="source:name" v="OS_opendata_streetview"/>
  </way>
  <way id="359449334" version="4" timestamp="2025-05-08T18:29:49Z" changeset="165997674" uid="3199858" user="Mateusz Konieczny - bot account">
    <nd ref="3641740742"/>
    <nd ref="453334636"/>
    <nd ref="3641740730"/>
    <nd ref="453334637"/>
    <nd ref="3641740746"/>
    <nd ref="453334639"/>
    <nd ref="128145841"/>
    <nd ref="3641740747"/>
    <nd ref="3641740745"/>
    <nd ref="453334632"/>
    <nd ref="453334634"/>
    <nd ref="3641740097"/>
    <tag k="highway" v="tertiary"/>
    <tag k="lit" v="yes"/>
    <tag k="maxspeed" v="30 mph"/>
    <tag k="name" v="Cocketts Hill"/>
    <tag k="sidewalk" v="no"/>
    <tag k="source:name" v="Sign"/>
    <tag k="width" v="4"/>
  </way>
  <way id="359449561" version="1" timestamp="2015-07-09T02:14:27Z" changeset="32509266" uid="61942" user="SomeoneElse">
    <nd ref="3641742050"/>
    <nd ref="3641742051"/>
    <nd ref="3641742052"/>
    <nd ref="3641742065"/>
    <nd ref="3641742066"/>
    <nd ref="3641742067"/>
    <nd ref="3641742068"/>
    <nd ref="3641742050"/>
    <tag k="building" v="yes"/>
    <tag k="name" v="Hill Top House"/>
  </way>
  <way id="359581290" version="3" timestamp="2022-09-02T17:23:33Z" changeset="125708584" uid="2762871" user="Sam888">
    <nd ref="128145849"/>
    <nd ref="1036374327"/>
    <nd ref="1036374338"/>
    <nd ref="1036374336"/>
    <nd ref="1036374357"/>
    <tag k="highway" v="tertiary"/>
    <tag k="name" v="Low Street"/>
    <tag k="sidewalk" v="left"/>
    <tag k="source:name" v="Sign"/>
  </way>
  <way id="359583462" version="3" timestamp="2017-04-29T16:25:28Z" changeset="48258464" uid="1778799" user="SomeoneElse_Revert">
    <nd ref="1036374357"/>
    <nd ref="3642588513"/>
    <tag k="bridge" v="yes"/>
    <tag k="highway" v="unclassified"/>
    <tag k="name" v="Low Street"/>
    <tag k="sidewalk" v="left"/>
    <tag k="source:name" v="Sign"/>
  </way>
  <way id="359583463" version="2" timestamp="2022-09-02T17:23:33Z" changeset="125708584" uid="2762871" user="Sam888">
    <nd ref="3642588513"/>
    <nd ref="1036374362"/>
    <nd ref="2169413469"/>
    <nd ref="128145859"/>
    <tag k="highway" v="tertiary"/>
    <tag k="name" v="Low Street"/>
    <tag k="sidewalk" v="left"/>
    <tag k="source:name" v="Sign"/>
  </way>
  <way id="359592386" version="1" timestamp="2015-07-09T13:08:15Z" changeset="32518520" uid="61942" user="SomeoneElse">
    <nd ref="3642685332"/>
    <nd ref="3642685295"/>
    <nd ref="3642685330"/>
    <nd ref="3642685310"/>
    <nd ref="3642685309"/>
    <nd ref="3642685315"/>
    <nd ref="3642685332"/>
    <tag k="building" v="yes"/>
    <tag k="name" v="Little Lord Fauntleroy Antiques"/>
    <tag k="shop" v="antiques"/>
  </way>
  <way id="359592392" version="1" timestamp="2015-07-09T13:08:15Z" changeset="32518520" uid="61942" user="SomeoneElse">
    <nd ref="453334409"/>
    <nd ref="2340591717"/>
    <nd ref="453334402"/>
    <tag k="highway" v="trunk"/>
    <tag k="lanes" v="2"/>
    <tag k="lit" v="yes"/>
    <tag k="maxspeed" v="30 mph"/>
    <tag k="name" v="Main Street"/>
    <tag k="ref" v="A57"/>
    <tag k="sidewalk" v="right"/>
    <tag k="source" v="GPS"/>
    <tag k="source:name" v="Sign"/>
  </way>
  <way id="388120911" version="1" timestamp="2015-12-27T19:09:09Z" changeset="36203688" uid="61942" user="SomeoneElse">
    <nd ref="2841688494"/>
    <nd ref="128162533"/>
    <tag k="highway" v="trunk"/>
    <tag k="lanes" v="2"/>
    <tag k="lit" v="no"/>
    <tag k="maxspeed" v="60 mph"/>
    <tag k="maxspeed:type" v="GB:nsl_single"/>
    <tag k="name" v="Main Street"/>
    <tag k="ref" v="A57"/>
    <tag k="sidewalk" v="right"/>
    <tag k="source" v="GPS"/>
    <tag k="source:name" v="OS_OpenData_StreetView"/>
  </way>
  <way id="553638439" version="3" timestamp="2021-03-27T06:36:12Z" changeset="101826114" uid="5443821" user="◪ Jarv">
    <nd ref="8566363689"/>
    <nd ref="5343812762"/>
    <nd ref="5343812763"/>
    <nd ref="5343812764"/>
    <nd ref="5343812765"/>
    <nd ref="5343812766"/>
    <nd ref="5343812767"/>
    <tag k="designation" v="public_footpath"/>
    <tag k="foot" v="designated"/>
    <tag k="highway" v="residential"/>
    <tag k="prow_ref" v="93/1"/>
    <tag k="surface" v="asphalt"/>
  </way>
  <way id="553638440" version="2" timestamp="2020-04-08T08:06:26Z" changeset="83238894" uid="10455632" user="depsm">
    <nd ref="5343812772"/>
    <nd ref="5343812773"/>
    <nd ref="5343812774"/>
    <tag k="highway" v="residential"/>
    <tag k="surface" v="asphalt"/>
  </way>
  <way id="669638763" version="3" timestamp="2025-04-27T16:11:49Z" changeset="165513208" uid="493595" user="Yorvik Prestigitator">
    <nd ref="6270915493"/>
    <nd ref="6270915494"/>
    <nd ref="12791905411"/>
    <nd ref="6270915495"/>
    <nd ref="6270915496"/>
    <nd ref="6270915497"/>
    <nd ref="6270915498"/>
    <nd ref="6270915499"/>
    <tag k="highway" v="residential"/>
    <tag k="name" v="The Hawthornes"/>
    <tag k="source:name" v="OS_OpenRoads"/>
  </way>
  <way id="922800564" version="1" timestamp="2021-03-27T06:36:12Z" changeset="101826114" uid="5443821" user="◪ Jarv">
    <nd ref="5343812767"/>
    <nd ref="5343812768"/>
    <nd ref="5343812769"/>
    <nd ref="5343812770"/>
    <tag k="highway" v="residential"/>
    <tag k="surface" v="asphalt"/>
  </way>
  <way id="922800565" version="1" timestamp="2021-03-27T06:36:12Z" changeset="101826114" uid="5443821" user="◪ Jarv">
    <nd ref="128145870"/>
    <nd ref="5343812761"/>
    <nd ref="5343812772"/>
    <nd ref="5343812771"/>
    <nd ref="8566363689"/>
    <tag k="highway" v="residential"/>
    <tag k="surface" v="asphalt"/>
  </way>

</osm>
