<?xml version="1.0" encoding="UTF-8"?>
<osm version="0.6" generator="Overpass API 0.7.62.8 e802775f">
<note>The data included in this document is from www.openstreetmap.org. The data is made available under ODbL.</note>
<meta osm_base="2025-10-23T17:29:34Z" areas="2025-10-23T14:54:58Z"/>

  <node id="257537341" lat="52.8858833" lon="-0.9052338" version="3" timestamp="2017-06-05T13:21:29Z" changeset="49270325" uid="1431482" user="JonOrchard"/>
  <node id="262718920" lat="52.8798049" lon="-0.9209458" version="7" timestamp="2024-01-09T22:00:04Z" changeset="146082190" uid="84681" user="SK53"/>
  <node id="324399912" lat="52.8918717" lon="-0.9563703" version="9" timestamp="2014-10-02T15:53:06Z" changeset="25813437" uid="1431482" user="JonOrchard"/>
  <node id="4200613069" lat="52.9025048" lon="-0.9264468" version="1" timestamp="2016-05-22T18:23:48Z" changeset="39492928" uid="207845" user="will_p"/>
  <node id="4201190920" lat="52.9154735" lon="-0.8974957" version="1" timestamp="2016-05-22T23:43:26Z" changeset="39498263" uid="207845" user="will_p"/>
  <node id="5538225580" lat="52.9145638" lon="-0.9351817" version="1" timestamp="2018-04-08T16:15:47Z" changeset="57916240" uid="84681" user="SK53"/>
  <node id="5538225595" lat="52.9145008" lon="-0.9350031" version="1" timestamp="2018-04-08T16:15:47Z" changeset="57916240" uid="84681" user="SK53"/>
  <node id="10267901697" lat="52.8742826" lon="-0.9036288" version="1" timestamp="2022-12-16T15:45:52Z" changeset="130161644" uid="24119" user="Mauls"/>
  <way id="19797938" version="40" timestamp="2022-12-16T15:45:52Z" changeset="130161644" uid="24119" user="Mauls">
    <nd ref="10267901697"/>
    <nd ref="463078366"/>
    <nd ref="262718912"/>
    <nd ref="4897515729"/>
    <nd ref="4723024969"/>
    <nd ref="4916307868"/>
    <nd ref="8553661678"/>
    <nd ref="8145074702"/>
    <nd ref="262718913"/>
    <nd ref="4897538353"/>
    <nd ref="3998015383"/>
    <nd ref="4897541683"/>
    <nd ref="262718914"/>
    <nd ref="4897541690"/>
    <nd ref="3998015385"/>
    <nd ref="3998015384"/>
    <nd ref="4897541696"/>
    <nd ref="3998015386"/>
    <nd ref="262718915"/>
    <nd ref="262718916"/>
    <nd ref="3998015387"/>
    <nd ref="262718917"/>
    <nd ref="3998015388"/>
    <nd ref="3998015389"/>
    <nd ref="262718918"/>
    <nd ref="3998015390"/>
    <nd ref="262718919"/>
    <nd ref="4723024957"/>
    <nd ref="2331594689"/>
    <nd ref="4897548774"/>
    <nd ref="262718920"/>
    <tag k="highway" v="tertiary"/>
    <tag k="name" v="Colston Lane"/>
    <tag k="source:name" v="OS OpenData StreetView"/>
  </way>
  <way id="19797989" version="16" timestamp="2024-01-19T19:32:09Z" changeset="146455440" uid="242345" user="confusedbuffalo">
    <nd ref="4200613069"/>
    <nd ref="4200613067"/>
    <nd ref="2388355631"/>
    <nd ref="206294902"/>
    <nd ref="206294903"/>
    <nd ref="2388355629"/>
    <nd ref="206294904"/>
    <nd ref="1576008336"/>
    <nd ref="206294907"/>
    <nd ref="5540189102"/>
    <nd ref="2388355627"/>
    <nd ref="206294908"/>
    <nd ref="206294909"/>
    <nd ref="206297813"/>
    <nd ref="206297814"/>
    <nd ref="206297815"/>
    <nd ref="4200613442"/>
    <nd ref="4200613452"/>
    <nd ref="206297816"/>
    <nd ref="4200613457"/>
    <nd ref="206297817"/>
    <nd ref="4200613463"/>
    <nd ref="206297818"/>
    <nd ref="4200613482"/>
    <nd ref="206297819"/>
    <nd ref="206297820"/>
    <nd ref="4200613493"/>
    <nd ref="206297821"/>
    <nd ref="206297822"/>
    <nd ref="206297824"/>
    <nd ref="206297825"/>
    <nd ref="206297827"/>
    <nd ref="206297828"/>
    <nd ref="5538284663"/>
    <nd ref="206297829"/>
    <nd ref="206297830"/>
    <nd ref="206297831"/>
    <nd ref="4200491318"/>
    <nd ref="206297832"/>
    <tag k="highway" v="tertiary"/>
    <tag k="maxspeed" v="60 mph"/>
    <tag k="maxspeed:type" v="GB:nsl_single"/>
    <tag k="name" v="Cropwell Road"/>
    <tag k="source:name" v="OS OpenData StreetView"/>
  </way>
  <way id="23769926" version="34" timestamp="2024-01-19T19:32:09Z" changeset="146455440" uid="242345" user="confusedbuffalo">
    <nd ref="4200613058"/>
    <nd ref="257537130"/>
    <nd ref="1119500785"/>
    <nd ref="257537131"/>
    <nd ref="257537132"/>
    <nd ref="4200935422"/>
    <nd ref="1309399039"/>
    <nd ref="257537134"/>
    <nd ref="257537135"/>
    <nd ref="257537136"/>
    <nd ref="508504528"/>
    <nd ref="4204538842"/>
    <nd ref="257537137"/>
    <nd ref="257537138"/>
    <nd ref="1309399374"/>
    <nd ref="3012931063"/>
    <nd ref="2388473608"/>
    <nd ref="4200935418"/>
    <nd ref="1309398989"/>
    <nd ref="4200935415"/>
    <nd ref="257537139"/>
    <nd ref="4221699614"/>
    <nd ref="257537140"/>
    <nd ref="257537141"/>
    <nd ref="508504533"/>
    <nd ref="4200935410"/>
    <nd ref="257537142"/>
    <nd ref="4200935406"/>
    <nd ref="4200935405"/>
    <nd ref="257537336"/>
    <nd ref="4200935402"/>
    <nd ref="1309409444"/>
    <nd ref="2388371160"/>
    <nd ref="2388524610"/>
    <nd ref="257537337"/>
    <nd ref="257537338"/>
    <nd ref="508504547"/>
    <nd ref="4200935399"/>
    <nd ref="4200935398"/>
    <nd ref="508504550"/>
    <nd ref="4897410990"/>
    <nd ref="257537339"/>
    <nd ref="3007169023"/>
    <nd ref="2388453852"/>
    <nd ref="8250780952"/>
    <nd ref="2388369692"/>
    <nd ref="508504553"/>
    <nd ref="2388545009"/>
    <nd ref="6453548846"/>
    <nd ref="508504556"/>
    <nd ref="3007169091"/>
    <nd ref="257537340"/>
    <nd ref="4897410989"/>
    <nd ref="6453548832"/>
    <nd ref="2388373586"/>
    <nd ref="257537341"/>
    <tag k="cycleway:both" v="no"/>
    <tag k="highway" v="tertiary"/>
    <tag k="maxspeed" v="60 mph"/>
    <tag k="maxspeed:type" v="GB:nsl_single"/>
    <tag k="name" v="Harby Road"/>
    <tag k="source" v="gps"/>
    <tag k="source:name" v="OS OpenData StreetView"/>
  </way>
  <way id="29434550" version="12" timestamp="2024-02-20T12:06:34Z" changeset="147689434" uid="1431482" user="JonOrchard">
    <nd ref="324399912"/>
    <nd ref="11645339928"/>
    <nd ref="11645339929"/>
    <nd ref="11645339930"/>
    <nd ref="11645339931"/>
    <nd ref="324399917"/>
    <nd ref="11645339932"/>
    <nd ref="11645339933"/>
    <nd ref="324399918"/>
    <nd ref="11645339934"/>
    <nd ref="749059183"/>
    <nd ref="11645339935"/>
    <nd ref="1576008498"/>
    <nd ref="11645339936"/>
    <nd ref="11645339937"/>
    <nd ref="324399919"/>
    <nd ref="4423655945"/>
    <nd ref="11645339938"/>
    <nd ref="11645339939"/>
    <nd ref="324399920"/>
    <nd ref="11645339940"/>
    <nd ref="11645339942"/>
    <nd ref="11645339941"/>
    <nd ref="1576008514"/>
    <nd ref="11645339943"/>
    <nd ref="324399921"/>
    <nd ref="11645339944"/>
    <nd ref="1576008528"/>
    <nd ref="11645339945"/>
    <nd ref="11645339946"/>
    <nd ref="324399922"/>
    <nd ref="11645339948"/>
    <nd ref="11645339947"/>
    <nd ref="324399923"/>
    <nd ref="11645339949"/>
    <nd ref="1576008609"/>
    <nd ref="11626678109"/>
    <nd ref="324399924"/>
    <nd ref="11626678110"/>
    <nd ref="1576008629"/>
    <nd ref="11645339950"/>
    <nd ref="4423651823"/>
    <nd ref="4423651824"/>
    <nd ref="11645339951"/>
    <nd ref="324399925"/>
    <nd ref="4423651809"/>
    <nd ref="4423651825"/>
    <nd ref="324399926"/>
    <nd ref="11645339952"/>
    <nd ref="4423651826"/>
    <nd ref="4423655914"/>
    <nd ref="324399927"/>
    <nd ref="4423651827"/>
    <nd ref="324399928"/>
    <nd ref="4423651828"/>
    <nd ref="11645339953"/>
    <nd ref="324399929"/>
    <nd ref="11645339954"/>
    <nd ref="4423651829"/>
    <nd ref="11645339957"/>
    <nd ref="4423651830"/>
    <nd ref="4423651831"/>
    <nd ref="11645339961"/>
    <nd ref="324399930"/>
    <nd ref="4423651832"/>
    <nd ref="11645339964"/>
    <nd ref="1119506095"/>
    <nd ref="4423651833"/>
    <nd ref="4200613061"/>
    <nd ref="7531619201"/>
    <nd ref="4200613062"/>
    <nd ref="1576008799"/>
    <nd ref="1576008336"/>
    <tag k="highway" v="unclassified"/>
    <tag k="name" v="Langar Lane"/>
    <tag k="source" v="npe"/>
    <tag k="source:name" v="OS OpenData StreetView"/>
  </way>
  <way id="35449011" version="10" timestamp="2016-05-22T18:23:58Z" changeset="39492928" uid="207845" user="will_p">
    <nd ref="206294887"/>
    <nd ref="1149323631"/>
    <nd ref="4200613509"/>
    <nd ref="415955438"/>
    <nd ref="415805390"/>
    <nd ref="4200613506"/>
    <nd ref="415805391"/>
    <nd ref="4200613505"/>
    <nd ref="4200613503"/>
    <nd ref="415955511"/>
    <nd ref="4200613494"/>
    <nd ref="415805392"/>
    <nd ref="415805393"/>
    <nd ref="4200613491"/>
    <nd ref="4200613490"/>
    <nd ref="4200613489"/>
    <nd ref="415805394"/>
    <tag k="highway" v="residential"/>
    <tag k="name" v="Barnstone Road"/>
    <tag k="source" v="GPS"/>
  </way>
  <way id="35449013" version="18" timestamp="2021-12-12T13:24:57Z" changeset="114846255" uid="2295875" user="cb44">
    <nd ref="4201190917"/>
    <nd ref="4001420342"/>
    <nd ref="415805414"/>
    <nd ref="4201190915"/>
    <nd ref="415805415"/>
    <nd ref="415805416"/>
    <nd ref="8730374826"/>
    <nd ref="4001420341"/>
    <nd ref="415805417"/>
    <nd ref="4001420340"/>
    <nd ref="415805418"/>
    <nd ref="4201190908"/>
    <nd ref="415805419"/>
    <nd ref="1149323532"/>
    <nd ref="9332009758"/>
    <nd ref="1149323588"/>
    <nd ref="4001420338"/>
    <nd ref="4001420337"/>
    <nd ref="415805420"/>
    <nd ref="1149323574"/>
    <nd ref="415805421"/>
    <nd ref="4201189182"/>
    <nd ref="4201189180"/>
    <nd ref="415805422"/>
    <nd ref="4001420336"/>
    <nd ref="415805423"/>
    <nd ref="462969669"/>
    <nd ref="415805424"/>
    <nd ref="462969705"/>
    <nd ref="4201189147"/>
    <nd ref="4201189146"/>
    <nd ref="415805425"/>
    <nd ref="4001420332"/>
    <nd ref="4001420333"/>
    <nd ref="415805426"/>
    <nd ref="4001420331"/>
    <nd ref="415805427"/>
    <nd ref="4001420330"/>
    <nd ref="415805428"/>
    <nd ref="4001420329"/>
    <nd ref="4001420328"/>
    <nd ref="4001420327"/>
    <nd ref="415805430"/>
    <tag k="highway" v="tertiary"/>
    <tag k="maxspeed" v="30 mph"/>
    <tag k="name" v="Main Road"/>
    <tag k="source" v="GPS"/>
  </way>
  <way id="35468078" version="2" timestamp="2016-05-22T18:23:59Z" changeset="39492928" uid="207845" user="will_p">
    <nd ref="415955299"/>
    <nd ref="415955298"/>
    <nd ref="4200613446"/>
    <nd ref="4200613445"/>
    <nd ref="415955405"/>
    <nd ref="4200613451"/>
    <nd ref="4200613453"/>
    <nd ref="4200613454"/>
    <nd ref="415955404"/>
    <nd ref="4200613458"/>
    <nd ref="415955255"/>
    <nd ref="415805396"/>
    <tag k="highway" v="residential"/>
    <tag k="name" v="Earl Howe Crescent"/>
    <tag k="source" v="survey"/>
  </way>
  <way id="35468105" version="5" timestamp="2024-01-21T14:55:53Z" changeset="146515984" uid="84681" user="SK53">
    <nd ref="1149323671"/>
    <nd ref="11536961151"/>
    <nd ref="1149323618"/>
    <nd ref="415955437"/>
    <nd ref="4200613507"/>
    <nd ref="4200613508"/>
    <nd ref="2034597181"/>
    <nd ref="415955438"/>
    <tag k="alt_name" v="Butlers Field"/>
    <tag k="highway" v="residential"/>
    <tag k="name" v="Butler's Field"/>
    <tag k="source" v="survey"/>
  </way>
  <way id="35468118" version="4" timestamp="2016-05-22T18:23:58Z" changeset="39492928" uid="207845" user="will_p">
    <nd ref="1149323646"/>
    <nd ref="1149323620"/>
    <nd ref="1149323529"/>
    <nd ref="4200613479"/>
    <nd ref="1149323537"/>
    <nd ref="4200613476"/>
    <nd ref="4200613480"/>
    <nd ref="1149323582"/>
    <nd ref="415955510"/>
    <nd ref="4200613484"/>
    <nd ref="2034597182"/>
    <nd ref="415955511"/>
    <tag k="highway" v="residential"/>
    <tag k="name" v="Belvoir Crescent"/>
    <tag k="source" v="survey"/>
  </way>
  <way id="35468128" version="3" timestamp="2016-05-22T18:23:59Z" changeset="39492928" uid="207845" user="will_p">
    <nd ref="508504572"/>
    <nd ref="508504574"/>
    <nd ref="415955640"/>
    <nd ref="4200613488"/>
    <nd ref="415805394"/>
    <tag k="highway" v="residential"/>
    <tag k="name" v="Church Lane"/>
    <tag k="source" v="GPS"/>
    <tag k="source:name" v="survey"/>
  </way>
  <way id="38943806" version="4" timestamp="2016-05-22T23:43:31Z" changeset="39498263" uid="207845" user="will_p">
    <nd ref="462965546"/>
    <nd ref="4201189135"/>
    <nd ref="462965555"/>
    <nd ref="462965557"/>
    <nd ref="462969643"/>
    <nd ref="462969646"/>
    <nd ref="4201189161"/>
    <nd ref="415805422"/>
    <tag k="highway" v="residential"/>
    <tag k="name" v="Works Lane"/>
  </way>
  <way id="38944472" version="4" timestamp="2016-05-22T23:43:30Z" changeset="39498263" uid="207845" user="will_p">
    <nd ref="462969669"/>
    <nd ref="4201189148"/>
    <nd ref="462969672"/>
    <nd ref="1149323580"/>
    <nd ref="1149323639"/>
    <nd ref="4001420334"/>
    <nd ref="1149323554"/>
    <nd ref="4201189141"/>
    <nd ref="1149323654"/>
    <nd ref="4201189140"/>
    <nd ref="1149323683"/>
    <nd ref="1149323548"/>
    <nd ref="4201189138"/>
    <nd ref="1149323591"/>
    <nd ref="1149323623"/>
    <nd ref="4201189137"/>
    <nd ref="1149323592"/>
    <nd ref="1149323587"/>
    <nd ref="1149323670"/>
    <nd ref="4201189139"/>
    <nd ref="1149323675"/>
    <nd ref="1149323543"/>
    <nd ref="1149323596"/>
    <nd ref="4001420335"/>
    <nd ref="1149323531"/>
    <nd ref="1149323593"/>
    <nd ref="1149323547"/>
    <nd ref="1149323545"/>
    <nd ref="1149323580"/>
    <tag k="highway" v="residential"/>
    <tag k="name" v="Park Road"/>
    <tag k="note" v="FIXME - longer than this"/>
  </way>
  <way id="41523703" version="8" timestamp="2021-12-06T13:29:59Z" changeset="114619238" uid="1431482" user="JonOrchard">
    <nd ref="415972090"/>
    <nd ref="206294887"/>
    <nd ref="4001396005"/>
    <nd ref="206294888"/>
    <nd ref="4200613510"/>
    <nd ref="4001396006"/>
    <nd ref="206294889"/>
    <nd ref="4001396007"/>
    <nd ref="206294890"/>
    <nd ref="889541919"/>
    <nd ref="4001396008"/>
    <nd ref="9315467145"/>
    <nd ref="206294891"/>
    <nd ref="206294893"/>
    <nd ref="206294894"/>
    <nd ref="4001396009"/>
    <nd ref="206294895"/>
    <nd ref="4001396011"/>
    <nd ref="4001396010"/>
    <nd ref="4001396012"/>
    <nd ref="206294896"/>
    <tag k="highway" v="tertiary"/>
    <tag k="maxspeed" v="30 mph"/>
    <tag k="name" v="Musters Road"/>
    <tag k="source:name" v="OS OpenData StreetView"/>
  </way>
  <way id="41524609" version="4" timestamp="2024-01-09T21:50:48Z" changeset="146081970" uid="84681" user="SK53">
    <nd ref="415805394"/>
    <nd ref="4200613487"/>
    <nd ref="4200613485"/>
    <nd ref="4200613483"/>
    <nd ref="415805395"/>
    <nd ref="415805396"/>
    <nd ref="415805397"/>
    <nd ref="415955299"/>
    <nd ref="415805398"/>
    <nd ref="415805399"/>
    <nd ref="11504359018"/>
    <nd ref="415805400"/>
    <nd ref="4200613416"/>
    <nd ref="4200613403"/>
    <nd ref="508504495"/>
    <tag k="highway" v="residential"/>
    <tag k="name" v="Main Street"/>
    <tag k="source" v="GPS"/>
    <tag k="source:name" v="NaPTAN"/>
  </way>
  <way id="96657321" version="12" timestamp="2025-09-30T16:42:05Z" changeset="172669404" uid="8241440" user="jbcharron">
    <nd ref="1119500785"/>
    <nd ref="8367342397"/>
    <nd ref="6908379179"/>
    <nd ref="6908393085"/>
    <nd ref="6357419664"/>
    <nd ref="4200613059"/>
    <nd ref="4221699700"/>
    <nd ref="1119504227"/>
    <nd ref="1119500833"/>
    <nd ref="1119500837"/>
    <nd ref="4200613060"/>
    <nd ref="1149328195"/>
    <nd ref="1149328207"/>
    <nd ref="1149328200"/>
    <nd ref="4221699702"/>
    <nd ref="1262305564"/>
    <nd ref="1262305568"/>
    <nd ref="330524875"/>
    <nd ref="4200935428"/>
    <nd ref="462965519"/>
    <tag k="highway" v="unclassified"/>
    <tag k="lanes" v="1"/>
    <tag k="maxspeed" v="30 mph"/>
    <tag k="name" v="Coach Gap Lane"/>
    <tag k="traffic_calming" v="chicane"/>
  </way>
  <way id="96755271" version="8" timestamp="2023-09-09T12:00:30Z" changeset="141021140" uid="16424844" user="ChrisMLane">
    <nd ref="257537341"/>
    <nd ref="257537342"/>
    <nd ref="2388372656"/>
    <nd ref="257537343"/>
    <nd ref="4897410988"/>
    <nd ref="888544315"/>
    <nd ref="4897410987"/>
    <nd ref="888544316"/>
    <nd ref="4897410986"/>
    <nd ref="257537344"/>
    <nd ref="7354265059"/>
    <nd ref="888544317"/>
    <nd ref="7354265061"/>
    <nd ref="888544318"/>
    <nd ref="4897410985"/>
    <nd ref="257537345"/>
    <nd ref="4897410984"/>
    <nd ref="4897446222"/>
    <nd ref="257537346"/>
    <nd ref="4897410983"/>
    <nd ref="4897410982"/>
    <nd ref="257537347"/>
    <nd ref="6760956556"/>
    <nd ref="469174986"/>
    <tag k="cycleway:both" v="no"/>
    <tag k="highway" v="tertiary"/>
    <tag k="name" v="Langar Lane"/>
    <tag k="source" v="gps"/>
    <tag k="source:name" v="OS OpenData StreetView"/>
  </way>
  <way id="99367389" version="2" timestamp="2016-05-22T23:43:31Z" changeset="39498263" uid="207845" user="will_p">
    <nd ref="1149323595"/>
    <nd ref="4201190890"/>
    <nd ref="1149323532"/>
    <tag k="designation" v="public_footpath"/>
    <tag k="highway" v="residential"/>
    <tag k="name" v="The Brambles"/>
    <tag k="source" v="bing;survey"/>
    <tag k="source:name" v="survey"/>
  </way>
  <way id="99367391" version="2" timestamp="2016-05-22T23:43:30Z" changeset="39498263" uid="207845" user="will_p">
    <nd ref="4201189185"/>
    <nd ref="4201189184"/>
    <nd ref="4201189183"/>
    <nd ref="4201189186"/>
    <nd ref="1149323630"/>
    <nd ref="1149323556"/>
    <nd ref="1149323672"/>
    <nd ref="1149323584"/>
    <nd ref="1149323608"/>
    <nd ref="1149323655"/>
    <nd ref="1149323658"/>
    <nd ref="1149323682"/>
    <nd ref="1149323540"/>
    <nd ref="1149323588"/>
    <tag k="highway" v="residential"/>
    <tag k="name" v="Orchard Close"/>
    <tag k="source" v="bing"/>
    <tag k="source:name" v="OS OpenData Locator"/>
  </way>
  <way id="99367392" version="2" timestamp="2016-05-22T18:23:58Z" changeset="39492928" uid="207845" user="will_p">
    <nd ref="1149323542"/>
    <nd ref="1149323620"/>
    <tag k="highway" v="residential"/>
    <tag k="name" v="Belvoir Crescent"/>
    <tag k="source" v="survey"/>
  </way>
  <way id="99367397" version="3" timestamp="2016-05-22T18:23:58Z" changeset="39492928" uid="207845" user="will_p">
    <nd ref="415955437"/>
    <nd ref="1149323652"/>
    <nd ref="1149323685"/>
    <nd ref="1149323689"/>
    <nd ref="1149323649"/>
    <tag k="alt_name" v="Butlers Field"/>
    <tag k="highway" v="residential"/>
    <tag k="name" v="Butler's Field"/>
    <tag k="source" v="survey"/>
  </way>
  <way id="99367398" version="2" timestamp="2024-01-21T14:55:53Z" changeset="146515984" uid="84681" user="SK53">
    <nd ref="1149323613"/>
    <nd ref="1149323669"/>
    <nd ref="11536961111"/>
    <nd ref="1149323673"/>
    <nd ref="1149323688"/>
    <tag k="fixme" v="resurvey needed, conjectural stub"/>
    <tag k="highway" v="residential"/>
    <tag k="name" v="Willow Lane"/>
    <tag k="source" v="OS OpenData Streetview"/>
    <tag k="source:name" v="OS OpenData Locator"/>
  </way>
  <way id="110558404" version="12" timestamp="2023-03-07T20:23:33Z" changeset="133417754" uid="2969887" user="eastender">
    <nd ref="415805430"/>
    <nd ref="4201189142"/>
    <nd ref="4001418482"/>
    <nd ref="4001418481"/>
    <nd ref="415805431"/>
    <nd ref="4001408634"/>
    <nd ref="4001408632"/>
    <nd ref="4001401677"/>
    <nd ref="415805432"/>
    <nd ref="4001401675"/>
    <nd ref="4001401676"/>
    <nd ref="415805433"/>
    <nd ref="4001401674"/>
    <nd ref="415805434"/>
    <tag k="alt_name" v="Langar Road"/>
    <tag k="highway" v="tertiary"/>
    <tag k="maxspeed" v="40 mph"/>
    <tag k="name" v="Barnstone Lane"/>
    <tag k="not:name" v="Main Road"/>
    <tag k="postal_code" v="NG13 9HH"/>
    <tag k="source:alt_name" v="Business addresses"/>
    <tag k="source:name" v="survey"/>
  </way>
  <way id="192925928" version="13" timestamp="2024-02-19T14:03:24Z" changeset="147651896" uid="1431482" user="JonOrchard">
    <nd ref="262718920"/>
    <nd ref="3998015391"/>
    <nd ref="11504434455"/>
    <nd ref="262718921"/>
    <nd ref="3998012117"/>
    <nd ref="262718922"/>
    <nd ref="262718923"/>
    <nd ref="3998012118"/>
    <nd ref="262718924"/>
    <nd ref="4897551049"/>
    <nd ref="3998012119"/>
    <nd ref="262718925"/>
    <nd ref="262718926"/>
    <nd ref="2331594716"/>
    <nd ref="3998012121"/>
    <nd ref="262718927"/>
    <nd ref="3998012122"/>
    <nd ref="3998012123"/>
    <nd ref="262718928"/>
    <nd ref="262718929"/>
    <nd ref="262718930"/>
    <nd ref="3998012124"/>
    <nd ref="262718931"/>
    <nd ref="3998012126"/>
    <nd ref="3998012125"/>
    <nd ref="262718932"/>
    <nd ref="262718933"/>
    <nd ref="3998012128"/>
    <nd ref="3998012127"/>
    <nd ref="262718934"/>
    <nd ref="3107442512"/>
    <nd ref="3998012129"/>
    <nd ref="262718935"/>
    <nd ref="262718937"/>
    <nd ref="262718938"/>
    <nd ref="3998012130"/>
    <nd ref="262718939"/>
    <nd ref="3998012131"/>
    <nd ref="3107442510"/>
    <nd ref="3107442511"/>
    <nd ref="262718940"/>
    <nd ref="7794483257"/>
    <nd ref="262718941"/>
    <nd ref="7794483256"/>
    <nd ref="262718942"/>
    <nd ref="3998012132"/>
    <nd ref="262718943"/>
    <nd ref="3998012133"/>
    <nd ref="3107442509"/>
    <nd ref="262718944"/>
    <nd ref="7794483255"/>
    <nd ref="3107442508"/>
    <nd ref="262718945"/>
    <nd ref="7794483254"/>
    <nd ref="749080721"/>
    <nd ref="262718946"/>
    <nd ref="262718947"/>
    <nd ref="4160146329"/>
    <nd ref="324399912"/>
    <nd ref="922333263"/>
    <nd ref="4428582740"/>
    <nd ref="262718948"/>
    <nd ref="4160146391"/>
    <tag k="highway" v="tertiary"/>
    <tag k="name" v="Harby Lane"/>
    <tag k="source:name" v="OS OpenData StreetView"/>
  </way>
  <way id="220748007" version="9" timestamp="2025-08-08T23:09:26Z" changeset="170177807" uid="8857" user="philipcullen">
    <nd ref="2298387806"/>
    <nd ref="2298387829"/>
    <nd ref="2298387824"/>
    <nd ref="415955698"/>
    <nd ref="2298387763"/>
    <nd ref="2298387780"/>
    <nd ref="2298387773"/>
    <nd ref="2298387783"/>
    <nd ref="2298387822"/>
    <nd ref="2298387789"/>
    <nd ref="2298387777"/>
    <nd ref="2298387800"/>
    <nd ref="2298387775"/>
    <nd ref="2298387675"/>
    <nd ref="2298387798"/>
    <nd ref="2298387787"/>
    <nd ref="2298387740"/>
    <nd ref="2298387826"/>
    <nd ref="2298387806"/>
    <tag k="HE_ref" v="1264793"/>
    <tag k="addr:city" v="Nottingham"/>
    <tag k="addr:country" v="GB"/>
    <tag k="addr:postcode" v="NG13 9HG"/>
    <tag k="addr:suburb" v="Langar"/>
    <tag k="amenity" v="place_of_worship"/>
    <tag k="building" v="church"/>
    <tag k="denomination" v="anglican"/>
    <tag k="listed_status" v="Grade I"/>
    <tag k="name" v="St Andrew's Church"/>
    <tag k="ref:GB:uprn" v="3040057715"/>
    <tag k="ref:dove" v="12732"/>
    <tag k="religion" v="christian"/>
    <tag k="source:listed_status" v="Historic England"/>
    <tag k="wikidata" v="Q7586830"/>
  </way>
  <way id="230316720" version="3" timestamp="2025-08-08T23:09:26Z" changeset="170177807" uid="8857" user="philipcullen">
    <nd ref="2388353229"/>
    <nd ref="2388353230"/>
    <nd ref="2388353231"/>
    <nd ref="2388353232"/>
    <nd ref="2388353233"/>
    <nd ref="2388353234"/>
    <nd ref="2388353229"/>
    <tag k="building" v="yes"/>
    <tag k="name" v="Lodge"/>
    <tag k="ref:GB:uprn" v="3040043603"/>
  </way>
  <way id="230316939" version="2" timestamp="2016-09-29T13:17:00Z" changeset="42518590" uid="1431482" user="JonOrchard">
    <nd ref="2388355606"/>
    <nd ref="2388355609"/>
    <nd ref="2388355611"/>
    <nd ref="2388355613"/>
    <nd ref="2388355615"/>
    <nd ref="2388355617"/>
    <nd ref="2388355606"/>
    <tag k="building" v="yes"/>
    <tag k="name" v="Bridgehouse"/>
  </way>
  <way id="230316940" version="1" timestamp="2013-07-18T10:54:05Z" changeset="16998217" uid="1431482" user="JonOrchard">
    <nd ref="2388355619"/>
    <nd ref="2388355621"/>
    <nd ref="2388355623"/>
    <nd ref="2388355625"/>
    <nd ref="2388355619"/>
    <tag k="building" v="yes"/>
    <tag k="name" v="Bridgehouse"/>
  </way>
  <way id="230318236" version="7" timestamp="2025-02-15T20:25:52Z" changeset="162549870" uid="95856" user="⇄ john paul jones &amp; gringo">
    <nd ref="2388364692"/>
    <nd ref="2388364693"/>
    <nd ref="2388364694"/>
    <nd ref="2388364695"/>
    <nd ref="2388364696"/>
    <nd ref="2388364697"/>
    <nd ref="2388364698"/>
    <nd ref="2388364699"/>
    <nd ref="2388364700"/>
    <nd ref="2388364701"/>
    <nd ref="2388364692"/>
    <tag k="addr:city" v="Nottingham"/>
    <tag k="addr:country" v="GB"/>
    <tag k="addr:housename" v="Control Tower"/>
    <tag k="addr:place" v="Langar Airfield"/>
    <tag k="addr:postcode" v="NG13 9HY"/>
    <tag k="addr:suburb" v="Langar"/>
    <tag k="building" v="control_tower"/>
    <tag k="name" v="Skydive Langar"/>
    <tag k="source:addr" v="website"/>
    <tag k="sport" v="skydiving"/>
    <tag k="website" v="https://www.skydivelangar.co.uk/"/>
  </way>
  <way id="230318687" version="4" timestamp="2025-02-15T20:25:52Z" changeset="162549870" uid="95856" user="⇄ john paul jones &amp; gringo">
    <nd ref="2388369039"/>
    <nd ref="2388369040"/>
    <nd ref="2388369041"/>
    <nd ref="2388369042"/>
    <nd ref="2388369039"/>
    <tag k="addr:city" v="Nottingham"/>
    <tag k="addr:country" v="GB"/>
    <tag k="addr:place" v="Langar Industrial Estate"/>
    <tag k="addr:postcode" v="NG13 9HY"/>
    <tag k="addr:street" v="Harby Road"/>
    <tag k="addr:suburb" v="Langar"/>
    <tag k="addr:unit" v="Building 83"/>
    <tag k="building" v="yes"/>
    <tag k="name" v="Mainline"/>
    <tag k="source:addr" v="Companies House Registered Companies"/>
    <tag k="website" v="https://www.mainlinemouldings.com/"/>
  </way>
  <way id="230337561" version="2" timestamp="2016-09-12T11:01:34Z" changeset="42097593" uid="1431482" user="JonOrchard">
    <nd ref="2388523331"/>
    <nd ref="2388523332"/>
    <nd ref="2388523333"/>
    <nd ref="2388523334"/>
    <nd ref="2388523331"/>
    <tag k="building" v="yes"/>
    <tag k="name" v="Harwood Vale Lodge"/>
  </way>
  <way id="230337563" version="4" timestamp="2025-02-15T20:25:52Z" changeset="162549870" uid="95856" user="⇄ john paul jones &amp; gringo">
    <nd ref="2388523339"/>
    <nd ref="2388523340"/>
    <nd ref="2388523341"/>
    <nd ref="2388523342"/>
    <nd ref="2388523343"/>
    <nd ref="2388523344"/>
    <nd ref="2388523339"/>
    <tag k="addr:city" v="Nottingham"/>
    <tag k="addr:country" v="GB"/>
    <tag k="addr:postcode" v="NG13 9HQ"/>
    <tag k="addr:street" v="Harby Road"/>
    <tag k="addr:suburb" v="Langar"/>
    <tag k="building" v="house"/>
    <tag k="name" v="Little Langar Lodge"/>
    <tag k="source:addr" v="website"/>
    <tag k="tourism" v="guest_house"/>
    <tag k="website" v="http://www.littlelangarlodge.com/"/>
  </way>
  <way id="230340239" version="2" timestamp="2016-05-22T21:46:06Z" changeset="39497091" uid="207845" user="will_p">
    <nd ref="2388540585"/>
    <nd ref="2388540586"/>
    <nd ref="2388540587"/>
    <nd ref="2388540588"/>
    <nd ref="2388540589"/>
    <nd ref="2388540590"/>
    <nd ref="2388540591"/>
    <nd ref="2388540592"/>
    <nd ref="2388540593"/>
    <nd ref="2388540594"/>
    <nd ref="2388540585"/>
    <tag k="building" v="industrial"/>
    <tag k="name" v="I.M.P. (UK) Ltd"/>
  </way>
  <way id="230340241" version="4" timestamp="2025-02-15T20:25:52Z" changeset="162549870" uid="95856" user="⇄ john paul jones &amp; gringo">
    <nd ref="2388540603"/>
    <nd ref="2388540604"/>
    <nd ref="2388540605"/>
    <nd ref="2388540606"/>
    <nd ref="2388540607"/>
    <nd ref="2388540608"/>
    <nd ref="2388540609"/>
    <nd ref="2388540610"/>
    <nd ref="2388540611"/>
    <nd ref="2388540612"/>
    <nd ref="2388540603"/>
    <tag k="addr:city" v="Nottingham"/>
    <tag k="addr:country" v="GB"/>
    <tag k="addr:postcode" v="NG13 9HY"/>
    <tag k="addr:street" v="Harby Road"/>
    <tag k="addr:suburb" v="Langar"/>
    <tag k="building" v="industrial"/>
    <tag k="name" v="CDA Group"/>
    <tag k="source:addr" v="Companies House Registered Companies"/>
  </way>
  <way id="392136574" version="3" timestamp="2016-05-22T18:23:58Z" changeset="39492928" uid="207845" user="will_p">
    <nd ref="3954021499"/>
    <nd ref="3954021509"/>
    <nd ref="1149323649"/>
    <tag k="alt_name" v="Butlers Field"/>
    <tag k="highway" v="residential"/>
    <tag k="name" v="Butler's Field"/>
    <tag k="source" v="Bing"/>
  </way>
  <way id="392222885" version="1" timestamp="2016-01-19T09:25:29Z" changeset="36675066" uid="5541" user="Ian Haylock">
    <nd ref="1149323649"/>
    <nd ref="3954021484"/>
    <tag k="alt_name" v="Butlers Field"/>
    <tag k="fixme" v="resurvey needed, conjectural stub"/>
    <tag k="highway" v="residential"/>
    <tag k="name" v="Butler's Field"/>
    <tag k="source" v="Bing"/>
  </way>
  <way id="420080953" version="4" timestamp="2024-01-09T21:50:48Z" changeset="146081970" uid="84681" user="SK53">
    <nd ref="206294896"/>
    <nd ref="1149323688"/>
    <nd ref="206294899"/>
    <nd ref="11504359024"/>
    <nd ref="4434166392"/>
    <nd ref="508504495"/>
    <nd ref="4434165099"/>
    <nd ref="330525277"/>
    <nd ref="206294901"/>
    <nd ref="4200613069"/>
    <tag k="highway" v="tertiary"/>
    <tag k="maxspeed" v="30 mph"/>
    <tag k="name" v="Cropwell Road"/>
    <tag k="source:name" v="OS OpenData StreetView"/>
  </way>
  <way id="420080954" version="2" timestamp="2024-01-25T12:49:35Z" changeset="146672464" uid="508" user="Welshie">
    <nd ref="206294896"/>
    <nd ref="4001396013"/>
    <nd ref="4001400648"/>
    <nd ref="257537123"/>
    <nd ref="4001396015"/>
    <nd ref="4001396014"/>
    <nd ref="11549761510"/>
    <nd ref="257537124"/>
    <nd ref="4001396016"/>
    <nd ref="257537125"/>
    <nd ref="889541864"/>
    <nd ref="4001396017"/>
    <nd ref="4001396018"/>
    <nd ref="257537126"/>
    <nd ref="4200613063"/>
    <tag k="highway" v="tertiary"/>
    <tag k="maxspeed" v="30 mph"/>
    <tag k="name" v="Harby Road"/>
    <tag k="source" v="gps"/>
    <tag k="source:name" v="OS OpenData StreetView"/>
  </way>
  <way id="420080955" version="1" timestamp="2016-05-22T18:23:52Z" changeset="39492928" uid="207845" user="will_p">
    <nd ref="4200613063"/>
    <nd ref="257537127"/>
    <nd ref="4001396019"/>
    <nd ref="4001396020"/>
    <nd ref="257537128"/>
    <nd ref="4001396021"/>
    <nd ref="257537129"/>
    <nd ref="4200613058"/>
    <tag k="highway" v="tertiary"/>
    <tag k="maxspeed" v="50 mph"/>
    <tag k="name" v="Harby Road"/>
    <tag k="source" v="gps"/>
    <tag k="source:name" v="OS OpenData StreetView"/>
  </way>
  <way id="420080956" version="8" timestamp="2025-08-08T23:09:26Z" changeset="170177807" uid="8857" user="philipcullen">
    <nd ref="4200613439"/>
    <nd ref="4200613437"/>
    <nd ref="4200613434"/>
    <nd ref="4200613435"/>
    <nd ref="4200613427"/>
    <nd ref="4200613426"/>
    <nd ref="4200613425"/>
    <nd ref="415952961"/>
    <nd ref="4200613431"/>
    <nd ref="4200613441"/>
    <nd ref="4200613439"/>
    <tag k="HE_ref" v="1235976"/>
    <tag k="addr:city" v="Nottingham"/>
    <tag k="addr:country" v="GB"/>
    <tag k="addr:postcode" v="NG13 9HE"/>
    <tag k="addr:street" v="Main Street"/>
    <tag k="addr:suburb" v="Langar"/>
    <tag k="addr:village" v="Langar"/>
    <tag k="amenity" v="pub"/>
    <tag k="building" v="pub"/>
    <tag k="contact:instagram" v="https://www.instagram.com/unicornsheadlangar1/"/>
    <tag k="fhrs:id" v="1753840"/>
    <tag k="food" v="yes"/>
    <tag k="listed_status" v="Grade II"/>
    <tag k="name" v="Unicorn's Head"/>
    <tag k="opening_hours" v="Mo-Fr 12:00-23:00; Sa-Su 09:30-23:00"/>
    <tag k="outdoor_seating" v="yes"/>
    <tag k="phone" v="+44 1949 861604"/>
    <tag k="ref:GB:uprn" v="3040044472"/>
    <tag k="source" v="survey"/>
    <tag k="source:addr" v="FHRS Open Data"/>
    <tag k="source:listed_status" v="Historic England"/>
    <tag k="website" v="https://unicornsheadlangar.com/"/>
    <tag k="wikidata" v="Q26529251"/>
  </way>
  <way id="420140026" version="4" timestamp="2022-02-17T09:39:39Z" changeset="117511224" uid="5589" user="user_5589">
    <nd ref="415805434"/>
    <nd ref="415805435"/>
    <nd ref="4001396004"/>
    <nd ref="415805437"/>
    <nd ref="415972090"/>
    <tag k="highway" v="tertiary"/>
    <tag k="maxspeed" v="30 mph"/>
    <tag k="name" v="Barnstone Lane"/>
    <tag k="not:name" v="Main Road"/>
    <tag k="source:name" v="survey"/>
  </way>
  <way id="420140027" version="1" timestamp="2016-05-22T23:43:26Z" changeset="39498263" uid="207845" user="will_p">
    <nd ref="4201189127"/>
    <nd ref="4201189128"/>
    <nd ref="4001408629"/>
    <nd ref="4001408630"/>
    <nd ref="4201189127"/>
    <tag k="building" v="industrial"/>
    <tag k="name" v="Belvoir Bakery"/>
  </way>
  <way id="420140030" version="5" timestamp="2025-08-08T23:09:26Z" changeset="170177807" uid="8857" user="philipcullen">
    <nd ref="4201189160"/>
    <nd ref="4201189154"/>
    <nd ref="4201189156"/>
    <nd ref="4201189151"/>
    <nd ref="4201189155"/>
    <nd ref="4201189157"/>
    <nd ref="4201189158"/>
    <nd ref="4201189167"/>
    <nd ref="4201189163"/>
    <nd ref="4201189168"/>
    <nd ref="4201189166"/>
    <nd ref="4201189165"/>
    <nd ref="4201189162"/>
    <nd ref="4201189160"/>
    <tag k="addr:city" v="Nottingham"/>
    <tag k="addr:country" v="GB"/>
    <tag k="addr:postcode" v="NG13 9JF"/>
    <tag k="addr:suburb" v="Barnstone"/>
    <tag k="amenity" v="community_centre"/>
    <tag k="building" v="public"/>
    <tag k="community_centre" v="village_hall"/>
    <tag k="name" v="Langar cum Barnstone Village Hall"/>
    <tag k="ref:GB:uprn" v="3040054635"/>
    <tag k="source" v="survey"/>
  </way>
  <way id="420140031" version="1" timestamp="2016-05-22T23:43:27Z" changeset="39498263" uid="207845" user="will_p">
    <nd ref="415805413"/>
    <nd ref="4201190917"/>
    <tag k="bridge" v="yes"/>
    <tag k="highway" v="tertiary"/>
    <tag k="layer" v="1"/>
    <tag k="maxspeed" v="30 mph"/>
    <tag k="name" v="Main Road"/>
    <tag k="source" v="GPS"/>
  </way>
  <way id="420140032" version="1" timestamp="2016-05-22T23:43:27Z" changeset="39498263" uid="207845" user="will_p">
    <nd ref="415805411"/>
    <nd ref="415805412"/>
    <nd ref="415805413"/>
    <tag k="highway" v="tertiary"/>
    <tag k="maxspeed" v="30 mph"/>
    <tag k="name" v="Main Road"/>
    <tag k="source" v="GPS"/>
  </way>
  <way id="420140033" version="1" timestamp="2016-05-22T23:43:27Z" changeset="39498263" uid="207845" user="will_p">
    <nd ref="1149323569"/>
    <nd ref="1149323557"/>
    <nd ref="1149323574"/>
    <tag k="highway" v="residential"/>
    <tag k="name" v="Main Road"/>
    <tag k="source" v="bing"/>
  </way>
  <way id="420140034" version="2" timestamp="2024-01-19T19:32:09Z" changeset="146455440" uid="242345" user="confusedbuffalo">
    <nd ref="4201190920"/>
    <nd ref="4001420347"/>
    <nd ref="4001420344"/>
    <nd ref="4001420345"/>
    <nd ref="4001420346"/>
    <nd ref="415805410"/>
    <nd ref="4201190918"/>
    <nd ref="4001420343"/>
    <nd ref="415805411"/>
    <tag k="highway" v="tertiary"/>
    <tag k="maxspeed" v="60 mph"/>
    <tag k="maxspeed:type" v="GB:nsl_single"/>
    <tag k="name" v="Main Road"/>
    <tag k="source" v="GPS"/>
  </way>
  <way id="420140036" version="5" timestamp="2025-02-15T20:29:00Z" changeset="162549958" uid="95856" user="⇄ john paul jones &amp; gringo">
    <nd ref="4201190903"/>
    <nd ref="4201190904"/>
    <nd ref="4201190912"/>
    <nd ref="4201190911"/>
    <nd ref="4201190910"/>
    <nd ref="4201190909"/>
    <nd ref="2298503806"/>
    <nd ref="4201190905"/>
    <nd ref="4201190906"/>
    <nd ref="4201190903"/>
    <tag k="addr:city" v="Nottingham"/>
    <tag k="addr:country" v="GB"/>
    <tag k="addr:postcode" v="NG13 9JP"/>
    <tag k="addr:street" v="Main Road"/>
    <tag k="addr:suburb" v="Barnstone"/>
    <tag k="amenity" v="place_of_worship"/>
    <tag k="building" v="church"/>
    <tag k="denomination" v="anglican"/>
    <tag k="name" v="St Mary's Church"/>
    <tag k="religion" v="christian"/>
    <tag k="source" v="survey"/>
    <tag k="wikidata" v="Q7590151"/>
    <tag k="wikipedia" v="en:St Mary's Church, Barnstone"/>
  </way>
  <way id="422429519" version="3" timestamp="2023-04-06T15:36:19Z" changeset="134583280" uid="2295875" user="cb44">
    <nd ref="4221699699"/>
    <nd ref="4221699677"/>
    <nd ref="4221699687"/>
    <nd ref="4221699701"/>
    <nd ref="4221699699"/>
    <tag k="building" v="yes"/>
    <tag k="name" v="Burned Down"/>
    <tag k="note" v="Fire started on 21st of May 2020. Contained Chemicals"/>
    <tag k="ruins:building" v="yes"/>
  </way>
  <way id="443784310" version="1" timestamp="2016-09-22T13:15:58Z" changeset="42347479" uid="1431482" user="JonOrchard">
    <nd ref="4413216536"/>
    <nd ref="4413216537"/>
    <nd ref="4413216538"/>
    <nd ref="4413216539"/>
    <nd ref="4413216540"/>
    <nd ref="4413216541"/>
    <nd ref="4413216542"/>
    <nd ref="4413216543"/>
    <nd ref="4413216544"/>
    <nd ref="4413216545"/>
    <nd ref="4413216546"/>
    <nd ref="4413216547"/>
    <nd ref="4413216548"/>
    <nd ref="4413216549"/>
    <nd ref="4413216550"/>
    <nd ref="4413216551"/>
    <nd ref="4413216552"/>
    <nd ref="4413216553"/>
    <nd ref="4413216554"/>
    <nd ref="4413216555"/>
    <nd ref="4413216556"/>
    <nd ref="4413216557"/>
    <nd ref="4413216558"/>
    <nd ref="4413216559"/>
    <nd ref="4413216560"/>
    <nd ref="4413216561"/>
    <nd ref="4413216562"/>
    <nd ref="4413216563"/>
    <nd ref="4413216536"/>
    <tag k="building" v="residential"/>
    <tag k="name" v="Barnstone Lodge"/>
  </way>
  <way id="443784338" version="1" timestamp="2016-09-22T13:16:44Z" changeset="42347493" uid="1431482" user="JonOrchard">
    <nd ref="4413216814"/>
    <nd ref="4413216815"/>
    <nd ref="4413216816"/>
    <nd ref="4413216817"/>
    <nd ref="4413216814"/>
    <tag k="building" v="residential"/>
    <tag k="name" v="Lodge Cottages"/>
  </way>
  <way id="498304737" version="2" timestamp="2021-01-27T12:57:32Z" changeset="98231256" uid="1431482" user="JonOrchard">
    <nd ref="4897548770"/>
    <nd ref="4897548771"/>
    <nd ref="4897548772"/>
    <nd ref="4897548773"/>
    <nd ref="4897548770"/>
    <tag k="building" v="yes"/>
    <tag k="name" v="Ash Farm"/>
  </way>
  <way id="498305307" version="1" timestamp="2017-06-05T14:21:30Z" changeset="49272476" uid="1431482" user="JonOrchard">
    <nd ref="4897556923"/>
    <nd ref="4897556924"/>
    <nd ref="4897556925"/>
    <nd ref="4897556926"/>
    <nd ref="4897556927"/>
    <nd ref="4897556928"/>
    <nd ref="4897556923"/>
    <tag k="building" v="yes"/>
    <tag k="name" v="Langar Grange Cottages"/>
  </way>
  <way id="498305316" version="1" timestamp="2017-06-05T14:21:30Z" changeset="49272476" uid="1431482" user="JonOrchard">
    <nd ref="4897556951"/>
    <nd ref="4897556952"/>
    <nd ref="4897556953"/>
    <nd ref="4897556954"/>
    <nd ref="4897556951"/>
    <tag k="building" v="yes"/>
    <tag k="name" v="Glebe Farm"/>
  </way>
  <way id="498306160" version="2" timestamp="2019-07-24T08:52:35Z" changeset="72591145" uid="10126619" user="tishbh">
    <nd ref="4897565257"/>
    <nd ref="4897565258"/>
    <nd ref="4897565259"/>
    <nd ref="6643005068"/>
    <nd ref="4897565260"/>
    <nd ref="4897565257"/>
    <tag k="building" v="yes"/>
    <tag k="name" v="Hall Farm Cottage"/>
  </way>
  <way id="577801958" version="4" timestamp="2021-12-12T13:24:57Z" changeset="114846255" uid="2295875" user="cb44">
    <nd ref="5538225595"/>
    <nd ref="206294868"/>
    <nd ref="4001377073"/>
    <nd ref="4001366706"/>
    <nd ref="4001366707"/>
    <nd ref="206294869"/>
    <nd ref="4001377068"/>
    <nd ref="4001366708"/>
    <nd ref="4001377070"/>
    <nd ref="1262305675"/>
    <nd ref="206294870"/>
    <nd ref="4001366709"/>
    <nd ref="4001366710"/>
    <nd ref="206294871"/>
    <nd ref="206294872"/>
    <nd ref="7150477968"/>
    <nd ref="4001366711"/>
    <nd ref="206294873"/>
    <nd ref="206294874"/>
    <nd ref="4001366712"/>
    <nd ref="206294875"/>
    <nd ref="4001366714"/>
    <nd ref="206294876"/>
    <nd ref="4001366713"/>
    <nd ref="206294877"/>
    <nd ref="4001382610"/>
    <nd ref="206294878"/>
    <nd ref="206294880"/>
    <nd ref="4001382611"/>
    <nd ref="206294881"/>
    <nd ref="4001382612"/>
    <nd ref="206294882"/>
    <nd ref="4001382613"/>
    <nd ref="4001382614"/>
    <nd ref="206294883"/>
    <nd ref="4001390361"/>
    <nd ref="4001382615"/>
    <nd ref="4001396001"/>
    <nd ref="206294884"/>
    <nd ref="206294885"/>
    <nd ref="206294886"/>
    <nd ref="415972090"/>
    <tag k="highway" v="tertiary"/>
    <tag k="name" v="Bingham Road"/>
    <tag k="source:name" v="NaPTAN"/>
  </way>
  <way id="577801959" version="6" timestamp="2021-06-07T15:27:07Z" changeset="105981501" uid="3199858" user="Mateusz Konieczny - bot account">
    <nd ref="5538225580"/>
    <nd ref="5538225595"/>
    <tag k="bridge" v="yes"/>
    <tag k="bridge:name" v="Wiverton Smite Bridge"/>
    <tag k="highway" v="tertiary"/>
    <tag k="layer" v="1"/>
    <tag k="name" v="Bingham Road"/>
    <tag k="sidewalk" v="both"/>
    <tag k="source:name" v="NaPTAN"/>
  </way>
  <way id="1241655352" version="1" timestamp="2024-01-21T14:55:53Z" changeset="146515984" uid="84681" user="SK53">
    <nd ref="11536961148"/>
    <nd ref="1149323542"/>
    <nd ref="11536961149"/>
    <tag k="highway" v="residential"/>
    <tag k="name" v="Belvoir Crescent"/>
    <tag k="source" v="survey"/>
  </way>
  <way id="1241655353" version="1" timestamp="2024-01-21T14:55:53Z" changeset="146515984" uid="84681" user="SK53">
    <nd ref="1149323575"/>
    <nd ref="1149323671"/>
    <nd ref="11536961150"/>
    <tag k="alt_name" v="Butlers Field"/>
    <tag k="highway" v="residential"/>
    <tag k="name" v="Butler's Field"/>
    <tag k="source" v="survey"/>
  </way>

</osm>
