<?xml version="1.0" encoding="UTF-8"?>
<osm version="0.6" generator="Overpass API 0.7.62.8 e802775f">
<note>The data included in this document is from www.openstreetmap.org. The data is made available under ODbL.</note>
<meta osm_base="2025-10-23T17:50:02Z" areas="2025-10-23T14:54:58Z"/>

  <node id="28343681" lat="53.3988101" lon="-1.1504515" version="9" timestamp="2019-03-27T23:05:12Z" changeset="68606648" uid="539254" user="sabovi"/>
  <node id="31500541" lat="53.4117777" lon="-1.0713942" version="3" timestamp="2014-03-22T08:58:14Z" changeset="21239846" uid="101150" user="Steeley"/>
  <node id="31500552" lat="53.4133394" lon="-1.0393735" version="4" timestamp="2014-03-22T08:58:14Z" changeset="21239846" uid="101150" user="Steeley"/>
  <node id="31501845" lat="53.4085146" lon="-1.0623921" version="3" timestamp="2014-03-22T08:58:14Z" changeset="21239846" uid="101150" user="Steeley"/>
  <node id="33945127" lat="53.4007151" lon="-1.0562755" version="1" timestamp="2007-08-10T09:45:19Z" changeset="202340" uid="8857" user="philipcullen">
    <tag k="created_by" v="JOSM"/>
  </node>
  <node id="35129792" lat="53.4145131" lon="-1.0845478" version="5" timestamp="2017-11-11T02:08:40Z" changeset="53681604" uid="2773866" user="kreuzschnabel"/>
  <node id="35132839" lat="53.4132825" lon="-1.0835822" version="3" timestamp="2017-11-11T02:08:41Z" changeset="53681604" uid="2773866" user="kreuzschnabel"/>
  <node id="269015527" lat="53.3910461" lon="-1.0689673" version="8" timestamp="2018-08-23T15:29:55Z" changeset="61925444" uid="2773866" user="kreuzschnabel"/>
  <node id="272850039" lat="53.3785496" lon="-1.1187401" version="12" timestamp="2025-09-16T19:32:07Z" changeset="172031877" uid="8857" user="philipcullen">
    <tag k="ref:GB:uprn" v="10013980842"/>
  </node>
  <node id="443880307" lat="53.4024537" lon="-1.1150772" version="3" timestamp="2012-06-21T13:04:34Z" changeset="11968612" uid="556942" user="BillyWizz"/>
  <node id="443881492" lat="53.4072799" lon="-1.1158921" version="3" timestamp="2012-06-21T13:56:20Z" changeset="11968612" uid="556942" user="BillyWizz"/>
  <node id="443883139" lat="53.4175554" lon="-1.0780906" version="5" timestamp="2024-03-01T13:03:23Z" changeset="148095907" uid="12616743" user="BassetlawMapper"/>
  <node id="1252203820" lat="53.4245529" lon="-1.0926925" version="2" timestamp="2017-11-11T02:08:41Z" changeset="53681604" uid="2773866" user="kreuzschnabel"/>
  <node id="3379703324" lat="53.4013394" lon="-1.0466263" version="1" timestamp="2015-03-02T15:51:38Z" changeset="29202054" uid="2020484" user="Nigel Greens"/>
  <node id="6703532191" lat="53.3852432" lon="-1.0925628" version="1" timestamp="2019-08-12T15:35:16Z" changeset="73274347" uid="84681" user="SK53"/>
  <node id="11304898709" lat="53.4048995" lon="-1.0675966" version="1" timestamp="2023-11-01T16:02:15Z" changeset="143483357" uid="10860083" user="jordie8396"/>
  <way id="2701756" version="27" timestamp="2022-10-28T19:13:40Z" changeset="128188142" uid="13666626" user="RedAuburn">
    <nd ref="35129792"/>
    <nd ref="5222548896"/>
    <nd ref="1546438"/>
    <nd ref="5222548899"/>
    <nd ref="1546437"/>
    <nd ref="5222548901"/>
    <nd ref="1546395"/>
    <nd ref="1546392"/>
    <nd ref="1546390"/>
    <nd ref="270547364"/>
    <nd ref="1546387"/>
    <nd ref="270547360"/>
    <nd ref="1546338"/>
    <nd ref="1252203821"/>
    <tag k="carriageway_ref" v="A"/>
    <tag k="description" v="Doncaster Bypass"/>
    <tag k="highway" v="motorway"/>
    <tag k="int_ref" v="E 15"/>
    <tag k="lanes" v="2"/>
    <tag k="lit" v="no"/>
    <tag k="loc_name" v="Doncaster Bypass"/>
    <tag k="maxspeed" v="70 mph"/>
    <tag k="maxspeed:type" v="GB:motorway"/>
    <tag k="national_highways:area" v="12"/>
    <tag k="oneway" v="yes"/>
    <tag k="operator" v="National Highways"/>
    <tag k="operator:wikidata" v="Q5760006"/>
    <tag k="ref" v="A1(M)"/>
    <tag k="surface" v="asphalt"/>
  </way>
  <way id="4542113" version="19" timestamp="2019-03-27T23:05:13Z" changeset="68606648" uid="539254" user="sabovi">
    <nd ref="6366290214"/>
    <nd ref="1796989555"/>
    <nd ref="4683781472"/>
    <tag k="highway" v="primary"/>
    <tag k="lanes" v="2"/>
    <tag k="lit" v="yes"/>
    <tag k="name" v="Doncaster Road"/>
    <tag k="oneway" v="no"/>
    <tag k="ref" v="A60"/>
    <tag k="surface" v="paved"/>
  </way>
  <way id="4542114" version="17" timestamp="2025-04-13T11:35:49Z" changeset="164890183" uid="12616743" user="BassetlawMapper">
    <nd ref="6366290214"/>
    <nd ref="436485998"/>
    <nd ref="7543732535"/>
    <nd ref="7543732525"/>
    <nd ref="28271416"/>
    <nd ref="318780968"/>
    <nd ref="12752220540"/>
    <nd ref="436486002"/>
    <nd ref="436486007"/>
    <nd ref="436486013"/>
    <nd ref="6558092522"/>
    <nd ref="12752220300"/>
    <nd ref="28271418"/>
    <tag k="highway" v="primary"/>
    <tag k="lit" v="yes"/>
    <tag k="name" v="Blyth Road"/>
    <tag k="oneway" v="no"/>
    <tag k="ref" v="A634"/>
  </way>
  <way id="4542115" version="19" timestamp="2025-04-13T07:58:27Z" changeset="164882641" uid="12616743" user="BassetlawMapper">
    <nd ref="28271418"/>
    <nd ref="6909141878"/>
    <nd ref="28271432"/>
    <nd ref="12751854851"/>
    <nd ref="3379150009"/>
    <nd ref="600066125"/>
    <tag k="highway" v="secondary"/>
    <tag k="lit" v="yes"/>
    <tag k="name" v="Doncaster Road"/>
    <tag k="ref" v="B6463"/>
  </way>
  <way id="4877070" version="14" timestamp="2024-03-01T13:03:23Z" changeset="148095907" uid="12616743" user="BassetlawMapper">
    <nd ref="31501845"/>
    <nd ref="2733303042"/>
    <nd ref="11681671226"/>
    <nd ref="2733302975"/>
    <nd ref="31500513"/>
    <nd ref="31500521"/>
    <nd ref="6281230566"/>
    <nd ref="31500524"/>
    <nd ref="11681671140"/>
    <nd ref="31500525"/>
    <nd ref="2733302967"/>
    <nd ref="2733302974"/>
    <nd ref="7301943158"/>
    <nd ref="2733302988"/>
    <nd ref="2733302977"/>
    <nd ref="6281208972"/>
    <nd ref="6281209042"/>
    <nd ref="2733303013"/>
    <nd ref="2733303015"/>
    <nd ref="2733302987"/>
    <nd ref="31500541"/>
    <tag k="highway" v="tertiary"/>
    <tag k="lit" v="yes"/>
    <tag k="maxspeed" v="30 mph"/>
    <tag k="name" v="Snape Lane"/>
  </way>
  <way id="4877071" version="9" timestamp="2023-11-01T16:02:15Z" changeset="143483357" uid="10860083" user="jordie8396">
    <nd ref="31500402"/>
    <nd ref="31500422"/>
    <nd ref="31500455"/>
    <nd ref="31500462"/>
    <nd ref="6273385417"/>
    <nd ref="6281209017"/>
    <nd ref="2733302970"/>
    <nd ref="6281209012"/>
    <nd ref="31500541"/>
    <tag k="highway" v="tertiary"/>
    <tag k="lit" v="yes"/>
    <tag k="maxspeed" v="40 mph"/>
    <tag k="name" v="Blyth Road"/>
  </way>
  <way id="4877072" version="12" timestamp="2024-10-07T23:33:09Z" changeset="157602062" uid="10860083" user="jordie8396">
    <nd ref="31501845"/>
    <nd ref="31500381"/>
    <nd ref="31500394"/>
    <nd ref="6288644032"/>
    <nd ref="31500399"/>
    <nd ref="11681671317"/>
    <nd ref="11681671321"/>
    <nd ref="31500401"/>
    <nd ref="31500406"/>
    <nd ref="11304898710"/>
    <tag k="highway" v="tertiary"/>
    <tag k="lit" v="yes"/>
    <tag k="maxspeed" v="30 mph"/>
    <tag k="name" v="Serlby Road"/>
  </way>
  <way id="4877073" version="5" timestamp="2019-02-18T14:35:26Z" changeset="67318197" uid="9268825" user="sushredd">
    <nd ref="31501845"/>
    <nd ref="31500373"/>
    <nd ref="31500366"/>
    <nd ref="31500360"/>
    <nd ref="31500328"/>
    <nd ref="31501885"/>
    <nd ref="31501853"/>
    <nd ref="2733303001"/>
    <nd ref="6286238740"/>
    <nd ref="2733302989"/>
    <tag k="highway" v="tertiary"/>
    <tag k="lit" v="no"/>
  </way>
  <way id="4877074" version="16" timestamp="2025-04-17T19:43:28Z" changeset="165087057" uid="12616743" user="BassetlawMapper">
    <nd ref="3379703324"/>
    <nd ref="33945142"/>
    <nd ref="3380555165"/>
    <nd ref="33945143"/>
    <nd ref="33945144"/>
    <nd ref="482730913"/>
    <nd ref="3156266286"/>
    <nd ref="3156266294"/>
    <nd ref="6499531274"/>
    <nd ref="482730911"/>
    <nd ref="3379703266"/>
    <nd ref="482730910"/>
    <nd ref="482730909"/>
    <nd ref="482730908"/>
    <nd ref="3156266275"/>
    <nd ref="6481199053"/>
    <nd ref="482730907"/>
    <nd ref="482730905"/>
    <nd ref="10044998676"/>
    <nd ref="2340471404"/>
    <nd ref="482730904"/>
    <nd ref="482730894"/>
    <nd ref="482730899"/>
    <nd ref="2659114290"/>
    <nd ref="482730902"/>
    <nd ref="7897151073"/>
    <nd ref="2659114322"/>
    <nd ref="767569662"/>
    <nd ref="12763019659"/>
    <nd ref="482730900"/>
    <tag k="highway" v="tertiary"/>
    <tag k="lit" v="no"/>
  </way>
  <way id="4877075" version="11" timestamp="2024-10-08T01:12:53Z" changeset="157603553" uid="10860083" user="jordie8396">
    <nd ref="31500552"/>
    <nd ref="2733303011"/>
    <nd ref="31500459"/>
    <nd ref="31500451"/>
    <nd ref="31500446"/>
    <nd ref="31500410"/>
    <nd ref="31500374"/>
    <nd ref="31500365"/>
    <nd ref="31500357"/>
    <nd ref="31500350"/>
    <nd ref="31500342"/>
    <nd ref="31500333"/>
    <nd ref="31500321"/>
    <nd ref="31500315"/>
    <nd ref="31500306"/>
    <nd ref="31500301"/>
    <nd ref="31500291"/>
    <nd ref="31500095"/>
    <nd ref="31500085"/>
    <nd ref="31500076"/>
    <nd ref="31500068"/>
    <nd ref="31500057"/>
    <nd ref="2733302989"/>
    <tag k="highway" v="trunk"/>
    <tag k="lanes" v="2"/>
    <tag k="lit" v="no"/>
    <tag k="maxspeed" v="60 mph"/>
    <tag k="maxspeed:type" v="GB:nsl_single"/>
    <tag k="name" v="Bawtry Road"/>
    <tag k="ref" v="A614"/>
    <tag k="source:maxspeed" v="survey;mapillary"/>
    <tag k="source:name" v="OS_OpenData_Locator"/>
    <tag k="surface" v="asphalt"/>
  </way>
  <way id="4877079" version="11" timestamp="2023-11-01T16:02:15Z" changeset="143483357" uid="10860083" user="jordie8396">
    <nd ref="31500402"/>
    <nd ref="31500370"/>
    <nd ref="31500363"/>
    <nd ref="6288644043"/>
    <nd ref="31500337"/>
    <nd ref="6288650186"/>
    <nd ref="31500310"/>
    <nd ref="31501844"/>
    <nd ref="31499955"/>
    <nd ref="4683877567"/>
    <tag k="highway" v="tertiary"/>
    <tag k="lit" v="yes"/>
    <tag k="maxspeed" v="40 mph"/>
    <tag k="name" v="Blyth Road"/>
  </way>
  <way id="4877080" version="11" timestamp="2024-01-07T01:13:11Z" changeset="145976317" uid="5229644" user="Nathan_A_RF">
    <nd ref="31500402"/>
    <nd ref="4683872484"/>
    <tag k="highway" v="tertiary"/>
    <tag k="lit" v="yes"/>
    <tag k="maxspeed" v="40 mph"/>
    <tag k="name" v="Serlby Road"/>
  </way>
  <way id="4877088" version="12" timestamp="2025-03-31T14:13:57Z" changeset="164332731" uid="493595" user="Yorvik Prestigitator">
    <nd ref="31501886"/>
    <nd ref="31500430"/>
    <nd ref="726822419"/>
    <nd ref="12607456416"/>
    <nd ref="2733303004"/>
    <nd ref="2733303028"/>
    <nd ref="2733302972"/>
    <tag k="highway" v="tertiary"/>
    <tag k="lit" v="yes"/>
    <tag k="name" v="Serlby Road"/>
  </way>
  <way id="4877089" version="9" timestamp="2017-02-13T18:05:47Z" changeset="46054168" uid="5296090" user="TR42">
    <nd ref="31500439"/>
    <nd ref="31501886"/>
    <tag k="bridge" v="yes"/>
    <tag k="highway" v="tertiary"/>
    <tag k="layer" v="1"/>
    <tag k="lit" v="no"/>
    <tag k="name" v="Serlby Road"/>
  </way>
  <way id="4877090" version="26" timestamp="2024-04-04T15:48:35Z" changeset="149576668" uid="955904" user="Patrick Harper">
    <nd ref="269015527"/>
    <nd ref="2916611847"/>
    <nd ref="1546786"/>
    <nd ref="2916611848"/>
    <nd ref="1546781"/>
    <nd ref="2916611851"/>
    <nd ref="1546777"/>
    <nd ref="1546773"/>
    <nd ref="1546690"/>
    <nd ref="1546691"/>
    <nd ref="5222548878"/>
    <nd ref="1546693"/>
    <nd ref="5222548881"/>
    <nd ref="1546695"/>
    <nd ref="5222548882"/>
    <nd ref="1546619"/>
    <nd ref="5222548884"/>
    <nd ref="1546614"/>
    <nd ref="5222548886"/>
    <nd ref="1546608"/>
    <nd ref="31501889"/>
    <nd ref="31501887"/>
    <nd ref="1546517"/>
    <nd ref="5222548888"/>
    <nd ref="1546518"/>
    <nd ref="5222548891"/>
    <nd ref="1546520"/>
    <nd ref="5222548892"/>
    <nd ref="1546521"/>
    <nd ref="5222548895"/>
    <nd ref="35132838"/>
    <tag k="carriageway_ref" v="A"/>
    <tag k="description" v="Doncaster Bypass"/>
    <tag k="highway" v="motorway"/>
    <tag k="int_ref" v="E 15"/>
    <tag k="lanes" v="2"/>
    <tag k="lit" v="no"/>
    <tag k="loc_name" v="Doncaster Bypass"/>
    <tag k="maxheight" v="default"/>
    <tag k="maxspeed" v="70 mph"/>
    <tag k="maxspeed:type" v="GB:motorway"/>
    <tag k="name" v="Doncaster By-Pass"/>
    <tag k="national_highways:area" v="12"/>
    <tag k="oneway" v="yes"/>
    <tag k="operator" v="National Highways"/>
    <tag k="operator:wikidata" v="Q5760006"/>
    <tag k="ref" v="A1(M)"/>
    <tag k="source:name" v="OS_OpenRoads"/>
    <tag k="surface" v="asphalt"/>
  </way>
  <way id="4877091" version="29" timestamp="2024-04-04T15:48:35Z" changeset="149576668" uid="955904" user="Patrick Harper">
    <nd ref="35132839"/>
    <nd ref="5222548894"/>
    <nd ref="1546508"/>
    <nd ref="5222548893"/>
    <nd ref="1546512"/>
    <nd ref="5222548890"/>
    <nd ref="1546513"/>
    <nd ref="5222548889"/>
    <nd ref="1546514"/>
    <nd ref="31501888"/>
    <nd ref="31501890"/>
    <nd ref="1546596"/>
    <nd ref="5222548887"/>
    <nd ref="1546598"/>
    <nd ref="5222548885"/>
    <nd ref="1546601"/>
    <nd ref="5222548883"/>
    <nd ref="1546681"/>
    <nd ref="5222548880"/>
    <nd ref="1546682"/>
    <nd ref="5222548879"/>
    <nd ref="1546684"/>
    <nd ref="1546688"/>
    <nd ref="1546753"/>
    <nd ref="1546755"/>
    <nd ref="2916611852"/>
    <nd ref="1546758"/>
    <nd ref="2916611850"/>
    <nd ref="2916611849"/>
    <nd ref="1546765"/>
    <nd ref="1546768"/>
    <tag k="carriageway_ref" v="B"/>
    <tag k="description" v="Doncaster Bypass"/>
    <tag k="highway" v="motorway"/>
    <tag k="int_ref" v="E 15"/>
    <tag k="lanes" v="2"/>
    <tag k="lit" v="no"/>
    <tag k="loc_name" v="Doncaster Bypass"/>
    <tag k="maxheight" v="default"/>
    <tag k="maxspeed" v="70 mph"/>
    <tag k="maxspeed:type" v="GB:motorway"/>
    <tag k="name" v="Doncaster By-Pass"/>
    <tag k="national_highways:area" v="12"/>
    <tag k="oneway" v="yes"/>
    <tag k="operator" v="National Highways"/>
    <tag k="operator:wikidata" v="Q5760006"/>
    <tag k="ref" v="A1(M)"/>
    <tag k="source:name" v="OS_OpenRoads"/>
    <tag k="surface" v="asphalt"/>
  </way>
  <way id="5112258" version="17" timestamp="2022-10-28T19:13:58Z" changeset="128188142" uid="13666626" user="RedAuburn">
    <nd ref="35129795"/>
    <nd ref="35129792"/>
    <tag k="bridge" v="yes"/>
    <tag k="carriageway_ref" v="A"/>
    <tag k="description" v="Doncaster Bypass"/>
    <tag k="highway" v="motorway"/>
    <tag k="int_ref" v="E 15"/>
    <tag k="lanes" v="2"/>
    <tag k="layer" v="1"/>
    <tag k="lit" v="no"/>
    <tag k="loc_name" v="Doncaster Bypass"/>
    <tag k="maxspeed" v="70 mph"/>
    <tag k="maxspeed:type" v="GB:motorway"/>
    <tag k="national_highways:area" v="12"/>
    <tag k="oneway" v="yes"/>
    <tag k="operator" v="National Highways"/>
    <tag k="operator:wikidata" v="Q5760006"/>
    <tag k="ref" v="A1(M)"/>
    <tag k="surface" v="asphalt"/>
  </way>
  <way id="5112260" version="17" timestamp="2022-10-28T19:13:58Z" changeset="128188142" uid="13666626" user="RedAuburn">
    <nd ref="35129793"/>
    <nd ref="35129794"/>
    <tag k="bridge" v="yes"/>
    <tag k="carriageway_ref" v="B"/>
    <tag k="description" v="Doncaster Bypass"/>
    <tag k="highway" v="motorway"/>
    <tag k="int_ref" v="E 15"/>
    <tag k="lanes" v="2"/>
    <tag k="layer" v="1"/>
    <tag k="lit" v="no"/>
    <tag k="loc_name" v="Doncaster Bypass"/>
    <tag k="maxspeed" v="70 mph"/>
    <tag k="maxspeed:type" v="GB:motorway"/>
    <tag k="national_highways:area" v="12"/>
    <tag k="oneway" v="yes"/>
    <tag k="operator" v="National Highways"/>
    <tag k="operator:wikidata" v="Q5760006"/>
    <tag k="ref" v="A1(M)"/>
    <tag k="surface" v="asphalt"/>
  </way>
  <way id="5112261" version="5" timestamp="2020-09-29T17:21:34Z" changeset="91721560" uid="24119" user="Mauls">
    <nd ref="31501891"/>
    <nd ref="31501892"/>
    <tag k="bridge" v="yes"/>
    <tag k="highway" v="secondary"/>
    <tag k="layer" v="1"/>
    <tag k="lit" v="yes"/>
    <tag k="name" v="Styrrup Road"/>
    <tag k="ref" v="B6463"/>
  </way>
  <way id="5112262" version="3" timestamp="2020-09-29T17:21:34Z" changeset="91721560" uid="24119" user="Mauls">
    <nd ref="31501892"/>
    <nd ref="35129797"/>
    <tag k="highway" v="secondary"/>
    <tag k="name" v="Styrrup Road"/>
    <tag k="ref" v="B6463"/>
  </way>
  <way id="5112263" version="5" timestamp="2023-11-01T16:02:15Z" changeset="143483357" uid="10860083" user="jordie8396">
    <nd ref="31500541"/>
    <nd ref="31500543"/>
    <nd ref="31500547"/>
    <nd ref="31500549"/>
    <tag k="highway" v="tertiary"/>
    <tag k="lit" v="yes"/>
    <tag k="maxspeed" v="40 mph"/>
    <tag k="name" v="Blyth Road"/>
  </way>
  <way id="5112621" version="16" timestamp="2022-10-28T19:13:58Z" changeset="128188142" uid="13666626" user="RedAuburn">
    <nd ref="35132836"/>
    <nd ref="35129795"/>
    <tag k="carriageway_ref" v="A"/>
    <tag k="description" v="Doncaster Bypass"/>
    <tag k="highway" v="motorway"/>
    <tag k="int_ref" v="E 15"/>
    <tag k="lanes" v="2"/>
    <tag k="lit" v="no"/>
    <tag k="loc_name" v="Doncaster Bypass"/>
    <tag k="maxspeed" v="70 mph"/>
    <tag k="maxspeed:type" v="GB:motorway"/>
    <tag k="national_highways:area" v="12"/>
    <tag k="oneway" v="yes"/>
    <tag k="operator" v="National Highways"/>
    <tag k="operator:wikidata" v="Q5760006"/>
    <tag k="ref" v="A1(M)"/>
    <tag k="surface" v="asphalt"/>
  </way>
  <way id="5112622" version="16" timestamp="2022-10-28T19:13:58Z" changeset="128188142" uid="13666626" user="RedAuburn">
    <nd ref="35129794"/>
    <nd ref="35132837"/>
    <tag k="carriageway_ref" v="B"/>
    <tag k="description" v="Doncaster Bypass"/>
    <tag k="highway" v="motorway"/>
    <tag k="int_ref" v="E 15"/>
    <tag k="lanes" v="2"/>
    <tag k="lit" v="no"/>
    <tag k="loc_name" v="Doncaster Bypass"/>
    <tag k="maxspeed" v="70 mph"/>
    <tag k="maxspeed:type" v="GB:motorway"/>
    <tag k="national_highways:area" v="12"/>
    <tag k="oneway" v="yes"/>
    <tag k="operator" v="National Highways"/>
    <tag k="operator:wikidata" v="Q5760006"/>
    <tag k="ref" v="A1(M)"/>
    <tag k="surface" v="asphalt"/>
  </way>
  <way id="5112623" version="17" timestamp="2022-10-28T19:13:58Z" changeset="128188142" uid="13666626" user="RedAuburn">
    <nd ref="35132838"/>
    <nd ref="35132836"/>
    <tag k="bridge" v="yes"/>
    <tag k="carriageway_ref" v="A"/>
    <tag k="description" v="Doncaster Bypass"/>
    <tag k="highway" v="motorway"/>
    <tag k="int_ref" v="E 15"/>
    <tag k="lanes" v="2"/>
    <tag k="layer" v="1"/>
    <tag k="lit" v="no"/>
    <tag k="loc_name" v="Doncaster Bypass"/>
    <tag k="maxspeed" v="70 mph"/>
    <tag k="maxspeed:type" v="GB:motorway"/>
    <tag k="national_highways:area" v="12"/>
    <tag k="oneway" v="yes"/>
    <tag k="operator" v="National Highways"/>
    <tag k="operator:wikidata" v="Q5760006"/>
    <tag k="ref" v="A1(M)"/>
    <tag k="surface" v="asphalt"/>
  </way>
  <way id="5112624" version="17" timestamp="2022-10-28T19:13:58Z" changeset="128188142" uid="13666626" user="RedAuburn">
    <nd ref="35132837"/>
    <nd ref="35132839"/>
    <tag k="bridge" v="yes"/>
    <tag k="carriageway_ref" v="B"/>
    <tag k="description" v="Doncaster Bypass"/>
    <tag k="highway" v="motorway"/>
    <tag k="int_ref" v="E 15"/>
    <tag k="lanes" v="2"/>
    <tag k="layer" v="1"/>
    <tag k="lit" v="no"/>
    <tag k="loc_name" v="Doncaster Bypass"/>
    <tag k="maxspeed" v="70 mph"/>
    <tag k="maxspeed:type" v="GB:motorway"/>
    <tag k="national_highways:area" v="12"/>
    <tag k="oneway" v="yes"/>
    <tag k="operator" v="National Highways"/>
    <tag k="operator:wikidata" v="Q5760006"/>
    <tag k="ref" v="A1(M)"/>
    <tag k="surface" v="asphalt"/>
  </way>
  <way id="28990414" version="9" timestamp="2025-04-13T07:58:27Z" changeset="164882641" uid="12616743" user="BassetlawMapper">
    <nd ref="28271409"/>
    <nd ref="4079424688"/>
    <nd ref="4079424687"/>
    <nd ref="4079424789"/>
    <nd ref="4079424790"/>
    <nd ref="8407145053"/>
    <nd ref="318780965"/>
    <nd ref="1375689831"/>
    <nd ref="6888756241"/>
    <nd ref="12751865170"/>
    <nd ref="318780966"/>
    <nd ref="7208406511"/>
    <nd ref="7274296220"/>
    <nd ref="318780967"/>
    <nd ref="12751865169"/>
    <nd ref="318780968"/>
    <tag k="highway" v="residential"/>
    <tag k="lit" v="yes"/>
    <tag k="name" v="Main Street"/>
  </way>
  <way id="28990415" version="7" timestamp="2025-09-16T19:28:06Z" changeset="172031877" uid="8857" user="philipcullen">
    <nd ref="28271416"/>
    <nd ref="12751865168"/>
    <nd ref="13148010889"/>
    <nd ref="13147971447"/>
    <nd ref="12751865167"/>
    <nd ref="12751865166"/>
    <nd ref="318780970"/>
    <nd ref="318780971"/>
    <tag k="highway" v="residential"/>
    <tag k="lit" v="yes"/>
    <tag k="maxspeed" v="30 mph"/>
    <tag k="name" v="Elmsmere Drive"/>
  </way>
  <way id="28990416" version="5" timestamp="2025-04-13T07:58:27Z" changeset="164882641" uid="12616743" user="BassetlawMapper">
    <nd ref="318780970"/>
    <nd ref="12751865165"/>
    <nd ref="318780972"/>
    <nd ref="12751865164"/>
    <nd ref="318780973"/>
    <nd ref="12751865163"/>
    <nd ref="318780974"/>
    <tag k="highway" v="residential"/>
    <tag k="lit" v="yes"/>
    <tag k="maxspeed" v="30 mph"/>
    <tag k="name" v="Elmsmere Drive"/>
  </way>
  <way id="28990417" version="4" timestamp="2017-02-13T17:14:40Z" changeset="46052664" uid="5296090" user="TR42">
    <nd ref="318780973"/>
    <nd ref="318780975"/>
    <nd ref="318780976"/>
    <tag k="highway" v="residential"/>
    <tag k="lit" v="yes"/>
    <tag k="maxspeed" v="30 mph"/>
    <tag k="name" v="Elmsmere Drive"/>
  </way>
  <way id="28990418" version="4" timestamp="2017-02-13T17:14:40Z" changeset="46052664" uid="5296090" user="TR42">
    <nd ref="318780975"/>
    <nd ref="318780977"/>
    <tag k="highway" v="residential"/>
    <tag k="lit" v="yes"/>
    <tag k="maxspeed" v="30 mph"/>
    <tag k="name" v="Elmsmere Drive"/>
  </way>
  <way id="28990487" version="4" timestamp="2025-04-13T07:58:27Z" changeset="164882641" uid="12616743" user="BassetlawMapper">
    <nd ref="318782361"/>
    <nd ref="12751864930"/>
    <nd ref="318782362"/>
    <nd ref="10876832102"/>
    <nd ref="10876832103"/>
    <nd ref="318782364"/>
    <nd ref="10876832104"/>
    <nd ref="318782365"/>
    <tag k="highway" v="residential"/>
    <tag k="lit" v="yes"/>
    <tag k="name" v="Weirside"/>
  </way>
  <way id="37848644" version="2" timestamp="2010-05-08T21:01:10Z" changeset="4642908" uid="26825" user="Warofdreams">
    <nd ref="443880307"/>
    <nd ref="443880309"/>
    <nd ref="443880310"/>
    <nd ref="443880311"/>
    <nd ref="443880312"/>
    <nd ref="443880313"/>
    <nd ref="443880314"/>
    <nd ref="443880316"/>
    <nd ref="443880317"/>
    <nd ref="443880318"/>
    <nd ref="443880319"/>
    <nd ref="443880320"/>
    <nd ref="443880321"/>
    <nd ref="443880322"/>
    <nd ref="443880323"/>
    <nd ref="443880324"/>
    <nd ref="443880325"/>
    <nd ref="443880326"/>
    <nd ref="443880327"/>
    <nd ref="443880328"/>
    <nd ref="443880329"/>
    <nd ref="443880330"/>
    <nd ref="443880331"/>
    <nd ref="443880332"/>
    <nd ref="443880333"/>
    <nd ref="443880334"/>
    <nd ref="443880335"/>
    <nd ref="443880336"/>
    <nd ref="443880337"/>
    <nd ref="443880338"/>
    <nd ref="443880339"/>
    <nd ref="443880340"/>
    <nd ref="443880341"/>
    <nd ref="443880308"/>
    <tag k="highway" v="unclassified"/>
    <tag k="name" v="Thornbury Hill Lane"/>
  </way>
  <way id="47045522" version="3" timestamp="2018-02-21T10:56:23Z" changeset="56545445" uid="281267" user="smb1001">
    <nd ref="600066140"/>
    <nd ref="443881502"/>
    <nd ref="443881503"/>
    <nd ref="443881504"/>
    <nd ref="443881505"/>
    <nd ref="443881506"/>
    <nd ref="443881507"/>
    <nd ref="443881508"/>
    <nd ref="443881509"/>
    <nd ref="443881510"/>
    <nd ref="443881511"/>
    <nd ref="443881512"/>
    <nd ref="443881513"/>
    <nd ref="443881514"/>
    <nd ref="443881515"/>
    <nd ref="443881516"/>
    <nd ref="443881517"/>
    <nd ref="443881518"/>
    <nd ref="443881519"/>
    <nd ref="443881520"/>
    <nd ref="443881521"/>
    <nd ref="443881522"/>
    <nd ref="443881523"/>
    <nd ref="443881524"/>
    <nd ref="443881525"/>
    <nd ref="443881526"/>
    <nd ref="443881527"/>
    <nd ref="443881528"/>
    <nd ref="443881529"/>
    <nd ref="443881531"/>
    <nd ref="443881492"/>
    <tag k="highway" v="tertiary"/>
    <tag k="lit" v="no"/>
    <tag k="name" v="Styrrup Lane"/>
  </way>
  <way id="47054641" version="8" timestamp="2024-03-01T13:03:23Z" changeset="148095907" uid="12616743" user="BassetlawMapper">
    <nd ref="443883139"/>
    <nd ref="11678930332"/>
    <nd ref="31500961"/>
    <nd ref="11678930331"/>
    <nd ref="11678930330"/>
    <nd ref="31500963"/>
    <nd ref="11678930329"/>
    <nd ref="31500966"/>
    <nd ref="31500910"/>
    <nd ref="11681670693"/>
    <nd ref="31500789"/>
    <nd ref="31500567"/>
    <nd ref="443883145"/>
    <nd ref="11624609561"/>
    <nd ref="31500561"/>
    <nd ref="31500558"/>
    <nd ref="443883148"/>
    <nd ref="2733303008"/>
    <nd ref="31501891"/>
    <tag k="highway" v="secondary"/>
    <tag k="lit" v="yes"/>
    <tag k="name" v="Styrrup Road"/>
    <tag k="ref" v="B6463"/>
  </way>
  <way id="48218177" version="8" timestamp="2024-10-08T01:12:53Z" changeset="157603553" uid="10860083" user="jordie8396">
    <nd ref="361437171"/>
    <nd ref="2733302972"/>
    <tag k="highway" v="secondary"/>
    <tag k="lit" v="yes"/>
    <tag k="name" v="Styrrup Road"/>
    <tag k="ref" v="B6463"/>
  </way>
  <way id="48218313" version="11" timestamp="2023-11-01T16:27:28Z" changeset="143484532" uid="10860083" user="jordie8396">
    <nd ref="33945127"/>
    <nd ref="33945129"/>
    <nd ref="481342084"/>
    <nd ref="33945131"/>
    <nd ref="6531959244"/>
    <nd ref="33945132"/>
    <nd ref="33945133"/>
    <nd ref="33945135"/>
    <nd ref="33945136"/>
    <nd ref="11304947846"/>
    <nd ref="33945138"/>
    <tag k="highway" v="trunk"/>
    <tag k="lanes" v="2"/>
    <tag k="lit" v="no"/>
    <tag k="maxspeed" v="40 mph"/>
    <tag k="maxspeed:type" v="GB:nsl_single"/>
    <tag k="name" v="Bawtry Road"/>
    <tag k="ref" v="A614"/>
    <tag k="source:maxspeed" v="survey;mapillary"/>
    <tag k="source:name" v="OS_OpenData_Locator"/>
    <tag k="surface" v="asphalt"/>
  </way>
  <way id="48223068" version="17" timestamp="2025-04-13T20:57:55Z" changeset="164912576" uid="12616743" user="BassetlawMapper">
    <nd ref="272850039"/>
    <nd ref="6318064223"/>
    <nd ref="11395003430"/>
    <nd ref="11388695468"/>
    <nd ref="735353191"/>
    <nd ref="247430245"/>
    <nd ref="11390481895"/>
    <nd ref="735357323"/>
    <nd ref="12676590846"/>
    <nd ref="28271413"/>
    <nd ref="12753021754"/>
    <nd ref="28271412"/>
    <nd ref="247489919"/>
    <nd ref="3029808783"/>
    <nd ref="6575810965"/>
    <nd ref="28271410"/>
    <nd ref="436481454"/>
    <nd ref="28271409"/>
    <nd ref="6475102317"/>
    <nd ref="318782361"/>
    <nd ref="12751864929"/>
    <nd ref="436481471"/>
    <nd ref="6366290214"/>
    <tag k="highway" v="primary"/>
    <tag k="lit" v="yes"/>
    <tag k="name" v="Doncaster Road"/>
    <tag k="oneway" v="no"/>
    <tag k="ref" v="A60"/>
  </way>
  <way id="48276007" version="5" timestamp="2017-02-13T16:42:46Z" changeset="46052664" uid="5296090" user="TR42">
    <nd ref="28271418"/>
    <nd ref="3379671678"/>
    <nd ref="4683781473"/>
    <tag k="highway" v="primary"/>
    <tag k="lit" v="yes"/>
    <tag k="name" v="Blyth Road"/>
    <tag k="ref" v="A634"/>
  </way>
  <way id="58662087" version="3" timestamp="2017-02-13T18:05:47Z" changeset="46054168" uid="5296090" user="TR42">
    <nd ref="726822190"/>
    <nd ref="726822192"/>
    <nd ref="726822078"/>
    <tag k="highway" v="unclassified"/>
    <tag k="lit" v="yes"/>
    <tag k="name" v="Pinfold Lane"/>
    <tag k="source" v="OS OpenData StreetView"/>
  </way>
  <way id="58662101" version="4" timestamp="2017-02-13T18:05:46Z" changeset="46054168" uid="5296090" user="TR42">
    <nd ref="31500430"/>
    <nd ref="726822411"/>
    <nd ref="2733302997"/>
    <nd ref="726822413"/>
    <nd ref="2733302981"/>
    <nd ref="726822416"/>
    <nd ref="726822417"/>
    <nd ref="726822419"/>
    <tag k="highway" v="residential"/>
    <tag k="lit" v="yes"/>
    <tag k="name" v="Pagdin Drive"/>
    <tag k="source" v="OS OpenData StreetView"/>
  </way>
  <way id="58662110" version="4" timestamp="2014-03-22T08:58:17Z" changeset="21239846" uid="101150" user="Steeley">
    <nd ref="2733303036"/>
    <nd ref="2733303027"/>
    <nd ref="2733303039"/>
    <nd ref="2733302984"/>
    <nd ref="2733302982"/>
    <nd ref="2733303040"/>
    <nd ref="2733303043"/>
    <nd ref="2733303033"/>
    <nd ref="2733303037"/>
    <nd ref="2733302998"/>
    <nd ref="2733303032"/>
    <nd ref="2733303003"/>
    <nd ref="2733302980"/>
    <nd ref="2733303025"/>
    <nd ref="2733303017"/>
    <nd ref="2733302995"/>
    <nd ref="2733303000"/>
    <nd ref="2733302983"/>
    <nd ref="2733302978"/>
    <nd ref="2733302990"/>
    <nd ref="2733303036"/>
    <tag k="highway" v="unclassified"/>
    <tag k="name" v="Brunel Close"/>
  </way>
  <way id="58662128" version="4" timestamp="2017-02-13T18:05:46Z" changeset="46054168" uid="5296090" user="TR42">
    <nd ref="726822985"/>
    <nd ref="726822987"/>
    <nd ref="726822988"/>
    <tag k="highway" v="residential"/>
    <tag k="lit" v="yes"/>
    <tag k="name" v="Oaklands Drive"/>
    <tag k="source" v="OS OpenData StreetView"/>
  </way>
  <way id="58662152" version="9" timestamp="2020-10-08T06:03:49Z" changeset="92146639" uid="10170572" user="paravag">
    <nd ref="600066140"/>
    <nd ref="600066138"/>
    <nd ref="600066139"/>
    <nd ref="35132818"/>
    <nd ref="6288691605"/>
    <nd ref="7986876900"/>
    <nd ref="6881426319"/>
    <nd ref="35132819"/>
    <nd ref="7907287435"/>
    <nd ref="7205085281"/>
    <nd ref="726822988"/>
    <nd ref="35132820"/>
    <nd ref="6881426306"/>
    <nd ref="7246896203"/>
    <nd ref="6881426313"/>
    <nd ref="443881482"/>
    <nd ref="35132821"/>
    <nd ref="7246896202"/>
    <nd ref="726822078"/>
    <nd ref="361437171"/>
    <tag k="highway" v="secondary"/>
    <tag k="lit" v="yes"/>
    <tag k="name" v="Main Street"/>
    <tag k="ref" v="B6463"/>
  </way>
  <way id="58662360" version="3" timestamp="2017-02-13T17:14:40Z" changeset="46052664" uid="5296090" user="TR42">
    <nd ref="726824185"/>
    <nd ref="436485998"/>
    <tag k="highway" v="residential"/>
    <tag k="lit" v="yes"/>
    <tag k="name" v="Wynlea Drive"/>
  </way>
  <way id="58662431" version="18" timestamp="2024-07-05T07:52:12Z" changeset="153576015" uid="18808522" user="Svendo42">
    <nd ref="28343681"/>
    <nd ref="443879548"/>
    <nd ref="3029817403"/>
    <nd ref="443879963"/>
    <nd ref="3068036468"/>
    <nd ref="6366290197"/>
    <nd ref="28344475"/>
    <nd ref="443880308"/>
    <nd ref="443879965"/>
    <nd ref="6366290198"/>
    <nd ref="6366290199"/>
    <nd ref="28344476"/>
    <nd ref="6366290200"/>
    <nd ref="3029817404"/>
    <nd ref="6366290202"/>
    <nd ref="6366290201"/>
    <nd ref="6366290203"/>
    <nd ref="28344477"/>
    <nd ref="6366290205"/>
    <nd ref="6366290204"/>
    <nd ref="726824347"/>
    <nd ref="2946774182"/>
    <nd ref="3029817405"/>
    <nd ref="28344478"/>
    <nd ref="3029817408"/>
    <nd ref="2946774180"/>
    <nd ref="726957843"/>
    <nd ref="2946774183"/>
    <nd ref="28344479"/>
    <nd ref="2946774181"/>
    <nd ref="726957883"/>
    <nd ref="2946774185"/>
    <nd ref="6366290209"/>
    <nd ref="28344480"/>
    <nd ref="6366290210"/>
    <nd ref="2946774184"/>
    <nd ref="726957916"/>
    <nd ref="2946774179"/>
    <nd ref="28344481"/>
    <nd ref="6366290212"/>
    <nd ref="6366290211"/>
    <nd ref="28344482"/>
    <nd ref="3029817407"/>
    <nd ref="6366290213"/>
    <nd ref="3029817406"/>
    <nd ref="28344483"/>
    <nd ref="7113760287"/>
    <nd ref="7113760292"/>
    <nd ref="4683781474"/>
    <tag k="foot" v="no"/>
    <tag k="highway" v="primary"/>
    <tag k="lit" v="no"/>
    <tag k="maxspeed" v="50 mph"/>
    <tag k="maxspeed:type" v="sign"/>
    <tag k="name" v="Maltby Road"/>
    <tag k="oneway" v="no"/>
    <tag k="ref" v="A634"/>
    <tag k="source" v="NPE"/>
  </way>
  <way id="61684167" version="7" timestamp="2019-08-18T22:17:10Z" changeset="73474812" uid="162917" user="DLMatthews">
    <nd ref="443881492"/>
    <nd ref="28272458"/>
    <tag k="highway" v="primary"/>
    <tag k="lanes" v="2"/>
    <tag k="lit" v="no"/>
    <tag k="name" v="Malpas Hill"/>
    <tag k="ref" v="A60"/>
    <tag k="surface" v="paved"/>
  </way>
  <way id="61684172" version="6" timestamp="2019-10-23T03:35:15Z" changeset="76076479" uid="10252561" user="scchevel">
    <nd ref="443880307"/>
    <nd ref="28272464"/>
    <nd ref="1797045037"/>
    <nd ref="443880557"/>
    <nd ref="6907572302"/>
    <nd ref="28272462"/>
    <nd ref="443881492"/>
    <tag k="highway" v="primary"/>
    <tag k="lanes" v="2"/>
    <tag k="lit" v="no"/>
    <tag k="name" v="Malpas Hill"/>
    <tag k="ref" v="A60"/>
    <tag k="surface" v="paved"/>
  </way>
  <way id="73916029" version="6" timestamp="2023-06-08T21:07:35Z" changeset="137112828" uid="1802093" user="Paul Berry">
    <nd ref="874482953"/>
    <nd ref="1823905783"/>
    <nd ref="1823905780"/>
    <nd ref="1823905781"/>
    <nd ref="874482956"/>
    <nd ref="1823905779"/>
    <nd ref="1823905778"/>
    <nd ref="1823905782"/>
    <nd ref="874482958"/>
    <nd ref="874482960"/>
    <nd ref="9900407681"/>
    <nd ref="1823905789"/>
    <nd ref="1823905790"/>
    <nd ref="9900407664"/>
    <nd ref="1823905788"/>
    <nd ref="1823905787"/>
    <nd ref="1823905786"/>
    <nd ref="1823905785"/>
    <nd ref="1823905784"/>
    <nd ref="874482953"/>
    <tag k="addr:city" v="Worksop"/>
    <tag k="addr:postcode" v="S81 8HU"/>
    <tag k="addr:street" v="Blyth Road"/>
    <tag k="addr:suburb" v="Oldcotes"/>
    <tag k="amenity" v="pub"/>
    <tag k="brand" v="Brewers Fayre"/>
    <tag k="brand:wikidata" v="Q4962678"/>
    <tag k="building" v="yes"/>
    <tag k="cuisine" v="british"/>
    <tag k="fhrs:id" v="178096"/>
    <tag k="name" v="King William IV"/>
    <tag k="source:addr" v="FHRS Open Data"/>
    <tag k="source:name" v="naptan"/>
    <tag k="website" v="https://www.brewersfayre.co.uk/pub-restaurant/Nottinghamshire/King-William-IV-Oldcotes.html"/>
  </way>
  <way id="109366214" version="17" timestamp="2022-10-28T19:14:42Z" changeset="128188162" uid="13666626" user="RedAuburn">
    <nd ref="1252203820"/>
    <nd ref="1546317"/>
    <nd ref="270547361"/>
    <nd ref="1546367"/>
    <nd ref="270547366"/>
    <nd ref="1546369"/>
    <nd ref="1546371"/>
    <nd ref="1546374"/>
    <nd ref="5222548900"/>
    <nd ref="1546431"/>
    <nd ref="5222548898"/>
    <nd ref="1546432"/>
    <nd ref="5222548897"/>
    <nd ref="35129793"/>
    <tag k="carriageway_ref" v="B"/>
    <tag k="description" v="Doncaster Bypass"/>
    <tag k="highway" v="motorway"/>
    <tag k="int_ref" v="E 15"/>
    <tag k="lanes" v="2"/>
    <tag k="lit" v="no"/>
    <tag k="loc_name" v="Doncaster Bypass"/>
    <tag k="maxspeed" v="70 mph"/>
    <tag k="maxspeed:type" v="GB:motorway"/>
    <tag k="national_highways:area" v="12"/>
    <tag k="oneway" v="yes"/>
    <tag k="operator" v="National Highways"/>
    <tag k="operator:wikidata" v="Q5760006"/>
    <tag k="ref" v="A1(M)"/>
    <tag k="surface" v="asphalt"/>
  </way>
  <way id="267940414" version="6" timestamp="2025-06-27T16:49:34Z" changeset="168195523" uid="12503" user="Paul Todd">
    <nd ref="6281230547"/>
    <nd ref="2733303002"/>
    <nd ref="7128138624"/>
    <nd ref="6281230551"/>
    <nd ref="6281230553"/>
    <nd ref="6281230555"/>
    <nd ref="31500394"/>
    <tag k="highway" v="unclassified"/>
    <tag k="name" v="Bryans Close"/>
  </way>
  <way id="267940415" version="6" timestamp="2024-03-01T13:03:23Z" changeset="148095907" uid="12616743" user="BassetlawMapper">
    <nd ref="2733303027"/>
    <nd ref="2733303038"/>
    <nd ref="7287786013"/>
    <nd ref="6281209013"/>
    <nd ref="7287786006"/>
    <nd ref="7287786008"/>
    <nd ref="5426377121"/>
    <nd ref="7287786011"/>
    <nd ref="726822717"/>
    <nd ref="726822719"/>
    <nd ref="7287786030"/>
    <nd ref="7287786031"/>
    <nd ref="2340457004"/>
    <nd ref="11681671460"/>
    <nd ref="11681671408"/>
    <nd ref="726822721"/>
    <nd ref="726822723"/>
    <nd ref="31500462"/>
    <tag k="highway" v="unclassified"/>
    <tag k="maxspeed" v="30 mph"/>
    <tag k="name" v="Brunel Close"/>
  </way>
  <way id="474416685" version="5" timestamp="2023-06-23T09:42:36Z" changeset="137680912" uid="242345" user="confusedbuffalo">
    <nd ref="4683781474"/>
    <nd ref="10876832096"/>
    <nd ref="10876832099"/>
    <nd ref="6366290214"/>
    <tag k="FIXME:nsl" v="inferred single-carriageway NSL - remove this tag once verified"/>
    <tag k="highway" v="primary"/>
    <tag k="lit" v="yes"/>
    <tag k="maxspeed" v="60 mph"/>
    <tag k="maxspeed:type" v="GB:nsl_single"/>
    <tag k="name" v="Maltby Road"/>
    <tag k="oneway" v="no"/>
    <tag k="ref" v="A634"/>
    <tag k="source" v="NPE"/>
  </way>
  <way id="474416686" version="2" timestamp="2025-04-13T11:35:49Z" changeset="164890183" uid="12616743" user="BassetlawMapper">
    <nd ref="4683781472"/>
    <nd ref="1823905794"/>
    <nd ref="1823905808"/>
    <nd ref="28271406"/>
    <nd ref="1796989554"/>
    <nd ref="12752220527"/>
    <nd ref="600066126"/>
    <nd ref="1796989556"/>
    <nd ref="28271404"/>
    <nd ref="28271403"/>
    <nd ref="600066127"/>
    <nd ref="28271402"/>
    <nd ref="600066128"/>
    <nd ref="600066129"/>
    <nd ref="28271400"/>
    <nd ref="600066130"/>
    <nd ref="28271399"/>
    <nd ref="28272469"/>
    <nd ref="1796990087"/>
    <nd ref="28272468"/>
    <nd ref="443880307"/>
    <tag k="highway" v="primary"/>
    <tag k="lanes" v="2"/>
    <tag k="lit" v="no"/>
    <tag k="name" v="Doncaster Road"/>
    <tag k="oneway" v="no"/>
    <tag k="ref" v="A60"/>
    <tag k="surface" v="paved"/>
  </way>
  <way id="474416687" version="4" timestamp="2021-03-09T12:49:22Z" changeset="100712019" uid="10170582" user="priymose">
    <nd ref="4683781473"/>
    <nd ref="436486024"/>
    <nd ref="3379671633"/>
    <nd ref="436486027"/>
    <nd ref="436486031"/>
    <nd ref="436486050"/>
    <nd ref="436486053"/>
    <nd ref="28271419"/>
    <nd ref="436486060"/>
    <nd ref="3379151606"/>
    <nd ref="28271429"/>
    <nd ref="436486067"/>
    <nd ref="436486069"/>
    <nd ref="6366290215"/>
    <nd ref="28271420"/>
    <nd ref="8499981952"/>
    <nd ref="436486071"/>
    <nd ref="436486072"/>
    <nd ref="3379140477"/>
    <nd ref="6703532191"/>
    <tag k="highway" v="primary"/>
    <tag k="lit" v="no"/>
    <tag k="name" v="Blyth Road"/>
    <tag k="ref" v="A634"/>
  </way>
  <way id="474416688" version="2" timestamp="2025-04-13T21:20:16Z" changeset="164913120" uid="12616743" user="BassetlawMapper">
    <nd ref="600066125"/>
    <nd ref="4079418374"/>
    <nd ref="600066123"/>
    <nd ref="4079418353"/>
    <nd ref="4079418355"/>
    <nd ref="28271433"/>
    <nd ref="28271435"/>
    <nd ref="12753081834"/>
    <nd ref="600066131"/>
    <nd ref="28271436"/>
    <nd ref="28271437"/>
    <nd ref="35132806"/>
    <nd ref="2343416139"/>
    <nd ref="4079425273"/>
    <nd ref="4079425276"/>
    <nd ref="600066137"/>
    <nd ref="4079425275"/>
    <nd ref="35132807"/>
    <nd ref="4079425272"/>
    <nd ref="600066136"/>
    <nd ref="600066135"/>
    <nd ref="35132815"/>
    <nd ref="600066141"/>
    <nd ref="600066140"/>
    <tag k="highway" v="secondary"/>
    <tag k="lit" v="no"/>
    <tag k="name" v="Doncaster Road"/>
    <tag k="ref" v="B6463"/>
  </way>
  <way id="474427662" version="4" timestamp="2024-10-07T23:33:09Z" changeset="157602062" uid="10860083" user="jordie8396">
    <nd ref="4683872484"/>
    <nd ref="2733303045"/>
    <nd ref="2733303020"/>
    <nd ref="2733303005"/>
    <nd ref="31500444"/>
    <nd ref="31500436"/>
    <nd ref="31500438"/>
    <nd ref="31500439"/>
    <tag k="highway" v="tertiary"/>
    <tag k="lit" v="no"/>
    <tag k="maxspeed" v="60 mph"/>
    <tag k="name" v="Serlby Road"/>
    <tag k="oneway" v="no"/>
  </way>
  <way id="474428540" version="7" timestamp="2024-07-26T01:18:24Z" changeset="154416892" uid="13341565" user="Falsernet">
    <nd ref="11304898709"/>
    <nd ref="11304947839"/>
    <nd ref="11304947842"/>
    <nd ref="11304947845"/>
    <nd ref="600139683"/>
    <nd ref="11304947836"/>
    <nd ref="31499944"/>
    <nd ref="35129481"/>
    <nd ref="35129483"/>
    <nd ref="12069040237"/>
    <nd ref="361437193"/>
    <nd ref="35129530"/>
    <nd ref="35129535"/>
    <nd ref="378484099"/>
    <nd ref="378484092"/>
    <nd ref="35129540"/>
    <nd ref="9017236267"/>
    <nd ref="726821777"/>
    <nd ref="35129541"/>
    <nd ref="12074421881"/>
    <tag k="highway" v="tertiary"/>
    <tag k="lit" v="no"/>
    <tag k="maxspeed" v="60 mph"/>
    <tag k="name" v="Blyth Road"/>
  </way>
  <way id="670736872" version="2" timestamp="2024-03-01T13:03:23Z" changeset="148095907" uid="12616743" user="BassetlawMapper">
    <nd ref="6281209042"/>
    <nd ref="6281209043"/>
    <nd ref="6281209044"/>
    <nd ref="6281209045"/>
    <nd ref="6281209052"/>
    <nd ref="6281209046"/>
    <nd ref="6281209047"/>
    <nd ref="11681671322"/>
    <nd ref="11681671323"/>
    <nd ref="11681671324"/>
    <nd ref="6281209048"/>
    <nd ref="11681671320"/>
    <nd ref="11681671319"/>
    <nd ref="11681671318"/>
    <nd ref="11681671317"/>
    <tag k="highway" v="unclassified"/>
    <tag k="name" v="Lords Wood Road"/>
  </way>
  <way id="713100925" version="1" timestamp="2019-08-12T15:35:16Z" changeset="73274347" uid="84681" user="SK53">
    <nd ref="6703532191"/>
    <nd ref="436486074"/>
    <nd ref="28271422"/>
    <nd ref="28271430"/>
    <nd ref="436486079"/>
    <nd ref="436486081"/>
    <nd ref="436486084"/>
    <nd ref="28271423"/>
    <nd ref="436486086"/>
    <nd ref="28271425"/>
    <nd ref="28271426"/>
    <nd ref="28271427"/>
    <tag k="highway" v="primary"/>
    <tag k="lit" v="no"/>
    <tag k="name" v="Blyth Road"/>
    <tag k="ref" v="A634"/>
  </way>
  <way id="779096617" version="5" timestamp="2025-09-21T22:52:26Z" changeset="172268513" uid="8857" user="philipcullen">
    <nd ref="7274296226"/>
    <nd ref="7274296224"/>
    <nd ref="7274296216"/>
    <nd ref="7274296221"/>
    <nd ref="7274296227"/>
    <nd ref="7274296214"/>
    <nd ref="7274296226"/>
    <tag k="addr:postcode" v="S81 8HT"/>
    <tag k="amenity" v="place_of_worship"/>
    <tag k="building" v="church"/>
    <tag k="denomination" v="anglican"/>
    <tag k="name" v="St Mark"/>
    <tag k="ref:GB:uprn" v="10013979245"/>
    <tag k="religion" v="christian"/>
    <tag k="wikidata" v="Q11925832"/>
    <tag k="wikipedia" v="en:St Mark's Church, Oldcotes"/>
  </way>
  <way id="1025307729" version="1" timestamp="2022-01-27T19:04:47Z" changeset="116679072" uid="8871564" user="AndAndrew">
    <nd ref="31500022"/>
    <nd ref="2733302991"/>
    <nd ref="2733302999"/>
    <nd ref="2733302996"/>
    <nd ref="2733303041"/>
    <nd ref="33945140"/>
    <nd ref="3379703324"/>
    <tag k="highway" v="tertiary"/>
    <tag k="lit" v="no"/>
    <tag k="name" v="Snape Lane"/>
    <tag k="source:name" v="OS_OpenRoads"/>
  </way>
  <way id="1080104416" version="4" timestamp="2024-12-28T22:47:05Z" changeset="160732059" uid="8857" user="philipcullen">
    <nd ref="9900407632"/>
    <nd ref="9900407633"/>
    <nd ref="9900407634"/>
    <nd ref="9900407635"/>
    <nd ref="9900407636"/>
    <nd ref="9900407637"/>
    <nd ref="10876832100"/>
    <nd ref="10876832101"/>
    <nd ref="9900407632"/>
    <tag k="addr:city" v="Worksop"/>
    <tag k="addr:postcode" v="S81 8JN"/>
    <tag k="addr:street" v="Maltby Road"/>
    <tag k="addr:suburb" v="Oldcotes"/>
    <tag k="amenity" v="community_centre"/>
    <tag k="building" v="public"/>
    <tag k="community_centre" v="village_hall"/>
    <tag k="name" v="Oldcotes Village Hall"/>
    <tag k="ref:GB:uprn" v="100032188292"/>
  </way>
  <way id="1159894929" version="3" timestamp="2025-02-21T16:36:31Z" changeset="162788539" uid="6739258" user="John Stanworth">
    <nd ref="10787072711"/>
    <nd ref="10787072710"/>
    <nd ref="12607292189"/>
    <nd ref="10787072707"/>
    <nd ref="10787072709"/>
    <nd ref="10788578524"/>
    <nd ref="10787072711"/>
    <tag k="building" v="shed"/>
    <tag k="leisure" v="indoor_play"/>
    <tag k="name" v="Kidz Hub"/>
  </way>
  <way id="1220056741" version="1" timestamp="2023-11-01T16:02:15Z" changeset="143483357" uid="10860083" user="jordie8396">
    <nd ref="31500022"/>
    <nd ref="31499989"/>
    <nd ref="481342087"/>
    <nd ref="481342086"/>
    <nd ref="33945122"/>
    <nd ref="33945125"/>
    <nd ref="33945127"/>
    <tag k="highway" v="trunk"/>
    <tag k="lanes" v="2"/>
    <tag k="lit" v="no"/>
    <tag k="maxspeed" v="60 mph"/>
    <tag k="maxspeed:type" v="GB:nsl_single"/>
    <tag k="name" v="Bawtry Road"/>
    <tag k="ref" v="A614"/>
    <tag k="source:maxspeed" v="survey;mapillary"/>
    <tag k="source:name" v="OS_OpenData_Locator"/>
    <tag k="surface" v="asphalt"/>
  </way>
  <way id="1220056742" version="1" timestamp="2023-11-01T16:02:15Z" changeset="143483357" uid="10860083" user="jordie8396">
    <nd ref="4683877567"/>
    <nd ref="11304898709"/>
    <tag k="highway" v="tertiary"/>
    <tag k="lit" v="no"/>
    <tag k="maxspeed" v="40 mph"/>
    <tag k="name" v="Blyth Road"/>
  </way>
  <way id="1220056743" version="2" timestamp="2024-10-07T23:33:09Z" changeset="157602062" uid="10860083" user="jordie8396">
    <nd ref="11304898710"/>
    <nd ref="31500402"/>
    <tag k="highway" v="tertiary"/>
    <tag k="lit" v="yes"/>
    <tag k="maxspeed" v="40 mph"/>
    <tag k="name" v="Serlby Road"/>
  </way>
  <way id="1256570628" version="1" timestamp="2024-03-01T13:03:23Z" changeset="148095907" uid="12616743" user="BassetlawMapper">
    <nd ref="11681671294"/>
    <nd ref="11681671284"/>
    <nd ref="11681671281"/>
    <nd ref="11681671282"/>
    <nd ref="11681671283"/>
    <nd ref="11681671291"/>
    <nd ref="11681671289"/>
    <nd ref="11681671290"/>
    <nd ref="11681671287"/>
    <nd ref="11681671286"/>
    <nd ref="11681671285"/>
    <nd ref="11681671288"/>
    <nd ref="11681671296"/>
    <nd ref="11681671297"/>
    <nd ref="11681671298"/>
    <nd ref="11681671295"/>
    <nd ref="11681671292"/>
    <nd ref="11681671293"/>
    <nd ref="11681671294"/>
    <tag k="building" v="yes"/>
    <tag k="name" v="Harworth House"/>
  </way>
  <way id="1303178385" version="2" timestamp="2024-07-23T01:13:04Z" changeset="154284953" uid="10860083" user="jordie8396">
    <nd ref="12069037032"/>
    <nd ref="12069037033"/>
    <nd ref="12069037034"/>
    <nd ref="12069037035"/>
    <nd ref="12069037036"/>
    <nd ref="12069037037"/>
    <nd ref="12069037038"/>
    <nd ref="12069037039"/>
    <nd ref="12069037040"/>
    <nd ref="12069037041"/>
    <nd ref="12069037042"/>
    <nd ref="12069037043"/>
    <nd ref="12069037032"/>
    <tag k="building" v="warehouse"/>
    <tag k="name" v="Unit 2"/>
  </way>
  <way id="1303178386" version="4" timestamp="2025-09-21T22:52:26Z" changeset="172268513" uid="8857" user="philipcullen">
    <nd ref="12069037044"/>
    <nd ref="12069037045"/>
    <nd ref="12069037046"/>
    <nd ref="12069037047"/>
    <nd ref="12069037048"/>
    <nd ref="12069037049"/>
    <nd ref="12069037050"/>
    <nd ref="12069037051"/>
    <nd ref="12069037052"/>
    <nd ref="12069037053"/>
    <nd ref="12069037054"/>
    <nd ref="12069037055"/>
    <nd ref="12069037056"/>
    <nd ref="12069037057"/>
    <nd ref="12069037058"/>
    <nd ref="12069037059"/>
    <nd ref="12069037060"/>
    <nd ref="12069037061"/>
    <nd ref="12069037062"/>
    <nd ref="12069037063"/>
    <nd ref="12069037064"/>
    <nd ref="12069037065"/>
    <nd ref="12069037066"/>
    <nd ref="12069037067"/>
    <nd ref="12069037068"/>
    <nd ref="12069040169"/>
    <nd ref="12069040170"/>
    <nd ref="12069040171"/>
    <nd ref="12069037044"/>
    <tag k="addr:postcode" v="S81 8GN"/>
    <tag k="building" v="warehouse"/>
    <tag k="description" v="GXO (Culina), Currys DSG Distribution"/>
    <tag k="name" v="Unit 1"/>
    <tag k="ref:GB:uprn" v="10095526773"/>
  </way>
  <way id="1322008694" version="1" timestamp="2024-10-08T01:12:53Z" changeset="157603553" uid="10860083" user="jordie8396">
    <nd ref="2733302989"/>
    <nd ref="31500022"/>
    <tag k="highway" v="trunk"/>
    <tag k="lanes" v="2"/>
    <tag k="lit" v="no"/>
    <tag k="maxspeed" v="60 mph"/>
    <tag k="maxspeed:type" v="GB:nsl_single"/>
    <tag k="name" v="Bawtry Road"/>
    <tag k="ref" v="A614"/>
    <tag k="source:maxspeed" v="survey;mapillary"/>
    <tag k="source:name" v="OS_OpenData_Locator"/>
    <tag k="surface" v="asphalt"/>
  </way>
  <way id="1322008722" version="1" timestamp="2024-10-08T01:12:53Z" changeset="157603553" uid="10860083" user="jordie8396">
    <nd ref="2733302972"/>
    <nd ref="443882345"/>
    <nd ref="443882352"/>
    <nd ref="443882354"/>
    <nd ref="6905354709"/>
    <tag k="highway" v="secondary"/>
    <tag k="lit" v="yes"/>
    <tag k="name" v="Styrrup Road"/>
    <tag k="ref" v="B6463"/>
  </way>
  <way id="1322008723" version="1" timestamp="2024-10-08T01:12:53Z" changeset="157603553" uid="10860083" user="jordie8396">
    <nd ref="6905354709"/>
    <nd ref="35132822"/>
    <nd ref="443882374"/>
    <nd ref="443882377"/>
    <nd ref="443882728"/>
    <nd ref="35132823"/>
    <nd ref="11623032126"/>
    <nd ref="35129797"/>
    <tag k="highway" v="secondary"/>
    <tag k="lit" v="yes"/>
    <tag k="name" v="Styrrup Road"/>
    <tag k="ref" v="B6463"/>
  </way>
  <way id="1361736900" version="2" timestamp="2025-03-31T14:13:57Z" changeset="164332731" uid="493595" user="Yorvik Prestigitator">
    <nd ref="12607339022"/>
    <nd ref="12607339025"/>
    <nd ref="12607339029"/>
    <nd ref="12607339028"/>
    <nd ref="12607339031"/>
    <nd ref="12607339027"/>
    <nd ref="12607339024"/>
    <nd ref="12607339023"/>
    <nd ref="12607339026"/>
    <nd ref="12607339030"/>
    <nd ref="12607339022"/>
    <tag k="addr:city" v="Styrrup"/>
    <tag k="addr:street" v="Serlby Road"/>
    <tag k="amenity" v="community_centre"/>
    <tag k="building" v="public"/>
    <tag k="community_centre" v="village_hall"/>
    <tag k="name" v="Styrrup Village Hall"/>
  </way>
  <way id="1377202276" version="1" timestamp="2025-04-13T11:35:49Z" changeset="164890183" uid="12616743" user="BassetlawMapper">
    <nd ref="12752220843"/>
    <nd ref="12752220844"/>
    <nd ref="12752220837"/>
    <nd ref="12752220836"/>
    <nd ref="12752220838"/>
    <nd ref="12752220845"/>
    <nd ref="12752220842"/>
    <nd ref="12752220833"/>
    <nd ref="12752220834"/>
    <nd ref="12752220835"/>
    <nd ref="12752220841"/>
    <nd ref="12752220840"/>
    <nd ref="12752220839"/>
    <nd ref="12752220843"/>
    <tag k="amenity" v="place_of_worship"/>
    <tag k="building" v="church"/>
    <tag k="denomination" v="catholic"/>
    <tag k="name" v="Saint Helen's"/>
    <tag k="religion" v="christian"/>
    <tag k="wikidata" v="Q26518775"/>
  </way>
  <way id="1377202280" version="1" timestamp="2025-04-13T11:35:49Z" changeset="164890183" uid="12616743" user="BassetlawMapper">
    <nd ref="12752220867"/>
    <nd ref="12752220864"/>
    <nd ref="12752220865"/>
    <nd ref="12752220866"/>
    <nd ref="12752220867"/>
    <tag k="addr:city" v="Worksop"/>
    <tag k="addr:postcode" v="S81 8HT"/>
    <tag k="addr:street" v="Doncaster Road"/>
    <tag k="addr:suburb" v="Oldcotes"/>
    <tag k="amenity" v="cafe"/>
    <tag k="building" v="yes"/>
    <tag k="name" v="Oldcotes Cafe"/>
  </way>

</osm>
