<?xml version="1.0" encoding="UTF-8"?>
<osm version="0.6" generator="Overpass API 0.7.62.8 e802775f">
<note>The data included in this document is from www.openstreetmap.org. The data is made available under ODbL.</note>
<meta osm_base="2025-10-23T17:33:45Z" areas="2025-10-23T12:46:58Z"/>

  <node id="324366563" lat="53.0604343" lon="-0.9127403" version="26" timestamp="2010-03-07T10:11:10Z" changeset="4058984" uid="137724" user="BobJF"/>
  <node id="333268859" lat="53.0647764" lon="-0.9010378" version="12" timestamp="2025-04-22T10:01:54Z" changeset="165276522" uid="5229644" user="Nathan_A_RF">
    <tag k="crossing:light" v="yes"/>
    <tag k="railway" v="level_crossing"/>
  </node>
  <node id="821885473" lat="53.0555031" lon="-0.8930036" version="2" timestamp="2025-04-22T10:09:41Z" changeset="165276858" uid="5229644" user="Nathan_A_RF"/>
  <node id="3934891146" lat="53.0400703" lon="-0.9300469" version="1" timestamp="2016-01-08T23:46:05Z" changeset="36456086" uid="161875" user="Willumm"/>
  <node id="4003484980" lat="53.0641769" lon="-0.9210645" version="2" timestamp="2024-05-15T09:11:58Z" changeset="151348664" uid="6714692" user="Fingrmouse"/>
  <node id="11906676500" lat="53.0372393" lon="-0.9225698" version="1" timestamp="2024-05-15T09:11:58Z" changeset="151348664" uid="6714692" user="Fingrmouse"/>
  <way id="29431219" version="23" timestamp="2025-04-22T10:27:06Z" changeset="165277633" uid="5229644" user="Nathan_A_RF">
    <nd ref="324366563"/>
    <nd ref="3166586267"/>
    <nd ref="602765907"/>
    <nd ref="480436270"/>
    <nd ref="8977135504"/>
    <nd ref="3966935966"/>
    <nd ref="8977135503"/>
    <nd ref="324366564"/>
    <nd ref="333272702"/>
    <nd ref="485656319"/>
    <nd ref="324366565"/>
    <nd ref="324366566"/>
    <nd ref="333272707"/>
    <nd ref="324366567"/>
    <nd ref="333272711"/>
    <tag k="highway" v="tertiary"/>
    <tag k="maxspeed" v="60 mph"/>
    <tag k="maxspeed:type" v="GB:nsl_single"/>
    <tag k="name" v="Station Road"/>
  </way>
  <way id="29431235" version="13" timestamp="2025-04-22T10:27:06Z" changeset="165277633" uid="5229644" user="Nathan_A_RF">
    <nd ref="324366936"/>
    <nd ref="324367013"/>
    <nd ref="324367016"/>
    <nd ref="485656731"/>
    <nd ref="6525029989"/>
    <nd ref="485656653"/>
    <nd ref="324367020"/>
    <nd ref="7291038118"/>
    <nd ref="324367022"/>
    <nd ref="494251140"/>
    <nd ref="3934795020"/>
    <tag k="highway" v="residential"/>
    <tag k="maxspeed" v="30 mph"/>
    <tag k="name" v="Gravelly Lane"/>
  </way>
  <way id="29431251" version="8" timestamp="2025-04-22T10:27:06Z" changeset="165277633" uid="5229644" user="Nathan_A_RF">
    <nd ref="324367065"/>
    <nd ref="3934795021"/>
    <tag k="highway" v="residential"/>
    <tag k="maxspeed" v="30 mph"/>
    <tag k="name" v="Clay Pit Lane"/>
    <tag k="source" v="gps"/>
  </way>
  <way id="29431260" version="5" timestamp="2025-04-22T10:27:06Z" changeset="165277633" uid="5229644" user="Nathan_A_RF">
    <nd ref="324367409"/>
    <nd ref="2108927675"/>
    <nd ref="324367410"/>
    <tag k="highway" v="unclassified"/>
    <tag k="maxspeed" v="30 mph"/>
    <tag k="name" v="Church Lane"/>
  </way>
  <way id="29431263" version="9" timestamp="2016-01-08T23:02:33Z" changeset="36455543" uid="161875" user="Willumm">
    <nd ref="2108927643"/>
    <nd ref="2108927645"/>
    <nd ref="2108927646"/>
    <nd ref="324367439"/>
    <nd ref="494252502"/>
    <nd ref="324367440"/>
    <nd ref="324367441"/>
    <nd ref="324367442"/>
    <nd ref="333275421"/>
    <tag k="highway" v="residential"/>
    <tag k="maxspeed" v="30 mph"/>
    <tag k="name" v="Moor Lane"/>
    <tag k="oneway" v="no"/>
    <tag k="source:name" v="OS_OpenData_Locator"/>
  </way>
  <way id="29431271" version="3" timestamp="2013-01-13T14:09:53Z" changeset="14634609" uid="188349" user="MatSmith">
    <nd ref="324367450"/>
    <nd ref="324367409"/>
    <tag k="highway" v="unclassified"/>
    <tag k="name" v="Manor Drive"/>
  </way>
  <way id="29468147" version="19" timestamp="2025-04-22T10:09:41Z" changeset="165276858" uid="5229644" user="Nathan_A_RF">
    <nd ref="324357952"/>
    <nd ref="9020931139"/>
    <nd ref="658763017"/>
    <nd ref="658763021"/>
    <nd ref="324366572"/>
    <nd ref="658763022"/>
    <tag k="highway" v="tertiary"/>
    <tag k="maxspeed" v="30 mph"/>
    <tag k="name" v="Main Street"/>
    <tag k="source" v="GPS"/>
    <tag k="source:name" v="NaPTAN"/>
  </way>
  <way id="30256290" version="14" timestamp="2025-04-22T10:01:54Z" changeset="165276522" uid="5229644" user="Nathan_A_RF">
    <nd ref="333268859"/>
    <nd ref="3166586563"/>
    <nd ref="9043691492"/>
    <nd ref="1210373756"/>
    <nd ref="324366598"/>
    <nd ref="11904652627"/>
    <nd ref="1210373775"/>
    <nd ref="324366600"/>
    <nd ref="324366601"/>
    <nd ref="11904652929"/>
    <nd ref="324366602"/>
    <nd ref="11904652945"/>
    <nd ref="6901691678"/>
    <nd ref="11903385225"/>
    <nd ref="8977273289"/>
    <nd ref="12775246760"/>
    <nd ref="324366563"/>
    <tag k="highway" v="unclassified"/>
    <tag k="maxspeed" v="60 mph"/>
    <tag k="maxspeed:type" v="GB:nsl_single"/>
    <tag k="name" v="Occupation Lane"/>
    <tag k="source" v="Bing"/>
    <tag k="source:name" v="OS_OpenData_Locator"/>
  </way>
  <way id="39986753" version="15" timestamp="2025-04-22T12:54:56Z" changeset="165284583" uid="5229644" user="Nathan_A_RF">
    <nd ref="8624805428"/>
    <nd ref="324358143"/>
    <nd ref="11905018730"/>
    <nd ref="2108927686"/>
    <nd ref="324358144"/>
    <nd ref="494252643"/>
    <nd ref="494252594"/>
    <nd ref="6904795809"/>
    <nd ref="324358146"/>
    <nd ref="494251863"/>
    <nd ref="324358147"/>
    <tag k="highway" v="unclassified"/>
    <tag k="maxspeed" v="60 mph"/>
    <tag k="maxspeed:type" v="GB:nsl_single"/>
    <tag k="name" v="Gorsy Lane"/>
  </way>
  <way id="39989151" version="20" timestamp="2025-04-22T12:54:56Z" changeset="165284583" uid="5229644" user="Nathan_A_RF">
    <nd ref="11906676500"/>
    <nd ref="11906676497"/>
    <nd ref="658766960"/>
    <nd ref="11906676502"/>
    <nd ref="324769920"/>
    <nd ref="11906676503"/>
    <nd ref="658766961"/>
    <nd ref="7174234673"/>
    <nd ref="658766965"/>
    <nd ref="658766967"/>
    <nd ref="658766969"/>
    <nd ref="658766973"/>
    <nd ref="658766977"/>
    <nd ref="324357931"/>
    <nd ref="658766981"/>
    <nd ref="658766984"/>
    <nd ref="658766985"/>
    <nd ref="658766987"/>
    <nd ref="658766990"/>
    <nd ref="324769921"/>
    <nd ref="6782924742"/>
    <nd ref="324357932"/>
    <nd ref="503688496"/>
    <nd ref="658766992"/>
    <nd ref="324357934"/>
    <nd ref="658766995"/>
    <nd ref="324358243"/>
    <nd ref="658766998"/>
    <nd ref="658767000"/>
    <nd ref="324357935"/>
    <nd ref="658767005"/>
    <nd ref="503689452"/>
    <nd ref="494251542"/>
    <nd ref="324357936"/>
    <nd ref="658767007"/>
    <nd ref="658767009"/>
    <nd ref="658767012"/>
    <nd ref="324357938"/>
    <nd ref="324357939"/>
    <nd ref="324357940"/>
    <nd ref="324357941"/>
    <nd ref="480436226"/>
    <nd ref="324357942"/>
    <tag k="highway" v="tertiary"/>
    <tag k="maxspeed" v="60 mph"/>
    <tag k="maxspeed:type" v="GB:nsl_single"/>
    <tag k="name" v="Main Street"/>
    <tag k="source" v="GPS"/>
    <tag k="source:name" v="NaPTAN"/>
  </way>
  <way id="39989395" version="7" timestamp="2025-04-22T10:27:06Z" changeset="165277633" uid="5229644" user="Nathan_A_RF">
    <nd ref="333273194"/>
    <nd ref="11903344231"/>
    <nd ref="11903344232"/>
    <nd ref="4003487150"/>
    <nd ref="333273197"/>
    <nd ref="11903344236"/>
    <nd ref="4003487148"/>
    <nd ref="333273198"/>
    <nd ref="11903344235"/>
    <nd ref="11903344234"/>
    <nd ref="3166586264"/>
    <nd ref="602767567"/>
    <nd ref="11903344233"/>
    <nd ref="480436293"/>
    <nd ref="333273201"/>
    <nd ref="333275419"/>
    <tag k="highway" v="unclassified"/>
    <tag k="maxspeed" v="60 mph"/>
    <tag k="maxspeed:type" v="GB:nsl_single"/>
    <tag k="name" v="Causeway Lane"/>
  </way>
  <way id="40270118" version="9" timestamp="2025-04-22T10:27:06Z" changeset="165277633" uid="5229644" user="Nathan_A_RF">
    <nd ref="485656319"/>
    <nd ref="485656320"/>
    <nd ref="7298572896"/>
    <nd ref="324367402"/>
    <nd ref="485656308"/>
    <nd ref="324367403"/>
    <nd ref="324367404"/>
    <nd ref="324367027"/>
    <tag k="highway" v="unclassified"/>
    <tag k="maxspeed" v="60 mph"/>
    <tag k="maxspeed:type" v="GB:nsl_single"/>
    <tag k="name" v="Wilson's Lane"/>
    <tag k="source" v="gps"/>
  </way>
  <way id="40270865" version="6" timestamp="2025-04-22T10:27:06Z" changeset="165277633" uid="5229644" user="Nathan_A_RF">
    <nd ref="324367027"/>
    <nd ref="6784689444"/>
    <nd ref="324367405"/>
    <nd ref="324367410"/>
    <tag k="highway" v="unclassified"/>
    <tag k="maxspeed" v="60 mph"/>
    <tag k="maxspeed:type" v="GB:nsl_single"/>
    <tag k="name" v="Main Street"/>
  </way>
  <way id="40271061" version="3" timestamp="2016-01-08T23:02:37Z" changeset="36455543" uid="161875" user="Willumm">
    <nd ref="485656648"/>
    <nd ref="485656649"/>
    <nd ref="485656650"/>
    <nd ref="485656651"/>
    <nd ref="485656652"/>
    <nd ref="485656653"/>
    <tag k="highway" v="residential"/>
    <tag k="maxspeed" v="30 mph"/>
    <tag k="name" v="Longmead Drive"/>
    <tag k="oneway" v="no"/>
    <tag k="source" v="gps"/>
  </way>
  <way id="40271065" version="2" timestamp="2016-01-08T23:02:37Z" changeset="36455543" uid="161875" user="Willumm">
    <nd ref="485656715"/>
    <nd ref="485656649"/>
    <tag k="highway" v="residential"/>
    <tag k="maxspeed" v="30 mph"/>
    <tag k="name" v="Longmead Drive"/>
    <tag k="oneway" v="no"/>
    <tag k="source" v="gps"/>
  </way>
  <way id="40271073" version="3" timestamp="2016-01-08T23:02:35Z" changeset="36455543" uid="161875" user="Willumm">
    <nd ref="485656760"/>
    <nd ref="485656761"/>
    <nd ref="485656762"/>
    <tag k="highway" v="residential"/>
    <tag k="maxspeed" v="30 mph"/>
    <tag k="name" v="Marlock Close"/>
    <tag k="oneway" v="no"/>
    <tag k="source" v="gps"/>
  </way>
  <way id="40271074" version="2" timestamp="2009-09-06T10:41:40Z" changeset="2388457" uid="161875" user="Willumm">
    <nd ref="485656763"/>
    <nd ref="485656761"/>
    <tag k="highway" v="residential"/>
    <tag k="name" v="Marlock Close"/>
    <tag k="source" v="gps"/>
  </way>
  <way id="40271075" version="6" timestamp="2016-01-08T23:02:36Z" changeset="36455543" uid="161875" user="Willumm">
    <nd ref="485656772"/>
    <nd ref="485656773"/>
    <nd ref="485657014"/>
    <tag k="highway" v="residential"/>
    <tag k="maxspeed" v="30 mph"/>
    <tag k="name" v="Green Drive"/>
    <tag k="oneway" v="no"/>
    <tag k="source" v="gps"/>
    <tag k="source:name" v="OS_OpenData_Locator"/>
  </way>
  <way id="40271105" version="2" timestamp="2016-01-08T23:02:35Z" changeset="36455543" uid="161875" user="Willumm">
    <nd ref="485657000"/>
    <nd ref="485656764"/>
    <tag k="highway" v="residential"/>
    <tag k="maxspeed" v="30 mph"/>
    <tag k="name" v="Marlock Close"/>
    <tag k="oneway" v="no"/>
    <tag k="source" v="gps"/>
  </way>
  <way id="40271109" version="2" timestamp="2016-01-08T23:02:36Z" changeset="36455543" uid="161875" user="Willumm">
    <nd ref="485657013"/>
    <nd ref="485657014"/>
    <tag k="highway" v="residential"/>
    <tag k="maxspeed" v="30 mph"/>
    <tag k="oneway" v="no"/>
  </way>
  <way id="40271110" version="2" timestamp="2016-01-08T23:02:37Z" changeset="36455543" uid="161875" user="Willumm">
    <nd ref="485657016"/>
    <nd ref="485656648"/>
    <tag k="highway" v="residential"/>
    <tag k="maxspeed" v="30 mph"/>
    <tag k="oneway" v="no"/>
  </way>
  <way id="40271111" version="3" timestamp="2016-01-08T23:02:36Z" changeset="36455543" uid="161875" user="Willumm">
    <nd ref="485657017"/>
    <nd ref="485656772"/>
    <tag k="highway" v="residential"/>
    <tag k="maxspeed" v="30 mph"/>
    <tag k="oneway" v="no"/>
  </way>
  <way id="40271133" version="3" timestamp="2016-01-08T23:02:36Z" changeset="36455543" uid="161875" user="Willumm">
    <nd ref="485657283"/>
    <nd ref="485657285"/>
    <nd ref="485657288"/>
    <nd ref="485657290"/>
    <nd ref="485657292"/>
    <tag k="highway" v="residential"/>
    <tag k="maxspeed" v="30 mph"/>
    <tag k="oneway" v="no"/>
  </way>
  <way id="40271136" version="5" timestamp="2016-01-08T23:02:36Z" changeset="36455543" uid="161875" user="Willumm">
    <nd ref="485657309"/>
    <nd ref="3354856446"/>
    <nd ref="485657292"/>
    <nd ref="485656772"/>
    <tag k="highway" v="residential"/>
    <tag k="maxspeed" v="30 mph"/>
    <tag k="name" v="Green Drive"/>
    <tag k="oneway" v="no"/>
    <tag k="source:name" v="OS_OpenData_Locator"/>
  </way>
  <way id="40710853" version="6" timestamp="2025-04-22T10:09:41Z" changeset="165276858" uid="5229644" user="Nathan_A_RF">
    <nd ref="480436310"/>
    <nd ref="324366573"/>
    <nd ref="333271783"/>
    <nd ref="324366574"/>
    <nd ref="658762014"/>
    <nd ref="333271786"/>
    <nd ref="821885473"/>
    <tag k="highway" v="tertiary"/>
    <tag k="maxspeed" v="60 mph"/>
    <tag k="maxspeed:type" v="GB:nsl_single"/>
  </way>
  <way id="68248479" version="5" timestamp="2025-04-22T10:09:41Z" changeset="165276858" uid="5229644" user="Nathan_A_RF">
    <nd ref="658763022"/>
    <nd ref="8852583478"/>
    <nd ref="6866200228"/>
    <nd ref="658763023"/>
    <nd ref="333271780"/>
    <nd ref="821885413"/>
    <nd ref="480436310"/>
    <tag k="highway" v="tertiary"/>
    <tag k="maxspeed" v="60 mph"/>
    <tag k="maxspeed:type" v="GB:nsl_single"/>
    <tag k="name" v="Main Street"/>
    <tag k="source" v="GPS"/>
    <tag k="source:name" v="NaPTAN"/>
  </way>
  <way id="68248491" version="5" timestamp="2025-04-22T10:09:41Z" changeset="165276858" uid="5229644" user="Nathan_A_RF">
    <nd ref="821885473"/>
    <nd ref="324366575"/>
    <tag k="bridge" v="yes"/>
    <tag k="highway" v="tertiary"/>
    <tag k="layer" v="1"/>
    <tag k="maxspeed" v="60 mph"/>
    <tag k="maxspeed:type" v="GB:nsl_single"/>
  </way>
  <way id="185467716" version="11" timestamp="2025-04-22T10:27:06Z" changeset="165277633" uid="5229644" user="Nathan_A_RF">
    <nd ref="324366563"/>
    <nd ref="3946883870"/>
    <nd ref="3946883871"/>
    <nd ref="6901691673"/>
    <nd ref="324366749"/>
    <nd ref="11904872648"/>
    <nd ref="11904872655"/>
    <nd ref="324366751"/>
    <nd ref="11904872654"/>
    <nd ref="1960737095"/>
    <nd ref="11347289763"/>
    <tag k="highway" v="tertiary"/>
    <tag k="maxspeed" v="60 mph"/>
    <tag k="maxspeed:type" v="GB:nsl_single"/>
    <tag k="name" v="Fiskerton Road"/>
  </way>
  <way id="200933825" version="4" timestamp="2025-04-22T10:27:06Z" changeset="165277633" uid="5229644" user="Nathan_A_RF">
    <nd ref="333275421"/>
    <nd ref="324367450"/>
    <nd ref="2108927638"/>
    <nd ref="7825487317"/>
    <nd ref="324367407"/>
    <tag k="highway" v="unclassified"/>
    <tag k="maxspeed" v="30 mph"/>
    <tag k="name" v="Middle Lane"/>
  </way>
  <way id="200933826" version="2" timestamp="2016-01-08T23:02:33Z" changeset="36455543" uid="161875" user="Willumm">
    <nd ref="324367442"/>
    <nd ref="2108927639"/>
    <nd ref="2108927640"/>
    <nd ref="2108927641"/>
    <tag k="highway" v="residential"/>
    <tag k="maxspeed" v="30 mph"/>
    <tag k="name" v="Back Lane"/>
    <tag k="oneway" v="no"/>
  </way>
  <way id="200934697" version="5" timestamp="2024-05-14T18:56:43Z" changeset="151328030" uid="6714692" user="Fingrmouse">
    <nd ref="1927132350"/>
    <nd ref="324358141"/>
    <nd ref="324358142"/>
    <nd ref="11905018725"/>
    <nd ref="6313283807"/>
    <nd ref="11905018726"/>
    <nd ref="3964924412"/>
    <nd ref="11905018727"/>
    <nd ref="3166586461"/>
    <nd ref="6313283806"/>
    <tag k="bicycle" v="designated"/>
    <tag k="designation" v="public_bridleway"/>
    <tag k="foot" v="designated"/>
    <tag k="highway" v="unclassified"/>
    <tag k="horse" v="designated"/>
    <tag k="name" v="Gorsy Lane"/>
    <tag k="prow_ref" v="181/6"/>
    <tag k="surface" v="paved"/>
  </way>
  <way id="227146965" version="2" timestamp="2016-01-08T23:02:35Z" changeset="36455543" uid="161875" user="Willumm">
    <nd ref="485657014"/>
    <nd ref="485656774"/>
    <nd ref="485656775"/>
    <nd ref="485656776"/>
    <nd ref="485656764"/>
    <nd ref="485656765"/>
    <nd ref="485656766"/>
    <nd ref="485656767"/>
    <nd ref="485656760"/>
    <nd ref="485656768"/>
    <nd ref="485656769"/>
    <tag k="highway" v="residential"/>
    <tag k="maxspeed" v="30 mph"/>
    <tag k="name" v="Marlock Close"/>
    <tag k="oneway" v="no"/>
    <tag k="source" v="gps"/>
  </way>
  <way id="227146968" version="3" timestamp="2024-05-15T09:11:58Z" changeset="151348664" uid="6714692" user="Fingrmouse">
    <nd ref="324366563"/>
    <nd ref="8145416568"/>
    <nd ref="11906675675"/>
    <nd ref="11906675676"/>
    <nd ref="11906675745"/>
    <nd ref="11906675826"/>
    <nd ref="11906675979"/>
    <nd ref="2358777342"/>
    <tag k="highway" v="unclassified"/>
    <tag k="name" v="Station Lane"/>
    <tag k="source" v="Bing"/>
  </way>
  <way id="227146970" version="6" timestamp="2025-04-22T12:54:56Z" changeset="165284583" uid="5229644" user="Nathan_A_RF">
    <nd ref="324358147"/>
    <nd ref="2108927691"/>
    <nd ref="8366706622"/>
    <nd ref="8925991409"/>
    <nd ref="324358148"/>
    <nd ref="8366706623"/>
    <nd ref="333275899"/>
    <nd ref="324358149"/>
    <nd ref="480437889"/>
    <nd ref="7286919556"/>
    <nd ref="2108927695"/>
    <nd ref="324358150"/>
    <nd ref="2108927698"/>
    <nd ref="333275900"/>
    <nd ref="2108927701"/>
    <nd ref="324357941"/>
    <tag k="highway" v="unclassified"/>
    <tag k="maxspeed" v="60 mph"/>
    <tag k="maxspeed:type" v="GB:nsl_single"/>
    <tag k="name" v="Cooks Lane"/>
    <tag k="source" v="Bing"/>
    <tag k="source:name" v="OS_OpenData_Locator"/>
  </way>
  <way id="227146977" version="2" timestamp="2016-01-08T23:02:33Z" changeset="36455543" uid="161875" user="Willumm">
    <nd ref="2358777340"/>
    <nd ref="324367407"/>
    <tag k="highway" v="residential"/>
    <tag k="maxspeed" v="30 mph"/>
    <tag k="name" v="Daybill Close"/>
    <tag k="oneway" v="no"/>
    <tag k="source" v="Bing"/>
    <tag k="source:name" v="OS_OpenData_Locator"/>
  </way>
  <way id="227146981" version="2" timestamp="2016-01-08T23:02:33Z" changeset="36455543" uid="161875" user="Willumm">
    <nd ref="2358777344"/>
    <nd ref="2358777332"/>
    <nd ref="2358777334"/>
    <nd ref="2358777336"/>
    <nd ref="2358777338"/>
    <tag k="highway" v="residential"/>
    <tag k="maxspeed" v="30 mph"/>
    <tag k="oneway" v="no"/>
    <tag k="source" v="Bing"/>
  </way>
  <way id="264213940" version="2" timestamp="2016-01-08T23:02:37Z" changeset="36455543" uid="161875" user="Willumm">
    <nd ref="485656648"/>
    <nd ref="2698762347"/>
    <nd ref="2698762349"/>
    <tag k="bicycle" v="yes"/>
    <tag k="foot" v="yes"/>
    <tag k="highway" v="residential"/>
    <tag k="maxspeed" v="30 mph"/>
    <tag k="name" v="Longmead Drive"/>
    <tag k="oneway" v="no"/>
  </way>
  <way id="264214480" version="2" timestamp="2016-01-08T23:02:36Z" changeset="36455543" uid="161875" user="Willumm">
    <nd ref="485657016"/>
    <nd ref="2698771206"/>
    <tag k="highway" v="residential"/>
    <tag k="maxspeed" v="30 mph"/>
    <tag k="name" v="Longmead Drive"/>
    <tag k="oneway" v="no"/>
  </way>
  <way id="328667686" version="2" timestamp="2016-01-08T23:02:36Z" changeset="36455543" uid="161875" user="Willumm">
    <nd ref="3354856422"/>
    <nd ref="3354856423"/>
    <nd ref="3354856424"/>
    <tag k="access" v="private"/>
    <tag k="highway" v="unclassified"/>
    <tag k="maxspeed" v="30 mph"/>
    <tag k="oneway" v="no"/>
  </way>
  <way id="328667690" version="2" timestamp="2016-01-08T23:02:36Z" changeset="36455543" uid="161875" user="Willumm">
    <nd ref="3354856446"/>
    <nd ref="3354856447"/>
    <tag k="highway" v="residential"/>
    <tag k="maxspeed" v="30 mph"/>
    <tag k="oneway" v="no"/>
  </way>
  <way id="390322924" version="3" timestamp="2025-04-22T10:27:06Z" changeset="165277633" uid="5229644" user="Nathan_A_RF">
    <nd ref="333275419"/>
    <nd ref="3966932153"/>
    <nd ref="333275420"/>
    <nd ref="333275421"/>
    <tag k="highway" v="unclassified"/>
    <tag k="maxspeed" v="30 mph"/>
    <tag k="name" v="Causeway Lane"/>
  </way>
  <way id="390322925" version="4" timestamp="2025-04-22T10:27:06Z" changeset="165277633" uid="5229644" user="Nathan_A_RF">
    <nd ref="324367410"/>
    <nd ref="480436359"/>
    <nd ref="324367406"/>
    <nd ref="324367407"/>
    <nd ref="2358777338"/>
    <nd ref="2108927641"/>
    <nd ref="324367408"/>
    <nd ref="333275543"/>
    <nd ref="8076951230"/>
    <nd ref="6904980826"/>
    <nd ref="333275544"/>
    <tag k="highway" v="unclassified"/>
    <tag k="maxspeed" v="30 mph"/>
    <tag k="name" v="Main Street"/>
  </way>
  <way id="390322929" version="2" timestamp="2025-04-22T10:27:06Z" changeset="165277633" uid="5229644" user="Nathan_A_RF">
    <nd ref="3934795020"/>
    <nd ref="2108927652"/>
    <nd ref="12775514847"/>
    <nd ref="324367024"/>
    <nd ref="324367027"/>
    <tag k="highway" v="residential"/>
    <tag k="maxspeed" v="60 mph"/>
    <tag k="maxspeed:type" v="GB:nsl_single"/>
    <tag k="name" v="Gravelly Lane"/>
  </way>
  <way id="390322931" version="2" timestamp="2025-04-22T12:54:56Z" changeset="165284583" uid="5229644" user="Nathan_A_RF">
    <nd ref="333275544"/>
    <nd ref="333275546"/>
    <nd ref="324358147"/>
    <tag k="highway" v="unclassified"/>
    <tag k="maxspeed" v="60 mph"/>
    <tag k="maxspeed:type" v="GB:nsl_single"/>
    <tag k="name" v="Main Street"/>
  </way>
  <way id="390322933" version="4" timestamp="2025-04-22T12:54:56Z" changeset="165284583" uid="5229644" user="Nathan_A_RF">
    <nd ref="324357942"/>
    <nd ref="480436249"/>
    <nd ref="324357943"/>
    <nd ref="658765366"/>
    <nd ref="658765367"/>
    <nd ref="324357945"/>
    <nd ref="658765370"/>
    <nd ref="324366936"/>
    <nd ref="324357946"/>
    <nd ref="658765079"/>
    <nd ref="658765082"/>
    <nd ref="658765084"/>
    <nd ref="658765085"/>
    <nd ref="324357947"/>
    <nd ref="658765090"/>
    <nd ref="658765093"/>
    <nd ref="8359961449"/>
    <nd ref="8359961453"/>
    <nd ref="324769459"/>
    <nd ref="658764118"/>
    <nd ref="324357948"/>
    <nd ref="485656581"/>
    <nd ref="9032986416"/>
    <nd ref="658764125"/>
    <nd ref="658763713"/>
    <nd ref="324769461"/>
    <nd ref="658763550"/>
    <nd ref="658763552"/>
    <nd ref="658763557"/>
    <nd ref="324357949"/>
    <nd ref="324357952"/>
    <tag k="highway" v="tertiary"/>
    <tag k="maxspeed" v="30 mph"/>
    <tag k="name" v="Main Street"/>
    <tag k="source" v="GPS"/>
    <tag k="source:name" v="NaPTAN"/>
  </way>
  <way id="390322936" version="2" timestamp="2025-04-22T10:27:06Z" changeset="165277633" uid="5229644" user="Nathan_A_RF">
    <nd ref="3934795021"/>
    <nd ref="324367400"/>
    <nd ref="3934795022"/>
    <nd ref="324367401"/>
    <nd ref="3934795023"/>
    <nd ref="3934795024"/>
    <nd ref="324367402"/>
    <tag k="highway" v="residential"/>
    <tag k="maxspeed" v="60 mph"/>
    <tag k="maxspeed:type" v="GB:nsl_single"/>
    <tag k="name" v="Clay Pit Lane"/>
    <tag k="source" v="gps"/>
  </way>
  <way id="390322938" version="3" timestamp="2025-04-22T10:27:06Z" changeset="165277633" uid="5229644" user="Nathan_A_RF">
    <nd ref="333272711"/>
    <nd ref="324367065"/>
    <nd ref="492830813"/>
    <nd ref="9020930346"/>
    <nd ref="9020930349"/>
    <nd ref="324366568"/>
    <nd ref="9020930369"/>
    <nd ref="9020930382"/>
    <nd ref="9020930388"/>
    <nd ref="9020930398"/>
    <nd ref="9020930412"/>
    <nd ref="485656769"/>
    <nd ref="9020931134"/>
    <nd ref="9020931140"/>
    <nd ref="324366570"/>
    <nd ref="9020931152"/>
    <nd ref="9020931154"/>
    <nd ref="3354856421"/>
    <nd ref="492838440"/>
    <nd ref="9020931162"/>
    <nd ref="9020931185"/>
    <nd ref="9020931189"/>
    <nd ref="9020931191"/>
    <nd ref="3354856422"/>
    <nd ref="9020931193"/>
    <nd ref="9020931195"/>
    <nd ref="9020931138"/>
    <nd ref="9020931198"/>
    <nd ref="3354856439"/>
    <nd ref="9020931201"/>
    <nd ref="9020931202"/>
    <nd ref="324357952"/>
    <tag k="highway" v="tertiary"/>
    <tag k="maxspeed" v="30 mph"/>
    <tag k="name" v="Station Road"/>
  </way>
  <way id="390332637" version="6" timestamp="2025-04-22T12:54:56Z" changeset="165284583" uid="5229644" user="Nathan_A_RF">
    <nd ref="3934891146"/>
    <nd ref="6867098022"/>
    <nd ref="3934891147"/>
    <nd ref="3934891149"/>
    <nd ref="324358238"/>
    <nd ref="3934891148"/>
    <nd ref="7174234658"/>
    <nd ref="485627977"/>
    <nd ref="7174234651"/>
    <nd ref="485627985"/>
    <nd ref="11400017751"/>
    <nd ref="485627988"/>
    <nd ref="324358239"/>
    <nd ref="485628883"/>
    <nd ref="485628893"/>
    <nd ref="485628898"/>
    <nd ref="7174234663"/>
    <nd ref="7174234664"/>
    <nd ref="324358240"/>
    <nd ref="485629383"/>
    <nd ref="7174234665"/>
    <nd ref="494252679"/>
    <nd ref="485629385"/>
    <nd ref="485629389"/>
    <nd ref="485629394"/>
    <nd ref="485629398"/>
    <nd ref="324358241"/>
    <nd ref="485629756"/>
    <nd ref="324358242"/>
    <nd ref="485629760"/>
    <nd ref="12775848563"/>
    <nd ref="12775848562"/>
    <nd ref="12775848561"/>
    <nd ref="12775848560"/>
    <nd ref="324358243"/>
    <tag k="highway" v="unclassified"/>
    <tag k="maxspeed" v="60 mph"/>
    <tag k="maxspeed:type" v="GB:nsl_single"/>
    <tag k="name" v="Gypsy Lane"/>
  </way>
  <way id="397560787" version="5" timestamp="2025-04-22T10:27:06Z" changeset="165277633" uid="5229644" user="Nathan_A_RF">
    <nd ref="4003484923"/>
    <nd ref="11906675585"/>
    <nd ref="11906675586"/>
    <nd ref="4003484967"/>
    <nd ref="333273187"/>
    <nd ref="11906675587"/>
    <nd ref="11906675588"/>
    <nd ref="4003484929"/>
    <nd ref="11903344222"/>
    <nd ref="4003484925"/>
    <nd ref="11903344221"/>
    <nd ref="333273188"/>
    <nd ref="11903344220"/>
    <nd ref="11903344223"/>
    <nd ref="11903344224"/>
    <nd ref="4003484991"/>
    <nd ref="473859120"/>
    <nd ref="11903344226"/>
    <nd ref="11903344225"/>
    <nd ref="11903344227"/>
    <nd ref="333273189"/>
    <nd ref="11903344228"/>
    <nd ref="4003484931"/>
    <nd ref="333273191"/>
    <nd ref="11903344229"/>
    <nd ref="11903344230"/>
    <nd ref="333273192"/>
    <nd ref="333273194"/>
    <tag k="highway" v="unclassified"/>
    <tag k="lit" v="no"/>
    <tag k="maxspeed" v="60 mph"/>
    <tag k="maxspeed:type" v="GB:nsl_single"/>
    <tag k="name" v="New Road"/>
    <tag k="sidewalk" v="no"/>
    <tag k="width" v="3"/>
  </way>
  <way id="397560797" version="5" timestamp="2025-04-22T10:27:06Z" changeset="165277633" uid="5229644" user="Nathan_A_RF">
    <nd ref="4003484980"/>
    <nd ref="4003484923"/>
    <tag k="bridge" v="yes"/>
    <tag k="highway" v="unclassified"/>
    <tag k="layer" v="1"/>
    <tag k="lit" v="no"/>
    <tag k="maxspeed" v="60 mph"/>
    <tag k="maxspeed:type" v="GB:nsl_single"/>
    <tag k="name" v="New Road"/>
    <tag k="sidewalk" v="no"/>
  </way>
  <way id="692943157" version="1" timestamp="2019-05-28T08:04:02Z" changeset="70686337" uid="9196095" user="mhdrahm">
    <nd ref="658763713"/>
    <nd ref="6505575848"/>
    <nd ref="6505575849"/>
    <nd ref="6505575850"/>
    <nd ref="6505575851"/>
    <nd ref="6505575852"/>
    <tag k="highway" v="residential"/>
  </way>
  <way id="693902172" version="1" timestamp="2019-06-01T11:19:41Z" changeset="70833171" uid="9259453" user="cvamsi">
    <nd ref="324367406"/>
    <nd ref="6514853355"/>
    <nd ref="6514853356"/>
    <nd ref="6514853357"/>
    <nd ref="6514853358"/>
    <nd ref="6514853359"/>
    <tag k="highway" v="residential"/>
  </way>
  <way id="884296903" version="2" timestamp="2022-06-09T14:04:11Z" changeset="122168297" uid="8775772" user="LakatosVL">
    <nd ref="324367533"/>
    <nd ref="8223870677"/>
    <nd ref="8223870676"/>
    <nd ref="8223870682"/>
    <nd ref="324367533"/>
    <tag k="amenity" v="place_of_worship"/>
    <tag k="building" v="church"/>
    <tag k="denomination" v="anglican"/>
    <tag k="name" v="St Denis"/>
    <tag k="religion" v="christian"/>
    <tag k="wikidata" v="Q15979337"/>
    <tag k="wikipedia" v="en:St Denis' Church, Morton"/>
  </way>
  <way id="930111123" version="3" timestamp="2025-04-22T12:54:56Z" changeset="165284583" uid="5229644" user="Nathan_A_RF">
    <nd ref="6313283806"/>
    <nd ref="6313283805"/>
    <nd ref="11905018728"/>
    <nd ref="11905018729"/>
    <nd ref="8624805428"/>
    <tag k="bicycle" v="designated"/>
    <tag k="designation" v="public_bridleway"/>
    <tag k="foot" v="designated"/>
    <tag k="highway" v="unclassified"/>
    <tag k="horse" v="designated"/>
    <tag k="maxspeed" v="60 mph"/>
    <tag k="maxspeed:type" v="GB:nsl_single"/>
    <tag k="name" v="Gorsy Lane"/>
    <tag k="prow_ref" v="181/6"/>
  </way>
  <way id="969934357" version="2" timestamp="2021-08-03T12:15:16Z" changeset="109092020" uid="115894" user="DaveF">
    <nd ref="8975758775"/>
    <nd ref="8975758776"/>
    <nd ref="8975758769"/>
    <nd ref="8975758777"/>
    <nd ref="8975758775"/>
    <tag k="building" v="public"/>
    <tag k="name" v="Arthur Radford Hall"/>
  </way>
  <way id="975669719" version="1" timestamp="2021-08-23T13:20:25Z" changeset="110117338" uid="13961750" user="UKMapping">
    <nd ref="9028812246"/>
    <nd ref="9028812247"/>
    <nd ref="9028812248"/>
    <nd ref="9028812249"/>
    <nd ref="9028812246"/>
    <tag k="building" v="yes"/>
    <tag k="disused" v="yes"/>
    <tag k="name" v="Fiskerton Signal Box"/>
  </way>

</osm>
